store_id,pref_id,shop_name,address,lat,lon
4412,1,札幌菊水元町店,北海道 札幌市白石区 菊水元町7条1丁目10－23,43.0733101932,141.409640106
4062,1,札幌川下店,北海道 札幌市白石区 川下5条4丁目1-20,43.0532893769,141.447044589
4273,1,新さっぽろサンピアザ店,北海道 札幌市厚別区 厚別中央2条5丁目7-2 新さっぽろアークシティ サンピアザSC,43.0375820547,141.47236182
1431,1,札幌北野店,北海道 札幌市清田区 北野6条5丁目6-36,43.0161753832,141.452317804
751,1,イオンモール札幌平岡店,北海道 札幌市清田区 平岡三条5丁目3-1 イオンモール札幌平岡,42.9967328465,141.458384862
793,1,札幌石山店,北海道 札幌市南区 石山2条9丁目7-50 アクロスプラザ札幌南,42.96109943,141.314933694
505,1,イオンモール札幌苗穂店,北海道 札幌市東区 東苗穂2条3丁目1-1 イオンモール札幌苗穂,43.0799921531,141.403735289
1886,1,シエスタハコダテ店,北海道 函館市 本町24-1 シエスタハコダテ,41.7896185092,140.75192745
1012,1,函館ベイサイド店,北海道 函館市 末広町24-6 函館西波止場,41.766592557,140.715439318
2046,1,函館蔦屋書店,北海道 函館市 石川町85-1,41.8309610303,140.735946596
4443,1,函館美原店,北海道 函館市 美原1-36-14,41.8165183675,140.749508079
1675,1,函館五稜郭駅前店,北海道 函館市 亀田本町46-1,41.8037455932,140.73510653
4295,1,室蘭店,北海道 室蘭市 中島本町1-3-1 モルエ中島,42.3541412956,141.012815067
4260,1,苫小牧末広店,北海道 苫小牧市 末広町3-8-14,42.6375800226,141.610081579
612,1,イオンモール苫小牧店,北海道 苫小牧市 柳町3-1-20 イオンモール苫小牧,42.6562927356,141.641448946
333,1,札幌グランドホテル店,北海道 札幌市中央区 北1条西4丁目 札幌グランドホテル 1F,43.0630144394,141.351145716
1780,1,大同生命札幌ビル ミレド地下1階店,北海道 札幌市中央区 北三条西3丁目1 大同生命札幌ビル地下1階,43.0646820457,141.35154144
1781,1,大同生命札幌ビル ミレド2階店,北海道 札幌市中央区 北三条西3丁目1 大同生命札幌ビル2階,43.0647214824,141.351337566
451,1,札幌ステラプレイス センター1階店,北海道 札幌市中央区 北5条西2丁目5 JRタワー「ステラプレイス」,43.0678630831,141.350900791
1166,1,札幌ステラプレイス イースト2階店,北海道 札幌市中央区 北5条西2丁目5,43.0681039179,141.352458428
1217,1,札幌紀伊國屋書店,北海道 札幌市中央区 北5条西5丁目7 sapporo55　紀伊國屋書店内2階,43.0672750476,141.3484438
4418,1,札幌アピア店,北海道 札幌市中央区 北5条西4丁目 アピア地下1階,43.0669292871,141.350496701
441,1,イオン札幌桑園店,北海道 札幌市中央区 北8条西14丁目28 イオン札幌桑園ショッピングセンター,43.0695656464,141.333139688
373,1,札幌南一条店,北海道 札幌市中央区 南1条西2丁目5 南一条Ｋビル 1F,43.0591565839,141.354881139
846,1,札幌パルコ店,北海道 札幌市中央区 南1条西3丁目3 札幌パルコ,43.0587327177,141.353583766
788,1,札幌医科大学附属病院店,北海道 札幌市中央区 南1条西16丁目 札幌医科大学附属病院,43.0551766358,141.333479489
855,1,北広島大曲店,北海道 北広島市 大曲幸町6-1 インターヴィレッジ大曲,42.9685246999,141.471273424
4027,1,はなふる恵庭店,北海道 恵庭市 南島松817-4 花の拠点はなふる,42.8968915833,141.585727495
1051,1,札幌美園店,北海道 札幌市豊平区 美園3条6丁目2-18,43.0406175021,141.389338298
1773,1,ブランチ札幌月寒店,北海道 札幌市豊平区 月寒東3条11丁目1-29 BRANCH札幌月寒,43.0289552288,141.410417362
1314,1,札幌西町店,北海道 札幌市西区 西町南4-1-20,43.0778845674,141.290506456
1126,1,イオンモール札幌発寒店,北海道 札幌市西区 発寒8条12丁目1-1 イオンモール札幌発寒,43.0957543752,141.277606705
914,1,札幌円山店,北海道 札幌市中央区 南1条西27丁目1-1 マルヤマクラス,43.0547364155,141.318169114
4279,1,ココノ ススキノ店,北海道 札幌市中央区 南４条西4-1-1 ココノ ススキノ 地下1階,43.05516309,141.353037865
1413,1,札幌旭ケ丘店,北海道 札幌市中央区 南8条西23丁目4-6,43.0469351419,141.324710041
1255,1,札幌宮ケ丘店,北海道 札幌市中央区 宮ケ丘1-1-1,43.0576318498,141.313058572
1251,1,札幌環状通東店,北海道 札幌市東区 本町2条1丁目5-1,43.0825284482,141.382091137
649,1,アリオ札幌店,北海道 札幌市東区 北７条東9丁目2-20 アリオ札幌,43.071534156,141.371188382
1015,1,新千歳空港店,北海道 千歳市 美々　 新千歳空港連絡施設 3F,42.7875821474,141.68019385
4202,1,千歳信濃店,北海道 千歳市 信濃3-17-11,42.8389191954,141.634722484
2113,1,江別 蔦屋書店,北海道 江別市 牧場町14-1,43.1150113405,141.539848206
1847,1,旭川大雪通店,北海道 旭川市 大雪通4-491-2,43.7775410814,142.385549408
1266,1,イオンモール旭川駅前店,北海道 旭川市 宮下通7-2-5,43.7643411797,142.358054522
554,1,イオンモール旭川西店,北海道 旭川市 緑町23丁目2161-3 イオンモール旭川西,43.7936938908,142.327244062
1387,1,旭川東光店,北海道 旭川市 東光13条6丁目2-6,43.7426715769,142.407126444
1782,1,旭川北彩都店,北海道 旭川市 宮前2条1丁目1-1,43.7611215812,142.361324954
741,1,旭川医科大学病院店,北海道 旭川市 緑が丘東2条1丁目1-1 旭川医科大学病院,43.7298656068,142.384492525
1281,1,帯広稲田店,北海道 帯広市 稲田町南8線西10-7,42.8914561948,143.199989793
1427,1,帯広白樺通り店,北海道 帯広市 西21条南3丁目1-6,42.9174199292,143.143398853
1549,1,釧路鶴見橋店,北海道 釧路市 昭和中央1-1-1,43.0161082842,144.369160288
1669,1,イオン釧路店,北海道 釧路郡 釧路町桂木1-1-7 イオン釧路店,43.0098118031,144.404838171
4083,1,北見KITFRONT店,北海道 北見市 柏陽町592-6 北見KITFRONT,43.8232983291,143.90761034
1845,1,北見三輪店,北海道 北見市 東三輪2-36-4,43.798322662,143.859605755
1254,2,青森中央店,青森県 青森市 荒川藤戸134-2,40.7972322159,140.739483902
1099,2,八戸田向店,青森県 八戸市 田向2-12-11,40.4940989439,141.510717699
1226,2,八戸城下店,青森県 八戸市 城下4-2-1,40.5209918109,141.489668764
2169,2,TSUTAYA BOOKSTORE 弘前ヒロロ店,青森県 弘前市 駅前町9-20 ヒロロ,40.5974365849,140.481786725
1520,2,弘前さくら野店,青森県 弘前市 高崎2-17-6 さくら野百貨店,40.6092708505,140.496307752
1302,2,弘前公園前店,青森県 弘前市 上白銀町1-1,40.6033872912,140.46324688
1004,2,青森ELM店,青森県 五所川原市 唐笠柳517-1 ELM,40.7982704651,140.454777776
1401,2,青森西バイパス店,青森県 青森市 三好2-2-36,40.8313654457,140.704029719
4395,2,青森 ＆LOVINA店,青森県 青森市 柳川1-1-5 ＆LOVINA1階,40.8285898906,140.734770349
1613,2,八戸根城店,青森県 八戸市 根城7-11-30,40.5029402637,141.465485215
1459,2,イオンモール下田店,青森県 上北郡 おいらせ町中野平40-1 イオンモール下田,40.6018285718,141.417565474
401,3,盛岡菜園店,岩手県 盛岡市 菜園1-11-11 ホテルロイヤル盛岡,39.7015931887,141.146865797
1351,3,盛岡フェザン店,岩手県 盛岡市 盛岡駅前通1-44 フェザン本館2FH,39.700756725,141.137462728
516,3,イオンモール盛岡店,岩手県 盛岡市 前潟4-7-1,39.7113202039,141.099163755
4358,3,盛岡津志田店,岩手県 盛岡市 津志田26-7-1,39.6710066294,141.156552512
1162,3,盛岡西バイパス店,岩手県 盛岡市 北飯岡4-12-20,39.6683287484,141.134240044
707,3,イオンモール盛岡南店,岩手県 盛岡市 本宮7-1-1 イオンモール盛岡南,39.6831004052,141.128715378
1452,3,一関店,岩手県 一関市 山目泥田55-1,38.9378395479,141.111936922
1579,3,奥州水沢店,岩手県 奥州市 水沢佐倉河羽黒田57-2,39.1462735609,141.154967917
1451,3,北上店,岩手県 北上市 北鬼柳18地割96-2,39.2937632188,141.100273724
174,4,エスパル仙台本館店,宮城県 仙台市青葉区 中央1-1-1 エスパル仙台本館,38.2591792275,140.881710348
245,4,仙台クリスロード店,宮城県 仙台市青葉区 中央2-5-3 第二やまふくビル,38.261620271,140.876885081
4059,4,仙台南町通り店,宮城県 仙台市青葉区 中央3-7-25 ダイワロイネットホテル仙台西口,38.2592413985,140.879154446
215,4,ホテルグランテラス 仙台国分町店,宮城県 仙台市青葉区 国分町2-2-2 ホテルグランテラス仙台国分町　1F,38.2624145019,140.869518989
374,4,仙台アエル店,宮城県 仙台市青葉区 中央1-3-1 仙台ＡＥＲ,38.2625924684,140.881412438
4468,4,仙台パルコ店,宮城県 仙台市青葉区 中央1-2-3 仙台パルコ4階,38.2620614155,140.881498566
1356,4,エスパル仙台東館店,宮城県 仙台市青葉区 中央1-1-1 エスパル仙台東館 4階,38.259469221,140.883109663
1820,4,利府街道店,宮城県 宮城郡 利府町中央3-20-4,38.3273491459,140.976420177
1896,4,イオンモール新利府南館1階店,宮城県 宮城郡 利府町新中道3-1-1 イオンモール新利府南館,38.3239658352,140.972899514
1897,4,イオンモール新利府南館2階店,宮城県 宮城郡 利府町新中道3-1-1 イオンモール新利府南館,38.3238241771,140.97252344
1550,4,仙台台原店,宮城県 仙台市青葉区 台原1-8-7,38.2833109325,140.872646378
4110,4,名取増田店,宮城県 名取市 増田北谷235-1,38.1732802368,140.890570512
1678,4,イオンモール名取2階店,宮城県 名取市 杜せきのした5-3-1 イオンモール名取2階,38.164624879,140.896601798
4478,4,イオンモール名取1階店,宮城県 名取市 杜せきのした5-3-1 イオンモール名取1階,38.1636794211,140.896401025
1205,4,仙台市名坂店,宮城県 仙台市泉区 高玉町3-10,38.3181756283,140.893795794
391,4,泉中央セルバ店,宮城県 仙台市泉区 泉中央1-4-1 泉中央セルバ,38.3235248552,140.882287337
1873,4,仙台泉パークタウン桂店,宮城県 仙台市泉区 桂1-1-1 仙台泉パークタウン桂ガーデンプラザ,38.3326763451,140.86459644
871,4,仙台泉パークタウン タピオ店,宮城県 仙台市泉区 寺岡6-5-1 泉パークタウン タピオ,38.3429105743,140.835431447
490,4,イオンモール富谷店,宮城県 富谷市 大清水1-33-1 イオンモール富谷,38.3645270094,140.875024941
444,4,ザ・モール仙台長町 Ｐａｒｔ２店,宮城県 仙台市太白区 長町7-20-3 ザ・モール仙台長町 Part2,38.2261207404,140.877206411
1557,4,ザ・モール仙台長町本館店,宮城県 仙台市太白区 長町7-20-3 ザ・モール仙台長町本館3階,38.2251883288,140.87656123
1122,4,仙台大野田店,宮城県 仙台市太白区 大野田4-2-1,38.2139317642,140.877085315
2031,4,TSUTAYA 東仙台店,宮城県 仙台市宮城野区 東仙台4-14-1 TSUTAYA ヤマト屋書店 東仙台店,38.2762636978,140.908290965
328,4,仙台駅東口店,宮城県 仙台市宮城野区 榴岡1-2-10 エンドウビル 1F,38.2595064861,140.885795549
1757,4,仙台六丁の目店,宮城県 仙台市若林区 六丁の目中町1-70,38.2511407719,140.936804754
2093,4,TSUTAYA 仙台荒井店,宮城県 仙台市若林区 なないろの里3-3-28 クロスモール仙台荒井,38.2382300908,140.930069796
2066,4,蔦屋書店 多賀城市立図書館店,宮城県 多賀城市 中央2-4-3,38.2919581539,141.005066094
1140,4,イオンモール石巻店,宮城県 石巻市 茜平4-104 イオンモール石巻,38.4477957509,141.265161762
1697,4,石巻バイパス店,宮城県 石巻市 新橋10-30,38.4398750502,141.287865797
4402,4,仙台南吉成店,宮城県 仙台市青葉区 南吉成3-16-5,38.2884244565,140.81946056
1522,4,古川店,宮城県 大崎市 古川旭2-3-15,38.56606826,140.972147595
1466,5,秋田駅店,秋田県 秋田市 中通7-1-2,39.7166740771,140.129179343
1236,5,秋田東通店,秋田県 秋田市 東通4-5-20,39.7128955598,140.143214463
1516,5,秋田保戸野学園通り店,秋田県 秋田市 保戸野鉄砲町14-18,39.7248009085,140.108859823
627,5,イオンモール秋田店,秋田県 秋田市 御所野地蔵田1-1-1,39.6636089132,140.160615287
486,5,秋田アルス店,秋田県 秋田市 中通7-2-1 秋田ステーションビル アルス,39.7176292443,140.128693228
912,5,秋田大学医学部附属病院店,秋田県 秋田市 広面蓮沼44-2 秋田大学医学部附属病院,39.7300902167,140.149349272
1723,5,横手店,秋田県 横手市 条里1-6-21,39.3096725761,140.556593977
876,5,イオンモール大曲店,秋田県 大仙市 和合坪立177 イオンモール大曲,39.4375508929,140.511769866
4198,5,イオンタウン能代店,秋田県 能代市 鰄渕古屋布1-2 イオンタウン能代,40.1886749433,140.079337859
1005,6,山形エスパル店,山形県 山形市 香澄町1-1-1 エスパル山形,38.2487095644,140.327997093
1006,6,山形馬見ヶ崎店,山形県 山形市 馬見ヶ崎2-7-28,38.2814230685,140.331362529
1077,6,山形県立中央病院店,山形県 山形市 青柳1800 山形県立中央病院,38.299998004,140.345992126
1352,6,山形白山店,山形県 山形市 白山3-9-24,38.2255010796,140.320335187
1505,6,米沢春日店,山形県 米沢市 春日2-13-27,37.9232355122,140.106722679
4168,6,天童鎌田店,山形県 天童市 鎌田2-5-24,38.3558913681,140.387864964
1201,6,イオンモール天童店,山形県 天童市 芳賀タウン北4-1-1 イオンモール天童,38.3424554211,140.362696839
1573,6,鶴岡店,山形県 鶴岡市 上畑町3-30,38.7362434345,139.8296277
1252,6,酒田みずほ店,山形県 酒田市 みずほ1-20-6,38.9033589731,139.850116358
1646,7,福島矢野目店,福島県 福島市 南矢野目谷地70-5,37.7886190096,140.452692367
771,7,福島県立医科大学附属病院店,福島県 福島市 光が丘1 福島県立医科大学附属病院,37.6899865509,140.471290642
1041,7,福島エスパル店,福島県 福島市 栄町1-1 エスパル福島,37.7538648045,140.460313335
2291,7,TSUTAYA BOOKSTORE 福島南店,福島県 福島市 黒岩浜井場24-1,37.727622766,140.469166586
4024,7,福島八木田店,福島県 福島市 八木田並柳117-1,37.7473294144,140.445669852
4203,7,フレスポ須賀川店,福島県 須賀川市 森宿北向85-2-1 フレスポ須賀川グリーンモール,37.3101953279,140.365625517
1084,7,郡山安積店,福島県 郡山市 安積町荒井南千保8-2,37.3695824043,140.37106983
1296,7,郡山コスモス通り店,福島県 郡山市 堤2-41,37.397554878,140.3341155
236,7,郡山モルティ店,福島県 郡山市 駅前2-11-1 ビッグアイ モルティ 2F,37.3995261618,140.387879278
1055,7,郡山駅店,福島県 郡山市 燧田195 エキナカ,37.3979288453,140.388606791
4054,7,郡山並木店,福島県 郡山市 並木1-12-17,37.4101376272,140.361826508
4240,7,TSUTAYA BOOKSTORE AIZU店,福島県 会津若松市 門田町黒岩大坪21,37.4767521806,139.933130988
4042,7,カインズ会津若松店,福島県 会津若松市 神指町南四合幕内南632-1,37.4862475237,139.899596669
1559,7,いわき平堂ノ前店,福島県 いわき市 平堂ノ前18,37.0531594015,140.885502788
1320,7,いわき鹿島街道店,福島県 いわき市 常磐上矢田町戸石9-1,37.016342808,140.902783326
4197,7,いわき小名浜店,福島県 いわき市 小名浜岡小名高田9-1 リンクスクエア小名浜,36.958442633,140.903979504
1580,7,イオンモールいわき小名浜店,福島県 いわき市 小名浜辰巳町79 イオンモールいわき小名浜,36.9466019489,140.903624523
854,8,土浦店,茨城県 土浦市 真鍋新町19-17,36.0911882443,140.208350265
927,8,イオンモール土浦店,茨城県 土浦市 上高津367 イオンモール土浦,36.0803069811,140.180720283
947,8,ひたち野うしく店,茨城県 牛久市 ひたち野東2-7-1 アクロスプラザひたち野うしく,36.0078452637,140.163471997
2206,8,TSUTAYA BOOKSTORE 常総インターチェンジ店,茨城県 常総市 むすびまち3 TSUTAYA BOOKSTORE 常総インターチェンジ,36.0818620166,139.985536699
1137,8,龍ケ崎店,茨城県 龍ケ崎市 中根台4-1-13,35.9314058614,140.17489179
270,8,アトレ取手店,茨城県 取手市 中央町2-5 アトレ取手 3F,35.8966479056,140.063178224
1857,8,イオンタウン守谷店,茨城県 守谷市 百合ヶ丘3-249-1 イオンタウン守谷,35.9448776027,139.991311416
1165,8,守谷サービスエリア（上り線）店,茨城県 守谷市 大柏166,35.9395544703,139.970216191
1307,8,守谷サービスエリア(下り線)店,茨城県 守谷市 野木崎97-3 Pasar守谷(下り線),35.9397924479,139.967210874
481,8,西友楽市守谷店,茨城県 守谷市 けやき台4-1-5 西友楽市 守谷,35.9350309784,139.997052226
879,8,イオンモール下妻店,茨城県 下妻市 堀篭972-1 イオンモール下妻,36.1896016793,139.989862768
602,8,トナリエキュート　つくば店,茨城県 つくば市 吾妻1-6-1 トナリエキュート 2F,36.0823980487,140.111518712
894,8,つくば駅店,茨城県 つくば市 吾妻2-128,36.0827119008,140.111336768
659,8,つくば店,茨城県 つくば市 稲荷前12-2,36.0483150538,140.128921614
1134,8,イオンモールつくば店,茨城県 つくば市 稲岡66-1,36.0347260171,140.132662762
870,8,イーアスつくば店,茨城県 つくば市 研究学園5-19 イーアスつくば,36.0867012786,140.084239946
1627,8,つくば学園の森店,茨城県 つくば市 研究学園3-23-1,36.0889325384,140.074611476
847,8,つくば研究学園店,茨城県 つくば市 学園南3-20-6,36.0725433648,140.08517552
1555,8,筑波大学附属病院店,茨城県 つくば市 天久保2-1-18 筑波大学付属病院 桐の葉モール,36.0923259777,140.101456035
831,8,筑波大学中央図書館店,茨城県 つくば市 天王台1-1-1 筑波大学中央図書館,36.1091047367,140.101349993
4401,8,カインズ古河店,茨城県 古河市 西牛谷中明1524,36.1984814624,139.729665079
1578,8,道の駅グランテラス筑西店,茨城県 筑西市 川澄1850 グランテラス筑西,36.3236249036,139.993265758
1030,8,友部サービスエリア（上り線）店,茨城県 笠間市 長兎路梶山久保1059-6 友部サービスエリア（上り線）,36.3101904904,140.342164901
1031,8,友部サービスエリア（下り線）店,茨城県 笠間市 長兎路梶山久保1051-3 友部サービスエリア（下り線）,36.3093277716,140.340257322
1227,8,水戸エクセル店,茨城県 水戸市 宮町1-1-1 エクセル,36.3711543523,140.475390474
1331,8,水戸エクセル5階店,茨城県 水戸市 宮町1-1-1 水戸エクセル5階,36.371134921,140.476023756
1196,8,水戸駅南中央通り店,茨城県 水戸市 元吉田町303-1,36.3560939908,140.473787967
818,8,水戸　県庁前店,茨城県 水戸市 笠原町978-40,36.3387559974,140.450694573
4347,8,水戸50号店,茨城県 水戸市 見川町2135－2,36.3571484932,140.419952112
1103,8,水戸赤塚店,茨城県 水戸市 姫子2-751-16,36.3786784962,140.42474239
4166,8,ニューポートひたちなか店,茨城県 ひたちなか市 新光町34-1,36.4065303339,140.589184673
722,8,ひたちなか店,茨城県 ひたちなか市 馬渡砂久保542-3,36.4013896391,140.581534156
4167,8,ひたちなか6号店,茨城県 ひたちなか市 市毛941－4,36.3992430023,140.506487987
1395,8,ひたちなか西光地店,茨城県 ひたちなか市 西光地2-17-2,36.4169001637,140.531617587
1495,8,鹿島店,茨城県 鹿嶋市 鉢形980,35.9577648396,140.643561654
4157,8,神栖神之池緑地店,茨城県 神栖市 奥野谷4463-1 神之池緑地,35.8865182332,140.671913136
1264,8,神栖店,茨城県 神栖市 平泉281-22,35.9159239242,140.637097729
4079,8,石岡店,茨城県 石岡市 石岡2925-1,36.1926072245,140.293919322
1161,8,常陸多賀店,茨城県 日立市 桜川町1-2-15,36.5572768482,140.628903877
1621,8,日立シーマークスクエア店,茨城県 日立市 東滑川町5-1-6 シーマークスクエア,36.6191660746,140.677339227
2055,8,日立総合病院店,茨城県 日立市 城南町2-1-1,36.5898575344,140.645053813
643,8,イオンモール水戸内原店,茨城県 水戸市 内原2-1,36.3745336299,140.359309126
4376,9,宇都宮八幡台店,栃木県 宇都宮市 八幡台2-16,36.5750433668,139.886375836
773,9,宇都宮上戸祭店,栃木県 宇都宮市 上戸祭町欠ノ上366-7,36.5877991309,139.865100905
4371,9,宇都宮鹿沼インター通り店,栃木県 宇都宮市 鶴田町1311-1,36.5498321634,139.853933025
1468,9,宇都宮鶴田店,栃木県 宇都宮市 鶴田2-12-12,36.5625786026,139.855353709
510,9,ＦＫＤ宇都宮インターパーク店,栃木県 宇都宮市 インターパーク6-1-1 FKDショッピングモール宇都宮インターパーク,36.4910254778,139.906217224
1159,9,宇都宮インターパークステージ店,栃木県 宇都宮市 インターパーク4-2-3 インターパークステージ,36.4938274502,139.909071858
4215,9,宇都宮西川田店,栃木県 宇都宮市 西川田本町3-4-3,36.5150860023,139.845037863
4149,9,カインズ壬生店,栃木県 下都賀郡 壬生町安塚3376-21,36.4622309995,139.839276609
688,9,獨協医科大学病院店,栃木県 下都賀郡 壬生町北小林880,36.4723099537,139.825221479
1174,9,宇都宮城東店,栃木県 宇都宮市 城東2-24-11,36.549583638,139.905026848
217,9,宇都宮福田屋店,栃木県 宇都宮市 今泉町237 福田屋ショッピングプラザ宇都宮店,36.5735670995,139.900199478
522,9,宇都宮パセオ店,栃木県 宇都宮市 川向町1-23 パセオ　1F,36.5607378823,139.898259675
1434,9,済生会宇都宮病院店,栃木県 宇都宮市 竹林町911-1 恩賜財団　済生会宇都宮病院,36.5791256237,139.897453895
1278,9,宇都宮ゆいの杜店,栃木県 宇都宮市 ゆいの杜4-12-17,36.5680512366,139.991948502
1435,9,真岡店,栃木県 真岡市 下高間木1-14-4,36.4325853517,139.986420198
574,9,宇都宮イトーヨーカドー店,栃木県 宇都宮市 陽東6-2-1 イトーヨーカドー宇都宮店,36.5551537244,139.928178558
1334,9,鹿沼店,栃木県 鹿沼市 西茂呂3-12-3,36.5508799741,139.766817989
755,9,おやまゆうえんハーヴェストウォーク店,栃木県 小山市 喜沢1475 おやまゆうえんハーヴェストウォーク,36.3351857106,139.808105881
4271,9,小山宮本店,栃木県 小山市 宮本町2-8-21,36.3111370202,139.799429931
1053,9,ヴァル小山店,栃木県 小山市 城山町3-3-22 VAL小山,36.3136010457,139.806438402
4480,9,小山雨ケ谷店,栃木県 小山市 雨ケ谷463-2,36.2833349625,139.813538651
992,9,小山店,栃木県 小山市 東城南1-27-１,36.2969467487,139.808313458
1746,9,大田原美原店,栃木県 大田原市 美原2-3232-7,36.8670172211,140.002500526
4422,9,アシコタウンあしかが店,栃木県 足利市 大月町3-2,36.3357106858,139.475948165
1856,9,足利福居町店,栃木県 足利市 福居町254-6,36.311270005,139.446336194
2111,9,TSUTAYA 佐野店,栃木県 佐野市 田島町51,36.299738891,139.566390088
4196,9,佐野サービスエリア（下り線）店,栃木県 佐野市 黒袴町東山1021 佐野サービスエリア（下り線）,36.3164613534,139.618928843
491,9,イオンモール佐野新都市店,栃木県 佐野市 高萩町1324-1 イオンモール佐野新都市,36.2990338311,139.606352912
458,9,佐野プレミアム・アウトレット店,栃木県 佐野市 越名町2058番地 佐野プレミアム・アウトレット370区,36.2925556083,139.604816672
661,9,佐野プレミアム・アウトレット プレイグラウンド店,栃木県 佐野市 越名町2058 佐野プレミアム・アウトレット7020区,36.2942840437,139.605343493
1482,9,栃木倭町店,栃木県 栃木市 倭町7-1 TS-TOWN Tochigi,36.3784228333,139.733216221
4294,9,栃木箱森店,栃木県 栃木市 箱森町38-5,36.3922834188,139.724387982
1689,9,道の駅しもつけ店,栃木県 下野市 薬師寺3720-1 道の駅しもつけ,36.3961160652,139.883457651
874,9,自治医科大学附属病院店,栃木県 下野市 薬師寺3311-1 自治医科大学附属病院,36.3984559569,139.859780898
1462,9,西那須野店,栃木県 那須塩原市 五軒町5-19,36.8922857687,139.978668841
1732,9,那須ガーデンアウトレット店,栃木県 那須塩原市 塩野崎184-7 那須ガーデンアウトレット,36.9666971747,139.990028916
833,10,高崎貝沢店,群馬県 高崎市 貝沢町1327-3,36.3391635935,139.027448309
1850,10,高崎大八木店,群馬県 高崎市 大八木町2113-3,36.3600064636,139.00133674
231,10,高崎駅ビル モントレー店,群馬県 高崎市 八島町222 高崎駅ビル モントレー 2F,36.3228811735,139.0118348
1020,10,イーサイト高崎店,群馬県 高崎市 八島町222 E site 高崎,36.3219540797,139.013509703
1532,10,高崎オーパ店,群馬県 高崎市 八島町46-1 高崎OPA,36.3230344834,139.011435103
1240,10,高崎上中居店,群馬県 高崎市 上中居町1746,36.3215791962,139.033785259
1634,10,富岡店,群馬県 富岡市 富岡1894-7,36.2631303399,138.900383473
710,10,イオンモール高崎 1階店,群馬県 高崎市 棟高町1400,36.3903599891,139.007376507
1864,10,イオンモール高崎 2階店,群馬県 高崎市 棟高町1400 イオンモール高崎,36.3917376191,139.007351723
603,10,カインズホーム前橋吉岡店,群馬県 北群馬郡 吉岡町大久保821 カインズスーパーセンター前橋吉岡店,36.4200701952,139.026169967
1787,10,敷島公園店,群馬県 前橋市 敷島町77,36.4092018219,139.052746871
749,10,けやきウォーク前橋店,群馬県 前橋市 文京町2-1-1 けやきウォーク前橋,36.3790460476,139.078205312
4307,10,前橋六供町店,群馬県 前橋市 六供町2-41-12,36.3697038831,139.07200959
1493,10,前橋元総社店,群馬県 前橋市 元総社町2-3-10,36.3930671909,139.03868406
4147,10,伊勢崎今泉店,群馬県 伊勢崎市 今泉町2-338-2,36.3114688998,139.193447464
1228,10,ベイシア西部モール店,群馬県 伊勢崎市 宮子町3430-6,36.3311306451,139.159319116
4117,10,カインズ伊勢崎店,群馬県 伊勢崎市 宮子町3161-1,36.3337548341,139.160764986
529,10,イオンモール太田店,群馬県 太田市 石原町81,36.2944490622,139.400677149
4341,10,イオンモール太田 WESTMALL店,群馬県 太田市 石原町81 イオンモール太田 WESTMALL1階,36.2937921586,139.398991486
4006,10,太田小舞木店,群馬県 太田市 小舞木町328-1,36.2848459273,139.38503889
1438,10,太田西矢島店,群馬県 太田市 西矢島町718-1,36.2760231192,139.376982465
1625,10,館林朝日町店,群馬県 館林市 朝日町12-36,36.2519879985,139.540949399
884,10,横川サービスエリア(上り線)店,群馬県 安中市 松井田町横川917 上信越自動車道　横川サービスエリア（上り線）内,36.3419360581,138.740245644
1034,10,パワーモール前橋みなみ店,群馬県 前橋市 新堀町938 パワーモール前橋みなみ,36.3293767071,139.098061506
908,10,スマーク伊勢崎 1階 はるなプラザ店,群馬県 伊勢崎市 西小保方町368 スマーク伊勢崎 1F,36.3392657757,139.232519329
4134,10,スマーク伊勢崎 2階 あかぎプラザ店,群馬県 伊勢崎市 西小保方町368 スマーク伊勢崎 2F,36.3386169651,139.233022928
4420,10,桐生市場店,群馬県 みどり市 笠懸町阿左美2761-1,36.3933520191,139.300940045
1616,11,浦和パルコ店,埼玉県 さいたま市浦和区 東高砂町11-1 浦和パルコ　1階,35.858224401,139.6590605
1882,11,浦和西口店,埼玉県 さいたま市浦和区 高砂2-5-1 KOMON,35.8575507724,139.653932623
2071,11,浦和 蔦屋書店,埼玉県 さいたま市浦和区 高砂1-16-12 アトレ浦和,35.8594250703,139.657023669
1411,11,さいたま新都心店,埼玉県 さいたま市中央区 新都心10 けやきひろば(013区画）,35.8936231866,139.631372558
1270,11,さいたま新都心 コクーンシティ コクーン2店,埼玉県 さいたま市大宮区 吉敷町4-263-1 コクーンシティ,35.8962804644,139.634919919
1898,11,さいたま新都心 コクーンシティ コクーン1店,埼玉県 さいたま市大宮区 吉敷町4-267-2 コクーンシティ,35.8942137385,139.634775026
261,11,ルミネ大宮 LUMINE2店,埼玉県 さいたま市大宮区 錦町630 ルミネ大宮 LUMINE2 3F,35.9062558835,139.624583651
1589,11,ルミネ大宮 LUMINE1店,埼玉県 さいたま市大宮区 錦町630 ルミネ大宮 LUMINE1 B1F,35.9072613323,139.624625268
2212,11,エキュート大宮ノース店,埼玉県 さいたま市大宮区 錦町630 エキュート大宮ノース,35.9066416555,139.62343484
402,11,大宮西口店,埼玉県 さいたま市大宮区 桜木町1-1-12 NYビル,35.9055920115,139.621486717
1104,11,大宮マルイ店,埼玉県 さいたま市大宮区 桜木町2-3 大宮マルイ,35.9066530211,139.622168556
4124,11,さいたま土呂店,埼玉県 さいたま市北区 土呂町2-45-15,35.9304765286,139.634901123
557,11,大宮宮原ステラタウン店,埼玉県 さいたま市北区 宮原町1-854-1 ステラタウン,35.9331779398,139.620915772
872,11,ララガーデン川口店,埼玉県 川口市 宮町18-9 ララガーデン川口,35.8058326419,139.698711286
1490,11,アリオ川口店,埼玉県 川口市 並木元町1-79 アリオ川口1F,35.8069222429,139.71434577
4012,11,イオンモール川口店,埼玉県 川口市 安行領根岸3180 イオンモール川口,35.8378349464,139.724459618
164,11,イオンモール川口前川店,埼玉県 川口市 前川1-1-11,35.8325121472,139.706539963
1360,11,ビーンズ戸田公園店,埼玉県 戸田市 本町4-15-1 ビーンズ戸田公園,35.8077395846,139.678484544
581,11,イオンモール北戸田店,埼玉県 戸田市 美女木東1-3-1 イオンモール北戸田,35.8262754987,139.653485211
251,11,武蔵浦和ＢＥＡＮＳ店,埼玉県 さいたま市南区 別所7-12-1 武蔵浦和ビーンズ 1F,35.8457146937,139.646925694
821,11,浦和別所店,埼玉県 さいたま市南区 別所3-2-2,35.854997876,139.647415782
668,11,イオンモール浦和美園店,埼玉県 さいたま市緑区 美園5-50-1 イオンモール浦和美園,35.8919231579,139.730638837
2106,11,TSUTAYA ハレノテラス東大宮店,埼玉県 さいたま市見沼区 島町393,35.945711573,139.6512199
1398,11,さいたま大和田店,埼玉県 さいたま市見沼区 大和田町1-1931,35.9236981762,139.655912468
588,11,イオンモール与野店,埼玉県 さいたま市中央区 本町西5-2-9 イオンモール与野,35.8910723389,139.614930152
1575,11,さいたま南与野店,埼玉県 さいたま市中央区 鈴谷5-3-18,35.8705072969,139.629717926
1615,11,ららぽーと新三郷店,埼玉県 三郷市 新三郷ららシティ3-1-1 ららぽーと新三郷 2階,35.8588057355,139.866244655
1868,11,三郷中央店,埼玉県 三郷市 中央4-11-3,35.832255189,139.879109532
617,11,三郷イトーヨーカドー店,埼玉県 三郷市 ピアラシティ1-1-1 イトーヨーカドー三郷店,35.8433052362,139.854061936
864,11,越谷イオンレイクタウン mori 1階店,埼玉県 越谷市 レイクタウン3-1-1 イオンレイクタウン mori,35.8820453711,139.828663373
865,11,越谷イオンレイクタウン mori ガーデンウォーク店,埼玉県 越谷市 レイクタウン3-1-1 イオンレイクタウン mori,35.8810740716,139.827831542
866,11,越谷イオンレイクタウン mori 3階店,埼玉県 越谷市 レイクタウン3-1-1 イオンレイクタウン mori,35.8802241657,139.828014622
867,11,越谷イオンレイクタウン kaze 1階店,埼玉県 越谷市 レイクタウン4-2-2 イオンレイクタウン kaze 1F,35.8770147241,139.824427012
1026,11,越谷レイクタウン アウトレット店,埼玉県 越谷市 レイクタウン4-1-1 レイクタウンアウトレット,35.8801985634,139.825181247
4115,11,越谷イオンレイクタウン kaze 2階レイクタウンゲート店,埼玉県 越谷市 レイクタウン4-2-2 イオンレイクタウン kaze　2F,35.8765422474,139.822867441
4329,11,越谷イオンレイクタウン kaze 2階カフェプラザ店,埼玉県 越谷市 レイクタウン4-2-2 イオンレイクタウン kaze 2F,35.8779754615,139.824814991
4391,11,新越谷ヴァリエ店,埼玉県 越谷市 南越谷1-11-4 新越谷ヴァリエ2階,35.8757189819,139.789901883
823,11,獨協医科大学埼玉医療センター店,埼玉県 越谷市 南越谷2-1-50 獨協医科大学埼玉医療センター,35.8777432111,139.789977617
768,11,ララガーデン春日部店,埼玉県 春日部市 南1-1-1(店舗番号1230) ララガーデン春日部,35.9775752575,139.755122304
1128,11,イオンモール春日部店,埼玉県 春日部市 下柳420-1,35.9878194549,139.787803562
682,11,東武久喜駅店,埼玉県 久喜市 中央2-1-1 東武久喜駅,36.0655164435,139.677708295
1036,11,モラージュ菖蒲1階店,埼玉県 久喜市 菖蒲町菖蒲6005-1 モラージュ菖蒲1階,36.0751792561,139.611649447
4160,11,モラージュ菖蒲122号バイパス店,埼玉県 久喜市 菖蒲町菖蒲6005-1 モラージュ菖蒲,36.0757119537,139.610318422
951,11,羽生パーキングエリア（下り線）店,埼玉県 羽生市 弥勒三新田824 Pasar羽生,36.1805055944,139.585804243
1883,11,カインズ羽生店,埼玉県 羽生市 小松514-1,36.1561209009,139.533543318
790,11,イオンモール羽生1階店,埼玉県 羽生市 川崎2-281-3 イオンモール羽生1階,36.1433846146,139.540937457
4364,11,イオンモール羽生3階店,埼玉県 羽生市 川崎2-281-3 イオンモール羽生3階,36.1428630191,139.541822407
1648,11,蓮田サービスエリア（上り線）店,埼玉県 蓮田市 川島370 Pasar蓮田（上り線）,35.9778450813,139.667172095
2142,11,TSUTAYA 南古谷店,埼玉県 川越市 泉町3-1 ウニクス南古谷,35.9059845071,139.512317154
281,11,西武本川越駅店,埼玉県 川越市 新富町1-22 本川越駅構内,35.9145813855,139.481664304
1554,11,川越鐘つき通り店,埼玉県 川越市 幸町15-18,35.9236701737,139.483844815
720,11,カインズスーパーモールかわじま店,埼玉県 比企郡 川島町上伊草210 カインズスーパーモールかわじま,35.975967903,139.467357387
2074,11,TSUTAYA 坂戸八幡店,埼玉県 坂戸市 八幡1-3-21,35.9582942262,139.403080484
1635,11,川越伊勢原店,埼玉県 川越市 伊勢原町3-2-3,35.9217349578,139.427834
4210,11,エキア川越店,埼玉県 川越市 脇田町24-9 EQUiA川越,35.9072519189,139.483223956
537,11,ルミネ川越店,埼玉県 川越市 脇田本町39-19 ルミネ川越,35.9070136045,139.482848165
752,11,埼玉医科大学国際医療センター店,埼玉県 日高市 山根稲荷山1397-1 埼玉医科大学国際医療センター,35.921249001,139.322371948
1869,11,狭山市入間川にこにこテラス店,埼玉県 狭山市 柏原2910-1,35.8646575973,139.404358578
1710,11,鶴ヶ島若葉店,埼玉県 鶴ヶ島市 富士見2-2-8,35.9515278903,139.412392522
667,11,カインズホーム鶴ヶ島店,埼玉県 鶴ヶ島市 三ツ木奥仲580-1,35.9271262563,139.392061168
471,11,朝霞駅前店,埼玉県 朝霞市 本町2-4-18 バモスビル,35.7966330043,139.599516058
1794,11,エキア プレミエ 和光店,埼玉県 和光市 本町4-6,35.7882880239,139.613147811
162,11,志木駅前店,埼玉県 新座市 東北2-39-1 井下田第２ビル 1F,35.8227950522,139.574808572
1587,11,エキア志木店,埼玉県 新座市 東北2-38-1 EQUiA志木,35.8223987118,139.575156617
1598,11,くみまちMALL新座店,埼玉県 新座市 大和田2-6-28 くみまちMALL新座,35.8053658714,139.546783369
4374,11,新座野火止店,埼玉県 新座市 野火止7-11-42,35.8048396539,139.569278747
1246,11,ららぽーと富士見2階店,埼玉県 富士見市 山室1-1313 ららぽーと富士見2階,35.8585882656,139.548581602
799,11,三芳パーキングエリア(下り線)店,埼玉県 入間郡 三芳町上富2218-1 三芳パーキングエリア(下り線),35.8416556577,139.502325946
4366,11,ららぽーと富士見3階店,埼玉県 富士見市 山室1-1313 ららぽーと富士見3階,35.8598864477,139.547873546
953,11,ピオニウォーク東松山店,埼玉県 東松山市 あずま町4-3,36.0050823962,139.409893319
687,11,なめがわ森林モール店,埼玉県 比企郡 滑川町羽尾2806－1,36.0584573817,139.370139441
4096,11,ふじみ野清見店,埼玉県 ふじみ野市 清見2-1-7,35.8818166813,139.520606467
971,11,ふじみ野店,埼玉県 ふじみ野市 ふじみ野4-9-1,35.8577252963,139.51642959
4243,11,ふじみ野亀久保店,埼玉県 ふじみ野市 亀久保4-9-27,35.8573775077,139.513676779
1673,11,飯能メッツァビレッジ店,埼玉県 飯能市 宮沢327-6 メッツァ,35.8722777055,139.329993292
240,11,飯能ＰｅＰｅ店,埼玉県 飯能市 仲町11-21 飯能ＰｅＰｅ 2F,35.8509325863,139.319685131
4367,11,入間下藤沢店,埼玉県 入間市 下藤沢2-34-3,35.8190489202,139.407546247
501,11,イオン入間店,埼玉県 入間市 上藤沢下原462 イオン入間ショッピングセンター,35.8213912432,139.395854055
4409,11,三井アウトレットパーク入間店,埼玉県 入間市 宮寺3169-1 三井アウトレットパーク入間,35.8102469095,139.38166158
1531,11,グランエミオ所沢東口2階店,埼玉県 所沢市 くすのき台1-14-5 グランエミオ所沢,35.7870315638,139.474153856
1585,11,グランエミオ所沢西口1階店,埼玉県 所沢市 くすのき台1-14-5 グランエミオ所沢,35.7868371203,139.473016737
1152,11,所沢けやき台店,埼玉県 所沢市 けやき台2-17-10,35.796379685,139.455639963
1437,11,所沢小手指バイパス店,埼玉県 所沢市 北野1-2-67,35.7966875103,139.428444152
298,11,アズ熊谷店,埼玉県 熊谷市 筑波2-115 熊谷駅ビルＡＺ２,36.1399212422,139.390272906
1597,11,カインズ熊谷籠原店,埼玉県 熊谷市 新堀952-11 カインズ熊谷籠原,36.1796767418,139.328358718
1447,11,上尾二ツ宮店,埼玉県 上尾市 二ツ宮957-1,35.9814080223,139.602918379
1874,11,イオンモール上尾店,埼玉県 上尾市 愛宕3-8-1 イオンモール上尾1階,35.965374973,139.60051515
4005,11,上尾壱丁目店,埼玉県 上尾市 壱丁目北6-12,35.9608829872,139.570638671
1481,11,桶川下日出谷店,埼玉県 桶川市 下日出谷東3-2,35.9987666686,139.552198458
4161,11,深谷国済寺店,埼玉県 深谷市 国済寺町26-5,36.1896672376,139.306600065
800,11,上里サービスエリア(上り線)店,埼玉県 児玉郡 上里町五明849-1 上里サービスエリア(上り線),36.2559946579,139.119793914
815,11,上里サービスエリア（下り線）店,埼玉県 児玉郡 上里町五明820 上里サービスエリア（下り線）,36.2546920074,139.119100976
4148,11,ふかや花園プレミアム・アウトレット店,埼玉県 深谷市 花園１番地 ふかや花園プレミアム・アウトレット,36.1327159604,139.250504568
404,12,千葉中央駅店,千葉県 千葉市中央区 本千葉町15-1 ミラマーレショッピングセンターミーオ2,35.6075167377,140.118255019
213,12,ヨドバシ千葉店,千葉県 千葉市中央区 新町1001 ヨドバシHD千葉ビル,35.6110688023,140.115075675
487,12,千葉センシティタワー店,千葉県 千葉市中央区 新町1000 千葉センシティタワー,35.6113145714,140.112905566
1508,12,ペリエ千葉店,千葉県 千葉市中央区 新千葉1-1-1 ペリエ千葉,35.6127591629,140.114267609
1793,12,ペリエ千葉5階店,千葉県 千葉市中央区 新千葉1-1-1 ペリエ千葉,35.6127591629,140.114267609
4208,12,千葉公園店,千葉県 千葉市中央区 弁天3-1,35.6204306044,140.116547622
1537,12,アリオ蘇我店,千葉県 千葉市中央区 川崎町52-7,35.5886249453,140.122594973
857,12,千葉美浜店,千葉県 千葉市美浜区 幸町2-20-1,35.626447269,140.089658745
198,12,イオン海浜幕張店,千葉県 千葉市美浜区 ひび野1-3 イオン幕張 1F,35.651672949,140.044517165
1788,12,ペリエ海浜幕張店,千葉県 千葉市美浜区 ひび野2-110 ペリエ海浜幕張,35.6487845973,140.041680312
969,12,湾岸幕張パーキングエリア（下り線）店,千葉県 千葉市美浜区 浜田2-102 湾岸幕張パーキングエリア（下り線）,35.6601301262,140.030116861
1081,12,湾岸幕張パーキングエリア（上り線）店,千葉県 千葉市美浜区 浜田2-102 湾岸幕張パーキングエリア（上り線）,35.6596326569,140.028828657
651,12,幕張ＷＢＧ店,千葉県 千葉市美浜区 中瀬2-6-1 WBG,35.648510977,140.03948134
1182,12,イオンモール幕張新都心グランドモール店,千葉県 千葉市美浜区 豊砂1-1 イオンモール幕張新都心グランドモール,35.6548617959,140.02983546
4356,12,イオンモール幕張新都心エキマエ店,千葉県 千葉市美浜区 豊砂1-5 イオンモール幕張新都心エキマエ2階,35.6564143587,140.027032566
1214,12,千葉長沼店,千葉県 千葉市稲毛区 長沼町333-10,35.6583582608,140.119206488
942,12,千葉若松店,千葉県 千葉市若葉区 若松町1-1,35.6395159602,140.174268894
917,12,千葉おゆみ野店,千葉県 千葉市緑区 おゆみ野南1-1-1,35.5529129974,140.158156442
2150,12,TSUTAYA BOOKSTORE テラスモール松戸店,千葉県 松戸市 八ヶ崎2-8-1 テラスモール松戸,35.8180948789,139.933675652
1724,12,流山おおたかの森運動公園店,千葉県 流山市 市野谷561-1(運A30街区1),35.8638650106,139.919331125
1444,12,流山おおたかの森Ｓ・Ｃ店,千葉県 流山市 おおたかの森南1-5-1,35.870995744,139.925471397
1305,12,南流山店,千葉県 流山市 南流山9-15-14,35.8322829826,139.896085898
4212,12,我孫子店,千葉県 我孫子市 我孫子3-19-12,35.8772144664,140.001730333
1310,12,千葉ニュータウン店,千葉県 印西市 泉野3-1186-5,35.8041611624,140.128568163
1721,12,theGreen千葉ニュータウン店,千葉県 印西市 鹿黒南5-2 theGreen,35.8132641602,140.133294574
671,12,イオンモール千葉ニュータウン店,千葉県 印西市 中央北3-2,35.8022141735,140.114099732
1426,12,プラーレ松戸店,千葉県 松戸市 松戸1149-1 プラーレ松戸,35.7836710659,139.902152355
1309,12,ダイエーいちかわコルトンプラザ店,千葉県 市川市 鬼高1-1-1　 ニッケコルトンプラザ,35.7161988662,139.935556854
1737,12,ニッケコルトンプラザ　ツムグテラス店,千葉県 市川市 鬼高1-1-1 ツムグテラス,35.7166982157,139.933175085
1720,12,シャポー市川店,千葉県 市川市 市川1-1-1 シャポー市川,35.7287878815,139.908559628
4075,12,イオン市川妙典店,千葉県 市川市 妙典5-3-1 イオン市川妙典,35.6924751561,139.927743318
1338,12,シャポー船橋本館店,千葉県 船橋市 本町7-1-1 シャポー船橋本館1階,35.7015460324,139.985745305
1560,12,シャポー船橋南館店,千葉県 船橋市 本町7-1-1 シャポー船橋南館2階,35.7015904534,139.984676781
41,12,ららぽーとTOKYO-BAY　北館店,千葉県 船橋市 浜町2-1-1 ららぽーとTOKYO-BAY北館１Ｆ,35.6858911324,139.99102281
262,12,ららぽーとTOKYO-BAY　南館店,千葉県 船橋市 浜町2-1-1 ららぽーとTOKYO-BAY南館2Ｆ,35.6846904484,139.992223599
1268,12,西船橋メトロピア店,千葉県 船橋市 西船4-27-7 東京地下鉄東西線西船橋駅構内,35.7072346766,139.958863109
1066,12,イオンモール船橋店,千葉県 船橋市 山手1-1-8,35.7125686223,139.97887759
878,12,新鎌ケ谷店,千葉県 鎌ケ谷市 新鎌ケ谷3-1-5,35.7748248521,140.001130931
4214,12,船橋東武店,千葉県 船橋市 本町7-1-1 東武百貨店　船橋店,35.7020415234,139.985083393
63,12,津田沼ビート店,千葉県 船橋市 前原西2-19-1 Viit,35.6923204283,140.021893006
819,12,ミーナ津田沼店,千葉県 習志野市 津田沼1-3-1 mina津田沼,35.6897110074,140.023160521
4354,12,イオンモール津田沼店,千葉県 習志野市 津田沼1-23-1 イオンモール津田沼2階,35.6907406283,140.023667654
1276,12,TSUTAYA モリシア津田沼店,千葉県 習志野市 谷津1-16-1 モリシア津田沼,35.6900236731,140.018662269
4082,12,フルルガーデン八千代店,千葉県 八千代市 村上南1-3-1 フルルガーデン八千代,35.722437484,140.11726231
605,12,イオンモール八千代緑が丘店,千葉県 八千代市 緑が丘2-1-3 イオンモール八千代緑が丘,35.72872075,140.072370749
169,12,柏マルイ店,千葉県 柏市 柏1-1-11 柏マルイ 2F,35.8618216915,139.971249407
2281,12,JR柏駅 中央改札内店,千葉県 柏市 柏1-1-1 JR柏駅中央改札内,35.8623566333,139.971190498
568,12,モラージュ柏店,千葉県 柏市 大山台2-3 モラージュ柏,35.8828113573,139.969324989
170,12,柏 高島屋ステーションモール店,千葉県 柏市 末広町1-1 柏高島屋ステーションモールＳ館 1F,35.8628576833,139.970760233
1183,12,柏 高島屋ステーションモール 6階店,千葉県 柏市 末広町1-1 柏高島屋ステーションモールＳ館,35.8625516048,139.970751915
675,12,イオンモール柏店,千葉県 柏市 豊町2-5-25 イオンモール柏,35.8518389833,139.961809539
2091,12,柏の葉 蔦屋書店,千葉県 柏市 若柴227-1,35.8991704442,139.953614429
1373,12,セブンパーク　アリオ柏店,千葉県 柏市 大島田1-6-1 セブンパーク　アリオ柏,35.8332282574,140.013021977
1527,12,野田桜の里店,千葉県 野田市 桜の里2-6-5,35.9538838114,139.84531396
507,12,浦安店,千葉県 浦安市 北栄1-15-9 寿ビル,35.6655349467,139.893909868
669,12,アトレ新浦安店,千葉県 浦安市 入船1-1-1 アトレ新浦安,35.6499994455,139.913208703
1626,12,MONA新浦安店,千葉県 浦安市 入船1-5-1 MONA新浦安,35.6493439593,139.913168737
2248,12,舞浜駅店,千葉県 浦安市 舞浜26-5 JR舞浜駅南口改札外,35.6358165746,139.884642006
836,12,舞浜　イクスピアリ店,千葉県 浦安市 舞浜1-4 イクスピアリ (店舗番号169),35.6351524763,139.884486494
1758,12,舞浜 イクスピアリ2F トレイダーズ・パッセージ店,千葉県 浦安市 舞浜1-4 イクスピアリ 2階,35.6348428022,139.885346437
1449,12,成田空港第2ターミナル店,千葉県 成田市 古込1-1 成田空港第2旅客ターミナルビル,35.7735475888,140.388526873
1510,12,成田空港第2ターミナル到着ロビー南店,千葉県 成田市 古込1-1,35.7724593731,140.388599139
1709,12,成田空港第2ターミナルサテライト店,千葉県 成田市 古込1-1 成田空港第2旅客ターミナルビル 3階,35.7749483504,140.392998937
1719,12,成田空港第2ターミナル到着ロビー北店,千葉県 成田市 古込1-1 成田空港第2旅客ターミナルビル 1階,35.7743199842,140.387268886
199,12,成田空港店,千葉県 成田市 三里塚御料牧場1-1 成田空港第１旅客ターミナルビル,35.7654583838,140.384507023
436,12,成田空港第1ターミナル店,千葉県 成田市 三里塚御料牧場1-1 成田空港第1旅客ターミナル中央ビル,35.763311383,140.384035773
1591,12,成田空港第1ターミナル第2サテライト店,千葉県 成田市 三里塚御料牧場1-1 成田国際空港第1旅客ターミナルビル,35.7644959644,140.383225507
4097,12,道の駅みのりの郷東金店,千葉県 東金市 田間1330-1 みのりの郷東金,35.5780078516,140.382990781
607,12,四街道イトーヨーカドー店,千葉県 四街道市 中央5番地 イトーヨーカドー四街道店,35.6669303673,140.165075062
796,12,ベイシア佐倉店,千葉県 佐倉市 寺崎北6-1-2,35.7136087919,140.217591606
1599,12,ユーカリが丘店,千葉県 佐倉市 ユーカリが丘2-32-16,35.7279178643,140.156694616
1114,12,酒々井プレミアム・アウトレット店,千葉県 印旛郡 酒々井町飯積2-4-1,35.7116047862,140.294051738
899,12,酒々井パーキングエリア(下り線)店,千葉県 印旛郡 酒々井町墨1420-11 酒々井パーキングエリア(下り線),35.7132813844,140.284494399
1489,12,成田美郷台店,千葉県 成田市 美郷台3-1-8,35.7930510853,140.310560227
2321,12,TSUTAYA BOOKSTORE そよら成田ニュータウン店,千葉県 成田市 赤坂2-１-10 そよら成田ニュータウン本館4階,35.778325651,140.290947257
103,12,イオンモール成田店,千葉県 成田市 ウイング土屋24,35.7955467724,140.317475094
721,12,ベイシア富里店,千葉県 富里市 七栄532 ベイシア富里,35.7498954038,140.309435641
1384,12,香取佐原店,千葉県 香取市 佐原ホ1238-3,35.90091796,140.490010635
4266,12,千葉旭店,千葉県 旭市 イ六反田2074-1-2,35.7239445311,140.673061915
1073,12,市原店,千葉県 市原市 更級4-1-32,35.5095799477,140.09988161
4415,12,アリオ市原店,千葉県 市原市 更級4-3-2 アリオ市原1階,35.5083509587,140.102524503
1680,12,ちはら台モール店,千葉県 市原市 ちはら台南2-32-2 もりまちちはら台モール,35.5244103544,140.18217326
4218,12,ユニモちはら台店,千葉県 市原市 ちはら台西3-4 ユニモちはら台,35.5281783781,140.171614519
4390,12,ベイシア木更津金田店,千葉県 木更津市 金田東5-2-1 ベイシア木更津金田,35.4289747579,139.929385593
4450,12,三井アウトレットパーク木更津店,千葉県 木更津市 金田東3-1-1 三井アウトレットパーク木更津,35.4346964811,139.935853403
892,12,木更津店,千葉県 木更津市 ほたる野1-15-2,35.376933398,139.962230817
776,12,海ほたるパーキングエリア店,千葉県 木更津市 中島地先 海ほたる 海ほたるパーキングエリア,35.4635220685,139.87565152
1237,12,イオンモール木更津店,千葉県 木更津市 築地1-4,35.3659766826,139.908253304
4003,12,カインズ館山店,千葉県 館山市 高井上畑作1771,35.008281273,139.873137136
4355,12,茂原店,千葉県 茂原市 道表17－5,35.4333713696,140.287120125
4088,13,皇居外苑 和田倉噴水公園店,東京都 千代田区 皇居外苑3-1,35.6830390935,139.761418121
75,13,竹橋パレスサイド店,東京都 千代田区 一ツ橋1-1-1 竹橋パレスサイドビルディング 1F,35.691150932,139.757319755
115,13,ＫＤＤＩ大手町ビル店,東京都 千代田区 大手町1-8-1 ＫＤＤＩ大手町ビル 1F,35.6877067028,139.764454321
346,13,大手町東京サンケイビル店,東京都 千代田区 大手町1-7-2 東京サンケイビル　B1階,35.6871056713,139.765331498
432,13,大手町ビル店,東京都 千代田区 大手町1-6-1 大手町ビル,35.6864018506,139.764923786
1540,13,大手町プレイス店,東京都 千代田区 大手町2-3-1 大手町プレイス,35.6869676607,139.767056361
30,13,丸の内三菱ビル店,東京都 千代田区 丸の内2-5-2 三菱ビル,35.67977698,139.763571426
224,13,丸の内新東京ビル店,東京都 千代田区 丸の内3-3-1 丸の内新東京ビル,35.6774605449,139.762643832
460,13,ＪＲ東京駅日本橋口店,東京都 千代田区 丸の内1-9-1 丸の内中央ビル,35.6833050317,139.769048308
757,13,東京ステーションシティ サピアタワー店,東京都 千代田区 丸の内1-7-12,35.6837113689,139.768581384
1486,13,グランスタ丸の内店,東京都 千代田区 丸の内1-9-1 JR東日本東京駅構内地下1階改札外,35.6817771037,139.766995216
1538,13,グランスタ八重洲店,東京都 千代田区 丸の内1-9-1 東京駅八重洲中央口B1F　グランスタ八重洲,35.6804806109,139.769012608
1783,13,丸の内オアゾ店,東京都 千代田区 丸の内1-6-4 丸の内OAZO,35.6835468995,139.766141039
2145,13,グランスタ東京店,東京都 千代田区 丸の内1-9-1 JR東日本東京駅構内１F グランスタ東京 京葉ストリートエリア,35.6802939393,139.76758718
2166,13,東京駅八重洲北口 東京ギフトパレット店,東京都 千代田区 丸の内1-9-1 東京駅,35.6816354769,139.768411216
1503,13,東京ミッドタウン日比谷店,東京都 千代田区 有楽町1-1-4 東京ミッドタウン日比谷,35.6734506329,139.759029317
1821,13,有楽町メトロピア店,東京都 千代田区 有楽町1-11-1 東京メトロ有楽町駅構内,35.6757987863,139.763104426
2047,13,JR有楽町駅京橋口店,東京都 千代田区 有楽町2-9,35.6749274997,139.763628311
5,13,日比谷シティ店,東京都 千代田区 内幸町2-2-3 日比谷国際ビルヂング B1F(B132),35.6702583922,139.754322632
95,13,山王パークタワー店,東京都 千代田区 永田町2-11-1 山王パークタワー,35.6732661583,139.74026755
824,13,赤坂プルデンシャルタワー店,東京都 千代田区 永田町2-13-10 プルデンシャルタワー,35.676065829,139.738560063
905,13,霞ダイニング店,東京都 千代田区 霞が関3-2-5 霞が関ビルディング,35.6708629223,139.747026821
371,13,丸の内ビル店,東京都 千代田区 丸の内2-4-1 丸の内ビルディング,35.6810021351,139.764045774
2245,13,TSUTAYA BOOKSTORE MARUNOUCHI店,東京都 千代田区 丸の内2-4-1 丸の内ビルディング,35.6807977125,139.764049117
743,13,新丸ビル店,東京都 千代田区 丸の内1-5-1 新丸の内ビル,35.6825283657,139.764334847
869,13,大手町カンファレンスセンター店,東京都 千代田区 大手町1-3-1 JAビル,35.6884535423,139.763018017
895,13,丸の内パークビル店,東京都 千代田区 丸の内2-6-1 丸の内パークビルディング,35.6790781539,139.762885404
1682,13,ＫＩＴＴＥ丸の内店,東京都 千代田区 丸の内2-7-2,35.6793842656,139.764791065
956,13,アトレ秋葉原1店,東京都 千代田区 外神田1-17-6 アトレ秋葉原１,35.698513178,139.771956256
2238,13,JR東日本ホテルメッツ プレミア 秋葉原店,東京都 千代田区 外神田1-17-4 JR東日本ホテルメッツ プレミア 秋葉原,35.6977868803,139.772727336
820,13,秋葉原駅前店,東京都 千代田区 神田佐久間町1-6-5 AKIBA・TOLIM,35.6979057754,139.773811407
2239,13,神田駅南口店,東京都 千代田区 鍛冶町2-13-1 JR神田駅南改札口外,35.691267824,139.770935007
227,13,神田駅前店,東京都 千代田区 神田鍛冶町3-2 神田サンミビル,35.6933484411,139.771295437
1775,13,都営神保町駅店,東京都 千代田区 神田神保町2-7 都営三田線・新宿線「神保町駅」構内,35.6962253982,139.757830034
100,13,神田小川町２丁目店,東京都 千代田区 神田小川町2-5-5 紀陽東京ビル 1F,35.6942154253,139.762978588
2,13,お茶の水村田ビル店,東京都 千代田区 神田駿河台2-5 村田ビルディング 1F,35.7001436613,139.761901738
1487,13,お茶の水サンクレール店,東京都 千代田区 神田駿河台4-3,35.6991649324,139.765068742
4121,13,御茶ノ水ソラシティ店,東京都 千代田区 神田駿河台4-6 御茶ノ水ソラシティ,35.698536688,139.76630839
1629,13,淡路町駅前店,東京都 千代田区 神田淡路町1-2,35.6957089591,139.76769535
1225,13,飯田橋サクラテラス店,東京都 千代田区 富士見2-10-2,35.6990906845,139.744057435
1453,13,飯田橋サクラテラス 2階店,東京都 千代田区 富士見2-10-2 飯田橋グラン・ブルーム　サクラテラス,35.6986723909,139.7437697
448,13,飯田橋アイガーデンテラス店,東京都 千代田区 飯田橋3-10-9 アイガーデンテラス,35.7010728042,139.750327101
111,13,九段下店,東京都 千代田区 九段北1-2-1 九段北1丁目ビル 1F,35.6958211773,139.752251627
657,13,北の丸スクエア店,東京都 千代田区 九段北1-13-12 北の丸スクエア,35.6956470104,139.75117228
2252,13,市ヶ谷駅前店,東京都 千代田区 五番町2 市ヶ谷ストア 2F,35.6911588867,139.735689606
33,13,麹町店,東京都 千代田区 麹町3-2-5 垣見麹町ビル別館 1F,35.6842527401,139.739078254
4357,13,上智大学 四谷キャンパス店,東京都 千代田区 麹町6-1-18 上智大学15号館1階,35.6845828787,139.733129288
1313,13,東京ガーデンテラス紀尾井町店,東京都 千代田区 紀尾井町1-2 東京ガーデンテラス紀尾井町,35.6790979752,139.736875619
17,13,人形町店,東京都 中央区 日本橋人形町3-6-7 人形町共同ビル 1F,35.6870792876,139.781365167
55,13,日本橋スルガビル店,東京都 中央区 日本橋室町1-7-1 スルガビル 1F,35.6847460897,139.774835262
1638,13,コレド室町テラス店,東京都 中央区 日本橋室町3-2-1 コレド室町テラス 地下1階,35.6877904465,139.77255781
4107,13,コレド室町2店,東京都 中央区 日本橋室町2-3-1 コレド室町2 地下1階,35.6868919715,139.774847106
53,13,日本橋本町店,東京都 中央区 日本橋本町2-4-5 扶桑日本橋ビル 1F,35.6871580628,139.77533872
357,13,茅場町店,東京都 中央区 日本橋茅場町1-12-2 樋口本店ビル 1F,35.6794078752,139.780753349
2043,13,ＪＲ東海 東京駅新幹線南ラチ内店,東京都 中央区 八重洲1-7-20 八重洲口会館　JR-PLUS関東支社,35.6797323214,139.766939759
1544,13,日本橋高島屋Ｓ.Ｃ.5階店,東京都 中央区 日本橋2-5-1 日本橋高島屋Ｓ.Ｃ. 新館5階,35.681411142,139.773308597
4098,13,日本橋高島屋Ｓ.Ｃ.1階店,東京都 中央区 日本橋2-5-1 日本橋高島屋Ｓ.Ｃ. 新館1階,35.6811456245,139.773863008
3,13,ヤエチカ店,東京都 中央区 八重洲2-1 八重洲地下街 中3号,35.679545196,139.77133718
4086,13,東京ミッドタウン八重洲店,東京都 中央区 八重洲2-2-1 東京ミッドタウン八重洲,35.6793362854,139.768813511
1357,13,京橋エドグラン店,東京都 中央区 京橋2-2-1 京橋エドグラン,35.6772587452,139.769691867
61,13,築地駅前店,東京都 中央区 築地2-12-8 大広ビル 1F,35.6678681233,139.772001552
276,13,晴海 トリトンスクエア店,東京都 中央区 晴海1-8-10 晴海アイランド トリトンスクエア オフィスタワーX,35.6564556309,139.782066797
4165,13,勝どき店,東京都 中央区 勝どき4-6-2 パークタワー勝どきミッド1階,35.6568660738,139.778132105
1,13,銀座松屋通り店,東京都 中央区 銀座3-7-14 ＥＳＫビル 1F,35.6716737338,139.766643488
197,13,スターバックス リザーブ(R)ストア 銀座マロニエ通り,東京都 中央区 銀座3-7-3 銀座オーミビル 1F,35.6722734089,139.767621435
520,13,東銀座店,東京都 中央区 銀座5-15-8 時事通信ビル,35.6677877721,139.767305557
902,13,銀座ファイブ店,東京都 中央区 銀座5丁目1番先 GINZA FIVE,35.6730307278,139.761890765
1374,13,GINZA SIX店,東京都 中央区 銀座6-10-1,35.6696247555,139.764880673
1485,13,マロニエゲート銀座1店,東京都 中央区 銀座2-2-14 マロニエゲート銀座1,35.6742242725,139.765394863
1539,13,銀座EXITMELSA店,東京都 中央区 銀座5-7-10,35.6707712871,139.764170957
1622,13,銀座 蔦屋書店,東京都 中央区 銀座6-10-1 GINZA SIX 6階,35.6699597109,139.764379033
1840,13,エチカフィット銀座店,東京都 中央区 銀座4-1-2 東京メトロ銀座駅構内,35.673157964,139.76346785
1879,13,CIRCLES 銀座店,東京都 中央区 銀座3-7-6 CIRCLES 銀座,35.6720023237,139.767442573
4507,13,スターバックス ティバーナストア 銀座マロニエ通り,東京都 中央区 銀座3-7-3 銀座オーミビル B1F,35.6721870281,139.767555333
759,13,聖路加国際病院店,東京都 中央区 明石町9-1 聖路加国際病院,35.6673054943,139.777074212
65,13,虎ノ門駅前店,東京都 港区 虎ノ門1-1-23 ウンピン虎ノ門ビル 1F,35.6703858039,139.750052425
90,13,虎ノ門２丁目タワー店,東京都 港区 虎ノ門2-3-17 虎ノ門２丁目タワー,35.6685251081,139.746531692
108,13,新橋駅前店,東京都 港区 新橋2-19-3 カシケイビル 1F,35.6668088547,139.759677902
2171,13,JR新橋駅 銀座口店,東京都 港区 新橋2-17-14 新橋駅1階,35.6665891353,139.758494399
780,13,芝大門店,東京都 港区 芝公園2-3-4 リッチモンドホテル東京芝,35.6568797821,139.751974277
4128,13,虎ノ門ヒルズ ステーションタワー店,東京都 港区 虎ノ門2-6-3 虎ノ門ヒルズステーションタワー7階,35.6673874627,139.747143361
249,13,愛宕グリーンヒルズ店,東京都 港区 愛宕2-5-1 ＭＯＲＩ タワー（愛宕グリーンヒルズ）,35.6619194655,139.748803752
1661,13,虎ノ門ヒルズ ビジネスタワー店,東京都 港区 虎ノ門1-17-1 虎ノ門ヒルズ ビジネスタワー,35.6675622235,139.750418636
1839,13,東京ワールドゲート神谷町店,東京都 港区 虎ノ門4-1-1 神谷町トラストタワー,35.6645863405,139.745260035
772,13,カレッタ汐留店,東京都 港区 東新橋1-8-2 カレッタ汐留,35.6643674887,139.761945604
439,13,汐留シティセンター店,東京都 港区 東新橋1-5-2 汐留シティセンター,35.6654981849,139.761018406
593,13,東京汐留ビルディング店,東京都 港区 東新橋1-9-1 東京汐留ビルディング地下2階,35.6631392681,139.760878527
1796,13,日テレプラザ店,東京都 港区 東新橋1-6-1 日本テレビタワー 2階,35.6645863238,139.760203794
134,13,六本木７丁目店,東京都 港区 六本木7-14-1 東李閣ビル 1F,35.6640147666,139.73116401
437,13,六本木ヒルズ メトロハット／ハリウッドプラザ店,東京都 港区 六本木6-4-1 メトロハット/ハリウッドプラザ,35.6615941642,139.729563143
438,13,六本木ヒルズ ウエストウォーク店,東京都 港区 六本木6-10-1 森タワー 2F,35.660447052,139.728840756
1197,13,アークヒルズサウスタワー店,東京都 港区 六本木1-4-5 アークヒルズサウスタワー,35.6655083613,139.739371593
2002,13,六本木 蔦屋書店,東京都 港区 六本木6-11-1 ゲートタワー,35.6585864715,139.73192003
4201,13,麻布台ヒルズ店,東京都 港区 麻布台1-3-1 麻布台ヒルズ タワープラザ 地下1階,35.6617051737,139.740327244
27,13,麻布十番店,東京都 港区 麻布十番1-11-14 ＳＢＳビル,35.6557051901,139.736333407
848,13,六本木ヒルズ ウエストウォーク ラウンジ店,東京都 港区 六本木6-10-1 森タワー 1F,35.6603942775,139.728706047
142,13,赤坂見附店,東京都 港区 赤坂3-21-20 赤坂ロングビーチビル 1F,35.6772512074,139.735675525
202,13,赤坂溜池タワー店,東京都 港区 赤坂2-17-1 赤坂溜池タワー,35.6712510784,139.739256893
1461,13,赤坂インターシティAIR店,東京都 港区 赤坂1-8-1,35.6698837794,139.74239364
1472,13,東京ミッドタウン店,東京都 港区 赤坂9-7-2 東京ミッドタウンB0103,35.6648946641,139.730683176
40,13,アクセス表参道店,東京都 港区 北青山3-6-17 アクセス表参道ビル,35.6646749105,139.7116431
1590,13,青山ビルヂング店,東京都 港区 北青山1-2-3 青山ビル,35.6730842185,139.723516449
15,13,南青山２丁目店,東京都 港区 南青山2-26-37 VORT外苑前Ⅰ1F,35.6699633342,139.717392379
47,13,青山骨董通り店,東京都 港区 南青山5-10-1 H2 AOYAMA BUILDING,35.6627926011,139.711029071
410,13,南青山骨董通り店,東京都 港区 南青山5-4-27 Barbizon104,35.6614197519,139.714434685
6,13,アークヒルズ店,東京都 港区 赤坂1-12-32 アーク森ビル 1F,35.6677573055,139.740406403
777,13,赤坂Bizタワー店,東京都 港区 赤坂5-3-1 赤坂Bizタワー(区画番号206),35.6729647397,139.736724247
1795,13,新田町ビル店,東京都 港区 芝5-34-6 新田町ビル,35.6462202723,139.746567994
2240,13,田町駅 南改札内店,東京都 港区 芝5ー33ー36 JR田町駅 南改札内,35.6453775912,139.746941613
4184,13,田町タワー店,東京都 港区 芝5-33-11 田町タワーモール1階,35.6471396555,139.74869222
1653,13,ムスブ田町2階店,東京都 港区 芝浦3-1-21 msb Tamachi 田町ステーションタワーS 2階205,35.6447607455,139.748820652
1654,13,ムスブ田町4階店,東京都 港区 芝浦3-1-21 msb Tamachi 田町ステーションタワーS 4階402,35.6449365625,139.748962299
632,13,白金高輪店,東京都 港区 白金1-17-2-102 白金アエルシティ,35.6440972303,139.734344107
25,13,品川インターシティ店,東京都 港区 港南2-15-2 品川インターシティ 2F (206),35.6266870033,139.741959832
1861,13,高輪ゲートウェイ駅店,東京都 港区 港南2-1-220 JR高輪ゲートウェイ駅改札外3階,35.6360126308,139.739574601
2029,13,ＪＲ東海 品川駅ラチ内店,東京都 港区 港南2-1-78 JR-PLUS品川事務所,35.6298585807,139.740367318
2118,13,JR東海 品川駅店,東京都 港区 港南2-1-78 JR-PLUS品川事務所,35.6291914261,139.740152922
232,13,上野マルイ店,東京都 台東区 上野6-15-1 上野マルイ店 B1F,35.7111774489,139.775959784
301,13,御徒町春日通り店,東京都 台東区 上野6-2-1 ヨシダビル,35.7078641865,139.775632742
338,13,アトレ上野店,東京都 台東区 上野7-1-1 アトレ上野 1F,35.7121240262,139.776639962
1504,13,パルコヤ上野店,東京都 台東区 上野3-24-6 パルコヤ 5階,35.7067089872,139.773049954
2209,13,エキュート上野 公園口店,東京都 台東区 上野7-1-1 エキュート上野,35.7136824586,139.775947726
2221,13,JR上野駅 入谷改札前店,東京都 台東区 上野7-1-1 上野駅構内3階入谷口改札外,35.7131253153,139.777055159
1087,13,上野恩賜公園店,東京都 台東区 上野公園8-22,35.7157824729,139.773725591
1604,13,雷門店,東京都 台東区 浅草1-18-2 雷門旅館,35.7112875127,139.79618921
299,13,浅草駅前店,東京都 台東区 花川戸1-5-1,35.7119741377,139.79800875
203,13,浅草雷門通り店,東京都 台東区 雷門2-16-7 グランコピエ浅草雷門,35.7108678112,139.794803789
474,13,東京ドームシティ ラクーア店,東京都 文京区 春日1-1-1 ラクーア,35.7068683376,139.752739133
152,13,水道橋後楽森ビル店,東京都 文京区 後楽1-4-14 後楽森ビル 1F,35.7034761462,139.749637603
4217,13,茗荷谷店,東京都 文京区 大塚1-4-1 中央大学 茗荷谷キャンパス,35.7183868047,139.735516145
770,13,東京ドームシティ ミーツポート店,東京都 文京区 後楽1-3-61 東京ドームシティミーツポート1階,35.7029787903,139.754840805
26,13,本郷東大前店,東京都 文京区 本郷4-1-4 Design Placeα 1F,35.707933642,139.760787583
600,13,順天堂医院店,東京都 文京区 本郷3-1-3 順天堂大学医学部附属順天堂医院 (1号館）,35.7020598529,139.762338558
1819,13,東京科学大学店,東京都 文京区 湯島1-5-45 東京科学大学C棟1階,35.7008128018,139.764497602
2081,13,日本医科大学付属病院店,東京都 文京区 千駄木1-1-5 日本医科大学付属病院,35.7208419594,139.759405159
689,13,東京大学工学部店,東京都 文京区 本郷7-3-1 工学部11号館,35.7136743959,139.759586585
191,13,王子駅前店,東京都 北区 王子1-9-5 京徳ビル 1F,35.7541158005,139.737784033
851,13,アトレヴィ田端店,東京都 北区 東田端1-17-2 アトレヴィ田端,35.7381529136,139.76101145
4337,13,イオンスタイル赤羽店,東京都 北区 神谷3-12-1 イオンスタイル赤羽1階,35.7742640998,139.731990253
118,13,ビーンズ赤羽店,東京都 北区 赤羽1-1-1 ビーンズ赤羽,35.778400948,139.720008836
2249,13,エキュート赤羽みなみ店,東京都 北区 赤羽1-1-1赤羽駅南改札内 エキュート赤羽みなみ1階,35.77711555,139.721159077
4289,13,LaLaテラス南千住店,東京都 荒川区 南千住4-7-2 LaLaテラス南千住 B棟1階,35.7351322799,139.801653214
562,13,エキア北千住店,東京都 足立区 千住旭町42-1 EQUiA北千住,35.7503710011,139.805851331
850,13,ルミネ北千住店,東京都 足立区 千住旭町42-2 ルミネ北千住,35.7503762638,139.805020566
1221,13,北千住マルイ店,東京都 足立区 千住3-92 北千住マルイ,35.7508087092,139.804540864
4379,13,エキア竹ノ塚店,東京都 足立区 西竹の塚2-1-2 EQUiA竹ノ塚1階,35.7946040688,139.791155236
1851,13,アリオ西新井店,東京都 足立区 西新井栄町1-20-1 アリオ西新井,35.7749302521,139.786139337
4268,13,シャポー新小岩店,東京都 葛飾区 新小岩1-45-1 シャポー新小岩1階,35.716791898,139.85831102
264,13,金町駅南口店,東京都 葛飾区 金町6-4-2 ラヴィクレール金町,35.7691470947,139.872115241
656,13,アリオ亀有店,東京都 葛飾区 亀有3-49-3 アリオ亀有,35.7651174534,139.852073757
4465,13,ビーンズ亀有店,東京都 葛飾区 亀有3-25-1 ビーンズ亀有 1階,35.7663636284,139.84746075
1562,13,錦糸町オリナス店,東京都 墨田区 太平4-1-2 オリナス,35.7002568094,139.815600328
987,13,錦糸町テルミナ2店,東京都 墨田区 錦糸1-2-47 テルミナ2,35.6971490461,139.813303162
347,13,錦糸町 丸井店,東京都 墨田区 江東橋3-9-10 丸井 錦糸町店,35.6950539986,139.813652674
1645,13,錦糸町パルコ店,東京都 墨田区 江東橋4-27-14 楽天地ビル,35.6965780417,139.815915749
4389,13,錦糸町メトロピア店,東京都 墨田区 江東橋3-14-6 東京メトロ錦糸町駅構内 錦糸町メトロピア,35.6960425338,139.815360542
1038,13,東京スカイツリータウン・ソラマチ東6階店,東京都 墨田区 押上1-1-2 東京スカイツリータウン,35.7103637197,139.811924891
1040,13,東京スカイツリータウン・ソラマチ西1階店,東京都 墨田区 押上1-1-2 東京スカイツリータウン,35.7097584614,139.809334022
4278,13,シャポー小岩店,東京都 江戸川区 南小岩7-24-15,35.7331536098,139.881571946
4464,13,葛西駅南口店,東京都 江戸川区 東葛西6-2-1 RECS東葛西2階,35.6622363298,139.873379503
4423,13,江戸川総合レクリエーション公園店,東京都 江戸川区 南葛西3-23-9 江戸川総合レクリエーション公園 ファミリースポーツ広場,35.6507602876,139.870663868
1774,13,葛西臨海公園駅店,東京都 江戸川区 臨海町6-3-4 葛西臨海公園駅高架下ビル,35.6446788201,139.860726084
179,13,木場イトーヨーカドー店,東京都 江東区 木場1-5-30 イトーヨーカドー木場店 1F,35.6668249063,139.804076992
1185,13,豊洲フォレシア店,東京都 江東区 豊洲3-2-24 豊洲フォレシア,35.6573846402,139.794651265
1743,13,アーバンドック ららぽーと豊洲3 地下1階店,東京都 江東区 豊洲2-2-1 ららぽーと豊洲3 地下1階,35.6546829876,139.794811376
2129,13,TSUTAYA BOOKSTORE 東雲店,東京都 江東区 東雲2-7-20,35.6420508796,139.80351179
1337,13,東京ビッグサイト店,東京都 江東区 有明3-11-1 東京ビッグサイト　レストラン街,35.6308852582,139.794985513
1070,13,ダイバーシティ東京 プラザ店,東京都 江東区 青海1-1-10 ダイバーシティ東京 プラザ 2階,35.6256715965,139.776063158
961,13,アクアシティお台場店,東京都 港区 台場1-7-1（区番R306） アクアシティお台場,35.6276296658,139.772940827
218,13,豊洲センタービル店,東京都 江東区 豊洲3-3-3 豊洲センタービル 1F,35.6563022886,139.79651977
699,13,ららぽーと豊洲 サウスポート2階店,東京都 江東区 豊洲2-4-9 ららぽーと豊洲,35.6551462326,139.792594316
1317,13,ららぽーと豊洲 シーサイドデッキ店,東京都 江東区 豊洲2-4-9 アーバンドック　ららぽーと豊洲,35.6560052968,139.791987105
175,13,アトレ亀戸店,東京都 江東区 亀戸5-1-1 アトレ亀戸 1F,35.69767061,139.826515374
4040,13,カメイドクロック店,東京都 江東区 亀戸6-31-6 KAMEIDO CLOCK,35.695533385,139.829169975
958,13,アリオ北砂店,東京都 江東区 北砂2-17-1 アリオ北砂,35.6827574667,139.825589471
4315,13,南砂町 SUNAMO店,東京都 江東区 新砂3-4-31 南砂町ショッピングセンター SUNAMO１階,35.6649587128,139.835643345
185,13,イオン南砂店,東京都 江東区 南砂6-7-15 イオン南砂店 1F,35.6721207229,139.835549134
222,13,天王洲店,東京都 品川区 東品川2-2-4 天王洲ファーストタワー,35.6233966471,139.749127999
1541,13,イオンスタイル品川シーサイド店,東京都 品川区 東品川4-12-5 イオンスタイル品川シーサイド,35.6105202426,139.748900833
1570,13,大井町駅東口店,東京都 品川区 東大井5-20-1,35.6058343959,139.735340786
525,13,エトモ大井町店,東京都 品川区 大井1-1-1 エトモ大井町,35.6075825225,139.734212466
996,13,阪急大井町ガーデン店,東京都 品川区 大井1-50-5 新阪急大井町ビル,35.6056388449,139.734407262
1285,13,大崎ブライトタワー店,東京都 品川区 北品川5-6-1 大崎ブライトタワー,35.6216084653,139.730952647
1130,13,目黒店,東京都 品川区 上大崎2-25-2 新目黒東急ビル,35.6345876183,139.714231493
1502,13,目黒セントラルスクエア店,東京都 品川区 上大崎3-1-1,35.6333614096,139.717034095
4309,13,アトレ目黒1店,東京都 品川区 上大崎2-16-9 アトレ目黒1 1F,35.6342129665,139.715968033
808,13,五反田東急スクエア店,東京都 品川区 東五反田2-1-2 五反田東急スクエア,35.6255482097,139.72454022
24,13,西五反田店,東京都 品川区 西五反田1-18-1 ゴタンダ エクス 1F,35.623615611,139.72295794
32,13,ゲートシティ大崎店,東京都 品川区 大崎1-11-1 ゲートシティ大崎,35.619168454,139.731266066
4239,13,武蔵小山店,東京都 品川区 小山3-15-1 パークシティ武蔵小山ザ モール,35.6198795747,139.704365212
901,13,アトレ大森店(2F),東京都 大田区 大森北1-6-16 アトレ大森 2F,35.5882242123,139.728316625
4141,13,アトレ大森店(5F),東京都 大田区 大森北1-6-16 アトレ大森 5F,35.5885139013,139.7281869
735,13,羽田空港第1ターミナル　マーケットプレイス3階店,東京都 大田区 羽田空港3-3-2 第一旅客ターミナル3階,35.5485191592,139.784295193
1612,13,羽田空港第1ターミナル THE HANEDA HOUSE5階店,東京都 大田区 羽田空港3-3-2 第一旅客ターミナル5階,35.5481233666,139.784204386
2001,13,羽田空港第2ターミナル国内線ゲートエリア店,東京都 大田区 羽田空港3-4-2 東京国際空港第2旅客ターミナルビル,35.5545752354,139.787574364
2164,13,羽田空港第2ターミナル国際線ゲートエリア店,東京都 大田区 羽田空港3-4-2 第2旅客ターミナルビル,35.5483648501,139.791100191
2165,13,羽田空港 蔦屋書店,東京都 大田区 羽田空港3-4-2 第2旅客ターミナルビル,35.5487381256,139.790075259
618,13,グランデュオ蒲田店,東京都 大田区 西蒲田7-68-1 グランデュオ蒲田　西館,35.5624420325,139.715994669
1139,13,田園調布 東急スクエアガーデンサイト店,東京都 大田区 田園調布2-62-3 東急スクエアガーデンサイト　アネックス,35.5973591156,139.667396819
1832,13,エトモ池上店,東京都 大田区 池上6-3-10 エトモ池上,35.5720327216,139.702852263
873,13,明治神宮前メトロピア店,東京都 渋谷区 神宮前1-18-22駅事務室 千代田線　明治神宮前駅,35.6698194842,139.702837762
886,13,神宮前6丁目店,東京都 渋谷区 神宮前6-17-11 JPR原宿ビル,35.6658490907,139.703703984
1046,13,表参道 神宮前4丁目店,東京都 渋谷区 神宮前4-3-4 Ｂａｒｂｉｚｏｎ ７ ＡＮＮＥＸ,35.6665416423,139.710899187
1062,13,東急プラザ表参道オモカド店,東京都 渋谷区 神宮前4-30-3 東急プラザ表参道「オモカド」,35.6686335556,139.706019496
1676,13,表参道ヒルズ店,東京都 渋谷区 神宮前4-12-10 表参道ヒルズ,35.6678153349,139.707458303
1738,13,WITH HARAJUKU店,東京都 渋谷区 神宮前1-14-30 WITH HARAJUKU,35.6705466401,139.703491007
1790,13,MIYASHITA PARK店,東京都 渋谷区 神宮前6-20-10 MIYASHITA PARK North 4階 (区画番号40000),35.6623036047,139.701879298
77,13,渋谷３丁目店,東京都 渋谷区 渋谷3-11-7 第２ミネギシビル,35.6562357101,139.705740646
97,13,渋谷クロスタワー店,東京都 渋谷区 渋谷2-15-1 渋谷クロスタワー 3F,35.6586504431,139.705243909
1369,13,渋谷2丁目店,東京都 渋谷区 渋谷2-9-8 日総第25ビル,35.6605508274,139.707076447
1649,13,渋谷ストリーム店,東京都 渋谷区 渋谷3-21-3 渋谷ストリーム,35.6575166288,139.702568906
1728,13,渋谷cocoti店,東京都 渋谷区 渋谷1-23-16 cocoti SHIBUYA,35.6620553122,139.702693131
422,13,広尾店,東京都 渋谷区 広尾5-14-5 ノースゲートビル,35.6504041149,139.721829578
1269,13,恵比寿ファーストスクエア店,東京都 渋谷区 恵比寿1-18-14 恵比寿ファーストスクエア,35.6472865457,139.714681427
4118,13,恵比寿ガーデンプレイス センタープラザB1店,東京都 渋谷区 恵比寿4-20-7 恵比寿ガーデンプレイス センタープラザ B1,35.6425892629,139.714257789
125,13,恵比寿ユニオンビル店,東京都 渋谷区 恵比寿南1-2-10 エビス ユニオンビル １F,35.6460482244,139.707786778
552,13,アトレ恵比寿店(2F),東京都 渋谷区 恵比寿南1-5-5 アトレ恵比寿,35.6466623723,139.710476805
1274,13,アトレ恵比寿店(5F),東京都 渋谷区 恵比寿南1-5-5 アトレ恵比寿店　5階,35.6462976928,139.710684026
4236,13,渋谷サクラステージ店,東京都 渋谷区 桜丘町1-4 渋谷サクラステージ SHIBUYAサイド 3階,35.6571188709,139.701271254
2044,13,代官山 蔦屋書店,東京都 渋谷区 猿楽町17-5 蔦屋書店3号館1F,35.6489969406,139.700053952
2387,13,プリンチ 代官山T-SITE,東京都 渋谷区 猿楽町16-15 代官山T-SITE N-4棟1階,35.6491077636,139.700140328
114,13,渋谷公園通り店,東京都 渋谷区 神南1-7-5 渋谷公園通りＪＮビル 1F,35.6640369839,139.699217495
488,13,渋谷ファイヤー通り店,東京都 渋谷区 神南1-12-10,35.6635554011,139.701068475
1341,13,渋谷モディ店,東京都 渋谷区 神南1-21-3,35.6614492284,139.700547226
2003,13,SHIBUYA TSUTAYA 2F店,東京都 渋谷区 宇田川町21-6 QFRONT 2F,35.6599313298,139.700235933
2303,13,Olive LOUNGE 渋谷店,東京都 渋谷区 宇田川町20-2 Olive LOUNGE 1階,35.6607887458,139.700681134
2311,13,SHIBUYA TSUTAYA 1F店,東京都 渋谷区 宇田川町21-6 QFRONT 1F,35.659901061,139.700568407
9,13,渋谷文化村通り店,東京都 渋谷区 道玄坂2-25-6 ホリウチビル 1F,35.6602029037,139.696591779
101,13,渋谷マークシティ店,東京都 渋谷区 道玄坂1-12-3 渋谷マークシティ イースト 3F,35.6586836781,139.699818247
1651,13,渋谷フクラス店,東京都 渋谷区 道玄坂1-2-3 渋谷フクラス1階,35.6576560218,139.700478518
946,13,恵比寿ガーデンプレイスタワー１F店,東京都 渋谷区 恵比寿4-20-3 恵比寿ガーデンプレイスタワー,35.6424750934,139.713394533
2131,13,TSUTAYA BOOKSTORE 渋谷スクランブルスクエア店,東京都 渋谷区 渋谷2-24-12 渋谷スクランブルスクエア,35.658377362,139.702104738
1699,13,渋谷パルコ店,東京都 渋谷区 宇田川町15-1 渋谷パルコ5階,35.6620133044,139.698809289
1529,13,渋谷ヒカリエ ShinQs店,東京都 渋谷区 渋谷2-21-1 渋谷ヒカリエ ShinQs B1F,35.6589920443,139.703584309
801,13,北参道店,東京都 渋谷区 千駄ケ谷3-38-9 IBF-PLANNING ビル,35.6780936528,139.70590657
1658,13,リンクスクエア新宿店,東京都 渋谷区 千駄ヶ谷5-27-5 リンクスクエア新宿,35.6863171679,139.703055317
16,13,新宿サザンテラス店,東京都 渋谷区 代々木2-2-1 新宿サザンテラス内,35.6878994503,139.700285197
130,13,新宿マインズタワー店,東京都 渋谷区 代々木2-1-1 新宿マインズタワー 1F,35.6865862317,139.698815379
204,13,新宿南口店,東京都 渋谷区 代々木2-13-8 エスト新宿ビル,35.6871547443,139.696655532
802,13,代々木店,東京都 渋谷区 代々木1-38-7 川本ビル,35.6827444666,139.701461725
1007,13,アコルデ代々木上原店,東京都 渋谷区 西原3-8-5 アコルデ代々木上原,35.6690113908,139.679819988
4078,13,京王笹塚店,東京都 渋谷区 笹塚1-56-18 京王クラウン街笹塚,35.6740198176,139.668127673
1480,13,イオンスタイル碑文谷店,東京都 目黒区 碑文谷4-1-1,35.6225367198,139.684414524
23,13,学芸大駅前店,東京都 目黒区 鷹番3-15-25 鳥芳ビル 1F,35.6291476774,139.684299785
50,13,自由が丘店,東京都 目黒区 自由が丘2-10-18 栗山ビルⅡ 1F,35.6087201229,139.667413239
156,13,自由が丘駅前店,東京都 目黒区 自由が丘1-11-6 YG自由が丘ビル 1F,35.607888577,139.669236459
2381,13,STARBUCKS RESERVE(R) ROASTERY TOKYO,東京都 目黒区 青葉台2-19-23,35.6492201199,139.692602893
250,13,中目黒山手通り店,東京都 目黒区 上目黒3-1-3 プライムアーバン中目黒Ⅱ,35.6453156254,139.697634044
359,13,中目黒GTタワー店,東京都 目黒区 上目黒2-1-1 中目黒ゲートタウンタワー B1F,35.6435002915,139.699204831
2082,13,中目黒 蔦屋書店,東京都 目黒区 上目黒1-22-10,35.6444707438,139.699235895
1588,13,エトモ祐天寺店,東京都 目黒区 祐天寺2-13-4 エトモ祐天寺,35.6376885511,139.691200763
1180,13,池尻2丁目店,東京都 世田谷区 池尻2-27-7 アリビエ池尻,35.6491474671,139.683409494
70,13,三軒茶屋店,東京都 世田谷区 太子堂4-20-25 三軒茶屋アバックビル,35.6444235659,139.669683629
1362,13,駒沢1丁目店,東京都 世田谷区 駒沢1-24-5,35.6288500031,139.656596544
1639,13,桜新町店,東京都 世田谷区 桜新町2-10-4,35.6316064249,139.643555833
2255,13,梅ヶ丘駅店,東京都 世田谷区 梅丘1-31-21,35.6559998284,139.653820524
19,13,下北沢店,東京都 世田谷区 北沢2-30-6 下北沢ＵＣビル 1F,35.6628298876,139.66722743
1704,13,シモキタエキウエ店,東京都 世田谷区 北沢2-24-2 小田急下北沢駅 シモキタエキウエ内,35.661359486,139.667037235
1170,13,代沢5丁目店,東京都 世田谷区 代沢5-8-13 クリークス代沢,35.6570285743,139.667837924
22,13,明大前店,東京都 世田谷区 松原2-46-5 Ｒｙｕ’ｓビル 1F,35.6691250249,139.650024124
2315,13,Olive LOUNGE 下高井戸店,東京都 世田谷区 赤堤4-47-10 Olive LOUNGE 1階,35.6659149328,139.640996411
2172,13,経堂駅店,東京都 世田谷区 経堂2-1-3,35.6514530756,139.636950746
2218,13,千歳船橋駅店,東京都 世田谷区 船橋1-9-45 小田急マルシェ千歳船橋2,35.6471857982,139.623564276
1102,13,芦花公園店,東京都 世田谷区 南烏山1-2-17,35.6680428282,139.613053355
1870,13,千歳烏山店,東京都 世田谷区 南烏山5-15-10 SKCビル,35.6678476494,139.60162098
625,13,成城店,東京都 世田谷区 成城2-40-25 パレブラン成城,35.6398850401,139.59906748
1343,13,奥沢2丁目店,東京都 世田谷区 奥沢2-38-9,35.6073272819,139.671167991
965,13,二子玉川ライズ　ドッグウッドプラザ店,東京都 世田谷区 玉川2-23-1 二子玉川ライズショッピングセンター　ドッグウッドプラザ,35.6128020444,139.627484701
1138,13,二子玉川公園店,東京都 世田谷区 玉川1-16-1,35.60748159,139.632502307
2067,13,二子玉川 蔦屋家電店,東京都 世田谷区 玉川1-14-1 二子玉川ライズ　S.C.　テラスマーケット,35.6110478181,139.629232414
628,13,用賀店,東京都 世田谷区 瀬田5-39-22,35.6263861281,139.626402498
1328,13,世田谷ビジネススクエア店,東京都 世田谷区 用賀4-10-1,35.6266689913,139.633022213
461,13,玉川高島屋Ｓ・Ｃ店,東京都 世田谷区 玉川3-17-1 玉川高島屋Ｓ・Ｃ (南館７階),35.6133105898,139.626837786
18,13,四谷３丁目店,東京都 新宿区 四谷2-14-4 ミツヤ四谷ビル 1F,35.6875568355,139.72342579
1061,13,アトレ四谷店,東京都 新宿区 四谷1-5-25 アトレ四谷,35.6861707124,139.730151129
2231,13,都立明治公園店,東京都 新宿区 霞ヶ丘町5-7 都立明治公園 B棟,35.6746402682,139.713628032
1838,13,新宿御苑店,東京都 新宿区 内藤町11 新宿御苑,35.6838395219,139.711331133
1812,13,アトレ信濃町店,東京都 新宿区 信濃町34 アトレ信濃町,35.6801084008,139.719718941
478,13,西武新宿ＰｅＰｅ店,東京都 新宿区 歌舞伎町1-30-1 西武新宿ペペ,35.694481245,139.700214899
798,13,新宿サブナード店,東京都 新宿区 歌舞伎町1丁目サブナード1 新宿サブナード,35.6938910464,139.701132628
1894,13,東急歌舞伎町タワー店,東京都 新宿区 歌舞伎町1-29-1 東急歌舞伎町タワー,35.6956739062,139.700844514
12,13,新宿３丁目店,東京都 新宿区 新宿3-11-6 エクレ新宿 1F,35.6919677349,139.70650727
214,13,新宿ダイアンビル店,東京都 新宿区 新宿3-36-6 大安ビル 1F,35.6902886658,139.701812182
323,13,新宿新南口店,東京都 新宿区 新宿4-1-9 新宿ユースビル 1F,35.6888554975,139.702481637
787,13,ルミネエスト新宿店,東京都 新宿区 新宿3-38-1 ルミネエスト ２Ｆ,35.6917226674,139.701139394
891,13,新宿マルイ本館2階店,東京都 新宿区 新宿3-30-13 新宿マルイ本館,35.6909980745,139.704106403
945,13,新宿マルイ本館8階店,東京都 新宿区 新宿3-30-13 新宿マルイ本館,35.6909405794,139.704035578
1763,13,新宿2丁目店,東京都 新宿区 新宿2-5-12 FORECAST新宿AVENUE,35.6895421778,139.707468413
1837,13,京王新宿三丁目ビル店,東京都 新宿区 新宿3-1-24 京王新宿三丁目ビル,35.6903259486,139.705504929
46,13,西新宿三井ビル店,東京都 新宿区 西新宿6-24-1 西新宿三井ビル,35.6951879185,139.689029685
235,13,新宿グリーンタワービル店,東京都 新宿区 西新宿6-14-1 新宿グリーンタワー,35.6922521317,139.68961866
686,13,新宿西口店,東京都 新宿区 西新宿1-12-1 高倉第一ビル,35.689971956,139.697404785
1308,13,ルミネ新宿店,東京都 新宿区 西新宿1-1-5 ルミネ新宿１,35.6890170894,139.699190514
1753,13,新宿中央公園  SHUKNOVA店,東京都 新宿区 西新宿2-11-5,35.6908217419,139.69034922
1801,13,新宿ミロード5階店,東京都 新宿区 西新宿1-1-3 新宿ミロード,35.6895145484,139.699889044
4331,13,小田急百貨店SHINJUKU DELISH PARK店,東京都 新宿区 西新宿1丁目西口地下街１号 小田急エース北館,35.6920453666,139.698617644
1582,13,慶應義塾大学病院店,東京都 新宿区 信濃町35,35.6819373523,139.718598117
86,13,飯田橋軽子坂店,東京都 新宿区 揚場町2-1 軽子坂ＭＮビル 1F,35.7018820278,139.742639369
339,13,飯田橋メトロピア店,東京都 新宿区 神楽坂1-13 南北線飯田橋駅構内,35.7019753734,139.74391287
1083,13,神楽坂下店,東京都 新宿区 神楽坂1-9-2 秀永ビル,35.7003769081,139.742473896
1464,13,早稲田大学戸山キャンパス店,東京都 新宿区 戸山1-24-1 早稲田アリーナ,35.705781998,139.71710742
903,13,新宿三井ビル店,東京都 新宿区 西新宿2-1-1 新宿三井ビルディング,35.6915064533,139.693923337
919,13,新宿野村ビル店,東京都 新宿区 西新宿1-26-2 新宿野村ビル B1F,35.6929854854,139.695273712
434,13,新宿エルタワー店,東京都 新宿区 西新宿1-6-1 新宿エルタワー,35.6922425484,139.697513005
229,13,中野通り店,東京都 中野区 中野5-64-5 中野サンピオーネビル 1F,35.7068390381,139.665442218
1878,13,中野セントラルパーク店,東京都 中野区 中野4-10-2 中野セントラルパークサウス,35.7072286367,139.660750923
1417,13,中野坂上メトロピア店,東京都 中野区 本町2-48-2 丸の内線中野坂上駅構内,35.6970287169,139.68240015
2336,13,Olive LOUNGE 高円寺店,東京都 杉並区 高円寺南4-27-12 Olive LOUNGE 1階,35.7045770684,139.650146648
443,13,ビーンズ阿佐ヶ谷駅前店,東京都 杉並区 阿佐谷南3-58-1 ビーンズ阿佐ヶ谷ぷらす,35.7048081797,139.635671173
1526,13,ビーンズ阿佐ヶ谷てくて店,東京都 杉並区 阿佐谷南2-42 ビーンズ阿佐ヶ谷てくて,35.7050198643,139.637992082
783,13,ルミネ荻窪店,東京都 杉並区 上荻1-7-1 ルミネ荻窪店,35.7046543173,139.620341342
1778,13,荻窪タウンセブン店,東京都 杉並区 上荻1-9-1 荻窪タウンセブン6F,35.7049967685,139.619644995
1284,13,TSUTAYA 浜田山店,東京都 杉並区 浜田山3-37-15,35.6851484382,139.625501256
2156,13,新大久保駅店,東京都 新宿区 百人町1-10-15,35.701421892,139.700240411
66,13,西武高田馬場駅店,東京都 新宿区 高田馬場1-35-2 高田馬場西武ラチ内コンコース,35.713022385,139.704083169
173,13,高田馬場早稲田通り店,東京都 新宿区 高田馬場1-25-32 １０８ビル 1F,35.712238347,139.706649658
524,13,大塚駅前店,東京都 豊島区 北大塚2-13-1 ba07,35.7322926966,139.728604134
1127,13,アトレヴィ大塚店,東京都 豊島区 南大塚3-33-1 アトレヴィ大塚,35.731242259,139.7289286
789,13,池袋サンシャイン通り店,東京都 豊島区 東池袋1-20-5 七富久ビル,35.730805404,139.715466405
327,13,池袋サンシャインシティ アルパ店,東京都 豊島区 東池袋3-1-1 サンシャインシティ アルパ 2F,35.7298180548,139.718056513
369,13,池袋西口店,東京都 豊島区 西池袋1-17-10 エキニア池袋,35.7310458173,139.708795003
1065,13,ルミネ池袋2階店,東京都 豊島区 西池袋1-11-1 ルミネ池袋,35.7292771342,139.709749727
1253,13,エチカ池袋店,東京都 豊島区 西池袋3-28-14,35.7313129909,139.707648142
1727,13,ルミネ池袋9階店,東京都 豊島区 西池袋1-11-1 ルミネ池袋,35.7287119145,139.709609765
2128,13,JR池袋駅 西口店,東京都 豊島区 西池袋1-1-25,35.7308744718,139.710231003
38,13,池袋明治通り店,東京都 豊島区 南池袋1-18-17 Ｉ＆Ｋビル 1F,35.7278098271,139.711806846
182,13,南池袋店,東京都 豊島区 南池袋2-16-4 ＳＫビル,35.7270543625,139.712384611
591,13,池袋ショッピングパーク南館店,東京都 豊島区 南池袋1-29-1 池袋ショッピングパーク,35.7301320943,139.712698888
4066,13,JR東日本ホテルメッツ 目白店,東京都 豊島区 目白1-4-1 JR東日本ホテルメッツ 目白3階,35.7210088028,139.706935897
1079,13,東武池袋店,東京都 豊島区 西池袋1-1-25 東武百貨店　池袋店,35.7301267751,139.710294921
1533,13,池袋ショッピングパーク北館店,東京都 豊島区 南池袋1-29-1 池袋ショッピングパーク,35.7306478764,139.712921623
648,13,日本大学板橋病院店,東京都 板橋区 大谷口上町30-1 日本大学医学部附属板橋病院,35.7494629947,139.69178529
4002,13,帝京大学板橋キャンパス店,東京都 板橋区 加賀2-11-1 帝京大学板橋キャンパス,35.7591981844,139.71454934
4221,13,板橋蓮根店,東京都 板橋区 蓮根2-9-12,35.782625248,139.673996907
135,13,イオン板橋店,東京都 板橋区 徳丸2-6-1 イオン板橋,35.7696153032,139.661102743
1361,13,エキア成増店,東京都 板橋区 成増2-13-1 EQUiA成増 2階,35.7775481301,139.632977492
1688,13,エミオ練馬店,東京都 練馬区 練馬1-3-5 エミオ練馬,35.7378683008,139.654215888
4489,13,エミオ石神井公園店,東京都 練馬区 石神井町3-23-5 エミオ石神井公園 1階,35.7433880074,139.607607838
387,13,大泉学園ゆめりあフェンテ店,東京都 練馬区 東大泉5-43-1 ゆめりあフェンテ,35.7494880916,139.586167116
1885,13,光が丘IMA店,東京都 練馬区 光が丘5-1-1 光が丘IMA,35.7589369923,139.628801751
2190,13,練馬光が丘病院店,東京都 練馬区 光が丘2-5-1,35.7619792659,139.634469751
39,13,井の頭公園店,東京都 武蔵野市 吉祥寺南町1-15-7 重川ビル,35.7007992717,139.578221962
964,13,アトレ吉祥寺店,東京都 武蔵野市 吉祥寺南町1-1-24　 アトレ吉祥寺,35.7031062651,139.57925177
1132,13,キラリナ京王吉祥寺店,東京都 武蔵野市 吉祥寺南町2-1-25,35.7026643832,139.580121718
71,13,吉祥寺東急店,東京都 武蔵野市 吉祥寺本町2-3-1 東急百貨店吉祥寺店 1F,35.7052854498,139.577720686
341,13,吉祥寺駅前店,東京都 武蔵野市 吉祥寺本町1-15-9 吉祥寺岩崎ビル,35.7039948028,139.580488849
200,13,武蔵境イトーヨーカドー店,東京都 武蔵野市 境南町2-3-6 イトーヨーカドー武蔵境店西館,35.7011775351,139.544726949
1644,13,吉祥寺パルコ店,東京都 武蔵野市 吉祥寺本町1-5-1 吉祥寺PARCO,35.7035711935,139.577998797
1325,13,三鷹武蔵境通り店,東京都 三鷹市 井口2-1-2,35.6887200747,139.550227899
943,13,アトレヴィ三鷹店,東京都 三鷹市 下連雀3-46-4,35.7024426705,139.560225603
1120,13,杏林大学病院店,東京都 三鷹市 新川6-20-2,35.6775557201,139.566519282
143,13,仙川駅前店,東京都 調布市 仙川町1-49-2 パール仙川 1F,35.6613838978,139.585804258
1422,13,トリエ京王調布店,東京都 調布市 布田4-4-22 トリエ京王調布 A館,35.651885303,139.544473128
1235,13,調布パルコ店,東京都 調布市 小島町1-38-1,35.6526582625,139.543708712
589,13,府中くるる店,東京都 府中市 宮町1-50 くるる,35.6711632375,139.480663929
1497,13,京王府中駅ビル店,東京都 府中市 府中町1-2-1 京王府中ショッピングセンター,35.6725319601,139.479523405
1456,13,nonowa東小金井店,東京都 小金井市 梶野町5-1-1 nonowa東小金井,35.7015599201,139.524584715
1212,13,nonowa武蔵小金井店,東京都 小金井市 本町6-14-29,35.700991897,139.507063974
1515,13,ミーツ国分寺店,東京都 国分寺市 本町3-1-1 cocobunji WEST,35.7006917369,139.4801565
1600,13,nonowa西国分寺店,東京都 国分寺市 西恋ヶ窪2-1-18 JR西国分寺駅 改札内 nonowa西国分寺店,35.699793254,139.46609021
1872,13,nonowa国立店,東京都 国立市 北1-14-1 nonowa国立,35.6993124167,139.447019316
447,13,国立店,東京都 国立市 東1-6-21,35.6977181431,139.447035221
1647,13,小平天神店,東京都 小平市 天神町1-12-9,35.7304757375,139.494000368
921,13,立川若葉店,東京都 立川市 若葉町1-11-7,35.7203255456,139.436762255
195,13,立川伊勢丹店,東京都 立川市 曙町2-5-1 伊勢丹立川店 1F,35.6993029398,139.413295728
1250,13,ルミネ立川店,東京都 立川市 曙町2-1-1 ルミネ立川店　1階,35.698495537,139.413913492
1292,13,ららぽーと立川立飛店,東京都 立川市 泉町935-1,35.7123732758,139.417149806
2251,13,エキュート立川店,東京都 立川市 柴崎町3-1-1 エキュート立川　３階,35.6981239007,139.413375776
811,13,イオンモール日の出1階店,東京都 西多摩郡 日の出町平井237-3 イオンモール日の出,35.7349014487,139.275568305
1805,13,イオンモール日の出2階店,東京都 西多摩郡 日の出町平井237-3 イオンモール日の出,35.734799221,139.274630332
1400,13,グランデュオ立川店,東京都 立川市 柴崎町3-2-1,35.697501769,139.414749301
745,13,日野万願寺店,東京都 日野市 万願寺4-24-6,35.6701143603,139.411296682
1239,13,イオンモール多摩平の森店,東京都 日野市 多摩平2-4-1,35.6614891937,139.380751561
4072,13,八王子宇津木店,東京都 八王子市 宇津木町777-1,35.6838287096,139.346706971
445,13,八王子オクトーレ店,東京都 八王子市 旭町9-1 八王子オクトーレ　1F,35.657423338,139.33867302
1175,13,セレオ八王子北館店,東京都 八王子市 旭町1-1 セレオ八王子,35.656247639,139.339158867
1098,13,多摩野猿街道店,東京都 八王子市 堀之内2-12-1,35.6288627631,139.401213586
1119,13,フレンテ南大沢店,東京都 八王子市 南大沢2-1-6 フレンテ南大沢,35.6140300827,139.379569955
2109,13,中央大学店,東京都 八王子市 東中野742-1,35.641748178,139.408453502
985,13,サザンスカイタワー八王子店,東京都 八王子市 子安町4-7-1 サザンスカイタワー八王子,35.6540878588,139.338520409
1056,13,元八王子店,東京都 八王子市 元八王子町1-409-2,35.665102745,139.288134919
1465,13,イーアス高尾店,東京都 八王子市 東浅川町550-1 イーアス高尾,35.643742003,139.289781322
1681,13,南町田グランベリーパーク店,東京都 町田市 鶴間3-4-1 南町田グランベリーパーク,35.5098681291,139.472740625
633,13,町田金森店,東京都 町田市 金森3-1-10,35.5300607816,139.461995032
1155,13,ぽっぽ町田店,東京都 町田市 原町田4-10-20,35.5423109158,139.449278024
1324,13,ルミネ町田店,東京都 町田市 原町田6-1-11,35.5419109058,139.446252738
898,13,町田パリオ店,東京都 町田市 森野1-15-13 パリオビル,35.5434270939,139.444042019
658,13,多摩境店,東京都 町田市 小山ヶ丘3-2-8,35.5999540867,139.379482555
4,13,町田東急ツインズWEST店,東京都 町田市 原町田6-4-1 町田東急ツインズ　ウエスト３階　W306,35.5430266221,139.446387953
4421,13,町田東急ツインズEAST店,東京都 町田市 原町田6-4-1 町田東急ツインズ イースト2階,35.5426030632,139.446779607
1315,13,小田急町田駅店,東京都 町田市 原町田6-12-20,35.5446339408,139.445849313
637,13,鶴川店,東京都 町田市 能ヶ谷1-5-1 小田急マルシェ鶴川２,35.5831195951,139.480431613
580,13,昭島モリタウン店,東京都 昭島市 代官山2-3-1 モリタウン,35.7136855377,139.36384945
4448,13,昭島駅前店,東京都 昭島市 代官山2-3-1 モリタウン１階,35.713669386,139.36142493
543,13,福生西友店,東京都 福生市 東町5-1 福生西友,35.7428612376,139.328130795
844,13,カインズホーム青梅店,東京都 青梅市 新町6-9-4,35.7941805321,139.315743905
1825,13,エミオひばりヶ丘店,東京都 西東京市 住吉町3-9-19 エミオひばりヶ丘,35.7517268586,139.545189582
1815,13,西東京新町店,東京都 西東京市 新町5-19-10,35.7121569951,139.533341
1712,13,イオンモール東久留米店,東京都 東久留米市 南沢5-17-62 イオンモール東久留米,35.7455061161,139.528199058
479,13,清瀬駅前店,東京都 清瀬市 元町1-8-1 三福ビル,35.7725747409,139.51981073
4328,13,羽村栄町店,東京都 羽村市 栄町2-2-6,35.7721110882,139.307853354
89,13,聖蹟桜ヶ丘オーパ店,東京都 多摩市 関戸4-72 聖蹟桜ヶ丘ＯＰＡ 1F,35.6499676895,139.446720779
1800,13,京王聖蹟桜ヶ丘SC店,東京都 多摩市 関戸1-10-1 京王聖蹟桜ヶ丘ショッピングセンター B館,35.651591134,139.447125393
2196,13,小田急多摩センター駅店,東京都 多摩市 落合1-11-2 小田急マルシェ多摩センター,35.6250113549,139.424232685
1391,13,稲城東長沼店,東京都 稲城市 東長沼1711-6,35.6379694939,139.508357879
370,13,ココリア多摩センター店,東京都 多摩市 落合1-46-1 ココリア多摩センター店,35.6228138294,139.425216871
1858,13,よみうりランドHANA・BIYORI店,東京都 稲城市 矢野口4015-1 よみうりランドHANA・BIYORI,35.6286464979,139.518291095
1859,13,よみうりランドグッジョバ!!店,東京都 稲城市 矢野口4015-1 よみうりランド,35.6237931323,139.518531021
725,13,イオンモールむさし村山2階店,東京都 武蔵村山市 榎1-1-3,35.7460663315,139.384937041
1450,13,むさし村山新青梅街道店,東京都 武蔵村山市 榎3-2-3,35.7510633468,139.387784352
1666,13,イオンモールむさし村山1階店,東京都 武蔵村山市 榎1-1-3 イオンモールむさし村山,35.7462310292,139.3845404
113,14,川崎モアーズ店,神奈川県 川崎市川崎区 駅前本町7 川崎モアーズ 2F,35.5305668174,139.699321132
888,14,アトレ川崎店,神奈川県 川崎市川崎区 駅前本町26-1 アトレ川崎,35.5308367591,139.697637093
1509,14,アトレ川崎 北側改札内店,神奈川県 川崎市川崎区 駅前本町26-1 アトレ川崎 北側改札内,35.531109503,139.697368492
409,14,川崎 ラ チッタデッラ店,神奈川県 川崎市川崎区 小川町4-1 LA CITTADELLA,35.528350366,139.698076338
1670,14,川崎ルフロン店,神奈川県 川崎市川崎区 日進町1-11 川崎ルフロン,35.5297338092,139.696930536
1802,14,ららテラス 武蔵小杉店,神奈川県 川崎市中原区 新丸子東3-1302 ららテラス 武蔵小杉1階,35.5753335682,139.660213152
4070,14,グランツリー武蔵小杉店,神奈川県 川崎市中原区 新丸子東3-1135-1 グランツリー武蔵小杉,35.5737640112,139.660060182
4444,14,ビーンズ武蔵中原店,神奈川県 川崎市中原区 上小田中4-2-1 Beans武蔵中原2階,35.5813142644,139.641276116
419,14,武蔵小杉北口店,神奈川県 川崎市中原区 小杉町1-403 STMビル,35.5774783195,139.659110645
1088,14,武蔵小杉東急スクエア店,神奈川県 川崎市中原区 小杉町3-472,35.5764373274,139.659547879
2153,14,日本医科大学 武蔵小杉病院店,神奈川県 川崎市中原区 小杉町1-383 日本医科大学 武蔵小杉病院,35.5806224168,139.658484997
697,14,ラゾーナ川崎3階店,神奈川県 川崎市幸区 堀川町72-1 ラゾーナ川崎プラザ 3F,35.5317843991,139.695551112
4025,14,ラゾーナ川崎1階店,神奈川県 川崎市幸区 堀川町72-1 ラゾーナ川崎プラザ1階,35.5322232523,139.696198815
809,14,Qiz溝の口店,神奈川県 川崎市高津区 溝口1-13-1 Qiz溝の口,35.5998865101,139.613222313
2301,14,小田急登戸駅店,神奈川県 川崎市多摩区 登戸3437-2 小田急マルシェ登戸1階,35.6205404802,139.569416389
1548,14,小田急アコルデ新百合ヶ丘北館店,神奈川県 川崎市麻生区 万福寺1-17-1 小田急アコルデ新百合ヶ丘北館店 3階,35.6043511339,139.507703371
1547,14,新百合ヶ丘エルミロード店,神奈川県 川崎市麻生区 上麻生1-4-1 小田急新百合ケ丘エルミロード,35.6033073767,139.508856101
206,14,横浜北幸店,神奈川県 横浜市西区 北幸2-6-1 ONEST横浜西口ビル,35.4668944108,139.61692674
353,14,横浜西口店,神奈川県 横浜市西区 南幸1-9-13 葉山ビル,35.4656057066,139.61960991
1286,14,横浜ジョイナス店,神奈川県 横浜市西区 南幸1-4 ジョイナス　B1F,35.467600216,139.619636205
1803,14,ニュウマン横浜店,神奈川県 横浜市西区 南幸1-1-1 NEWoMan横浜7階,35.4668872934,139.622881246
1082,14,横浜スカイビル店,神奈川県 横浜市西区 高島2-19-12 スカイビル,35.4647331202,139.625220873
1353,14,ルミネ横浜店,神奈川県 横浜市西区 高島2-16-1 ルミネ横浜 2F,35.4656163198,139.622974908
1512,14,横浜ポルタ店,神奈川県 横浜市西区 高島2-16-B1 横浜ポルタ,35.4651349791,139.622785501
8,14,みなとみらい東急スクエア店,神奈川県 横浜市西区 みなとみらい2-3-9 みなとみらい東急スクエア ②１Ｆ,35.4568818921,139.634056334
49,14,横浜ランドマークプラザ店,神奈川県 横浜市西区 みなとみらい2-2-1 横浜ランドマークタワー,35.4544737693,139.631365002
1190,14,横浜アイマークプレイス店,神奈川県 横浜市西区 みなとみらい4-4-5,35.4603167065,139.628559688
1722,14,オーシャンゲートみなとみらい店,神奈川県 横浜市西区 みなとみらい3-7-1 OCEAN GATE MINATOMIRAI,35.4581128818,139.634644562
2015,14,TSUTAYA 横浜みなとみらい店,神奈川県 横浜市西区 みなとみらい4-7-1 ミッドスクウェア,35.4588102345,139.630479876
4330,14,そごう横浜店,神奈川県 横浜市西区 高島2-18-1 そごう横浜店3階,35.4655174767,139.62498919
72,14,横浜モアーズ店,神奈川県 横浜市西区 南幸1-3-1 横浜モアーズ 2F,35.4670392094,139.622184908
1326,14,横浜モアーズ8階店,神奈川県 横浜市西区 南幸1-3-1 横浜モアーズ　8階,35.4669864377,139.622208797
1327,14,横浜ビブレ店,神奈川県 横浜市西区 南幸2-15-13 横浜ビブレ 2F,35.4649529806,139.618572526
2045,14,日産グローバル本社ギャラリー店,神奈川県 横浜市西区 高島1-1-1 NISSAN GLOBAL HEADQUARTERS GALLERY,35.4640101689,139.626759945
1393,14,横浜ベイクォーター店,神奈川県 横浜市神奈川区 金港町1-10 横浜ベイクォーター 3階,35.4668754136,139.626511223
1195,14,トレッサ横浜店,神奈川県 横浜市港北区 師岡町700 トレッサ横浜 北棟2階,35.5258119459,139.645760244
626,14,大倉山駅前店,神奈川県 横浜市港北区 大倉山1-2-10,35.521615457,139.630237004
45,14,新横浜店,神奈川県 横浜市港北区 新横浜2-5-1 日総第１３ビル 1F,35.5086599119,139.61511469
219,14,新横浜３丁目店,神奈川県 横浜市港北区 新横浜3-17-2 友泉新横浜ビル,35.5107413984,139.61754467
2013,14,キュービックプラザ新横浜3階店,神奈川県 横浜市港北区 新横浜2-100-45 キュービックプラザ新横浜 3F,35.5077042312,139.617999772
2070,14,キュービックプラザ新横浜2階店,神奈川県 横浜市港北区 新横浜2-100-45 キュービックプラザ新横浜　2Ｆ,35.5073337046,139.617387062
1584,14,アピタテラス横浜綱島店,神奈川県 横浜市港北区 綱島東4-3-17,35.5424881499,139.641873688
2273,14,TSUTAYA BOOKSTORE 新綱島店,神奈川県 横浜市港北区 綱島東1-9-9 SHINSUI3階,35.5362917619,139.63578309
1742,14,エトモ綱島店,神奈川県 横浜市港北区 綱島西1-1-8 エトモ綱島,35.5365664297,139.634350696
1429,14,都筑パーキングエリア（上り線）店,神奈川県 横浜市港北区 新吉田町5203-1 第三京浜道路　都筑パーキングエリア（上り線）内,35.544046745,139.602793528
266,14,日吉店,神奈川県 横浜市港北区 日吉2-2-3 山村ビル 1F,35.5537717462,139.646506395
4462,14,そよら横浜高田店,神奈川県 横浜市港北区 高田西1-1-47 そよら横浜高田2階,35.5497883532,139.618702498
663,14,モザイクモール港北店,神奈川県 横浜市都筑区 中川中央1-31-1 モザイクモール港北　（区画番号2193),35.5544160469,139.578613948
761,14,港北ノースポート・モール店,神奈川県 横浜市都筑区 中川中央1-25-1 ノースポート・モール,35.5520915855,139.579313163
2016,14,蔦屋書店 港北ミナモ店,神奈川県 横浜市都筑区 中川中央2-7-1 港北ミナモ,35.5507999868,139.575292446
1528,14,港北東急S.C.店,神奈川県 横浜市都筑区 茅ケ崎中央5-1 港北東急ショッピングセンター,35.5439056844,139.573012119
4146,14,横浜折本店,神奈川県 横浜市都筑区 折本町251-1,35.5215000768,139.591859919
719,14,ららぽーと横浜店,神奈川県 横浜市都筑区 池辺町4035-1 ららぽーと横浜　(店舗番号35010),35.5172231463,139.566468891
906,14,たまプラーザテラス店,神奈川県 横浜市青葉区 美しが丘1-1-2 たまプラーザテラスゲートプラザ,35.5772471496,139.558909255
4109,14,エトモあざみ野店,神奈川県 横浜市青葉区 あざみ野2-1-3 エトモあざみ野,35.5679319309,139.552960456
1267,14,あざみ野みすずが丘店,神奈川県 横浜市青葉区 あざみ野南4-5-7,35.5605591911,139.541793667
4388,14,横浜荏田西店,神奈川県 横浜市青葉区 荏田西5-6-7,35.5441277305,139.548391098
1702,14,ビーンズ中山店,神奈川県 横浜市緑区 寺山町59 ビーンズ中山,35.5145199097,139.539554584
644,14,カエデウォーク長津田店,神奈川県 横浜市緑区 長津田みなみ台4-7-1 カエデウォーク長津田,35.5180474131,139.497737895
183,14,青葉台東急スクエア店,神奈川県 横浜市青葉区 青葉台2-1-1 青葉台東急スクエア Ｓｏｕｔｈ 1F,35.5419818358,139.515834456
730,14,横浜鶴見店,神奈川県 横浜市鶴見区 諏訪坂5-27,35.5149409544,139.665549934
1262,14,CIAL鶴見店,神奈川県 横浜市鶴見区 鶴見中央1-1-2 CIAL鶴見,35.5079646755,139.676838485
2247,14,JR東日本ホテルメッツ 横浜鶴見店,神奈川県 横浜市鶴見区 鶴見中央1-31-2 JR東日本ホテルメッツ 横浜鶴見,35.507470284,139.676841285
758,14,横浜ワールドポーターズ店,神奈川県 横浜市中区 新港2-2-1 横浜ワールドポーターズ,35.4546719226,139.638172205
1659,14,横浜ハンマーヘッド店,神奈川県 横浜市中区 新港2-14-1 横浜ハンマーヘッド,35.4556071566,139.641396061
1711,14,北仲ブリック＆ホワイト店,神奈川県 横浜市中区 北仲通5-57-2 KITANAKA BRICK & WHITE,35.450972825,139.635378997
1865,14,横浜市役所 ラクシス フロント店,神奈川県 横浜市中区 本町6-50-10 横浜市役所 ラクシス フロント,35.4509325272,139.633986892
96,14,関内馬車道店,神奈川県 横浜市中区 常盤町4-45 アートビル 1F,35.4468063299,139.635590282
306,14,横浜公園店,神奈川県 横浜市中区 日本大通り60 朝日生命横浜ビル 1F,35.4455554377,139.64046188
1191,14,CIAL桜木町店,神奈川県 横浜市中区 桜木町1-1,35.4511418983,139.631068236
1806,14,CIAL 桜木町 ANNEX店,神奈川県 横浜市中区 桜木町1-1-93 CIAL 桜木町 ANNEX,35.4499995312,139.631683237
44,14,横浜元町店,神奈川県 横浜市中区 元町1-13-5 ラヴィ元町 1F,35.4415999281,139.650675658
272,14,ウィング上大岡店,神奈川県 横浜市港南区 上大岡西1-6-1 ウィング上大岡 2F,35.4092502171,139.596350548
1799,14,京急百貨店6階店,神奈川県 横浜市港南区 上大岡西1-6-1 京急百貨店,35.4093502144,139.596811616
991,14,港南台バーズ店,神奈川県 横浜市港南区 港南台3-1-3 港南台バーズ,35.3752179688,139.577296198
570,14,らびすた新杉田店,神奈川県 横浜市磯子区 杉田1-1-1 らびすた新杉田,35.3850965379,139.619478073
1777,14,三井アウトレットパーク 横浜ベイサイド店,神奈川県 横浜市金沢区 白帆5-2 三井アウトレットパーク 横浜ベイサイド,35.3797803677,139.647151853
995,14,イオン金沢八景店,神奈川県 横浜市金沢区 泥亀1-27-1 イオン金沢八景,35.3343206385,139.6228243
998,14,コースカベイサイドストアーズ店,神奈川県 横須賀市 本町2-1-12 コースカベイサイドストアーズ,35.2827176604,139.66113155
246,14,横須賀モアーズシティ店,神奈川県 横須賀市 若松町2-30 横須賀モアーズシティ 2F,35.2781533132,139.670552089
4162,14,横須賀大津店,神奈川県 横須賀市 大津町1-22-25,35.2651162226,139.693676324
4133,14,イオン天王町店,神奈川県 横浜市保土ケ谷区 川辺町3-5 イオン天王町,35.4579092426,139.599981617
512,14,横浜ビジネスパーク店,神奈川県 横浜市保土ケ谷区 神戸町134 横浜ビジネスパーク/プレッツォ,35.4541462608,139.597063977
1483,14,葉山店,神奈川県 三浦郡 葉山町長柄1809-1,35.2877076646,139.59651252
2114,14,TSUTAYA 鶴ヶ峰駅前店,神奈川県 横浜市旭区 鶴ヶ峰2-82-1 ココロット鶴ヶ峰,35.4747054581,139.549783068
1610,14,横浜今宿店,神奈川県 横浜市旭区 今宿東町1527-2,35.4805737306,139.534525454
1568,14,ジョイナステラス二俣川店,神奈川県 横浜市旭区 二俣川2-91-7,35.4630511146,139.531905089
319,14,大和オークシティ店,神奈川県 大和市 下鶴間1-2-1 イオンモール大和ショッピングセンター,35.4890836921,139.457213983
4106,14,エトモ中央林間店,神奈川県 大和市 中央林間4-6-3 エトモ中央林間2階,35.5075631682,139.444959427
1421,14,YAMATO文化森店,神奈川県 大和市 大和南1-8-1 YAMATO文化森　,35.4693220496,139.464810373
1701,14,本厚木ミロード店,神奈川県 厚木市 泉町1-1 本厚木ミロード,35.4396959549,139.363845678
57,14,本厚木店,神奈川県 厚木市 中町2-6-20 人の森本厚木中町ビル １F,35.4408186257,139.364597786
814,14,厚木及川店,神奈川県 厚木市 及川1101-1,35.4699248113,139.340353737
1507,14,EXPASA海老名サービスエリア（上り線）店,神奈川県 海老名市 大谷南5-1-1,35.4319185057,139.398644257
351,14,海老名店,神奈川県 海老名市 中央1-4-1 ビナウォーク５番館,35.4518004535,139.393359891
1171,14,海老名中央店,神奈川県 海老名市 中央2-2-8,35.448362743,139.392065713
1293,14,ららぽーと海老名店,神奈川県 海老名市 扇町13-1 ららぽーと海老名　2F,35.4559363301,139.389356978
2060,14,蔦屋書店 海老名市立中央図書館店,神奈川県 海老名市 めぐみ町7ー1,35.4511926147,139.386142463
2243,14,TSUTAYA BOOKSTORE 海老名店,神奈川県 海老名市 めぐみ町3-1 ビナガーデンズ パーチ,35.453634633,139.389421523
348,14,戸塚店,神奈川県 横浜市戸塚区 戸塚町10 ラピス戸塚１ 1F,35.4013074902,139.534724921
922,14,東急プラザ戸塚店,神奈川県 横浜市戸塚区 戸塚町16-1 (区画番号Ｄ-101）,35.4008358459,139.533119242
4010,14,西武東戸塚S.C.店,神奈川県 横浜市戸塚区 品濃町537-1 西武東戸塚S.C.店 西武館4階,35.4302428627,139.558307463
2138,14,TSUTAYA BOOKSTORE 弥生台店,神奈川県 横浜市泉区 弥生台16-3 KNOCKS横浜弥生台,35.4286801899,139.507040959
2256,14,TSUTAYA BOOKSTORE ゆめが丘ソラトス店,神奈川県 横浜市泉区 ゆめが丘31 ゆめが丘ソラトス1  2階,35.4046045544,139.482256626
2135,14,TSUTAYA 相鉄ライフ三ツ境店,神奈川県 横浜市瀬谷区 三ツ境2-19 相鉄ライフ三ツ境,35.4679025924,139.503094759
1807,14,大船グランシップ店,神奈川県 横浜市栄区 笠間2-2-1 グランシップ,35.3548102071,139.532766113
380,14,大船ルミネウィング店,神奈川県 鎌倉市 大船1-4-1 ルミネウィング,35.352832892,139.531241886
2246,14,アトレ大船店,神奈川県 鎌倉市 大船1-1-1 アトレ大船,35.3535033658,139.53066607
396,14,鎌倉店,神奈川県 鎌倉市 小町1-2-7 鎌倉とうきゅう,35.318450248,139.550996829
624,14,鎌倉御成町店,神奈川県 鎌倉市 御成町15-11,35.3196414556,139.547911475
531,14,逗子駅前店,神奈川県 逗子市 逗子1-4-1 菊池ビルディング,35.2970927495,139.579329071
2123,14,JR東海 小田原駅店,神奈川県 小田原市 城山1-1-1 JR小田原駅構内,35.2566057824,139.155180049
1229,14,南足柄店,神奈川県 南足柄市 竹松1003,35.3262923974,139.11776828
1124,14,小田原飯泉店,神奈川県 小田原市 飯泉374-1,35.2893962167,139.174100579
132,14,小田原Ｄｙｎａｃｉｔｙ ＷＥＳＴ店,神奈川県 小田原市 中里208 Ｄｙｎａｃｉｔｙ ＷＥＳＴ 1F,35.2845008287,139.185523744
1024,14,テラスモール湘南店,神奈川県 藤沢市 辻堂神台1-3-1 テラスモール湘南,35.3380099401,139.446407392
685,14,ミスターマックス湘南藤沢ショッピングセンター店,神奈川県 藤沢市 辻堂新町4-3-5 ミスターマックス湘南藤沢ショッピングセンター,35.3402025332,139.465164622
2061,14,湘南 蔦屋書店,神奈川県 藤沢市 辻堂元町6-20-1,35.3340376066,139.463421162
322,14,ルミネ藤沢店,神奈川県 藤沢市 藤沢438-1 ルミネ藤沢,35.3388419533,139.487246184
2219,14,リエール藤沢店,神奈川県 藤沢市 南藤沢1-2 リエール藤沢,35.338626431,139.487830868
1558,14,イオンモール座間店,神奈川県 座間市 広野台2-10-4,35.5013587686,139.425437445
127,14,イオン橋本店,神奈川県 相模原市緑区 橋本6-2-1 イオン橋本,35.5961694424,139.344866438
4314,14,ミウィ橋本店,神奈川県 相模原市緑区 橋本3-28-1 ミウィ橋本2階,35.5949384781,139.345731422
983,14,アリオ橋本店,神奈川県 相模原市緑区 大山町1-22 アリオ橋本,35.590895633,139.348926066
997,14,相模原共和店,神奈川県 相模原市中央区 共和4-19-20,35.5625631135,139.396956715
1151,14,小田急相模大野ステーションスクエア店,神奈川県 相模原市南区 相模大野3-8-1,35.5318693196,139.437078407
1092,14,北里大学病院店,神奈川県 相模原市南区 北里1-15-1 北里大学病院本館1階,35.5377254524,139.394666104
81,14,湘南台駅ビル店,神奈川県 藤沢市 湘南台2-15 小田急マルシェ湘南台２,35.3961029724,139.466850797
450,14,湘南台イトーヨーカドー店,神奈川県 藤沢市 石川6-2-1 イトーヨーカドー湘南台店,35.3927607649,139.447225914
1534,14,藤沢菖蒲沢店,神奈川県 藤沢市 菖蒲沢929,35.4012564261,139.441686539
146,14,茅ヶ崎スルガビル店,神奈川県 茅ヶ崎市 元町2-3 Ｇ．Ｃ．ＣＨＩＧＡＳＡＫＩ 3F,35.3311024839,139.406617126
4259,14,ジ アウトレット湘南平塚店,神奈川県 平塚市 大神8丁目1-1 ジ アウトレット湘南平塚,35.3914844464,139.363930946
1108,14,平塚田村店,神奈川県 平塚市 田村1-5-7 クロスガーデン平塚,35.3663448671,139.361290934
1385,14,ららぽーと湘南平塚店,神奈川県 平塚市 天沼10-1,35.3377064276,139.354777238
254,14,平塚ラスカ店,神奈川県 平塚市 宝町1-1 ラスカステーションビル 3F,35.3277129672,139.34992199
1052,14,イオン秦野店,神奈川県 秦野市 入船町12-1 イオン秦野,35.3777902096,139.228349225
1172,14,伊勢原成瀬店,神奈川県 伊勢原市 下糟屋2008-1,35.4082966731,139.324011543
1085,14,東海大学医学部付属病院店,神奈川県 伊勢原市 下糟屋143 東海大学医学部付属病院,35.4077637935,139.3149176
1556,15,CoCoLo長岡店,新潟県 長岡市 城内町1-611-1 CoCoLo長岡2階,37.4478364213,138.853851397
4380,15,長岡宮内店,新潟県 長岡市 宮内町3371-1,37.4238116558,138.847381652
760,15,長岡リバーサイド千秋店,新潟県 長岡市 千秋2-278 リバーサイド千秋,37.4605004308,138.82698249
1611,15,長岡七日町店,新潟県 長岡市 七日町川原470-1,37.4466188209,138.808837969
1892,15,直江津店,新潟県 上越市 西本町3-8-8 直江津ショッピングセンター 2F,37.1709788909,138.238164167
1194,15,上越店,新潟県 上越市 下門前1766,37.1579455495,138.253311009
1798,15,上越高田城址公園店,新潟県 上越市 本城町9-12,37.1084428841,138.258767835
1686,15,柏崎穂波町店,新潟県 柏崎市 穂波町13-8,37.3606789701,138.561474692
1074,15,新潟松崎店,新潟県 新潟市東区 松崎862,37.9338242511,139.113394131
1574,15,CoCoLo新潟店,新潟県 新潟市中央区 花園1-602 CoCoLo新潟 WEST SIDE 2階,37.9119412267,139.060694793
1759,15,新潟マルタケビル店,新潟県 新潟市中央区 東大通1-4-1 マルタケビル 1階,37.9137377153,139.06150131
238,15,新潟万代シテイ店,新潟県 新潟市中央区 万代1-6-1,37.9166636953,139.056009131
803,15,イオンモール新潟亀田インター店,新潟県 新潟市江南区 下早通柳田1-1-1 イオンモール新潟亀田インター,37.8761837473,139.081453604
4138,15,新潟亀田店,新潟県 新潟市江南区 鵜ノ子2-2-11,37.8713911135,139.092154047
1525,15,新潟中野山店,新潟県 新潟市東区 若葉町1-1-31,37.8977727805,139.110596301
1546,15,新潟紫竹山店,新潟県 新潟市中央区 紫竹山5-2-19,37.8972929233,139.068123184
1448,15,新潟女池店,新潟県 新潟市中央区 女池上山2-9-19,37.8927318935,139.028949703
938,15,黒埼パーキングエリア（下り線）店,新潟県 新潟市西区 木場1206-3 黒埼パーキングエリア（下り線）,37.82399373,138.983519141
470,15,アピタ新潟西店,新潟県 新潟市西区 小新5-7-21 アピタ 新潟西店,37.8807277334,139.0035232
4046,15,新潟小新店,新潟県 新潟市西区 小新南1-21-10,37.868482395,138.988681386
1731,15,三条東新保店,新潟県 三条市 東新保9-16,37.6181859299,138.962390928
4204,15,新潟新津店,新潟県 新潟市秋葉区 新津5149-2,37.80516129,139.11017199
4065,15,新発田小舟店,新潟県 新発田市 小舟町1-8-9,37.9636586243,139.323809449
610,15,イオンモール新発田店,新潟県 新発田市 住吉町5-11-5 イオンモール新発田,37.9424323247,139.310263496
4080,16,富山マルート店,富山県 富山市 明輪町1-231 マルート1階,36.7014275811,137.212122389
1207,16,マリエとやま店,富山県 富山市 桜町1-1-61 マリエとやま 1階,36.7005490908,137.213660079
794,16,富山総曲輪フェリオ店,富山県 富山市 総曲輪3-8-6 総曲輪フェリオ,36.6896405272,137.213193954
897,16,富山環水公園店,富山県 富山市 湊入船町5 富山富岩運河環水公園,36.7093945331,137.213633008
806,16,富山藤の木店,富山県 富山市 開1330,36.6814374928,137.259589923
4291,16,富山天正寺店,富山県 富山市 天正寺1125,36.6822678089,137.250963934
1298,16,三井アウトレットパーク北陸小矢部店,富山県 小矢部市 西中野972-1,36.6891956131,136.881430138
431,16,イオンモール高岡店,富山県 高岡市 下伏間江383,36.7235932053,137.017824171
1295,16,イオンモール高岡 2階 セントラルコート店,富山県 高岡市 下伏間江383 イオンモール高岡,36.7240300552,137.015086323
4344,16,高岡泉町店,富山県 高岡市 泉町3-9,36.7358885858,137.003580899
1826,16,射水歌の森運動公園店,富山県 射水市 黒河713-4,36.7119323145,137.102155482
986,16,富山ファボーレ店,富山県 富山市 婦中町下轡田165-1 フューチャーシティ　ファボーレ,36.6627576706,137.171281728
1223,16,富山けやき通り店,富山県 富山市 布瀬町南3-6-7,36.6735659279,137.201308459
1862,17,クロスゲート金沢店,石川県 金沢市 広岡1-5-3 クロスゲ－ト金沢 1階,36.5799812719,136.647941225
4103,17,金沢藤江店,石川県 金沢市 藤江北4-475,36.5910637678,136.620151356
1089,17,金沢フォーラス6階クーゴ店,石川県 金沢市 堀川新町3-1 金沢フォーラス 6F,36.5792849882,136.649699999
4186,17,金沢フォーラス1階店,石川県 金沢市 堀川新町3-1 金沢フォーラス 1F,36.5790955598,136.649455862
1844,17,金沢百番街Rinto店,石川県 金沢市 木ノ新保町1-1 金沢百番街Rinto 1階,36.5786316927,136.647864349
358,17,香林坊店,石川県 金沢市 香林坊2-1-1 クラソ・プレイス香林坊,36.562770707,136.653334902
1336,17,金沢鞍月店,石川県 金沢市 戸水1-429,36.6020298236,136.620526653
1261,17,金沢エムザ店,石川県 金沢市 武蔵町15-1 金沢エムザ,36.5719844772,136.655256263
1023,17,金沢大桑店,石川県 金沢市 大桑2-394,36.5346013367,136.675919324
4114,17,金沢有松店,石川県 金沢市 有松3-3-36,36.5412730487,136.639853123
746,17,野々市市役所前店,石川県 野々市市 三納1-46,36.5184168884,136.608396788
4410,17,野々市堀内店,石川県 野々市市 堀内5-241,36.5321094335,136.599408848
4284,17,小松打越店,石川県 小松市 打越町い201,36.4008668758,136.476262897
1460,17,イオンモール新小松店,石川県 小松市 清六町315,36.3944648879,136.466379568
4034,17,イオンモール白山店,石川県 白山市 横江町5001,36.5441889622,136.582788006
4035,17,TSUTAYA BOOKSTORE イオンモール白山店,石川県 白山市 横江町5001,36.5455279667,136.581703034
500,17,フェアモール松任店,石川県 白山市 幸明町232-1 フェアモール松任,36.517682817,136.57755355
883,17,イオンモールかほく店,石川県 かほく市 内日角タ25 イオンモールかほく,36.7102643579,136.700043676
4393,18,くるふ福井駅店,福井県 福井市 中央1-1-25 くるふ福井駅内,36.0616951168,136.222882057
1260,18,福井二の宮 藤島通り店,福井県 福井市 二の宮3-2-11,36.0833904972,136.218482535
527,18,フェアモール福井店,福井県 福井市 大和田2-1230 フェアモール福井,36.0972756882,136.250831153
4483,18,そよら福井開発店,福井県 福井市 西開発3-205 そよら福井開発1階,36.0826939302,136.235824738
4085,18,敦賀駅前店,福井県 敦賀市 鉄輪町1-3-40,35.6448812716,136.074342475
1569,18,武生中央公園店,福井県 越前市 高瀬2-7-131 武生中央公園,35.9004709632,136.15873342
1355,18,福井花堂店,福井県 福井市 花堂南1-4-19,36.034548136,136.21359269
1311,18,福井西環状　やしろ店,福井県 福井市 渕2-1717,36.0461356068,136.187458216
2051,18,福井県済生会病院店,福井県 福井市 和田中町舟橋7-1 福井県済生会病院,36.0469224919,136.252491945
937,18,南条サービスエリア（上り線）店,福井県 南条郡 南越前町牧谷39 南条サービスエリア（上り線）,35.8312157823,136.201377789
1734,18,福井春江店,福井県 坂井市 春江町随応寺東46,36.1344109727,136.224171658
4384,19,セレオ甲府店,山梨県 甲府市 丸の内1-1-8 セレオ甲府2階,35.6668841614,138.569091775
907,19,ラザウォーク甲斐双葉店,山梨県 甲斐市 志田柿木645-1 ラザウォーク甲斐双葉,35.6845819183,138.485438186
1060,19,甲府和戸通り店,山梨県 甲府市 向町172-4,35.6484155067,138.612532352
1784,19,甲府平和通り店,山梨県 甲府市 住吉2-6-17,35.6365009939,138.56746942
1620,19,富士急ハイランド店,山梨県 富士吉田市 新西原5-6-1 富士急ハイランド,35.485848855,138.778812972
1282,19,富士吉田店,山梨県 富士吉田市 上吉田東4-14-22,35.4753129846,138.8075944
1523,19,談合坂サービスエリア(上り線)店,山梨県 上野原市 大野4943,35.6278013889,139.04569316
1044,19,EXPASA談合坂サービスエリア（下り線）店,山梨県 上野原市 野田尻710 中央自動車道　談合坂サービスエリア(下り線）内,35.6328744999,139.064031126
597,19,甲府リバーシティ店,山梨県 中央市 山ノ神1122 リバーシティショッピングセンター,35.6148848544,138.512988551
1013,19,イオンモール甲府昭和1階店,山梨県 中巨摩郡 昭和町飯喰1505-1 イオンモール甲府昭和1階,35.6231208876,138.527156995
1660,19,イオンモール甲府昭和3階店,山梨県 中巨摩郡 昭和町飯喰1505-1 イオンモール甲府昭和3階,35.6209319514,138.526945169
913,19,甲府アルプス通り店,山梨県 中巨摩郡 昭和町清水新居59-12,35.6509656907,138.543269375
740,19,山梨大学医学部附属病院店,山梨県 中央市 下河東1110 山梨大学医学部附属病院,35.6099100103,138.539156885
497,20,長野駅前店,長野県 長野市 南千歳町826 C-one,36.6449628888,138.18800061
1789,20,信州善光寺仲見世通り店,長野県 長野市 元善町483,36.658818902,138.187727772
1192,20,MIDORI長野店,長野県 長野市 南千歳1-22-6,36.6437146981,138.188525068
979,20,長野南高田店,長野県 長野市 南高田1-16-7,36.6429026102,138.223043905
1263,20,長野川中島店,長野県 長野市 稲里町中氷鉋963-1,36.6098593948,138.170580062
4386,20,佐久平南店,長野県 佐久市 岩村田5509‐1,36.2710849052,138.463026374
1677,20,フレスポ佐久インター店,長野県 佐久市 岩村田北1-22-3 フレスポ佐久インター,36.2839891206,138.481224268
856,20,イオンモール佐久平店,長野県 佐久市 佐久平駅南11-10 イオンモール佐久平,36.2758616273,138.463643047
1785,20,上田中央店,長野県 上田市 中央北1-6-34,36.4074228531,138.258049063
571,20,イオン上田店,長野県 上田市 常田2-12-18 イオン上田ショッピングセンター,36.3920211661,138.257990333
1022,20,アリオ上田店,長野県 上田市 天神3-5-1 アリオ上田,36.399329031,138.244111427
546,20,軽井沢・プリンスショッピングプラザ店,長野県 北佐久郡 軽井沢町軽井沢 軽井沢・プリンスショッピングプラザ・ニューイースト,36.3419739856,138.637732489
1586,20,千曲店,長野県 千曲市 内川736-1,36.5084573809,138.134074429
2024,20,TSUTAYA 東松本店,長野県 松本市 元町1-2-1,36.2398428798,137.980833969
1519,20,イオンモール松本店,長野県 松本市 中央4-9-51 イオンモール松本,36.2337898721,137.978310846
775,20,MIDORI松本店,長野県 松本市 深志1-1-1 MIDORI松本店,36.2311113069,137.964538502
1567,20,松本庄内店,長野県 松本市 出川1-1-3,36.2198835608,137.977113253
4385,20,松本笹部店,長野県 松本市 笹部2-1-55,36.2158355156,137.952919337
4283,20,茅野中沖店,長野県 茅野市 中沖1-8,36.0017593469,138.133586691
1071,20,諏訪湖サービスエリア（上り線）店,長野県 諏訪市 豊田所久保3171 中央自動車道　諏訪湖サービスエリア(上り線）内,36.027046223,138.077781272
1179,20,諏訪城南店,長野県 諏訪市 城南2-2312-1,36.0304649385,138.120592837
1407,20,レイクウォーク岡谷店,長野県 岡谷市 銀座1-1-5 レイクウォーク岡谷,36.0657235846,138.052252167
4428,20,飯田アップルロード店,長野県 飯田市 鼎一色160-8,35.5004881766,137.811845382
1500,20,伊那ナイスロード店,長野県 伊那市 上新田2405-1,35.8288205248,137.968978324
1394,20,松本平田店,長野県 松本市 平田東2-18-14,36.1896649011,137.964216549
1891,20,塩尻店,長野県 塩尻市 広丘吉田986-1,36.1557482972,137.950958934
1828,20,安曇野豊科店,長野県 安曇野市 豊科南穂高629-12,36.3013176982,137.917504176
948,20,梓川サービスエリア(上り線)店,長野県 安曇野市 豊科高家961-1 梓川サービスエリア(上り線),36.2704126483,137.932131606
1741,20,スノーピークランドステーション白馬店,長野県 北安曇郡 白馬村北城5490 Snow Peak LAND STATION HAKUBA,36.6981636171,137.855748809
1378,21,みんなの森 ぎふメディアコスモス店,岐阜県 岐阜市 司町40-5 みんなの森 ぎふメディアコスモス,35.4271182006,136.759638367
1200,21,岐阜茜部店,岐阜県 岐阜市 茜部野瀬2-14-1,35.3769383358,136.746351781
2056,21,ASTY岐阜店,岐阜県 岐阜市 橋本町1-10-1 ASTY岐阜3F,35.4095519905,136.757722391
1841,21,本巣北方店,岐阜県 本巣郡 北方町平成8-1,35.4335433233,136.678787008
678,21,モレラ岐阜店,岐阜県 本巣市 三橋1100 モレラ岐阜,35.4549056677,136.673468688
2263,21,TSUTAYA BOOKSTORE モレラ岐阜店,岐阜県 本巣市 三橋1100 モレラ岐阜2階,35.4568171157,136.672654779
532,21,関 マーゴ店,岐阜県 関市 倉知516 サンサンシティ　マーゴ,35.478092976,136.899897427
4220,21,関倉知店,岐阜県 関市 倉知627,35.4794947617,136.899394349
4063,21,TSUTAYA BOOKSTORE カラフルタウン岐阜店,岐阜県 岐阜市 柳津町丸野3-3-6 カラフルタウン岐阜1階,35.3646129312,136.72722727
1404,21,羽島福寿店,岐阜県 羽島市 福寿町千代田3-27,35.3192123091,136.683952955
988,21,岐阜正木店,岐阜県 岐阜市 正木中2-3-8,35.448958893,136.742189088
4282,21,岐阜菅生店,岐阜県 岐阜市 菅生6-7-16,35.4258278195,136.729917006
763,21,イオンモール大垣店,岐阜県 大垣市 外野2-100 イオンモール大垣,35.3366361655,136.613858252
4140,21,大垣島里店,岐阜県 大垣市 島里2-92,35.3244064628,136.619597782
1792,21,アクアウォーク大垣店,岐阜県 大垣市 林町6-80-21 アクアウォーク大垣,35.3699246073,136.617171444
1665,21,各務原蘇原店,岐阜県 各務原市 蘇原瑞穂町5-54,35.4133562966,136.85261128
782,21,イオンモール各務原店,岐阜県 各務原市 那加萱場町3-8 イオンモール各務原,35.3917553374,136.824452113
1662,21,美濃加茂新池店,岐阜県 美濃加茂市 新池町1-6-35,35.4525565041,137.025020712
1363,21,高山岡本店,岐阜県 高山市 岡本町2-47,36.142892654,137.247009932
1484,21,多治見光ケ丘店,岐阜県 多治見市 光ケ丘4-48-2,35.3470345417,137.109358844
4087,21,ルビットタウン中津川店,岐阜県 中津川市 淀川町3-8 ルビットタウン中津川,35.4971812718,137.507616078
2100,21,草叢BOOKS 各務原店,岐阜県 各務原市 鵜沼各務原町8-7 アピタ各務原,35.3980407867,136.904567392
1893,21,可児広見店,岐阜県 可児市 広見6-1,35.42260343,137.063177533
4132,21,イオンモール土岐店,岐阜県 土岐市 土岐津町土岐口1372-1 イオンモール土岐,35.3470731031,137.154457319
952,21,恵那峡サービスエリア（下り線）店,岐阜県 恵那市 大井町2194-82 恵那峡サービスエリア（下り線）,35.4541218928,137.438523798
1603,21,恵那店,岐阜県 恵那市 長島町正家3-8-41,35.446032667,137.417408702
1765,22,沼津花園店,静岡県 沼津市 花園町10-15,35.1211597226,138.869411963
1691,22,ららぽーと沼津店,静岡県 沼津市 東椎路東荒301-3 ららぽーと沼津,35.1186386519,138.84038199
4378,22,裾野伊豆島田店,静岡県 裾野市 伊豆島田830-2,35.1502569439,138.904411605
954,22,EXPASA足柄サービスエリア（下り線）店,静岡県 駿東郡 小山町桑木599 東名高速道路　EXPASA足柄（下り線）,35.3135158589,138.967352472
2260,22,JR三島駅 南口店,静岡県 三島市 一番町16-1,35.1258966172,138.911465475
4226,22,三島安久店,静岡県 三島市 安久144-3,35.0881981895,138.929658755
1397,22,三島玉川店,静岡県 三島市 玉川247-1,35.1094959152,138.913972688
955,22,EXPASA足柄サービスエリア（上り線）店,静岡県 御殿場市 深沢1801-1 東名高速道路　EXPASA足柄（上り線）,35.3142993104,138.963016685
1867,22,御殿場プレミアム・アウトレット店,静岡県 御殿場市 深沢1312 御殿場プレミアム・アウトレット EAST ZONE 2920区,35.3068993097,138.965370163
1751,22,御殿場萩原店,静岡県 御殿場市 萩原226-1,35.3114296131,138.930963645
2320,22,ラスカ熱海店,静岡県 熱海市 田原本町11-1 ラスカ熱海2階,35.1033891541,139.077904355
810,22,イオンタウン富士南店,静岡県 富士市 鮫島118-10 イオンタウン富士南,35.1405742536,138.67519331
1403,22,富士高島店,静岡県 富士市 高島町68,35.1580076339,138.673319885
959,22,イオンモール富士宮店,静岡県 富士宮市 浅間町1-8　 イオンモール富士宮,35.2209634271,138.611250474
4090,22,アクロスプラザ富士宮店,静岡県 富士宮市 弓沢町499 アクロスプラザ富士宮,35.2180600766,138.624298969
4139,22,富士入山瀬店,静岡県 富士市 入山瀬503-3,35.195724255,138.647223093
1396,22,蔦屋書店 静岡本店,静岡県 静岡市葵区 呉服町1-20,34.9755939779,138.380685087
1116,22,MARK IS 静岡店,静岡県 静岡市葵区 柚木1026 MARK IS 静岡,34.9844324197,138.409208701
2010,22,静岡駅 新幹線ラチ内店,静岡県 静岡市葵区 黒金町47 ASTY静岡,34.9715748345,138.389208176
2119,22,ASTY静岡 西館店,静岡県 静岡市葵区 黒金町47 ASTY静岡,34.9716281575,138.388947917
4508,22,静岡御幸町店,静岡県 静岡市葵区 御幸町20 M20 2階,34.9735071019,138.387724599
4036,22,静岡南瀬名店,静岡県 静岡市葵区 南瀬名町5-37,35.002743445,138.421006044
733,22,富士川サービスエリア（下り線）店,静岡県 富士市 岩淵1348-3 東名高速道路 富士川サービスエリア（下り線）,35.1591557492,138.620158969
1637,22,静岡草薙店,静岡県 静岡市駿河区 中吉田43-27,34.9965963346,138.437474682
642,22,アピタ静岡店,静岡県 静岡市駿河区 石田1-5-1 アピタ静岡店,34.9586739241,138.40121555
1593,22,静岡中原店,静岡県 静岡市駿河区 中原430-1,34.9580804229,138.387971955
4205,22,エスパルスドリームプラザ店,静岡県 静岡市清水区 入船町13-15 エスパルスドリームプラザ パークサイド2階,35.0093140117,138.49368915
4277,22,焼津祢宜島店,静岡県 焼津市 東祢宜島5-27,34.8396403608,138.311164621
1779,22,焼津八楠店,静岡県 焼津市 八楠2-1-1,34.8777871287,138.312007517
1249,22,藤枝蓮華寺池公園店,静岡県 藤枝市 本町1-2,34.8741421451,138.25881988
1624,22,藤枝高柳店,静岡県 藤枝市 高柳1-8-42,34.8500962031,138.26438247
4299,22,島田中河町店,静岡県 島田市 中河町8966-5,34.8372591816,138.181364122
1133,22,浜松新津町店,静岡県 浜松市中央区 新津町682-1,34.7201173272,137.739552319
2079,22,浜松 メイワン エキマチウエスト店,静岡県 浜松市中央区 砂山町6-2 EKIMACHI WEST,34.7037078822,137.734451832
2237,22,浜松駅 新幹線ラチ内店,静岡県 浜松市中央区 砂山町6-2 EKIMACHI WEST（浜松 メイワン エキマチウエスト店）,34.7039848092,137.735149816
4544,22,浜松 メイワン 2階店,静岡県 浜松市中央区 砂山町6-1,34.704197553,137.734510138
172,22,ザザシティ浜松店,静岡県 浜松市中央区 鍛冶町15 ザザシティ浜松 西館,34.7051212553,137.729482179
1565,22,浜松城公園店,静岡県 浜松市中央区 元城町100-2,34.7132225521,137.726112364
731,22,浜名湖サービスエリア店,静岡県 浜松市浜名区 三ケ日町佐久米61-2 東名高速道路 浜名湖サービスエリア内,34.7815384589,137.607955142
1409,22,浜松半田山店,静岡県 浜松市中央区 半田山4-4-25,34.7729095344,137.743907304
1304,22,浜松佐鳴台店,静岡県 浜松市中央区 佐鳴台3-52-34,34.7096921442,137.697039941
4292,22,そよら浜松西伊場店,静岡県 浜松市中央区 西伊場町78-1 そよら浜松西伊場,34.6985926307,137.704637043
2030,22,TSUTAYA 佐鳴台店,静岡県 浜松市中央区 入野町621-1,34.7006295347,137.698886871
567,22,イオンモール浜松志都呂店,静岡県 浜松市中央区 志都呂2-37-1,34.6964916628,137.652259268
4281,22,浜松葵東店,静岡県 浜松市中央区 葵東2-24-51,34.7576582755,137.721570695
1303,22,プレ葉ウォーク浜北店,静岡県 浜松市浜名区 貴布祢1200,34.7990954016,137.778976242
620,22,イオンモール浜松市野1階店,静岡県 浜松市中央区 天王町諏訪1981-3 イオンモール浜松市野1階,34.740295305,137.763245533
4442,22,イオンモール浜松市野2階店,静岡県 浜松市中央区 天王町諏訪1981-3 イオンモール浜松市野2階,34.7386538122,137.763144506
4251,22,掛川大池店,静岡県 掛川市 大池3028-1,34.7726064317,137.993799065
4056,22,掛川細田店,静岡県 掛川市 細田280-1,34.7724101402,137.982266143
1863,22,ノブレスパルク袋井店,静岡県 袋井市 高尾3000,34.7391932608,137.925712091
1524,22,磐田見付店,静岡県 磐田市 見付6039-2,34.7361274166,137.858611139
923,22,ららぽーと磐田店,静岡県 磐田市 高見丘1200 ららぽーと磐田,34.7499522959,137.840938081
861,23,豊橋ココラフロント店,愛知県 豊橋市 駅前大通1-55 ココラフロント,34.762960149,137.384215412
1042,23,ホリデイ・スクエア豊橋店,愛知県 豊橋市 藤沢町141,34.7448074258,137.371598685
4030,23,豊橋柱店,愛知県 豊橋市 牟呂町扇田53-1,34.7503377457,137.376066392
1890,23,豊橋曙店,愛知県 豊橋市 曙町南松原6-4,34.7302650402,137.400416128
4211,23,豊川大堀店,愛知県 豊川市 大堀町335,34.8356435163,137.401860322
1248,23,豊川正岡店,愛知県 豊川市 正岡町流田506,34.8018563104,137.386732023
4047,23,豊川下長山店,愛知県 豊川市 下長山町宮下7-1,34.8070798202,137.381112527
4238,23,イオンモール豊川店,愛知県 豊川市 白鳥町兎足1-16 イオンモール豊川,34.8255075993,137.350904743
4011,23,イオンタウン岡崎美合店,愛知県 岡崎市 美合町つむぎ南1-1 イオンタウン岡崎美合,34.9257120492,137.185583025
4081,23,岡崎針崎店,愛知県 岡崎市 針崎町岡崎駅南土地区画整理事業27街区5,34.9192632642,137.152041941
165,23,イオンモール岡崎1階店,愛知県 岡崎市 戸崎町外山38-5 イオンモール岡崎1階,34.9378251039,137.164289236
4057,23,イオンモール岡崎3階店,愛知県 岡崎市 戸崎町外山38-5 イオンモール岡崎3階,34.9366910558,137.164137912
909,23,岡崎竜美店,愛知県 岡崎市 竜美西2-9-13,34.9391355668,137.167010061
1345,23,NEOPASA岡崎サービスエリア店,愛知県 岡崎市 宮石町六ツ田10-4　 新東名高速道路　岡崎サービスエリア内,35.0343457776,137.221402826
4237,23,西尾今川店,愛知県 西尾市 今川町下落21-1,34.8536933487,137.057516144
1204,23,ヴェルサウォーク西尾店,愛知県 西尾市 高畠町3-23-9 ヴェルサウォーク西尾,34.8638209171,137.059833541
4308,23,西尾道光寺店,愛知県 西尾市 道光寺町西縄16-1,34.8718153346,137.059542086
957,23,安城百石店,愛知県 安城市 百石町１-5-9,34.9529561441,137.077955987
4225,23,三河安城店,愛知県 安城市 三河安城南町1-11-5,34.9636544158,137.060424728
1335,23,安城篠目店,愛知県 安城市 篠目町肥田59-1,34.979072857,137.065598311
1470,23,碧南城山店,愛知県 碧南市 城山町1-81-3,34.8937495917,137.008195062
4100,23,刈谷東境店,愛知県 刈谷市 東境町松本15-2,35.0368207205,137.026557227
4099,23,刈谷松栄店,愛知県 刈谷市 松栄町2-7-5,34.9794319769,137.033314586
194,23,名駅地下街 サンロード店,愛知県 名古屋市中村区 名駅4-7-25 名駅地下街サンロード,35.1696754207,136.884662894
349,23,名駅地下街 ユニモール店,愛知県 名古屋市中村区 名駅4-5-26先 ユニモール,35.171505516,136.885426635
1650,23,名古屋スパイラルタワーズ店,愛知県 名古屋市中村区 名駅4-27-1 モード学園スパイラルタワーズ,35.16803284,136.885887868
2028,23,JR名古屋駅　広小路口店,愛知県 名古屋市中村区 名駅1-1-5　 JR名古屋駅構内,35.170054237,136.882829418
2048,23,JR名古屋駅 新幹線南ラチ内店,愛知県 名古屋市中村区 名駅1-1-5　 JR名古屋駅構内,35.1701089251,136.881212327
2068,23,ＪＲ名古屋駅 太閤通南口店,愛知県 名古屋市中村区 名駅1-1-4,35.1692829087,136.881572335
4265,23,ジェイアール名古屋タカシマヤ店,愛知県 名古屋市中村区 名駅1-1-4 ジェイアール名古屋タカシマヤ7階,35.1713949186,136.882353284
119,23,名古屋ＪＲセントラルタワーズ店,愛知県 名古屋市中村区 名駅1-1-4 ＪＲセントラルタワーズ 13F,35.1703580957,136.882963004
1358,23,ＫＩＴＴＥ名古屋店,愛知県 名古屋市中村区 名駅1-1-1,35.1727989423,136.882765963
4007,23,大名古屋ビルヂング店,愛知県 名古屋市中村区 名駅3-28-12 大名古屋ビルヂング地下1階,35.1723504102,136.884542503
2088,23,名古屋 タカシマヤ ゲートタワーモール店,愛知県 名古屋市中村区 名駅1-1-3 タカシマヤ ゲートタワーモール１F,35.1723531497,136.882367406
2064,23,名古屋 JRゲートタワー店,愛知県 名古屋市中村区 名駅1-1-3 JRゲートタワー 15F,35.1720337505,136.882999035
1210,23,名鉄百貨店名古屋店,愛知県 名古屋市中村区 名駅1-2-1 名鉄百貨店本店本館,35.1699503836,136.884224307
4048,23,名古屋則武新町1階店,愛知県 名古屋市西区 則武新町3-1-17 イオンモール Nagoya Noritake Garden,35.1799861802,136.879961976
4049,23,名古屋則武新町2階店,愛知県 名古屋市西区 則武新町3-1-17 イオンモール Nagoya Noritake Garden,35.1793537402,136.879524264
935,23,上小田井mozoワンダーシティ 2階店,愛知県 名古屋市西区 二方町40 mozo ワンダーシティ,35.2244967546,136.88325382
1831,23,上小田井mozoワンダーシティ 4階店,愛知県 名古屋市西区 二方町40 mozo ワンダーシティ,35.2248155871,136.881978078
1469,23,名古屋グローバルゲート店,愛知県 名古屋市中村区 平池町4-60-12 グローバルゲート,35.1627733722,136.884152143
2127,23,名古屋みなと 蔦屋書店,愛知県 名古屋市港区 港明2-3-2 ららぽーと名古屋みなとアクルス,35.1091346608,136.883913799
1215,23,イオンモール名古屋茶屋店,愛知県 名古屋市港区 西茶屋2-11 イオンモール名古屋茶屋,35.1038483725,136.825495283
1618,23,ららぽーと名古屋みなとアクルス店,愛知県 名古屋市港区 港明2-3-2 ららぽーと名古屋みなとアクルス,35.1100251059,136.88304022
385,23,金山駅南口店,愛知県 名古屋市熱田区 金山町1-2-26 ヤガミ金山ビル,35.1421622618,136.901103351
4041,23,ミュープラット神宮前店,愛知県 名古屋市熱田区 三本松町18-4 μPLAT神宮前2階,35.1262055697,136.913255299
496,23,イオンモール熱田1階店,愛知県 名古屋市熱田区 六野1-201 イオンモール熱田 1階,35.1368535375,136.909825371
4230,23,イオンモール熱田3階店,愛知県 名古屋市熱田区 六野1-201 イオンモール熱田 3階,35.1361844386,136.909608753
2162,23,大同病院店,愛知県 名古屋市南区 白水町9 大同病院,35.0744971126,136.907592595
4234,23,名古屋港東通店,愛知県 名古屋市南区 港東通1-32,35.0919898655,136.917863992
1412,23,名古屋滝ノ水店,愛知県 名古屋市緑区 上旭2-201,35.0918030848,136.973803799
4174,23,名古屋鳴海店,愛知県 名古屋市緑区 鳴海町上ノ山12-24,35.0967524618,136.95254117
584,23,アピタ鳴海店,愛知県 名古屋市緑区 鳴海町伝治山3-9 アピタ鳴海店,35.0943517213,136.959058795
4297,23,ヒルズウォーク徳重ガーデンズ店,愛知県 名古屋市緑区 元徳重1-505 ヒルズウォーク徳重ガーデンズ,35.0944240775,136.998977699
834,23,イオンモール大高1階店,愛知県 名古屋市緑区 南大高2-450 イオンモール大高 1階,35.0528006884,136.947639712
835,23,イオンモール大高3階店,愛知県 名古屋市緑区 南大高2-450 イオンモール大高 3階,35.0526570926,136.947639719
294,23,桜通り大津店,愛知県 名古屋市中区 丸の内3-20-17 KDX桜通ビル 1F,35.1739714443,136.905959539
243,23,三井住友銀行名古屋ビル店,愛知県 名古屋市中区 錦2-18-19 三井住友銀行名古屋ビル 1F,35.1685421834,136.899124523
365,23,栄広小路店,愛知県 名古屋市中区 錦3-24-24 錦324ビル,35.1690614131,136.905915879
1288,23,名古屋インターシティ伏見店,愛知県 名古屋市中区 錦1-11-11 名古屋インターシティ B1F,35.1698395084,136.89705158
1834,23,ヨリマチFUSHIMI店,愛知県 名古屋市中区 錦2-16-24 ヨリマチFUSHIMI,35.1680805341,136.897294418
4068,23,栄セントラルパーク店,愛知県 名古屋市中区 錦3-15-13先 セントラルパーク地下街,35.1721664008,136.908317481
364,23,栄 チェリープラザ店,愛知県 名古屋市中区 栄3-19-8 栄ミナミ平和ビル,35.1657284123,136.904541703
716,23,栄ラシック店,愛知県 名古屋市中区 栄3-6-1,35.1671208169,136.907607217
1021,23,栄大津通店,愛知県 名古屋市中区 栄3-27-7 サンサカエビル,35.1650496384,136.906970143
1048,23,名古屋久屋南店,愛知県 名古屋市中区 栄3-31-10 松坂屋久屋南パークテラス,35.1635245491,136.908420926
1690,23,名古屋パルコ 西館店,愛知県 名古屋市中区 栄3-29-1 名古屋パルコ,35.1636575713,136.907326844
840,23,名古屋大須万松寺店,愛知県 名古屋市中区 大須3-31-14 山惣第２ビル,35.1585028183,136.905802208
1700,23,東別院店,愛知県 名古屋市中区 橘2-903,35.1511027446,136.903977701
1163,23,アスナル金山1階店,愛知県 名古屋市中区 金山1-17-1 アスナル金山,35.1436040507,136.901027735
4017,23,アスナル金山3階店,愛知県 名古屋市中区 金山1-17-1 アスナル金山,35.1443317445,136.900676898
533,23,名古屋 伏見 ＡＴビル店,愛知県 名古屋市中区 錦1-18-22 名古屋ATビル,35.1682540786,136.894540195
400,23,新栄葵町店,愛知県 名古屋市東区 葵1-21-4,35.1706076266,136.921245091
2098,23,東山線千種駅店,愛知県 名古屋市東区 葵3-15-21先 地下鉄千種駅,35.1706502815,136.930372942
389,23,栄公園 オアシス２１店,愛知県 名古屋市東区 東桜1-11-1 オアシス21,35.1717014664,136.909229094
2107,23,ASTY大曽根店,愛知県 名古屋市東区 東大曽根町46-6 ASTY大曽根,35.1919781182,136.93712251
664,23,イオンモールナゴヤドーム前店,愛知県 名古屋市東区 矢田南4-102-3 イオンモールナゴヤドーム前,35.1875101266,136.945230376
1110,23,イオンモールナゴヤドーム前フードコート店,愛知県 名古屋市東区 矢田南4-102-3,35.18769455,136.945157318
1479,23,名城公園店,愛知県 名古屋市北区 名城1-4-1 tonarino,35.188938971,136.903726535
4105,23,そよら上飯田店,愛知県 名古屋市北区 織部町1-1 そよら上飯田,35.2012780941,136.929084138
1552,23,名古屋志段味店,愛知県 名古屋市守山区 上志段味羽根528,35.2544059338,137.035318981
2097,23,草叢BOOKS 新守山店,愛知県 名古屋市守山区 新守山2830 アピタ新守山,35.2044628171,136.948627091
576,23,アピタ千代田橋店,愛知県 名古屋市千種区 千代田橋2-1-1 アピタ千代田橋店,35.1875119385,136.969463086
1150,23,名古屋自由ヶ丘店,愛知県 名古屋市千種区 鹿子殿14-8,35.1789193555,136.975702685
1706,23,星が丘テラス店,愛知県 名古屋市千種区 星が丘元町16-50 星が丘テラスEAST,35.1607503612,136.985632142
1478,23,本山駅前店,愛知県 名古屋市千種区 東山通1-1-1,35.1639993575,136.963969902
453,23,覚王山店,愛知県 名古屋市千種区 末盛通1-1 末盛ビル,35.1666127605,136.952155763
615,23,イオンタウン千種店,愛知県 名古屋市千種区 千種2-16-13 イオンタウン千種,35.1617113985,136.923678354
972,23,名古屋大学附属図書館店,愛知県 名古屋市千種区 不老町 名古屋大学附属中央図書館,35.1550464294,136.964149466
4272,23,名古屋猪子石店,愛知県 名古屋市名東区 猪子石2-804,35.1886885895,137.007573755
715,23,藤が丘effe店,愛知県 名古屋市名東区 藤が丘170-4 effe,35.1821100955,137.021703718
939,23,御器所駅前店,愛知県 名古屋市昭和区 阿由知通4-2-1,35.1492751198,136.933347846
4313,23,名古屋高辻店,愛知県 名古屋市昭和区 白金3-11-11,35.1419000805,136.917742537
1880,23,イオン八事店,愛知県 名古屋市昭和区 広路町石坂2-1 イオン八事B2階,35.1371916532,136.963045658
4116,23,中京大学 名古屋キャンパス店,愛知県 名古屋市昭和区 八事本町101-2 中京大学名古屋キャンパスセンタービルＧ階,35.1380041119,136.965659292
765,23,名古屋市立大学病院店,愛知県 名古屋市瑞穂区 瑞穂町川澄1 名古屋市立大学病院　外来診療棟,35.1392812307,136.93574894
1517,23,プライムツリー赤池店,愛知県 日進市 赤池町箕ノ手1 プライムツリー赤池,35.1179691953,137.02267909
1563,23,日進香久山店,愛知県 日進市 香久山4-201-3 MiO香久山 con*te uno,35.1437017865,137.026446759
673,23,日進竹の山店,愛知県 日進市 竹の山2-2306,35.1568749516,137.033868036
1849,23,ららぽーと愛知東郷3階店,愛知県 愛知郡 東郷町東郷中央土地区画整理事業62街区1・3 ららぽーと愛知東郷3階(店舗番号3470),35.0984039547,137.048125934
2170,23,TSUTAYA BOOKSTORE ららぽーと愛知東郷店,愛知県 愛知郡 東郷町東郷中央土地区画整理事業62街区1・3 ららぽーと愛知東郷2階(店舗番号23601),35.0986744545,137.046589938
1725,23,みよし店,愛知県 みよし市 三好町中島70-1,35.0936257591,137.074458133
1371,23,豊田上原店,愛知県 豊田市 上原町一丁田74-1,35.1179572839,137.16762372
1843,23,豊明店,愛知県 豊明市 沓掛町十三塚2,35.0600811941,137.021175214
4179,23,豊田渡刈店,愛知県 豊田市 渡刈町1-253-1 ハビット豊田豊栄町,35.0433542022,137.15457185
287,23,イオンモール東浦1階店,愛知県 知多郡 東浦町緒川旭13-2 イオンモール東浦 1階,34.9783874507,136.97452785
1804,23,イオンモール東浦2階店,愛知県 知多郡 東浦町緒川旭13-2 イオンモール東浦 2階,34.9791826419,136.974445876
1899,23,豊田鞍ケ池公園店,愛知県 豊田市 池田町五反田566-1 鞍ケ池公園,35.0976130825,137.215983419
4119,23,豊田T-FACE店,愛知県 豊田市 若宮町1-57-1 T-FACE A館2階,35.0868926101,137.155097302
604,23,豊田元町店,愛知県 豊田市 土橋町1-21 MEGA ドン・キホーテ UNY豊田元町,35.0629088984,137.129701627
1506,23,知立上重原店,愛知県 知立市 上重原町恩田214,35.0048649315,137.024247779
296,23,ギャラリエアピタ知立店,愛知県 知立市 長篠町大山18-1 ギャラリエアピタ知立,34.9982219764,137.052927926
1730,23,豊田住吉店,愛知県 豊田市 住吉町平和27-1,35.0364149445,137.122768978
1002,23,大府柊山店,愛知県 大府市 柊山町3-401,35.0198906913,136.953019114
1518,23,半田住吉店,愛知県 半田市 出口町１-40-8,34.9024963533,136.924066924
4369,23,半田山代店,愛知県 半田市 山代町2-104-1,34.8937628389,136.907932555
1301,23,ラスパ太田川店,愛知県 東海市 大田町下浜田102-1 ラスパ太田川ショッピングセンター (南館1F),35.0202643095,136.892102212
1871,23,東海加木屋店,愛知県 東海市 加木屋町石田72,35.0068249136,136.908003454
4382,23,知多信濃川店,愛知県 知多市 八幡竹後20,34.9944721004,136.878039567
553,23,中部国際空港セントレア店,愛知県 常滑市 セントレア1-1 中部国際空港セントレア(4F),34.8593057422,136.815437657
592,23,中部国際空港出発ターミナル内店,愛知県 常滑市 セントレア1-1 中部国際空港セントレア(3F),34.8586657448,136.811666611
738,23,中部国際空港第２セントレアビル店,愛知県 常滑市 セントレア1-1 第2セントレアビル,34.860485328,136.814851262
1530,23,中部国際空港セントレアFLIGHT OF DREAMS店,愛知県 常滑市 セントレア1-1 FLIGHT OF DREAMS,34.8552942661,136.817689599
4069,23,イオンモール常滑店,愛知県 常滑市 りんくう町2-20-3 イオンモール常滑,34.8826792593,136.825960984
511,23,イオンモール扶桑店,愛知県 丹羽郡 扶桑町南山名高塚5-1 イオンモール扶桑,35.3622459034,136.898794242
177,23,名古屋 アピタ長久手店,愛知県 長久手市 戸田谷901-1 アピタ長久手店,35.1724664207,137.03851971
1492,23,イオンモール長久手店,愛知県 長久手市 勝入塚501番地 イオンモール長久手,35.1734476428,137.050881694
4095,23,愛知医科大学店,愛知県 長久手市 岩作雁又1-1,35.1912287455,137.047963062
1664,23,北名古屋店,愛知県 北名古屋市 井瀬木鴨80-1,35.2426392658,136.883671005
622,23,VIA MALL アピタ江南西店,愛知県 江南市 松竹町上野205 VIA MALL アピタ江南西,35.3425111275,136.854391894
1596,23,犬山梅坪店,愛知県 犬山市 梅坪2-116,35.3755681912,136.952320017
1818,23,小牧市中央図書館店,愛知県 小牧市 中央1-234 小牧市中央図書館,35.2895574858,136.925945334
1715,23,小牧川西店,愛知県 小牧市 川西1-1-5,35.285659812,136.908033946
1602,23,春日井東野店,愛知県 春日井市 東野町9-20-15,35.2612299092,136.986638265
1117,23,春日井南下原店,愛知県 春日井市 南下原町3-12-4,35.2680175353,136.97181085
4077,23,イーアス春日井店,愛知県 春日井市 六軒屋町東丘22 イーアス春日井,35.2590359075,136.982647586
2122,23,TSUTAYA 春日井店,愛知県 春日井市 美濃町2-3,35.2397594903,136.942501808
1488,23,春日井勝川店,愛知県 春日井市 小野町2-1-1,35.2288407307,136.962554812
614,23,アピタ高蔵寺店,愛知県 春日井市 中央台2-5 アピタ高蔵寺店,35.2830250502,137.048662388
2283,23,中部大学店,愛知県 春日井市 松本町1200,35.2747075642,137.014430336
4258,23,瀬戸西長根店,愛知県 瀬戸市 西長根町68-1,35.2137428569,137.071346194
2143,23,TSUTAYA 瀬戸店,愛知県 瀬戸市 西本地町2-222-1,35.2070022101,137.056648281
4194,23,あま篠田店,愛知県 あま市 篠田鹿造3,35.1844503107,136.793908084
1186,23,テラスウォーク一宮店,愛知県 一宮市 両郷町1-2 テラスウォーク一宮,35.3106472071,136.816494564
1707,23,一宮富士店,愛知県 一宮市 富士3-1-12,35.3021562237,136.819522204
929,23,尾張一宮パーキングエリア（下り線）店,愛知県 一宮市 千秋町塩尻14-2 尾張一宮パーキングエリア（下り線）,35.2815079261,136.854153056
928,23,尾張一宮パーキングエリア（上り線）店,愛知県 一宮市 丹陽町三ツ井2709-6 尾張一宮パーキングエリア（上り線）,35.2778490217,136.846763838
1576,23,稲沢桜木宮前店,愛知県 稲沢市 桜木宮前町77-1,35.2529526908,136.777144377
4091,23,アピタタウン稲沢店,愛知県 稲沢市 天池五反田町1 アピタタウン稲沢,35.2521996205,136.771690421
930,23,リーフウォーク稲沢店,愛知県 稲沢市 長野7-1-2 リーフウォーク稲沢,35.2608797983,136.819119693
563,23,イオンモール木曽川店,愛知県 一宮市 木曽川町黒田南八ツヶ池25-1,35.3492459448,136.773850495
1714,23,一宮木曽川店,愛知県 一宮市 木曽川町外割田四の通り131,35.3354804464,136.772344032
1408,23,津島大坪店,愛知県 津島市 大坪町蛤田28-1,35.1616613144,136.775436501
4223,23,天王川公園店,愛知県 津島市 宮川町1-1 天王川公園,35.1730977493,136.720877727
1770,23,愛西店,愛知県 愛西市 善太新田町十二上57,35.1212418651,136.766188297
599,24,アピタ四日市店,三重県 四日市市 安島1-3-31 トナリエ四日市,34.9681175844,136.617146059
1764,24,イオンタウン四日市泊店,三重県 四日市市 泊小柳町4-5 イオンタウン四日市泊,34.9381649551,136.601256813
4039,24,四日市中央緑地店,三重県 四日市市 日永東1-3-21 中央緑地,34.952301962,136.61188639
4321,24,菰野町店,三重県 三重郡 菰野町宿野神明田325-2,35.0066560902,136.529054656
1100,24,イオンモール四日市北店,三重県 四日市市 富州原町2-40 イオンモール四日市北,35.0074235249,136.657236197
1178,24,イオンモール東員店,三重県 員弁郡 東員町長深510-1 イオンモール東員,35.0631131514,136.579298994
193,24,イオンモール桑名店,三重県 桑名市 新西方1-22 イオンモール桑名,35.0722183533,136.662512498
691,24,桑名サンシパーク店,三重県 桑名市 大仲新田111-1 桑名サンシパーク,35.0804073341,136.606605097
1881,24,ジャズドリーム長島店,三重県 桑名市 長島町浦安368 三井アウトレットパーク ジャズドリーム長島,35.030463093,136.725882491
981,24,EXPASA御在所サービスエリア（下り線）店,三重県 四日市市 山之一色町乱取口1491-2　 東名阪自動車道　EXPASA御在所(下り線）,35.0191422782,136.594010075
1402,24,EXPASA御在所サービスエリア(上り線)店,三重県 四日市市 山之一色町池の谷口1569-2 東名阪自動車道　EXPASA御在所(上り線),35.0189855665,136.590471765
1063,24,四日市尾平店,三重県 四日市市 尾平町天王川原1863-1,34.9764150972,136.589176611
2089,24,TSUTAYA 鈴鹿中央通店,三重県 鈴鹿市 算所町417-1,34.8744100839,136.552187435
4339,24,鈴鹿平田店,三重県 鈴鹿市 算所1-3-8,34.8740969112,136.543566777
4288,24,鈴鹿玉垣店,三重県 鈴鹿市 北玉垣町細田1681-1,34.8670542494,136.58659075
440,24,イオンモール鈴鹿店,三重県 鈴鹿市 庄野羽山4-1-2,34.8719502682,136.531776743
703,24,ベイスクエア津店,三重県 津市 藤方716 BAY SQUARE Tsu,34.6832768738,136.517939636
1619,24,イオンモール津南店,三重県 津市 高茶屋小森町145 イオンモール津南,34.6702932588,136.517725252
4326,24,津高茶屋店,三重県 津市 高茶屋小森町981-6,34.6663267869,136.504587636
594,24,久居インターガーデン店,三重県 津市 久居明神町風早2533 久居インターガーデン,34.6830037564,136.465014877
1069,24,イオンモール明和店,三重県 多気郡 明和町中村1223 イオンモール明和,34.5814616459,136.612950045
4429,24,松阪塚本店,三重県 松阪市 塚本町28-1,34.5943459047,136.522193933
1498,24,松阪川井店,三重県 松阪市 川井町772-31,34.5793346734,136.518811294
1032,24,イオンタウン伊勢ララパーク店,三重県 伊勢市 小木町538 イオンタウンイセララパーク,34.5058916401,136.722369993
1889,24,伊勢 内宮前店,三重県 伊勢市 宇治今在家町中賀集楽37-4,34.46100368,136.723305871
4363,24,伊勢御薗店,三重県 伊勢市 御薗町長屋2223,34.507481263,136.710514793
4067,24,イオンタウン伊賀上野店,三重県 伊賀市 四十九町1850 イオンタウン伊賀上野,34.747852721,136.134926249
1735,25,ブランチ大津京店,滋賀県 大津市 二本松1-1 ブランチ大津京,35.0294589794,135.864026613
1299,25,ビエラ大津店,滋賀県 大津市 春日町1-3,35.003421495,135.864506661
1145,25,三井アウトレットパーク滋賀竜王店,滋賀県 蒲生郡 竜王町薬師砂山1178-694 三井アウトレットパーク滋賀竜王,35.0621449006,136.101011538
4361,25,ビバシティ彦根1階 ビバマルシェ店,滋賀県 彦根市 竹ヶ鼻町43-1 ビバシティ彦根1階,35.2442955132,136.249606921
693,25,カインズモール彦根店,滋賀県 彦根市 馬場2-1-1,35.280708188,136.244045984
4043,25,ビバシティ彦根店,滋賀県 彦根市 高宮町1330-2 ビバシティ彦根,35.243264296,136.253123621
932,25,多賀サービスエリア（上り線）店,滋賀県 犬上郡 多賀町敏満寺62-2 多賀サービスエリア（上り線）,35.2181314022,136.283412263
980,25,EXPASA多賀サービスエリア（下り線）店,滋賀県 犬上郡 多賀町敏満寺66-11 名神高速道路　EXPASA多賀（下り線）,35.2189063515,136.285254574
728,25,近江八幡店,滋賀県 近江八幡市 鷹飼町北2-3-11,35.1273796711,136.105671203
1473,25,草津駒井沢店,滋賀県 草津市 駒井沢町18,35.0396871001,135.962189101
1433,25,草津A・SQUARE店,滋賀県 草津市 西渋川1-23-23,35.0254494066,135.959344715
639,25,草津国道１号店,滋賀県 草津市 草津1-20-20,35.0150628524,135.965793547
4303,25,南草津駅西口店,滋賀県 草津市 南草津2-1-25,35.0053976704,135.943899421
4349,25,南草津かがやき通り店,滋賀県 草津市 野路6-6-5,35.0026934056,135.953527913
890,25,イオンモール草津店,滋賀県 草津市 新浜町300 イオンモール草津,34.9975999228,135.913779504
1614,25,近鉄草津店,滋賀県 草津市 渋川1-1-50 近鉄百貨店草津店2階,35.0223972897,135.962590142
1294,25,滋賀長浜店,滋賀県 長浜市 川崎町265,35.3931709965,136.282454838
1440,25,東近江八日市店,滋賀県 東近江市 八日市上之町7-40,35.113256503,136.203578722
1390,25,甲賀水口店,滋賀県 甲賀市 水口町水口6004-1,34.966580117,136.164321236
1854,26,京都信用金庫本店ビル店,京都府 京都市下京区 四条通柳馬場東入立売東町7 京都信用金庫本店ビル,35.0035794514,135.764377747
76,26,京都四条通ヤサカビル店,京都府 京都市下京区 四条通柳馬場西入ル 立売中之町106  ヤサカ四条ビル,35.0038383044,135.763911663
1318,26,ＬＡＱＵＥ四条烏丸店,京都府 京都市下京区 四条通室町東入函谷鉾町101 アーバンネット四条烏丸ビル,35.0039365467,135.759300097
2161,26,JR京都駅 新幹線中央口店,京都府 京都市下京区 東塩小路高倉町8-3 JR東海京都駅構内 ASTY京都 2階,34.9848030181,135.758179127
225,26,京都Porta店,京都府 京都市下京区 烏丸通塩小路下ル 東塩小路町902  京都ポルタ駅前地下街,34.9865303538,135.759352839
547,26,京都タワー サンド店,京都府 京都市下京区 烏丸通七条下ル 東塩小路町721-1　京都タワービル,34.9874038742,135.759505286
2152,26,JR京都駅 新幹線改札内店,京都府 京都市下京区 東塩小路町680-6 JR-PLUS京都支店,34.9845116793,135.75926405
2287,26,JR京都駅 西口店,京都府 京都市下京区 烏丸通塩小路下ル 東塩小路町 JR京都駅2階 橋上南北自由通路,34.9849338441,135.758558534
4424,26,京都Porta イースト店,京都府 京都市下京区 烏丸通塩小路下ル 東塩小路町902 京都ポルタ駅前地下街,34.9864498267,135.760487193
283,26,からすま京都ホテル店,京都府 京都市下京区 烏丸通綾小路下ル 二帖半敷町652  からすま京都ホテル,35.0018962105,135.759365741
993,26,TSUTAYA 京都リサーチパーク店,京都府 京都市下京区 中堂寺粟田町91　 京都リサーチパーク 9号館,34.9958400873,135.737488948
1827,26,ビバスクエア京都 梅小路公園店,京都府 京都市下京区 観喜寺町 梅小路公園内 JR梅小路京都西駅前,34.9880113158,135.74397877
4280,26,京都久世店,京都府 京都市南区 久世殿城町453-2,34.9565081049,135.717106619
1439,26,イオンモールKYOTO店,京都府 京都市南区 西九条鳥居口町1,34.9829525992,135.754672281
1232,26,イオンモール京都桂川1階店,京都府 京都市南区 久世高田町376-1 イオンモール京都桂川　1階,34.9637371728,135.708011485
4018,26,イオンモール京都桂川2階店,京都府 京都市南区 久世高田町376-1 イオンモール京都桂川 2階,34.9640888208,135.709094713
1830,26,イオンモール北大路店,京都府 京都市北区 小山北上総町49-1 イオンモール北大路,35.0445513524,135.758339418
68,26,京都三条大橋店,京都府 京都市中京区 三条通河原町東入ル中島町113 近江屋ビル 1F,35.0091242561,135.771249699
1716,26,京都BAL店,京都府 京都市中京区 河原町通三条下ル山崎町251 京都BAL　3F,35.0069714022,135.76961299
430,26,京都新京極店,京都府 京都市中京区 新京極通三条下ル 桜之町421　小町ビル,35.0076407358,135.76736509
880,26,京都烏丸六角店,京都府 京都市中京区 六角通東洞院西入 堂之前町254,35.0076547699,135.759859602
863,26,京都錦小路店,京都府 京都市中京区 東洞院通蛸薬師下ル 元竹田町651,35.0050645153,135.761229052
116,26,京都三条烏丸ビル店,京都府 京都市中京区 三条通烏丸西入ル 御倉町85-1  ＫＤＸ京都烏丸ビル 1F,35.0087357567,135.759362371
1283,26,コトチカ烏丸御池店,京都府 京都市中京区 虎屋町地先,35.0108769211,135.759622529
4451,26,河原町オーパ店,京都府 京都市中京区 河原町通四条上ル米屋町385 河原町オーパ地下1階,35.0045005432,135.768916217
269,26,京都祇園ホテル店,京都府 京都市東山区 祇園町南側555 祇園ホテル 1F,35.0036102091,135.776142047
1418,26,京阪祇園四条駅店,京都府 京都市東山区 四条大橋東詰 「京阪祇園四条駅」構内 103区画,35.0038034522,135.772159035
1476,26,京都二寧坂ヤサカ茶屋店,京都府 京都市東山区 高台寺南門通下河原東入桝屋町349,34.9983080801,135.780814403
201,26,洛北阪急スクエア店,京都府 京都市左京区 高野西開町36 洛北阪急スクエア 1F,35.0413845529,135.779048677
2075,26,京都岡崎 蔦屋書店,京都府 京都市左京区 岡崎最勝寺町13 ロームシアター京都,35.0139833513,135.781011443
386,26,山科駅前店,京都府 京都市山科区 安朱中小路町5 山科駅NKビル,34.9923371295,135.817055835
742,26,松井山手店,京都府 京田辺市 松井ケ丘3-2-1,34.8321610573,135.729000801
1443,26,京都宇治平等院表参道店,京都府 宇治市 宇治蓮華21-18,34.8906739402,135.807069123
2059,26,龍谷大学店,京都府 京都市伏見区 深草塚本町67,34.9645234155,135.768070073
1072,26,イオンモール久御山店,京都府 久世郡 久御山町森南大内156-1,34.8928679179,135.746077421
1668,26,松井山手欽明台店,京都府 八幡市 欽明台西21-1,34.8346681137,135.718957353
539,26,イオンモール京都五条店,京都府 京都市右京区 西院追分町25-1-043,34.9975555548,135.727053069
4216,26,京都西大路店,京都府 京都市右京区 西院中水町21,34.9939324175,135.731990604
4207,26,A PIT京都四条店,京都府 京都市右京区 西院安塚町1 A PIT AUTOBACS KYOTO SHIJO2階,35.0032487133,135.72010144
1153,26,京都四条葛野大路店,京都府 京都市右京区 山ノ内池尻町8-2,35.0042916549,135.719960848
764,26,イオンモール高の原店,京都府 木津川市 相楽台1-1-1 イオンモール高の原,34.7258365566,135.790326437
4359,26,京都精華台店,京都府 相楽郡 精華町精華台3-12-5,34.7476946107,135.780964541
2096,26,TSUTAYA 福知山店,京都府 福知山市 東羽合町149 アビタウン福知山,35.2943514401,135.114331955
4020,26,京都亀岡店,京都府 亀岡市 亀岡駅北1-9-1,35.0181750433,135.585491098
129,27,大阪ガーデンシティ店,大阪府 大阪市北区 梅田3-3-20 明治安田生命大阪ビル,34.6989728212,135.491488048
1405,27,エキマルシェ大阪店,大阪府 大阪市北区 梅田3-1-1,34.701420119,135.494898763
2261,27,TSUTAYA BOOKSTORE イノゲート大阪店,大阪府 大阪市北区 梅田3-2-123 イノゲート大阪6階,34.7015600708,135.492995304
2313,27,JR大阪駅北店,大阪府 大阪市北区 梅田3-1-1JR大阪駅構内 JR大阪駅1階,34.703150512,135.496189687
4019,27,梅田イーマ店,大阪府 大阪市北区 梅田1-12-6 梅田イーマ地下2階,34.7006610901,135.49813964
4324,27,ＫＩＴＴＥ大阪店,大阪府 大阪市北区 梅田3-2-2 ＫＩＴＴＥ大阪 6F 615/616区画,34.7006338061,135.494431616
388,27,桜橋プラザビル店,大阪府 大阪市北区 曽根崎新地1-4-12 桜橋プラザビル,34.6980685504,135.495890502
382,27,中之島三井ビル店,大阪府 大阪市北区 中之島3-3-3 中之島三井ビルディング,34.6935803882,135.494111967
1113,27,グランフロント大阪南館6階店,大阪府 大阪市北区 大深町4-20 グランフロント大阪南館 6階,34.7046367214,135.495013605
1808,27,LINKS UMEDA　地下1階店,大阪府 大阪市北区 大深町1-1 ヨドバシ梅田タワー LINKS UMEDA 地下1階,34.704348452,135.496910961
1809,27,LINKS UMEDA　2階店,大阪府 大阪市北区 大深町1-1 ヨドバシ梅田タワー LINKS UMEDA 2階,34.7049536659,135.496957874
1810,27,LINKS UMEDA　8階店,大阪府 大阪市北区 大深町1-1 ヨドバシ梅田タワー LINKS UMEDA 8階,34.7046575721,135.496138511
4155,27,グランフロント大阪北館1階店,大阪府 大阪市北区 大深町3-1 グランフロント大阪北館 1階,34.7050283333,135.494276149
181,27,ちゃやまちアプローズタワー店,大阪府 大阪市北区 茶屋町19-19 アプローズタワー 1F,34.7082080738,135.498893397
1019,27,NU茶屋町プラス店,大阪府 大阪市北区 茶屋町8-26 NU茶屋町プラス 区画番号109,34.7075142728,135.499671697
2083,27,TSUTAYA 梅田 MeRISE店,大阪府 大阪市北区 鶴野町1-5,34.7065863445,135.501275218
28,27,梅田HEP FIVE7階店,大阪府 大阪市北区 角田町5-15 HEP FIVE 7F,34.7037916179,135.499816579
1762,27,梅田エスト店,大阪府 大阪市北区 角田町3-25 EST,34.704797084,135.50085228
1848,27,阪急サン広場地下通り店,大阪府 大阪市北区 角田町8-47 阪急サン広場地下通り 地下1階,34.7036352334,135.499111089
4074,27,梅田HEP FIVE3階店,大阪府 大阪市北区 角田町5-15 HEP FIVE 3階,34.7041118785,135.500795649
4222,27,ホワイティうめだ店,大阪府 大阪市北区 堂山町梅田地下街3-6 ホワイティうめだ イーストモール内,34.7019915682,135.501852048
960,27,大丸梅田店,大阪府 大阪市北区 梅田3-1-1 大丸大阪梅田店,34.7018628741,135.496311681
977,27,LUCUA 9階店,大阪府 大阪市北区 梅田3-1-3 LUCUA　9階,34.7029574831,135.496533557
4093,27,LUCUA 2階店,大阪府 大阪市北区 梅田3-1-3 LUCUA 2階,34.7034627108,135.496757126
1835,27,阪神梅田本店 地下2階店,大阪府 大阪市北区 梅田1-13-13 阪神梅田本店,34.7010929823,135.497789649
1836,27,阪神梅田本店 9階店,大阪府 大阪市北区 梅田1-13-13 阪神梅田本店,34.7012963047,135.498410422
4249,27,阪急うめだ本店9階店,大阪府 大阪市北区 角田町8-7 阪急うめだ本店9階,34.7030252889,135.498551441
1257,27,LUCUA 1100 2階 グランマルシェ店,大阪府 大阪市北区 梅田3-1-3,34.7026124827,135.494396528
1258,27,LUCUA 1100 2階 アトリウムガーデン店,大阪府 大阪市北区 梅田3-1-3,34.7029924591,135.495371985
1536,27,LUCUA osaka 地下2階店,大阪府 大阪市北区 梅田3-1-3 LUCUA osaka,34.7027819148,135.494730381
2069,27,梅田 蔦屋書店,大阪府 大阪市北区 梅田3-1-3 LUCUA 1100 9階,34.7027024794,135.494759549
297,27,新大阪ニッセイビル店,大阪府 大阪市淀川区 宮原3-4-30 ニッセイ新大阪ビル,34.7341805322,135.496522398
1213,27,エキマルシェ新大阪店,大阪府 大阪市淀川区 西中島5-16-1,34.7343197752,135.501748068
1224,27,JR新大阪アルデ店,大阪府 大阪市淀川区 西中島5-16-1 アルデ新大阪　（arde）,34.7331112641,135.500070208
2042,27,ＪＲ東海 新大阪駅新幹線ラチ内店,大阪府 大阪市淀川区 西中島5-16-1　新大阪駅1階 JR-PLUS関西支社,34.7338434126,135.500337374
1491,27,京橋 京阪モール店,大阪府 大阪市都島区 東野田町2-1-38,34.697411489,135.532884404
1703,27,京阪京橋駅片町口店,大阪府 大阪市都島区 東野田町1-6-1 Kぶらっと,34.6962221324,135.530626591
4033,27,大阪鶴見緑地公園店,大阪府 大阪市鶴見区 緑地公園1-30,34.7098529037,135.578738634
1571,27,イオンモール鶴見緑地店,大阪府 大阪市鶴見区 鶴見4-17-1 イオンモール鶴見緑地　1階,34.7034517012,135.566111922
1513,27,大阪城公園店,大阪府 大阪市中央区 大阪城3-1 JO-TERRACE OSAKA,34.6897064658,135.532081492
1592,27,大阪城公園森ノ宮店,大阪府 大阪市中央区 大阪城3-9,34.6830693951,135.531920978
117,27,谷町筋ＮＳビル店,大阪府 大阪市中央区 谷町2-2-22 ＮＳビル 1F,34.686353516,135.517603127
616,27,天満橋京阪シティモール店,大阪府 大阪市中央区 天満橋京町1-1 京阪シティモール,34.6899520091,135.516978846
467,27,ＯＢＰ松下ＩＭＰビル店,大阪府 大阪市中央区 城見1-3-7 松下IMPビル,34.691844541,135.530396256
828,27,淀屋橋odona店,大阪府 大阪市中央区 今橋4-1-1 淀屋橋odona B1F,34.6909268974,135.500651824
4437,27,北浜店,大阪府 大阪市中央区 今橋2-2-2 南都銀行大阪北浜ビル1階,34.6902115188,135.506399713
88,27,御堂筋本町店,大阪府 大阪市中央区 本町4-2-12 野村不動産御堂筋本町ビル,34.683449636,135.500329695
92,27,堺筋本町店,大阪府 大阪市中央区 本町1-8-12 オーク堺筋本町ビル1F,34.6838191556,135.506896077
1729,27,南御堂ビルディング店,大阪府 大阪市中央区 久太郎町4-1-15 南御堂ビルディング,34.6806166045,135.500262887
2005,27,TSUTAYA EBISUBASHI店,大阪府 大阪市中央区 道頓堀1-8-19,34.6686601266,135.501465004
1342,27,なんばウォーク店,大阪府 大阪市中央区 千日前1 なんばウォーク5-1,34.6671050461,135.503238262
278,27,なんば 御堂筋グランドビル店,大阪府 大阪市中央区 難波2-2-3 御堂筋グランドビル B1F,34.6676190994,135.499891572
1018,27,なんばCITY店,大阪府 大阪市中央区 難波5-1-60 なんばCITY,34.6646322194,135.50119299
1454,27,なんばスカイオ 3階店,大阪府 大阪市中央区 難波5-1-60 なんばスカイオ,34.6632784763,135.501251658
1642,27,大阪高島屋 地階西ゾーン店,大阪府 大阪市中央区 難波5-1-5 大阪高島屋,34.6642991879,135.500536393
1643,27,エディオンなんば店,大阪府 大阪市中央区 難波3-2-18 エディオンなんば本店,34.666181784,135.501661491
889,27,クリスタ長堀店,大阪府 大阪市中央区 南船場3丁目 長堀地下街4号　CRYSTA,34.6752374995,135.502656547
1265,27,北心斎橋店,大阪府 大阪市中央区 南船場3-11-10,34.6761084917,135.501184962
1736,27,クリスタ長堀 ウエスト店,大阪府 大阪市中央区 南船場4丁目 長堀地下街7号 クリスタ長堀,34.675330747,135.498318014
1842,27,心斎橋パルコ店,大阪府 大阪市中央区 心斎橋筋1-8-3 心斎橋パルコ,34.6739556612,135.500886197
1064,27,心斎橋BIG STEP店,大阪府 大阪市中央区 西心斎橋1-6-14 BIG STEP,34.6721166533,135.498712851
1423,27,心斎橋オーパ店,大阪府 大阪市中央区 西心斎橋1-4-3 心斎橋OPA 本館 2階,34.6733734845,135.499925748
1406,27,JR桃谷駅店,大阪府 大阪市天王寺区 堂ケ芝1-8-27,34.6585633367,135.527999932
1075,27,天王寺ミオ 本館8階店,大阪府 大阪市天王寺区 悲田院町10-39 天王寺ミオ本館,34.6467960263,135.51450215
1316,27,天王寺ミオ プラザ館店,大阪府 大阪市天王寺区 悲田院町10-48,34.6477314699,135.513824941
1749,27,天王寺ミオ 本館3階店,大阪府 大阪市天王寺区 悲田院町10-39 天王寺ミオ本館,34.646815463,135.514181065
1607,27,あべのHoop店,大阪府 大阪市阿倍野区 阿倍野筋1-2-30 あべのHoop,34.6453325541,135.513497857
4015,27,あべのキューズモール店,大阪府 大阪市阿倍野区 阿倍野筋1-6-1 あべのキューズモール,34.6454836151,135.511554122
1093,27,近鉄あべのハルカス店,大阪府 大阪市阿倍野区 阿倍野筋1-1-43 あべのハルカス近鉄本店ウィング館3F,34.6456055991,135.514563311
677,27,関西国際空港1階サウスゲート店,大阪府 泉南郡 田尻町泉州空港中1 関西国際空港旅客ターミナルビル1階,34.434473999,135.243286951
4252,27,関西国際空港2階店,大阪府 泉南郡 田尻町泉州空港中1 関西国際空港旅客ターミナルビル2階,34.4353864279,135.244804839
106,27,肥後橋南店,大阪府 大阪市西区 江戸堀1-2-16 肥後橋南山下ビル,34.6915998062,135.496368538
473,27,西本町店,大阪府 大阪市西区 阿波座1-3-18 エッグビル本町,34.681203986,135.497076458
248,27,四ツ橋店,大阪府 大阪市西区 北堀江1-1-18 四ツ橋イーストビル,34.6736767328,135.496913762
1306,27,イオンモール大阪ドームシティ店,大阪府 大阪市西区 千代崎3-13-1,34.670094014,135.478354635
1511,27,海遊館店,大阪府 大阪市港区 海岸通1-1-10 海遊館,34.6548594968,135.428611412
4170,27,そよら海老江店,大阪府 大阪市福島区 海老江1-5-52 そよら海老江,34.6980851482,135.476151307
332,27,ホテル京阪　ユニバーサル・タワー店,大阪府 大阪市此花区 島屋6-2-45 ホテル京阪 ユニバーサル・タワー,34.668174909,135.43833027
718,27,なんばパークス店,大阪府 大阪市浪速区 難波中2-10-70 なんばパークス Tーterrace 2階,34.6617939202,135.501672525
1761,27,JR難波駅前店,大阪府 大阪市浪速区 湊町1-2-3 マルイト難波ビル B1階,34.6667438464,135.495953606
4346,27,阪急豊中駅前店,大阪府 豊中市 本町1-1-3 ティオ阪急豊中1階,34.7866398812,135.462431147
472,27,蛍池ルシオーレ店,大阪府 豊中市 蛍池中町3-2-1 ルシオーレ（310),34.7940202438,135.448869433
4372,27,大阪国際空港国内線南ゲートエリア店,大阪府 豊中市 蛍池西町3-555 大阪国際空港ターミナルビル2F,34.7893056411,135.442747103
1068,27,豊中ロマンチック街道店,大阪府 豊中市 向丘2-10-22,34.8093173587,135.472788131
1289,27,千里中央店,大阪府 豊中市 新千里東町1-1-3 SENRITOよみうり,34.8081300866,135.494466108
1067,27,豊中緑地公園店,大阪府 豊中市 東寺内町12-38,34.7756022,135.49578944
4332,27,服部緑地店,大阪府 豊中市 服部緑地1-150,34.776267198,135.483845124
904,27,箕面小野原店,大阪府 箕面市 小野原西5-5-19,34.8304816209,135.512441363
503,27,みのおキューズモール店,大阪府 箕面市 西宿1-17-22 みのおキューズモール,34.8326690424,135.489536498
4177,27,箕面百楽荘店,大阪府 箕面市 百楽荘4-275-1,34.8177671635,135.465646946
376,27,阪急池田駅店,大阪府 池田市 栄町1-1 阪急池田ブランマルシェ２番館,34.8217013207,135.425585092
646,27,江坂オッツ店,大阪府 吹田市 豊津町14-8 江坂オッツ,34.7580579623,135.495609707
1094,27,吹田山田店,大阪府 吹田市 山田東2-17-5,34.79846945,135.526086426
1323,27,ららぽーとEXPOCITY 2階店,大阪府 吹田市 千里万博公園2-1　 ららぽーとEXPOCITY 2階 20340(店舗番号),34.8064026615,135.535884692
4246,27,ららぽーとEXPOCITY 1階店,大阪府 吹田市 千里万博公園2-1 ららぽーとEXPOCITY 1階 10350(店舗番号),34.8059427066,135.535651677
2090,27,関西大学 千里山店,大阪府 吹田市 千里山東3-10-1,34.773958196,135.510940202
1370,27,阪急南千里店,大阪府 吹田市 津雲台1-1-2,34.7932794399,135.509634143
748,27,大阪大学医学部附属病院店,大阪府 吹田市 山田丘2-15 大阪大学医学部附属病院内,34.8192928182,135.528373333
499,27,イオン北千里店,大阪府 吹田市 古江台4-2-50 ディオス北千里7番館,34.8196405049,135.509387949
4001,27,イオンタウン茨木太田店,大阪府 茨木市 城の前町2-1 イオンタウン茨木太田,34.8379110935,135.575450788
1291,27,イオンモール茨木店,大阪府 茨木市 松ケ本町8-30,34.8114166826,135.558258436
1047,27,茨木真砂店,大阪府 茨木市 真砂玉島台1-5,34.7996897557,135.58286471
2058,27,立命館大学大阪いばらき店,大阪府 茨木市 岩倉町2-150,34.8101010825,135.563552224
1888,27,高槻安満遺跡公園店,大阪府 高槻市 八丁畷町12-17,34.8557990752,135.633049903
542,27,ＪＲ高槻駅北店,大阪府 高槻市 芥川町1-2  B-0202号 アクトアモーレ,34.8517033963,135.616808941
4242,27,高槻阪急スクエア店,大阪府 高槻市 白梅町4-1 高槻阪急スクエア1階,34.8533676852,135.618097924
1855,27,松坂屋 高槻店,大阪府 高槻市 紺屋町2-1 松坂屋,34.8507807446,135.618378297
711,27,イオンモール大日店,大阪府 守口市 大日東町1-18 イオンモール大日,34.7490867792,135.579681194
1667,27,京阪守口市駅店,大阪府 守口市 河原町1-1 エル守口,34.7360062775,135.566275687
4381,27,イオンタウン守口店,大阪府 守口市 京阪本通2-2-4 イオンタウン守口１階　,34.7379076984,135.56384719
4350,27,そよら古川橋駅前店,大阪府 門真市 末広町41-2 そよら古川橋駅前1階,34.7389469621,135.591670943
4206,27,ららぽーと門真店,大阪府 門真市 松生町1-11 ららぽーと門真 1階(店舗番号16000),34.7317226105,135.5845552
2025,27,TSUTAYA BOOKSTORE 香里園店,大阪府 寝屋川市 香里新町31-17,34.7845913623,135.630098427
2349,27,TSUTAYA BOOKSTORE ビバモール寝屋川店,大阪府 寝屋川市 寝屋南2-22-2 ビバモール寝屋川,34.7664136821,135.651594424
1623,27,京阪枚方市駅店,大阪府 枚方市 岡東町19-19 京阪百貨店ひらかた店1階,34.8162307992,135.648479333
2072,27,枚方 蔦屋書店,大阪府 枚方市 岡東町12-2,34.8158794713,135.649820071
1379,27,東香里店,大阪府 枚方市 高田1-15-10,34.7769671399,135.659735206
2116,27,関西外国語大学 中宮店,大阪府 枚方市 中宮東之町16-1,34.8233564229,135.664206865
1346,27,くずは美咲店,大阪府 枚方市 楠葉朝日2-20,34.8597929369,135.687756843
609,27,くずはモール ダイニングストリート店,大阪府 枚方市 楠葉花園町15-1-112 くずはモール1階 ダイニングストリート,34.8610456749,135.677244047
4061,27,くずはモール ハナノモール店,大阪府 枚方市 楠葉花園町15-1-Z105 くずはモール1階 ハナノモール,34.8624993989,135.676704858
1256,27,アルビ住道店,大阪府 大東市 住道 2-3-1 アルビ住道内,34.7062143022,135.620618657
1322,27,イオンモール四條畷店,大阪府 四條畷市 砂4-3-2,34.7462360056,135.629252764
566,27,近鉄東大阪店,大阪府 東大阪市 長堂1-1-1 近鉄東大阪店,34.6643461157,135.56348033
1350,27,東大阪宝持店,大阪府 東大阪市 宝持4-2-18,34.6558474946,135.590380154
4351,27,近鉄久宝寺口南店,大阪府 東大阪市 金岡4-15-21,34.6328896424,135.588658854
4004,27,セブンパーク天美店,大阪府 松原市 天美東3-500 セブンパーク天美,34.5915549356,135.543167036
4156,27,八尾青山通り店,大阪府 八尾市 高美町3-2-24,34.6200913842,135.610008782
727,27,アリオ八尾店,大阪府 八尾市 光町2-3 アリオ八尾,34.6324330469,135.605844392
2121,27,TSUTAYA リノアス八尾店,大阪府 八尾市 光町2-60,34.629905244,135.604830149
1748,27,イオン藤井寺ショッピングセンター店,大阪府 藤井寺市 岡2-10-11 イオン藤井寺ショッピングセンター,34.5739574152,135.593269796
1442,27,クロスモール富田林店,大阪府 富田林市 彼方1014-1 クロスモール富田林,34.4877261952,135.599691567
4037,27,河内長野高向店,大阪府 河内長野市 高向825-1,34.4429023855,135.552385059
4257,27,堺美原青南台店,大阪府 堺市美原区 青南台1-1-34,34.5147144649,135.570476917
4137,27,ららぽーと堺店,大阪府 堺市美原区 黒山22-1 ららぽーと堺,34.5406295787,135.560753476
4398,27,そよら金剛店,大阪府 大阪狭山市 半田1-22 そよら金剛1階,34.4972375023,135.557836271
1767,27,堺東中央線店,大阪府 堺市堺区 北向陽町2-2-3,34.5804862297,135.485866471
1383,27,堺 泉ヶ丘駅前店,大阪府 堺市南区 茶山台1-2-3 泉ヶ丘ひろば専門店街,34.496781496,135.513334711
1271,27,泉北槇塚台店,大阪府 堺市南区 釜室1000-1,34.4841675973,135.515047094
582,27,イオンモールりんくう泉南店,大阪府 泉南市 りんくう南浜3-12,34.3807473921,135.267579074
1817,27,泉南りんくう公園店,大阪府 泉南市 りんくう南浜3-201 泉南りんくう公園内,34.3795816092,135.263325592
4038,27,イオンモール堺鉄砲町店,大阪府 堺市堺区 鉄砲町1 イオンモール堺鉄砲町,34.5944391127,135.481912546
1154,27,堺フェニックス通り 利晶の杜店,大阪府 堺市堺区 宿院町西2丁1-41,34.5764111165,135.47033156
1344,27,堺プラットプラット店,大阪府 堺市堺区 戎島町3-22-1,34.5818988557,135.469925785
578,27,イオンモール堺北花田店,大阪府 堺市北区 東浅香山町4丁1-12,34.5835178123,135.515517202
4032,27,そよら新金岡店,大阪府 堺市北区 新金岡町4-1-11 そよら新金岡,34.5671348388,135.51531464
4050,27,堺百舌鳥店,大阪府 堺市北区 百舌鳥陵南町2-633-1,34.5465730252,135.492307497
845,27,アリオ鳳店,大阪府 堺市西区 鳳南町3-199-12 アリオ鳳,34.5248594893,135.459068758
4108,27,和泉府中店,大阪府 和泉市 府中町4-16-3,34.4826651048,135.426761995
1216,27,ららぽーと和泉店,大阪府 和泉市 あゆみ野4-4-7,34.4372161716,135.448070651
4338,27,岸和田三田店,大阪府 岸和田市 三田町633-1,34.4532481021,135.434126071
4164,27,岸和田小松里店,大阪府 岸和田市 小松里町2550,34.466321889,135.397022717
4318,27,そよら東岸和田店,大阪府 岸和田市 土生町2-32-39 そよら東岸和田1階,34.4477461193,135.382336459
187,27,りんくうプレミアム・アウトレット店,大阪府 泉佐野市 りんくう往来南3‐28 りんくうプレミアム・アウトレット 1F,34.4059929311,135.293997385
1852,27,りんくうプレミアム・アウトレット シーサイド店,大阪府 泉佐野市 りんくう往来南3-28 りんくうプレミアム・アウトレット Sea Side エリア1階,34.4061351279,135.293415482
1866,28,EKIZO 神戸三宮店,兵庫県 神戸市中央区 加納町4-2-1 神戸三宮阪急ビル,34.6936142956,135.193227509
940,28,神戸北野異人館店,兵庫県 神戸市中央区 北野町3-1-31 北野物語館,34.6999232913,135.190265243
263,28,三宮生田新道店,兵庫県 神戸市中央区 下山手通2-1-13 第１３シャルマンビル,34.6930693147,135.190979943
1617,28,神戸BAL店,兵庫県 神戸市中央区 三宮町3-6-1,34.6901926667,135.190340407
309,28,神戸旧居留地店,兵庫県 神戸市中央区 栄町通1-2-1 ＭＲＳＸビル,34.6879884427,135.189462803
4435,28,PLiCO神戸店,兵庫県 神戸市中央区 相生町3-1-1 PLiCO神戸1階,34.6790575361,135.178284976
1432,28,神戸メリケンパーク店,兵庫県 神戸市中央区 波止場町2-4,34.6818282418,135.187947935
1146,28,神戸ハーバーランドumie店,兵庫県 神戸市中央区 東川崎町1-7-2 A201,34.6791592609,135.182236032
1381,28,神戸ハーバーランドumie MOSAIC店,兵庫県 神戸市中央区 東川崎町1-6-1 神戸ハーバーランドumie MOSAIC　2F,34.6796970219,135.184567481
837,28,三宮磯上通店,兵庫県 神戸市中央区 磯上通7-1-19 PROGRESS KOBE,34.6919900864,135.196749792
52,28,神戸国際会館ＳＯＬ店,兵庫県 神戸市中央区 御幸通8-1-6 神戸国際会館 B1F,34.6920120068,135.195507116
256,28,三宮ダイエー店,兵庫県 神戸市中央区 雲井通6-1-15 三宮ダイエー,34.6952241754,135.196204966
1633,28,ミント神戸店,兵庫県 神戸市中央区 雲井通7-1-1 ミント神戸,34.6944584218,135.196078067
723,28,神戸上津台店,兵庫県 神戸市北区 上津台9-2-13,34.8618458591,135.199707558
769,28,神戸三田プレミアム・アウトレット店,兵庫県 神戸市北区 上津台7-3 神戸三田プレミアム・アウトレット(120区),34.8618371215,135.192413442
4008,28,イオンモール神戸北店,兵庫県 神戸市北区 上津台8-1-1 イオンモール神戸北,34.8612380626,135.19491104
1718,28,学園都市キャンパススクェア店,兵庫県 神戸市西区 学園西町1-4 キャンパススクェア,34.6826372667,135.057562337
4317,28,プレンティ西神中央店,兵庫県 神戸市西区 糀台5-6-1 プレンティ 二番館2階,34.7189907492,135.018365585
4256,28,須磨海浜公園店,兵庫県 神戸市須磨区 須磨浦通1-1-3 須磨海浜公園 松の社ヴィレッジA棟1階,34.6438861814,135.123901112
186,28,須磨大丸店,兵庫県 神戸市須磨区 中落合2-2-4 大丸 須磨店,34.6779831165,135.093616502
4247,28,PLiCO垂水店,兵庫県 神戸市垂水区 神田町1-17 プリコ垂水南館2階,34.6291229231,135.053693734
4406,28,三井アウトレットパーク マリンピア神戸店,兵庫県 神戸市垂水区 海岸通12-2 三井アウトレットパーク マリンピア神戸,34.6254546041,135.047959101
1091,28,神戸西舞子店,兵庫県 神戸市垂水区 西舞子1-10-4,34.6399340454,135.02511922
766,28,神戸垂水桃山台店,兵庫県 神戸市垂水区 下畑町小川1400-12,34.6619268422,135.081370758
949,28,淡路サービスエリア（下り線）店,兵庫県 淡路市 岩屋2568 淡路サービスエリア（下り線）,34.5842232005,135.017273826
2236,28,神戸大学店,兵庫県 神戸市灘区 六甲台町1-1,34.7248269845,135.236145286
1414,28,住吉リブ店,兵庫県 神戸市東灘区 住吉本町1-2-1,34.7195699328,135.261420929
839,28,阪神御影クラッセ店,兵庫県 神戸市東灘区 御影中町3-2-1 御影クラッセ,34.7156810784,135.255483823
138,28,摂津本山岡本ビル店,兵庫県 神戸市東灘区 岡本1-2-17 摂津本山二楽園ビル,34.7270777312,135.276772641
1853,28,芦屋モンテメール店,兵庫県 芦屋市 船戸町1-31 モンテメール,34.7347993935,135.307902478
827,28,尼崎つかしん店,兵庫県 尼崎市 塚口本町4-8-1 グンゼタウンセンターつかしん,34.7615590412,135.419790565
1823,28,あまがさきキューズモール店,兵庫県 尼崎市 潮江1-3-1 あまがさきキューズモール,34.7333925311,135.431205914
1372,28,ビエラ塚口店,兵庫県 尼崎市 上坂部1-1-1 ビエラ塚口,34.7512505203,135.425440848
676,28,西宮鞍掛店,兵庫県 西宮市 鞍掛町6-7,34.7290847075,135.338591026
4127,28,西宮建石店,兵庫県 西宮市 建石町2-33,34.7284655262,135.33396255
468,28,エビスタ西宮店,兵庫県 西宮市 田中町1-6 エビスタ西宮,34.7367164012,135.339165071
2120,28,関西学院大学店,兵庫県 西宮市 上ヶ原一番町1-155,34.7675140686,135.346505821
555,28,アクタ西宮店,兵庫県 西宮市 北口町1-2 ACTA西宮 東館,34.7473242117,135.358285495
1243,28,ビエラ甲子園口店,兵庫県 西宮市 甲子園口2-1-37,34.738848191,135.375173094
1566,28,阪神甲子園駅前店,兵庫県 西宮市 甲子園高潮町4-3,34.7236479289,135.362502902
579,28,ららぽーと甲子園店,兵庫県 西宮市 甲子園八番町1-100 ららぽーと甲子園,34.7167859282,135.364973846
1717,28,阪急西宮ガーデンズ3階店,兵庫県 西宮市 高松町14-2 阪急西宮ガーデンズ3階,34.7435090879,135.35964278
4377,28,阪急西宮ガーデンズ4階店,兵庫県 西宮市 高松町14-2 阪急西宮ガーデンズ4階,34.7443954028,135.360833474
989,28,イオンモール伊丹昆陽店,兵庫県 伊丹市 池尻4-1-1 イオンモール伊丹昆陽,34.7847850587,135.38172349
426,28,イオンモール伊丹店,兵庫県 伊丹市 藤ノ木1-1-1,34.782201056,135.422995459
4345,28,宝塚安倉店,兵庫県 宝塚市 安倉西4-610,34.7921225343,135.377549888
1419,28,中山寺店,兵庫県 宝塚市 中筋8-11-58,34.8140479137,135.374499965
1125,28,川西加茂店,兵庫県 川西市 加茂6-2-22,34.812000446,135.411520596
2269,28,TSUTAYA BOOKSTORE AVIX豊岡店,兵庫県 豊岡市 大手町7-30,35.545576843,134.815155233
1791,28,新三田桜のこみち公園店,兵庫県 三田市 福島1－1,34.9089559413,135.206642313
4183,28,三田キッピーモール店,兵庫県 三田市 駅前町2-1 キッピーモール 2階,34.8882154892,135.228682271
4159,28,姫路市川橋通店,兵庫県 姫路市 市川橋通1-20,34.8281562237,134.712132102
1471,28,ピオレ姫路1階店,兵庫県 姫路市 豆腐町222 ピオレ姫路2,34.8271184292,134.688918244
1096,28,ピオレ姫路4階店,兵庫県 姫路市 駅前町188-1 ピオレ姫路1,34.8275889583,134.690284776
586,28,イオンモール姫路大津店,兵庫県 姫路市 大津区大津町2-5 イオンモール姫路大津,34.8066941737,134.606473254
1280,28,姫路南店,兵庫県 姫路市 飾磨区三宅3-3,34.8091763187,134.680860295
683,28,姫路飾磨店,兵庫県 姫路市 飾磨区恵美酒236,34.8037872858,134.671420772
1272,28,イオンモール姫路リバーシティー店,兵庫県 姫路市 飾磨区細江2560,34.7986711193,134.668729564
825,28,三木サービスエリア(下り線)店,兵庫県 三木市 加佐湯谷1142 三木サービスエリア(下り線),34.8159205728,134.981609175
920,28,三木サービスエリア(上り線)店,兵庫県 三木市 大村大門1067-110 三木サービスエリア(上り線),34.8175195273,134.97925263
1339,28,ピオレ明石店,兵庫県 明石市 大明石町1-1-23 ピオレ明石,34.6490152841,134.992617335
167,28,明石ビブレ店,兵庫県 明石市 大久保町ゆりのき通り 1-3-2  明石ビブレ,34.6815880821,134.938790583
1605,28,明石魚住店,兵庫県 明石市 魚住町清水463-3,34.7050586586,134.908780605
2112,28,TSUTAYA パークタウン加古川店,兵庫県 加古川市 加古川町寺家町269-1 ミーツテラス,34.7710555926,134.835232564
1147,28,加古川別府店,兵庫県 加古川市 別府町朝日町11-1,34.729890251,134.849853523
4123,28,兵庫播磨店,兵庫県 加古郡 播磨町南大中3-3-30,34.7232179545,134.868352571
1297,28,イオンモール加西北条店,兵庫県 加西市 北条町北条308-1,34.9302440132,134.829046303
4084,28,高砂小松原店,兵庫県 高砂市 荒井町小松原4-1005,34.7654245301,134.803533511
1876,29,イオンモール奈良登美ヶ丘店,奈良県 生駒市 鹿畑町3027 イオンモール奈良登美ヶ丘,34.7260750132,135.751137181
1329,29,北生駒ならやま大通り店,奈良県 生駒市 上町3420-1,34.724493818,135.720733945
2147,29,奈良 蔦屋書店,奈良県 奈良市 三条大路1-691-1,34.6823686835,135.804942503
1514,29,奈良鴻ノ池運動公園店,奈良県 奈良市 法蓮佐保山4-1703-1　,34.6961050895,135.826428697
1377,29,JR奈良駅旧駅舎店,奈良県 奈良市 三条本町1082 奈良市総合観光案内所,34.6817884494,135.819794907
1349,29,奈良公園バスターミナル店,奈良県 奈良市 登大路町76 奈良公園バスターミナル2階,34.6847517239,135.834568266
1766,29,奈良猿沢池店,奈良県 奈良市 樽井町1,34.6817166942,135.830190714
226,29,奈良学園前駅店,奈良県 奈良市 学園南3-1-5 奈良西部会館 1F,34.6968845113,135.750391642
399,29,奈良西大寺駅前店,奈良県 奈良市 西大寺東町2-1-63 サンワシティ西大寺,34.6942512025,135.783378469
4241,29,ならファミリー店,奈良県 奈良市 西大寺東町2-4-1 ならファミリー 2階,34.6943465045,135.785344968
4094,29,橿原中和幹線常盤店,奈良県 橿原市 常盤町549-1,34.5216846347,135.813715284
816,29,橿原中和幹線葛本店,奈良県 橿原市 葛本町789-１,34.5205612923,135.80631845
544,29,イオンモール橿原店,奈良県 橿原市 曲川町7-20-1-102,34.505329088,135.761776462
786,29,大和高田店,奈良県 大和高田市 神楽281-4,34.5282343807,135.743862728
4235,29,大和高田市役所通り店,奈良県 大和高田市 大中100-1,34.5150334377,135.736265078
882,29,奈良西大和ニュータウン店,奈良県 北葛城郡 河合町薬井476-4,34.5897958479,135.711844775
4436,29,奈良香芝店,奈良県 香芝市 逢坂7-130-1,34.5508444194,135.693698353
556,29,大和郡山アピタ店,奈良県 大和郡山市 田中町宮西517 アピタ大和郡山店,34.6414204959,135.769278739
1187,29,イオンモール大和郡山店,奈良県 大和郡山市 下三橋町741 イオンモール大和郡山,34.6502406865,135.802391972
4276,29,イオンモール大和郡山 中央コート店,奈良県 大和郡山市 下三橋町741 イオンモール大和郡山,34.6507809086,135.802516103
4245,29,奈良葛城店,奈良県 葛城市 柿本91-3,34.4903735342,135.733906687
2134,30,蔦屋書店 和歌山市民図書館店,和歌山県 和歌山市 屏風丁17,34.2368221464,135.167322084
1430,30,和歌山昭和通り店,和歌山県 和歌山市 神前174-5,34.215516962,135.201238026
587,30,ガーデンパーク和歌山店,和歌山県 和歌山市 松江向鵜ノ島1469-1 ガーデンパーク和歌山,34.23885752,135.153466196
1188,30,イオンモール和歌山店,和歌山県 和歌山市 ふじと台23番地 イオンモール和歌山,34.2752343894,135.149286813
1029,30,和歌山パームシティ店,和歌山県 和歌山市 中野長差31-1 パームシティ和歌山,34.2543214436,135.138826978
732,30,和歌山県立医科大学附属病院店,和歌山県 和歌山市 紀三井寺811-1 和歌山県立医科大学附属病院,34.1880287273,135.181684526
4176,30,和歌山大浦街道店,和歌山県 和歌山市 西小二里2-4-80,34.2037505474,135.159517866
4071,30,メッサオークワ 和歌山高松店,和歌山県 和歌山市 西高松1-7-88 メッサオークワ 高松店,34.2087882528,135.170318959
1698,30,海南nobinos店,和歌山県 海南市 日方1525-6 海南nobinos,34.1554699194,135.209583986
4306,30,和歌山橋本店,和歌山県 橋本市 隅田町下兵庫615-1,34.3228629671,135.629857764
1428,30,和歌山岩出店,和歌山県 岩出市 大町9-3,34.2614680291,135.321071791
1287,31,シャミネ鳥取店,鳥取県 鳥取市 東品治町112-13,35.4946966683,134.223242845
1415,31,イオンモール鳥取北店,鳥取県 鳥取市 晩稲348,35.5238345602,134.20146359
4394,31,米子中島店,鳥取県 米子市 中島2-3-8,35.4338396048,133.350785326
1347,31,米子 TSUTAYA角盤町店,鳥取県 米子市 角盤町4-41,35.4372788468,133.328447301
1416,31,イオンモール日吉津店,鳥取県 西伯郡 日吉津村日吉津1160-1 イオンモール日吉津,35.4456542227,133.385350801
1129,32,シャミネ松江店,島根県 松江市 朝日町472-2,35.4639258001,133.062753417
4334,32,出雲今市店,島根県 出雲市 今市町北本町4-1-16,35.3680980092,132.761452575
1333,32,ゆめタウン出雲店,島根県 出雲市 大塚町650-1 ゆめタウン出雲,35.3776363326,132.75568317
1564,32,松江玉湯店,島根県 松江市 玉湯町布志名637-1,35.4347304127,133.020825466
1208,32,出雲大社店,島根県 出雲市 大社町杵築南841,35.3963956058,132.685821442
1609,33,岡山一番街店,岡山県 岡山市北区 駅元町一番街地下4号,34.6648639978,133.918738845
1814,33,さんすて岡山店,岡山県 岡山市北区 駅元町1-1 サンステーションテラス岡山,34.6657316615,133.91751974
784,33,岡山大安寺店,岡山県 岡山市北区 野殿西町329-1 ハピーズ大安寺,34.6594772492,133.881065555
1234,33,イオンモール岡山5階店,岡山県 岡山市北区 下石井1-2-1,34.6616162757,133.917944894
4016,33,イオンモール岡山1階店,岡山県 岡山市北区 下石井1-2-1 イオンモール岡山,34.6624606152,133.91710298
1877,33,岡山青江店,岡山県 岡山市北区 青江1-1-5,34.6373627591,133.91796212
1655,33,岡山中仙道店,岡山県 岡山市北区 中仙道1-4-13,34.6459360755,133.889979605
653,33,岡山大学病院店,岡山県 岡山市北区 鹿田町2-5-1 岡山大学病院　,34.6509577408,133.92064766
4136,33,岡山天満屋店,岡山県 岡山市北区 中山下2-3-4 岡山天満屋 県庁通り館1F,34.6622866578,133.928020137
694,33,岡山シネマタウン岡南店,岡山県 岡山市南区 築港新町1-25-1 シネマタウン岡南,34.6026849202,133.940657388
1106,33,岡山けやき通り店,岡山県 岡山市中区 西川原124-1,34.6805813362,133.942121735
4029,33,岡山平井店,岡山県 岡山市中区 平井7-19-8,34.6336143078,133.951866977
4254,33,岡山西大寺店,岡山県 岡山市東区 西大寺中野427-1,34.6533287801,134.026475429
4457,33,津山ウエストランド店,岡山県 津山市 二宮71 ウエストランド,35.0607679181,133.959438624
4021,33,イオンモール津山店,岡山県 津山市 河辺1000-1 イオンモール津山,35.0650662058,134.046758674
4244,33,倉敷平田店,岡山県 倉敷市 平田283-1,34.6163544839,133.776743982
841,33,倉敷天満屋店,岡山県 倉敷市 阿知1-7-1 天満屋　倉敷店,34.6012231421,133.766299713
1008,33,イオンモール倉敷店,岡山県 倉敷市 水江1 イオンモール倉敷,34.6027759247,133.744278693
860,33,倉敷中島店,岡山県 倉敷市 中島2236-102 ハピーズ倉敷中島,34.5816567444,133.741392683
1050,33,三井アウトレットパーク倉敷店,岡山県 倉敷市 寿町12-3 三井アウトレットパーク倉敷,34.6041680274,133.761862446
4193,33,倉敷安江店,岡山県 倉敷市 安江85－1,34.5979487875,133.751388047
1726,33,倉敷笹沖店,岡山県 倉敷市 笹沖6-1,34.5705791223,133.761985371
2086,33,蔦屋書店 高梁市図書館店,岡山県 高梁市 旭町1306,34.7890629354,133.616577943
1535,34,JR福山駅店,広島県 福山市 三之丸町30-1 福山駅構内,34.4895133222,133.362902526
1656,34,福山多治米店,広島県 福山市 多治米町4-12-12,34.4670154222,133.377165433
4154,34,福山サービスエリア（下り線）店,広島県 福山市 津之郷町津之郷333-2 山陽自動車道 福山サービスエリア(下り線),34.4912234263,133.315723032
2151,34,TSUTAYA 駅家店,広島県 福山市 駅家町近田104,34.5431209874,133.318960929
973,34,福山ポートプラザ天満屋店,広島県 福山市 入船町3-1-25 福山ポートプラザ,34.4865258418,133.377538948
2158,34,TSUTAYA 伊勢丘店,広島県 福山市 伊勢丘3-1-1,34.5026843589,133.423392173
1112,34,福山蔵王店,広島県 福山市 南蔵王町6-2-14,34.5002081199,133.400908877
4153,34,福山南蔵王182号店,広島県 福山市 南蔵王町2-26-46,34.5030516546,133.398040095
4275,34,三原店,広島県 三原市 皆実2-3-14,34.3926562443,133.064312616
4028,34,尾道高須店,広島県 尾道市 高須町4789-1,34.4328502378,133.236912265
4248,34,広島市中央公園店,広島県 広島市中区 基町5-25 SHIMINT HIROSHIMA F棟,34.3973128674,132.45422668
192,34,紙屋町シャレオ店,広島県 広島市中区 紙屋町 地下街シャレオ202,34.394050768,132.457181863
1772,34,広島パルコ店,広島県 広島市中区 新天地2-1 広島パルコ 新館5階,34.3921430113,132.4626115
265,34,広島本通り店,広島県 広島市中区 本通り9-1,34.3923415805,132.461426589
292,34,ＮＨＫ広島ビル店,広島県 広島市中区 大手町2-11-10 ＮＨＫ広島放送センター 2F,34.3904705669,132.455554385
1811,34,広島三越店,広島県 広島市中区 胡町5-1 広島三越,34.3921430415,132.464338578
2234,34,広島赤十字・原爆病院店,広島県 広島市中区 千田町1-9-6,34.3807337904,132.45325058
2242,34,TSUTAYA BOOKSTORE ラクア緑井店,広島県 広島市安佐南区 緑井5-22-1 ラクア緑井,34.4669897205,132.478092879
911,34,イオンモール広島祇園店,広島県 広島市安佐南区 祇園3-2-1 イオンモール広島祇園,34.4444471182,132.461414468
1561,34,ジ アウトレット広島店,広島県 広島市佐伯区 石内東4-1-1 THE OUTLETS HIROSHIMA,34.4088206295,132.396570383
1078,34,広島段原店,広島県 広島市南区 段原日出2-3-1,34.3868881259,132.484699352
1553,34,ekie広島店,広島県 広島市南区 松原町1-2,34.3977082048,132.475958746
2085,34,広島 蔦屋家電店,広島県 広島市南区 松原町3-1-1,34.3958548004,132.476447124
4173,34,広島大宮店,広島県 広島市西区 大宮1-26-4,34.4196735789,132.456950147
2095,34,広島 蔦屋書店,広島県 広島市西区 扇2-1-45,34.3728857641,132.406872016
606,34,広島アルパーク店,広島県 広島市西区 草津新町2-26-1 アルパーク,34.373197467,132.394949658
549,34,イオン宇品店,広島県 広島市南区 宇品東6-1-15 イオン宇品ショッピングセンター,34.362588776,132.468538479
830,34,ゆめタウン広島店,広島県 広島市南区 皆実町2-224-7 ゆめタウン広島,34.3762088985,132.463537157
1115,34,広島大学病院店,広島県 広島市南区 霞1-2-3 広島大学病院・（財）緑風会内,34.3804187216,132.479186774
545,34,イオンモール広島府中 1階店,広島県 安芸郡 府中町大須2-1-1,34.394470342,132.498972539
1829,34,イオンモール広島府中 3階店,広島県 安芸郡 府中町大須2-1-1 イオンモール広島府中,34.394470342,132.498972539
573,34,ゆめタウン呉店,広島県 呉市 宝町5-10 ゆめタウン呉,34.2424817581,132.555801763
1275,34,ゆめタウン廿日市店,広島県 廿日市市 下平良2-2-1,34.3459360072,132.335273925
925,34,宮島サービスエリア(下り線)店,広島県 廿日市市 上平良293 宮島サービスエリア(下り線),34.3656055503,132.318246933
4089,34,ゆめモール西条店,広島県 東広島市 西条町助実原比1212-1,34.4242099819,132.755884834
1354,34,厳島表参道店,広島県 廿日市市 宮島町459-2,34.2978711693,132.320578192
1410,34,小谷サービスエリア(上り線)店,広島県 東広島市 高屋町小谷5661 小谷サービスエリア(上り線),34.4320408336,132.836694984
2103,35,蔦屋書店 周南市立徳山駅前図書館店,山口県 周南市 御幸通2-28-2,34.0512954483,131.803075302
1747,35,防府店,山口県 防府市 開出西町23-3,34.0515826072,131.546768241
1158,35,下関あるかぽーと店,山口県 下関市 あるかぽーと2-28,33.9537902557,130.940535591
485,35,大丸下関店,山口県 下関市 竹崎町4-4-10 大丸下関,33.9498995349,130.923156936
4336,35,下関一の宮町店,山口県 下関市 一の宮町2-17-8,34.0000654953,130.951370339
1359,35,ゆめシティ新下関店,山口県 下関市 伊倉新町3-1-1 ゆめシティ,34.0068250298,130.934306167
1477,35,山口市中央公園店,山口県 山口市 中園町7-10,34.1687386676,131.46613121
4013,35,ゆめタウン山口店,山口県 山口市 大内千坊6-9-1 ゆめタウン山口,34.1608866148,131.491356421
4044,35,宇部琴芝店,山口県 宇部市 東琴芝1-4-53,33.9571798635,131.256896106
849,35,おのだサンパーク店,山口県 山陽小野田市 中川6-4-1 おのだサンパーク,33.9855456158,131.171510225
1884,36,徳島北田宮店,徳島県 徳島市 北田宮2-1-8,34.0869225718,134.54411852
976,36,徳島駅クレメントプラザ店,徳島県 徳島市 寺島本町西1-61 徳島駅クレメントプラザ,34.0741482327,134.551442389
1474,36,イオンモール徳島店,徳島県 徳島市 南末広町4-1,34.0615002423,134.573137559
4135,36,徳島万代店,徳島県 徳島市 万代町5-8-2-1,34.0642384041,134.56417901
1043,36,徳島沖浜店,徳島県 徳島市 沖浜2-5,34.0528546989,134.552694654
1054,36,ゆめタウン徳島店,徳島県 板野郡 藍住町奥野東中須88-1 ゆめタウン徳島,34.1195299844,134.500247329
4397,37,高松西宝町店,香川県 高松市 西宝町1-5-15,34.3418291057,134.030080862
1632,37,JR高松駅店,香川県 高松市 浜ノ町1-20 COM高松,34.3507042794,134.046658521
336,37,高松丸亀町フェスタ店,香川県 高松市 丸亀町6-1 フェスタ河野１,34.3430204329,134.049746951
344,37,高松瓦町駅店,香川県 高松市 常磐町1-3-1 琴電瓦町ビル,34.3392753269,134.05254828
4427,37,高松上福岡店,香川県 高松市 上福岡町2021-5,34.3270712861,134.064538124
704,37,香川大学病院店,香川県 木田郡 三木町池戸1750-1 香川大学医学部付属病院,34.2921657609,134.122878775
1692,37,イオンモール綾川店,香川県 綾歌郡 綾川町萱原822-1 イオンモール綾川,34.251706454,133.930708264
762,37,イオンモール高松店,香川県 高松市 香西本町1-1 イオンモール高松,34.3516448259,134.004192282
950,37,高松レインボーロード店,香川県 高松市 伏石町2084-5 ヤマダ電機テックランドNew高松,34.3118364538,134.060359728
4189,37,高松伏石店,香川県 高松市 伏石町2149-8,34.3068390013,134.064285466
390,37,ゆめタウン高松 1階店,香川県 高松市 三条町中所608-1 ゆめタウン高松,34.3166436578,134.0410475
1786,37,ゆめタウン高松 東館3階店,香川県 高松市 三条町608-1 ゆめタウン高松 東館3階,34.3159734865,134.043035699
1177,37,高松サン・フラワー通り店,香川県 高松市 太田下町3010-3,34.3040849124,134.051868846
4195,37,坂出久米店,香川県 坂出市 久米町１-26-1,34.3190826591,133.855682782
2173,37,丸亀マルタス店,香川県 丸亀市 大手町2-4-11 丸亀市市民交流活動センター マルタス,34.2895545439,133.79867582
1797,37,丸亀新田店,香川県 丸亀市 新田町179-3,34.2749053312,133.785847005
2065,37,TSUTAYA 宇多津店,香川県 綾歌郡 宇多津町浜3-21-2,34.3109280636,133.813003368
483,38,松山いよてつ会館ビル店,愛媛県 松山市 大街道3-1-1 いよてつ会館ビル,33.8414417377,132.770536007
744,38,松山湊町店,愛媛県 松山市 湊町7-1-29,33.8352463532,132.75829092
1458,38,松山市駅前店,愛媛県 松山市 湊町4-4-1,33.835604751,132.76417486
1577,38,道後温泉駅舎店,愛媛県 松山市 道後町１-10-12,33.8503527036,132.78498273
1312,38,松山はなみずき通り店,愛媛県 松山市 古川北3-7-28,33.8104485736,132.765365641
4407,38,松山古川北店,愛媛県 松山市 古川北2-21-14,33.8129182344,132.761067829
2094,38,TSUTAYA BOOK STORE 重信店,愛媛県 東温市 野田3-1-13 フジグラン重信,33.7951458447,132.833487911
2177,38,TSUTAYA BOOKSTORE エミフルMASAKI店,愛媛県 伊予郡 松前町筒井850 エミフルMASAKI エミモール2F,33.789893787,132.715327132
4102,38,松山平田店,愛媛県 松山市 平田町17-2,33.8830066966,132.752356436
1157,38,松山中央店,愛媛県 松山市 中央1-4-12,33.8541789652,132.753415454
4286,38,イオンモール新居浜店,愛媛県 新居浜市 前田町8-8 イオンモール新居浜,33.9544372363,133.268366126
4191,38,西条新田店,愛媛県 西条市 新田141-2,33.930409593,133.192544641
1380,38,イオンモール今治新都市店,愛媛県 今治市 にぎわい広場1-1,34.04383177,132.962131331
4213,38,今治鳥生店,愛媛県 今治市 北高下町1-5-13,34.0534810871,133.013929919
4180,38,イオンタウン川之江店,愛媛県 四国中央市 妻鳥町1769 イオンタウン川之江,33.9867779661,133.571793882
1176,39,イオンモール高知1階店,高知県 高知市 秦南町1-4-8 イオンモール高知 1階,33.5766918662,133.542111342
4023,39,イオンモール高知2階店,高知県 高知市 秦南町1-4-8 イオンモール高知 2階,33.5766666009,133.542670463
2115,39,高知 蔦屋書店,高知県 高知市 南御座90-1,33.5667732912,133.562951734
1273,39,高知帯屋町店,高知県 高知市 帯屋町2-2-14 岡村帯屋町ビル,33.5602779742,133.536836424
778,39,高知あぞの店,高知県 高知市 薊野北町1-9-39,33.5788348887,133.553338366
4145,39,高知知寄店,高知県 高知市 小倉町1-40,33.5577690314,133.566094388
805,39,高知潮江店,高知県 高知市 潮新町2-13-28,33.5487269563,133.550955228
596,40,サンリブシティ小倉店,福岡県 北九州市小倉南区 上葛原2-14-１ サンリブシティ小倉,33.8386745013,130.908060256
2137,40,門司港駅店,福岡県 北九州市門司区 西海岸1-5-31,33.9452720893,130.961545905
2124,40,アミュプラザ小倉店,福岡県 北九州市小倉北区 浅野1-1-1 アミュプラザ小倉,33.8865536524,130.882305746
475,40,小倉京町店,福岡県 北九州市小倉北区 京町2-7-3 ユニバース京町ビル,33.8856190103,130.881166994
495,40,リバーウォーク北九州デコシティ店,福岡県 北九州市小倉北区 室町1-1-1 リバーウォーク北九州　デコシティ1F,33.8855208633,130.875331095
4188,40,到津の森公園店,福岡県 北九州市小倉北区 上到津4-1-13 到津の森公園,33.8717957236,130.846897144
4301,40,八幡平野店,福岡県 北九州市八幡東区 平野3-2-60 皿倉テラス,33.8610042284,130.790630647
726,40,イオンモール八幡東店,福岡県 北九州市八幡東区 東田3-2-102 イオンモール八幡東,33.8702386078,130.811648476
4073,40,ジ アウトレット北九州店,福岡県 北九州市八幡東区 東田4-1-1 ジ アウトレット北九州,33.8727502754,130.81117951
2139,40,黒崎駅店,福岡県 北九州市八幡西区 黒崎3-15-1,33.8669748288,130.766148516
2191,40,折尾駅店,福岡県 北九州市八幡西区 北鷹見町13-17 えきマチ1丁目折尾1階,33.8639214477,130.712915855
4269,40,八幡永犬丸店,福岡県 北九州市八幡西区 永犬丸4-6-27,33.8421274596,130.732808262
442,40,イオン若松店,福岡県 北九州市若松区 二島1-3-1 イオン若松ショッピングセンター,33.8919389853,130.743508414
4274,40,イオンなかま店,福岡県 中間市 上蓮花寺1-1-2 イオンなかま,33.8244113931,130.722289674
737,40,天神地下街店,福岡県 福岡市中央区 天神2丁目地下０号 天神地下街,33.58797163,130.401212782
1219,40,天神VIORO店,福岡県 福岡市中央区 天神2-10-3 天神VIORO,33.5895219694,130.398328506
1220,40,福岡パルコ店,福岡県 福岡市中央区 天神2-11-1 福岡パルコ新館,33.5910040287,130.398079847
1247,40,天神ソラリアステージ店,福岡県 福岡市中央区 天神2-11-3 ソラリアステージ,33.5900988592,130.398736223
1279,40,西鉄天神高速バスターミナル店,福岡県 福岡市中央区 天神2-1-1 ソラリアターミナルビル　3階,33.5889209475,130.399760359
4267,40,ミーナ天神店,福岡県 福岡市中央区 天神4-3-8 ミーナ天神,33.5926821893,130.398464738
1059,40,天神南渡辺通り店,福岡県 福岡市中央区 渡辺通4-9-18 福酒ビル,33.5873258665,130.401258364
345,40,福岡赤坂門店,福岡県 福岡市中央区 大名2-4-22 新日本ビル 1F,33.5888119164,130.390948874
641,40,天神西通り店,福岡県 福岡市中央区 大名1-13-25,33.5878943375,130.396713715
2102,40,六本松 蔦屋書店,福岡県 福岡市中央区 六本松4-2-1,33.5774545659,130.377667166
962,40,福岡大濠公園店,福岡県 福岡市中央区 大濠公園1-8,33.5870988183,130.378025859
1581,40,マークイズ福岡ももち店,福岡県 福岡市中央区 地行浜2-2-1 マークイズ福岡ももち,33.5924527045,130.362945476
2126,40,TSUTAYA マークイズ 福岡ももち店,福岡県 福岡市中央区 地行浜2-2-1 マークイズ福岡ももち,33.5930081958,130.362667696
1824,40,IWATAYA本店新館店,福岡県 福岡市中央区 天神2-5-35 岩田屋本店新館,33.5894761336,130.397911876
1009,40,福岡新宮店,福岡県 糟屋郡 新宮町中央駅前2-5-15,33.708997957,130.454955524
2241,40,ABURAYAMA FUKUOKA店,福岡県 福岡市南区 柏原710-2 ABURAYAMA FUKUOKA,33.5089832747,130.377452004
561,40,イオンモール福岡店,福岡県 糟屋郡 粕屋町酒殿老ノ木192-1,33.597064267,130.480634101
4131,40,福岡古賀店,福岡県 古賀市 美明3-5-12,33.7192786542,130.462407765
1080,40,イオンモール福津店,福岡県 福津市 日蒔野6-16-1 イオンモール福津,33.7543593576,130.494850399
4052,40,宗像店,福岡県 宗像市 原町古森141-1,33.7857970983,130.558017317
1685,40,福岡空港国内線ターミナル3階店,福岡県 福岡市博多区 下臼井767-1 福岡空港国内線ターミナルビル,33.5964379306,130.448003506
288,40,福岡朝日ビル店,福岡県 福岡市博多区 博多駅前2-1-1 福岡朝日ビル 1F,33.5906541443,130.418457615
1708,40,博多駅前ビジネスセンター店,福岡県 福岡市博多区 博多駅前3-25-21 博多駅前ビジネスセンター,33.589533139,130.417650512
2140,40,ザ・ブラッサム博多プレミア店,福岡県 福岡市博多区 博多駅前2-8-12 THE BLOSSOM HAKATA Premier,33.5900885737,130.414131056
211,40,オリエンタルホテル福岡博多ステーション店,福岡県 福岡市博多区 博多駅中央街4-23 オリエンタルホテル福岡博多ステーション 1F,33.5906039331,130.421962882
1206,40,アミュプラザ博多 3階店,福岡県 福岡市博多区 博多駅中央街1-1 アミュプラザ博多 3F,33.5902336594,130.419928901
1365,40,ＫＩＴＴＥ博多店,福岡県 福岡市博多区 博多駅中央街9-1,33.5889332304,130.419212354
1366,40,JRJP博多ビル店,福岡県 福岡市博多区 博多駅中央街8-1,33.5880058251,130.41895103
2288,40,博多駅新幹線改札内店,福岡県 福岡市博多区 博多駅中央街1-1 JR博多駅新幹線構内2階,33.5899287151,130.42124825
2292,40,博多デイトスアネックス店,福岡県 福岡市博多区 博多駅中央街1-1 博多デイトスアネックス2階,33.5906092054,130.421677628
4125,40,アミュプラザ博多 2階店,福岡県 福岡市博多区 博多駅中央街1-1 アミュプラザ博多 2F,33.5902997643,130.419974172
4362,40,都ホテル 博多店,福岡県 福岡市博多区 博多駅東2-1-1 都ホテル 博多1階,33.589744595,130.422785631
141,40,キャナルシティ博多店,福岡県 福岡市博多区 住吉1-2-22 キャナルシティＯＰＡ B1F,33.5897743952,130.41153212
4064,40,博多千代県庁口店,福岡県 福岡市博多区 千代1-21-42,33.6018912485,130.416900838
629,40,ボックスタウン箱崎店,福岡県 福岡市東区 箱崎4-6-20 ボックスタウン箱崎,33.6194399424,130.417778013
756,40,ゆめタウン博多店,福岡県 福岡市東区 東浜1-1-1 ゆめタウン博多,33.6115034622,130.411663886
1496,40,福岡空港国際線ターミナル店,福岡県 福岡市博多区 青木739,33.5847363424,130.444449896
1367,40,博多の森店,福岡県 福岡市博多区 東平尾1-71-9,33.5895752303,130.458121871
4026,40,ららぽーと福岡店,福岡県 福岡市博多区 那珂6-23-1 ららぽーと福岡,33.5651825191,130.439786183
4055,40,福岡香椎店,福岡県 福岡市東区 香椎駅東3-30-11,33.662100683,130.451062451
534,40,イオンモール香椎浜店,福岡県 福岡市東区 香椎浜3-12-1 イオンモール香椎浜,33.6570988869,130.428931186
4348,40,ガーデンズ千早東店,福岡県 福岡市東区 千早3-6-36 エディオン ガーデンズ千早東店1階,33.6507408179,130.436932759
2033,40,福岡大学病院店,福岡県 福岡市城南区 七隈7-45-1 福岡大学病院新館,33.5473538926,130.361534892
714,40,福岡次郎丸店,福岡県 福岡市早良区 次郎丸2-10-10,33.552942448,130.328958729
1594,40,西鉄大橋駅店,福岡県 福岡市南区 大橋1-5-1,33.5593290248,130.426531998
1860,40,パセオ野間大池店,福岡県 福岡市南区 柳河内1-2-1 パセオ野間大池,33.5541206241,130.406687219
1017,40,福岡春日店,福岡県 春日市 春日6-14,33.5186507889,130.469266989
4045,40,福岡星見ヶ丘店,福岡県 春日市 星見ヶ丘5-250-2,33.5066664635,130.450405774
4113,40,イオンモール筑紫野店,福岡県 筑紫野市 立明寺434-1 イオンモール筑紫野,33.4804553095,130.525988759
1058,40,太宰府天満宮表参道店,福岡県 太宰府市 宰府3-2-43,33.5196326373,130.533390785
640,40,太宰府向佐野店,福岡県 太宰府市 向佐野1-10-20,33.5094877752,130.495065268
4482,40,福岡小戸店,福岡県 福岡市西区 小戸3-25-25,33.5908103815,130.315315063
1424,40,ウエストコート姪浜店,福岡県 福岡市西区 内浜1-7-7,33.5813223694,130.323313447
1033,40,木の葉モール橋本店,福岡県 福岡市西区 橋本2-27-2 木の葉モール橋本,33.5558522866,130.321631703
679,40,イオンモール福岡伊都店,福岡県 福岡市西区 北原1-2-1 イオンモール福岡伊都,33.5777105101,130.258363174
4112,40,福岡周船寺店,福岡県 福岡市西区 北原2-4-6,33.5785106141,130.253310223
4172,40,九大伊都 蔦屋書店,福岡県 福岡市西区 九大新町5-1 いとLab＋,33.5941193579,130.229269279
4255,40,ゆめタウン飯塚店,福岡県 飯塚市 菰田西3-6-1 ゆめタウン飯塚1階,33.6317013631,130.68551799
4469,40,直方店,福岡県 直方市 下境894-1,33.7369539294,130.745419836
608,40,イオンモール直方店,福岡県 直方市 湯野原2-1-1,33.7683364836,130.749861633
1628,40,ゆめタウン行橋店,福岡県 行橋市 西宮市3-8-1 ゆめタウン行橋,33.7205748358,130.967360769
1168,40,久留米東櫛原店,福岡県 久留米市 東櫛原町413-1,33.3256579142,130.522345079
1595,40,西鉄久留米駅店,福岡県 久留米市 東町上天神田316-2 エマックス・クルメ,33.3122907099,130.521031914
795,40,久留米上津バイパス店,福岡県 久留米市 野伏間1-7-25,33.2854492404,130.511079532
4130,40,筑後店,福岡県 筑後市 前津31-1,33.2165925305,130.516336989
4009,40,イオンモール大牟田店,福岡県 大牟田市 岬町3-4 イオンモール大牟田,33.0305144989,130.427844017
317,40,ゆめタウン大牟田店,福岡県 大牟田市 旭町2-28 ゆめタウン大牟田,33.0366984608,130.453989061
4433,40,久留米合川店,福岡県 久留米市 合川町309-1,33.3152351626,130.53953302
517,40,ゆめタウン久留米店,福岡県 久留米市 新合川1-2-1 ゆめタウン久留米,33.322230215,130.537660353
1167,41,佐賀南バイパス店,佐賀県 佐賀市 本庄町袋306-6,33.2387694143,130.298800422
1364,41,佐賀大学通り店,佐賀県 佐賀市 与賀町70-1 TSUTAYA積文館書店 佐大通り店,33.2484146642,130.292657711
1705,41,鳥栖プレミアム・アウトレット店,佐賀県 鳥栖市 弥生が丘8-1 鳥栖プレミアム・アウトレット,33.4043540472,130.512506994
2021,41,TSUTAYA 鳥栖店,佐賀県 鳥栖市 本鳥栖町537-1,33.3764032236,130.516837644
1425,41,鳥栖蔵上町店,佐賀県 鳥栖市 蔵上町662-5,33.3760343322,130.498530292
931,41,基山パーキングエリア（上り線）店,佐賀県 三養基郡 基山町小倉2097-1 基山パーキングエリア（上り線）,33.4408154555,130.530150517
2049,41,蔦屋書店 武雄市図書館店,佐賀県 武雄市 武雄町武雄5304-1,33.1891368632,130.023759161
1521,41,佐賀武雄店,佐賀県 武雄市 武雄町昭和277,33.1934050809,130.027372553
4051,41,唐津店,佐賀県 唐津市 和多田西山1-46-1,33.4305894761,129.982089281
926,41,金立サービスエリア（下り線）店,佐賀県 佐賀市 金立町金立1197-57 金立サービスエリア（下り線）,33.3284233805,130.311528015
4474,41,佐賀兵庫店,佐賀県 佐賀市 兵庫町藤木1192-1,33.2762102053,130.303009738
729,41,ゆめタウン佐賀店,佐賀県 佐賀市 兵庫北5-14-1 ゆめタウン佐賀,33.2756514666,130.308187945
392,42,長崎ゆめタウン夢彩都店,長崎県 長崎市 元船町10－1 ゆめタウン夢彩都,32.7464468186,129.870740864
4417,42,長崎スタジアムシティ店,長崎県 長崎市 幸町7-1 STADIUM CITY SOUTH 2階,32.7589076148,129.865405456
2268,42,アミュプラザ長崎 新館店,長崎県 長崎市 尾上町1-1 アミュプラザ長崎 新館 5階,32.7517676215,129.869774589
4404,42,アミュプラザ長崎 本館1階店,長崎県 長崎市 尾上町1-1 アミュプラザ長崎 本館1階,32.7520803901,129.871166959
4092,42,長崎時津店,長崎県 西彼杵郡 時津町浦郷542-2,32.8318314368,129.846944742
877,42,みらい長崎ココウォーク店,長崎県 長崎市 茂里町1-55 みらい長崎ココウオーク,32.7624877739,129.864633411
2175,42,諫早駅店,長崎県 諫早市 永昌町1-2,32.8519482341,130.041221015
2296,42,TSUTAYA BOOKSTORE 島原店,長崎県 島原市 城内3-1600-1,32.7986334258,130.36183351
4190,42,新大村駅前店,長崎県 大村市 植松3-160-9・160-10・160-11の各一部 仮換地12街区1-1画地の一部,32.9340810712,129.959152104
859,42,長崎空港店,長崎県 大村市 箕島町593 長崎空港ビルディング,32.9126160471,129.921751477
4122,42,長崎大村店,長崎県 大村市 幸町25-32,32.90155092,129.958037584
538,42,佐世保四ヶ町店,長崎県 佐世保市 島瀬町7-14 柏田ビル,33.172027289,129.720726504
1184,42,させぼ五番街店,長崎県 佐世保市 新港町4-10 させぼ五番街,33.1644295251,129.722708634
1683,42,諫早多良見店,長崎県 諫早市 多良見町市布1546-4,32.8193701835,129.96923766
2136,43,熊本駅店,熊本県 熊本市西区 春日3-15-30,32.789755919,130.688746769
2179,43,アミュプラザくまもと店,熊本県 熊本市西区 春日3-15-26 アミュプラザくまもと,32.7892662576,130.689231196
4182,43,熊本清水店,熊本県 熊本市北区 高平2-25-39,32.8358020883,130.719594309
2080,43,蔦屋書店 熊本三年坂店,熊本県 熊本市中央区 安政町1-2 カリーノ下通 1F,32.8019141539,130.709856123
1672,43,サクラマチ 熊本店,熊本県 熊本市中央区 桜町3-10 SAKURA MACHI Kumamoto,32.8002850574,130.703896137
425,43,熊本シャワー通り店,熊本県 熊本市中央区 下通2-3-1 エスキュービック,32.7986889067,130.707758945
340,43,熊本Ｎｅｗ－Ｓ店,熊本県 熊本市中央区 上通町2-2 Ｎｅｗ－Ｓ,32.8031973638,130.710647109
634,43,イオンモール熊本店,熊本県 上益城郡 嘉島町上島長池2232,32.7373108536,130.745520302
4229,43,北熊本サービスエリア（上り線）店,熊本県 熊本市北区 改寄町1199 九州自動車道 北熊本サービスエリア（上り線）内,32.8940272254,130.718226186
724,43,熊本インターチェンジ店,熊本県 熊本市東区 神園1-1-6,32.8371304805,130.778807108
4158,43,熊本益城インターチェンジ店,熊本県 熊本市東区 佐土原2-4-160,32.7907696135,130.779243095
4022,43,熊本帯山店,熊本県 熊本市中央区 帯山9-2-5,32.8048919396,130.760349848
1545,43,ゆめタウンはません店,熊本県 熊本市南区 田井島1-2-1 ゆめタウンはません,32.7716076846,130.726404199
1181,43,熊本大江店,熊本県 熊本市中央区 大江3-2-33,32.8042072455,130.72595718
621,43,ゆめタウン八代店,熊本県 八代市 建馬町3-1 ゆめタウン八代,32.5057969914,130.58569618
4323,43,八代北の丸店,熊本県 八代市 北の丸町1-19,32.5088749822,130.600836726
2222,43,不知火美術館・図書館店,熊本県 宇城市 不知火町高良2352 不知火美術館・図書館,32.6470377876,130.669220796
564,43,熊本ゆめタウン光の森店,熊本県 菊池郡 菊陽町光の森7-39-1 ゆめタウン光の森,32.8600709091,130.784792499
1875,43,熊本菊陽店,熊本県 菊池郡 菊陽町津久礼2541-1,32.860281744,130.802077165
2168,43,TSUTAYA BOOKSTORE 菊陽店,熊本県 菊池郡 菊陽町津久礼2746,32.8630644132,130.812904193
590,43,熊本光の森ロードサイド店,熊本県 菊池郡 菊陽町光の森3-22-2,32.8625539407,130.782726167
4200,44,大分中春日店,大分県 大分市 中春日町12－24,33.2398972197,131.595413244
4111,44,大分森町店,大分県 大分市 森町593-1,33.2250186513,131.681675931
363,44,パークプレイス大分店,大分県 大分市 公園通り西2-1 パークプレイス大分,33.1957099651,131.656937113
1231,44,アミュプラザおおいた 1階店,大分県 大分市 要町1-14 アミュプラザおおいた1階,33.2330909245,131.606807055
2277,44,アミュプラザおおいた 2階店,大分県 大分市 要町1-14 アミュプラザおおいた2階,33.2330631511,131.606882606
1330,44,大分大道バイパス店,大分県 大分市 二又町3-2-6,33.2124026813,131.596597745
4152,44,大分高城店,大分県 大分市 日吉町19-18,33.2444119217,131.653705972
1095,44,大分下郡店,大分県 大分市 下郡北3-25-16,33.2302564422,131.634987068
184,44,大分わさだトキハ店,大分県 大分市 玉沢楠本755-1 トキハわさだタウン 1F,33.1882322269,131.581604547
1756,44,大分トキハ本店,大分県 大分市 府内町2-1-4 トキハ本店,33.2364991865,131.607687658
4403,44,中津店,大分県 中津市 東本町5-6,33.5953268594,131.190909637
4316,44,別府上人ケ浜店,大分県 別府市 上人ヶ浜町2-51,33.3135985095,131.500356078
1769,44,別府公園店,大分県 別府市 西野口町2780-28 別府公園東駐車場,33.2814562768,131.493761439
650,44,別府トキハ店,大分県 別府市 北浜2-9-1 トキハ別府店,33.2799994218,131.505863556
4373,44,日田店,大分県 日田市 庄手648-6,33.311937234,130.924176783
785,44,大分大学医学部附属病院店,大分県 由布市 挾間町医大ヶ丘1-1 大分大学医学部附属病院,33.2098779875,131.535056583
4228,45,宮崎神宮東店,宮崎県 宮崎市 神宮東1-4-25,31.9336879002,131.428165058
2167,45,アミュプラザみやざき店,宮崎県 宮崎市 老松2-2-22 アミュプラザみやざき うみ館,31.9148746843,131.431004577
1057,45,イオンモール宮崎 North Mall 2階店,宮崎県 宮崎市 新別府町江口862-1 イオンモール宮崎 North Mall 2階,31.9228026066,131.456015468
4300,45,宮崎新別府店,宮崎県 宮崎市 新別府町江口881-1,31.9240965734,131.452496534
4453,45,イオンモール宮崎 South Mall 1階店,宮崎県 宮崎市 新別府町江口862-1 イオンモール宮崎 South Mall 1階,31.9223829345,131.456319907
700,45,宮崎青葉町店,宮崎県 宮崎市 青葉町121-6,31.9195948221,131.435988946
2163,45,TSUTAYA BOOKSTORE 宮交シティ店,宮崎県 宮崎市 大淀4-7-30 宮交シティ,31.8951202079,131.419528384
747,45,宮崎赤江店,宮崎県 宮崎市 恒久今井出916,31.8817886969,131.426318712
4426,45,宮崎恒久店,宮崎県 宮崎市 恒久942-１,31.8809535018,131.425935449
709,45,宮崎山形屋店,宮崎県 宮崎市 橘通東3-4-12 宮崎山形屋,31.9161477541,131.423713735
4144,45,延岡昭和町店,宮崎県 延岡市 昭和町2-2291-2,32.586926552,131.677539546
2110,45,蔦屋書店 延岡エンクロス店,宮崎県 延岡市 幸町3-4266-5 NOBEOKA ENCROSS,32.5905763534,131.672617286
4327,45,日向店,宮崎県 日向市 鶴町2-11-9,32.4252416371,131.630600056
4126,45,イオンモール都城駅前店,宮崎県 都城市 栄町4672－5 イオンモール都城駅前,31.7349219725,131.080269492
1233,46,アミュプラザ鹿児島 プレミアム館1階店,鹿児島県 鹿児島市 中央町1-1 アミュプラザ鹿児島,31.583790965,130.542423063
1768,46,アミュプラザ鹿児島 本館2階店,鹿児島県 鹿児島市 中央町1-1 アミュプラザ鹿児島,31.5842414774,130.542713296
4031,46,鹿児島与次郎店,鹿児島県 鹿児島市 与次郎1-8-30,31.5670056089,130.562377456
804,46,鹿児島OPSIAミスミ店,鹿児島県 鹿児島市 宇宿2-3-5 OPSIA Misumi,31.5435739013,130.543768414
791,46,イオンモール鹿児島店,鹿児島県 鹿児島市 東開町7 イオンモール鹿児島,31.5274482711,130.536171454
4335,46,鹿児島東開町店,鹿児島県 鹿児島市 東開町4-113,31.5360737126,130.534747009
4181,46,鹿児島谷山駅前店,鹿児島県 鹿児島市 谷山中央1-4127-17,31.5263539075,130.518191609
1713,46,鹿児島マルヤガーデンズ店,鹿児島県 鹿児島市 呉服町6-5 マルヤガーデンズ,31.5911770968,130.557030676
701,46,鹿児島天文館店,鹿児島県 鹿児島市 東千石町16-18 STYLISHビル,31.5920191893,130.55476027
1441,46,鹿児島仙巌園店,鹿児島県 鹿児島市 吉野町9688-1,31.6168260625,130.575364084
2227,46,薩摩川内 センノオト店,鹿児島県 薩摩川内市 若松町3-33 センノオト1階,31.813947161,130.302754314
2157,46,TSUTAYA BOOKSTORE 霧島店,鹿児島県 霧島市 国分野口東8-40,31.737479616,130.75428978
4143,46,イオンタウン姶良店,鹿児島県 姶良市 西餅田264-1 イオンタウン姶良,31.7325520826,130.626786707
406,47,那覇メインプレイス店,沖縄県 那覇市 おもろまち4-4-9 サンエー那覇メインプレイス,26.2251930106,127.695704004
381,47,那覇国際通り牧志店,沖縄県 那覇市 牧志2-1-1 プランタビル,26.2165504722,127.688290573
4227,47,那覇オーパ店,沖縄県 那覇市 泉崎1-20-1 那覇OPA 2階,26.2114663628,127.676338744
2132,47,那覇空港国内線ゲート内店,沖縄県 那覇市 鏡水150 那覇空港旅客ターミナルビル,26.2067764224,127.65103134
428,47,イオン那覇ショッピングセンター店,沖縄県 那覇市 金城5-10-2 イオン那覇ショッピングセンター,26.1967235964,127.666228041
1000,47,沖縄アウトレットモールあしびなー店,沖縄県 豊見城市 豊崎1-1192 沖縄アウトレットモールあしびなー,26.1589869514,127.659026765
1822,47,イーアス沖縄豊崎店,沖縄県 豊見城市 豊崎3-35 イーアス沖縄豊崎,26.1571275529,127.6502698
4290,47,沖縄八重瀬店,沖縄県 島尻郡 八重瀬町東風平1201-1,26.1574012423,127.720038438
559,47,イオン南風原店,沖縄県 島尻郡 南風原町宮平264 イオン南風原ショッピングセンター,26.2005666455,127.737101422
1245,47,沖縄津嘉山店,沖縄県 島尻郡 南風原町津嘉山1321-1,26.1929634281,127.713080989
636,47,浦添バークレーズコート店,沖縄県 浦添市 当山2-2-9 バークレーズコート,26.2523175209,127.73834588
875,47,経塚シティ店,沖縄県 浦添市 経塚652 サンエー経塚シティ,26.2376913085,127.722500092
1671,47,浦添西海岸パルコシティ店,沖縄県 浦添市 西洲3-1-1 サンエー浦添西海岸 PARCO CITY,26.2622852021,127.69844068
1244,47,沖縄宜野湾店,沖縄県 宜野湾市 宇地泊1-1-2,26.2695547791,127.734640672
1277,47,イオンモール沖縄ライカム店,沖縄県 中頭郡 北中城村ライカム1,26.3142263763,127.79747423
1105,47,沖縄真嘉比店,沖縄県 那覇市 松島1-14-13,26.2227201039,127.704985569
652,47,沖縄西原シティ店,沖縄県 中頭郡 西原町嘉手苅130 サンエー西原シティ,26.2243862575,127.76532687
893,47,沖縄国体道路店,沖縄県 中頭郡 北谷町上勢頭813－1,26.3283421778,127.770772464
398,47,美浜アメリカンビレッジ店,沖縄県 中頭郡 北谷町美浜16-2 美浜メディアステーション,26.3162151961,127.757987696
623,47,イオン北谷店,沖縄県 中頭郡 北谷町美浜8-3 イオン北谷店,26.3145334134,127.756948693
702,47,北谷国道58号店,沖縄県 中頭郡 北谷町美浜1-5-11,26.3137413466,127.760996726
4151,47,北谷北前店,沖縄県 中頭郡 北谷町北前1-6-1,26.3004633225,127.761006226
842,47,沖縄読谷店,沖縄県 中頭郡 読谷村古堅639-1 イオンタウン読谷ショッピングセンター,26.3695973437,127.746643124
4101,47,沖縄登川店,沖縄県 沖縄市 登川1-8-6,26.3682268035,127.818643597
4219,47,沖縄あわせモール店,沖縄県 沖縄市 古謝2-17-6,26.3336693809,127.834102515
4129,47,沖縄うるま安慶名店,沖縄県 うるま市 安慶名1-2-28,26.3749022682,127.854318938
1630,47,沖縄アブロうるま店,沖縄県 うるま市 豊原393-1 ABLOうるま,26.3437008966,127.855079756
577,47,具志川メインシティ店,沖縄県 うるま市 江洲450-1 サンエー具志川メインシティ,26.3530618877,127.826018127
4199,47,沖縄うるま江洲店,沖縄県 うるま市 江洲598-5,26.3480333986,127.834019638
4322,47,イオン名護店,沖縄県 名護市 名護見取川原4472 イオン名護,26.608810901,127.983869352
1543,47,沖縄本部町店,沖縄県 国頭郡 本部町山川1421-4,26.6821418549,127.88321989
2050,47,石垣空港店,沖縄県 石垣市 白保1960-104-1,24.3905614852,124.24590443
