store_id,pref_id,shop_name,address,lat,lon,brand,is_deleted
8701,"",夢庵 コースカベイサイドストアーズ店,神奈川県横須賀市本町２丁目１－１２　３階,35.282846,139.662433,夢庵,0
8700,"",chawan イオンモール高岡店,富山県高岡市下伏間江３８３　　１階,36.72443,137.015391,chawan,0
8624,"",ガスト イオンモール高の原店,京都府木津川市相楽台１丁目１番１,34.725782,135.790814,ガスト,0
8623,"",ガスト 三井アウトレットパーク北陸小矢部店,富山県小矢部市西中野９７２番地１,36.6892,136.881063,ガスト,0
8622,"",chawan 三井アウトレットパーク幕張店,千葉県千葉市美浜区ひび野２丁目９－３　Ｄ－ｓｉｔｅ　３階,35.646502,140.040511,chawan,0
8621,"",バーミヤン 港北センター南店,神奈川県横浜市都筑区茅ケ崎中央３－２５　地下１階,35.54461,139.574858,バーミヤン,0
8620,"",しゃぶ葉 渋谷井の頭通り店,東京都渋谷区宇田川町１２－３　２Ｆ,35.661747,139.698071,しゃぶ葉,0
8619,"",しゃぶ葉 港南台バーズ店,神奈川県横浜市港南区港南台３丁目１－３　３階,35.374946,139.577438,しゃぶ葉,0
8618,"",chawan イオンモール鈴鹿店,三重県鈴鹿市庄野羽山４丁目１－２,34.872709,136.531091,chawan,0
8617,"",ガスト 新宿ＮＯＷＡビル店,東京都新宿区新宿３丁目３７番１２号　新宿ＮＯＷＡビル７階,35.690351,139.701395,ガスト,0
8615,"",しゃぶ葉 水戸エクセルみなみ店,茨城県水戸市宮町１丁目７番３１号　６階,36.3700643,140.4766399,しゃぶ葉,0
8614,"",しゃぶ葉 イーアス春日井店,愛知県春日井市六軒屋町東丘２２,35.258938,136.982278,しゃぶ葉,0
8611,"",chawan モラージュ菖蒲店,埼玉県久喜市菖蒲町菖蒲字伊勢浦６００５番１　他１階,36.075218,139.611661,chawan,0
8610,"",しゃぶ葉 三郷彦糸店,埼玉県三郷市彦糸２丁目２０２－１,35.8593475,139.8494798,しゃぶ葉,0
8609,"",しゃぶ葉 西那須野店,栃木県那須塩原市下永田１丁目１００９－５,36.881617,139.999216,しゃぶ葉,0
8608,"",むさしの森珈琲 ココット彦根店,滋賀県彦根市松原町字石持１９１８－２,35.278668,136.258456,むさしの森珈琲,0
8607,"",chawan イオンモール草津店,滋賀県草津市新浜町３００番地,34.997689,135.91266,chawan,0
8606,"",ラ・オハナ 沼津杉崎店,静岡県沼津市杉崎町１１－３３,35.108393,138.866108,ラ・オハナ,0
8604,"",バーミヤン オリナス錦糸町店,東京都墨田区太平４丁目１番２号　４階,35.700372,139.815403,バーミヤン,0
8603,"",むさしの森珈琲 北久里浜店,神奈川県横須賀市根岸町３丁目３－１０,35.250101,139.685326,むさしの森珈琲,0
8601,"",むさしの森珈琲 仙川店,東京都調布市若葉町２丁目１１－１,35.65926,139.587714,むさしの森珈琲,0
8600,"",しゃぶ葉 野田梅郷店,千葉県野田市山崎貝塚町１１－５,35.922299,139.896931,しゃぶ葉,0
8599,"",バーミヤン イオンモール広島祇園店,広島県広島市安佐南区祇園３丁目２－１,34.443438,132.461303,バーミヤン,0
8598,"",バーミヤン 盛岡西バイパス店,岩手県盛岡市本宮４丁目３３－１３,39.685138,141.133679,バーミヤン,0
8596,"",しゃぶ葉 大牟田白金店,福岡県大牟田市白金町１８,33.023831,130.436701,しゃぶ葉,0
8595,"",しゃぶ葉 四日市店,三重県四日市市日永東３丁目１－２３,34.947795,136.607106,しゃぶ葉,0
8594,"",むさしの森珈琲 都城店,宮崎県都城市平江町２２－１６,31.73539,131.069103,むさしの森珈琲,0
8591,"",むさしの森珈琲 香久山店,愛知県日進市香久山４丁目１２０３,35.146508,137.02547,むさしの森珈琲,0
8589,"",バーミヤン 東三条店,新潟県三条市興野３丁目１３－３６,37.635519,138.974863,バーミヤン,0
8587,"",しゃぶ葉 今治ワールドプラザ店,愛媛県今治市東村１丁目２－５５,34.04246,133.025904,しゃぶ葉,0
8586,"",むさしの森珈琲 佐倉ユーカリが丘店,千葉県佐倉市南ユーカリが丘１４－１,35.720263,140.155878,むさしの森珈琲,0
8585,"",夢庵 川崎千年店,神奈川県川崎市高津区千年６６１－１,35.57746,139.626987,夢庵,0
8584,"",しゃぶ葉 石巻西店,宮城県石巻市門脇元浦屋敷１１－４,38.430448,141.262912,しゃぶ葉,0
8583,"",しゃぶ葉 松山束本店,愛媛県松山市束本１丁目４番２６号,33.831319,132.787198,しゃぶ葉,0
8582,"",しゃぶ葉 いわき小名浜店,福島県いわき市小名浜岡小名字小舘２９－１,36.959354,140.903633,しゃぶ葉,0
8581,"",バーミヤン イオン十和田店,青森県十和田市大字相坂字六日町山１６６番１,40.603019,141.256989,バーミヤン,0
8580,"",とんから亭 札幌白石本通店,北海道札幌市白石区本通１２丁目南４番１３号,43.0403,141.424874,とんから亭,0
8579,"",むさしの森珈琲 健軍店,熊本県熊本市東区沼山津１丁目１－３,32.777498,130.774706,むさしの森珈琲,0
8578,"",夢庵 五井店,千葉県市原市五井５５９１－１,35.520958,140.091955,夢庵,0
8577,"",とんから亭 南大分店,大分県大分市畑中１丁目５－３,33.205242,131.602647,とんから亭,0
8576,"",とんから亭 宇都宮上横田店,栃木県宇都宮市上横田町１３１８－９,36.51207,139.876334,とんから亭,0
8575,"",しゃぶ葉 岡山十日市店,岡山県岡山市北区奥田２丁目４－２９,34.642968,133.924699,しゃぶ葉,0
8574,"",バーミヤン 弘前城東店,青森県弘前市大字城東北４－５－１３,40.609795,140.498498,バーミヤン,0
8573,"",しゃぶ葉 下諏訪店,長野県諏訪郡下諏訪町南四王湖浜６１４１－２,36.067862,138.088871,しゃぶ葉,0
8571,"",とんから亭 東村山店,東京都東村山市久米川町４丁目３２,35.767847,139.472221,とんから亭,0
8570,"",しゃぶ葉 酒田北店,山形県酒田市ゆたか３丁目２番地１,38.937903,139.847703,しゃぶ葉,0
8569,"",しゃぶ葉 東金店,千葉県東金市田間９４,35.560555,140.37215,しゃぶ葉,0
8567,"",むさしの森珈琲 豊橋江島店,愛知県豊橋市江島町９６－１,34.736531,137.40443,むさしの森珈琲,0
8566,"",夢庵 茨城神栖店,茨城県神栖市神栖１丁目９－９,35.898512,140.643436,夢庵,0
8564,"",ジョナサン 用賀店,東京都世田谷区玉川台２丁目２２－２０　イイダアネックスⅦ,35.6248625,139.6325772,ジョナサン,0
8563,"",むさしの森珈琲 郡山コスモス通り店,福島県郡山市堤３丁目１３１,37.397954,140.333729,むさしの森珈琲,0
8562,"",バーミヤン 松本高宮店,長野県松本市高宮中１－３６,36.214523,137.960627,バーミヤン,0
8561,"",とんから亭 青森問屋町店,青森県青森市第二問屋町２丁目３－４,40.794479,140.759945,とんから亭,0
8560,"",とんから亭 新潟女池店,新潟県新潟市中央区女池５丁目７ー６,37.892078,139.039486,とんから亭,0
8557,"",とんから亭 富山新庄店,富山県富山市新庄町３丁目７－３５,36.697196,137.254535,とんから亭,0
8556,"",とんから亭 仙台志波町店,宮城県仙台市若林区志波町２－２５,38.250789,140.911172,とんから亭,0
8555,"",バーミヤン 中野坂上店,東京都中野区本町２丁目４６－４,35.696909,139.681533,バーミヤン,0
8553,"",夢庵 昭島店,東京都昭島市武蔵野２丁目１１－１７,35.722134,139.373297,夢庵,0
8550,"",しゃぶ葉 島根斐川店,島根県出雲市斐川町上直江１３１６,35.386584,132.80864,しゃぶ葉,0
8549,"",しゃぶ葉 和歌山湊店,和歌山県和歌山市湊１８３３－５,34.23588,135.153205,しゃぶ葉,0
8548,"",むさしの森珈琲 千葉駅前店,千葉県千葉市中央区富士見１丁目１－１　千葉駅前ビル２Ｆ,35.612684,140.116253,むさしの森珈琲,0
8547,"",ガスト 津田沼駅前店,千葉県習志野市津田沼１丁目１１－４　ＪＰＴ津田沼ビル２Ｆ,35.691479,140.021868,ガスト,0
8546,"",むさしの森珈琲 東浦店,愛知県知多郡東浦町大字緒川字家下２０－２,34.97959,136.969747,むさしの森珈琲,0
8545,"",しゃぶ葉 一宮緑店,愛知県一宮市緑２丁目１－６,35.302444,136.816119,しゃぶ葉,0
8543,"",バーミヤン アトレ秋葉原２店,東京都千代田区神田花岡町１‐９　アトレ秋葉原２店　５階,35.698351,139.774788,バーミヤン,0
8542,"",chawan ららテラス　ＨＡＲＵＭＩ　ＦＬＡＧ店,東京都中央区晴海５丁目２番３１号,35.65112,139.774474,chawan,0
8541,"",ガスト 浦和太田窪店,埼玉県さいたま市南区太田窪２８４３,35.8484563,139.6878694,ガスト,0
8540,"",とんから亭 豊田三軒町店,愛知県豊田市三軒町８丁目１８－２,35.0827997,137.1398158,とんから亭,0
8539,"",とんから亭 東小金井店,東京都小金井市緑町２丁目１－３７,35.7048694,139.5212871,とんから亭,0
8538,"",ガスト ららテラスＴＯＫＹＯ－ＢＡＹ店（から好し取扱店）,千葉県船橋市若松２丁目２番１号,35.6808528,139.9967928,ガスト,0
8537,"",とんから亭 府中若松町店,東京都府中市若松町４丁目８－１３,35.6771932,139.4990643,とんから亭,0
8536,"",とんから亭 刈谷今川町店,愛知県刈谷市今川町井田９３－１,35.0317516,137.0184589,とんから亭,0
8535,"",とんから亭 豊中南店,大阪府豊中市豊南町東３丁目１－１２,34.7502256,135.4832724,とんから亭,0
8534,"",とんから亭 静岡国吉田店,静岡県静岡市駿河区国吉田１丁目２１－１９,34.9995453,138.4314487,とんから亭,0
8533,"",とんから亭 江南店,愛知県江南市古知野町桃源７４番地,35.341142,136.8684599,とんから亭,0
8532,"",バーミヤン 荻窪タウンセブン店,東京都杉並区上荻１丁目９ー１　７階,35.7050789,139.6195809,バーミヤン,0
8531,"",とんから亭 町田旭店,東京都町田市旭町１丁目２０,35.55639850000001,139.4402107,とんから亭,0
8530,"",とんから亭 東松山高坂店,埼玉県東松山市あずま町３丁目１番１号,36.0040456,139.4083051,とんから亭,0
8529,"",とんから亭 松山南久米店,愛媛県松山市南久米町５０５－１,33.8138407,132.7954804,とんから亭,0
8528,"",しゃぶ葉 横浜駅西口店,神奈川県横浜市西区南幸１丁目１２番地７　ＴＫ横浜西口ビル５階,35.4646136,139.6194541,しゃぶ葉,0
8527,"",むさしの森珈琲 国泰寺店,広島県広島市中区国泰寺町１丁目９－２０,34.384123,132.4573856,むさしの森珈琲,0
8526,"",とんから亭 越谷蒲生店,埼玉県越谷市蒲生西町１丁目５－１６,35.8618599,139.7954244,とんから亭,0
8525,"",むさしの森珈琲 マロニエゲート銀座２店,東京都中央区銀座３丁目２－１,35.673719,139.764861,むさしの森珈琲,0
8524,"",桃菜 マロニエゲート銀座２店,東京都中央区銀座３丁目２－１,35.67376369999999,139.7651281,桃菜,0
8523,"",しゃぶ葉 熱海店,静岡県熱海市上宿町１８－１０,35.0988198,139.0685752,しゃぶ葉,0
8522,"",とんから亭 和歌山北店,和歌山県和歌山市狐島２４３－６２,34.2426288,135.1522721,とんから亭,0
8520,"",ガスト 川崎宮崎台店,神奈川県川崎市宮前区宮崎２丁目８－４６,35.5878227,139.5916515,ガスト,0
8519,"",しゃぶ葉 小山店,栃木県小山市神山２丁目８－２５,36.3007415,139.8043958,しゃぶ葉,0
8516,"",とんから亭 北所沢店,埼玉県所沢市北所沢町２０５７－１,35.8109955,139.4558821,とんから亭,0
8515,"",とんから亭 春日井落合公園店,愛知県春日井市東野町４丁目１２－１,35.2698257,136.9850891,とんから亭,0
8514,"",とんから亭 太子町店,兵庫県揖保郡太子町東出８２－１,34.8335058,134.5922671,とんから亭,0
8513,"",とんから亭 一宮牛野店,愛知県一宮市大和町宮地花池高見３番地,35.290063,136.8054643,とんから亭,0
5622,"",ジョナサン 東久留米駅前店,東京都東久留米市東本町１－１５　ウィステリアＭＦビル　２Ｆ,35.760726,139.534127,ジョナサン,0
5621,"",ジョナサン 浦和西口店,埼玉県さいたま市浦和区仲町１丁目６－１３,35.860278,139.654929,ジョナサン,0
5620,"",ジョナサン 狭山上広瀬店,埼玉県狭山市広瀬東３丁目５－２８,35.86205,139.399916,ジョナサン,0
5619,"",ガスト 唐津店（から好し取扱店）,佐賀県唐津市船宮町２５８５－３,33.446056,129.978026,ガスト,0
5618,"",ガスト 長岡宮内店（から好し取扱店）,新潟県長岡市曲新町５３８－１,37.421674,138.846497,ガスト,0
5617,"",ガスト 茅ヶ崎店（から好し取扱店）,神奈川県茅ヶ崎市元町２－４　山鉄ビル１階,35.331408,139.406476,ガスト,0
5616,"",ガスト フレスポ八潮店（から好し取扱店）,埼玉県八潮市大瀬１丁目１－３　フレスポ八潮２Ｆ,35.808224,139.84329,ガスト,0
5615,"",ガスト 南柏駅前店（から好し取扱店）,千葉県柏市南柏中央３－２　キュア・ラ　２Ｆ,35.84394,139.953985,ガスト,0
5614,"",ガスト 鹿児島谷山店（から好し取扱店）,鹿児島県鹿児島市東谷山２丁目５２－５,31.532709,130.521148,ガスト,0
5613,"",ガスト 松山本町店（から好し取扱店）,愛媛県松山市萱町６丁目３０－７,33.852713,132.757601,ガスト,0
5416,"",むさしの森珈琲 富山経堂店,富山県富山市経堂４丁目１３－１３,36.690742,137.251096,むさしの森珈琲,0
5414,"",しゃぶ葉 双葉響ヶ丘店,山梨県甲斐市龍地３６４９－１,35.683688,138.506882,しゃぶ葉,0
5412,"",しゃぶ葉 足利朝倉店,栃木県足利市朝倉町２丁目１０－５,36.318396,139.44675,しゃぶ葉,0
5411,"",むさしの森珈琲 春日部店,埼玉県春日部市大沼１丁目５,35.967618,139.744622,むさしの森珈琲,0
5410,"",しゃぶ葉 八王子上野町店,東京都八王子市上野町１７－１０,35.655076,139.328029,しゃぶ葉,0
5409,"",しゃぶ葉 甲府昭和店,山梨県中巨摩郡昭和町清水新居１５９５,35.646768,138.5472,しゃぶ葉,0
5408,"",しゃぶ葉 光明池店,大阪府和泉市伏屋町５－１４－７,34.474131,135.472962,しゃぶ葉,0
5407,"",しゃぶ葉 橿原店,奈良県橿原市曲川町７丁目２０番１号　イオンモール橿原１階１０９３区画,34.507544,135.76314,しゃぶ葉,0
5404,"",しゃぶ葉 尼崎次屋店,兵庫県尼崎市次屋４丁目１－１０,34.737321,135.441517,しゃぶ葉,0
5403,"",むさしの森珈琲 中央林間店,神奈川県大和市下鶴間１７８４－１１,35.501106,139.45112,むさしの森珈琲,0
5402,"",しゃぶ葉 花見川店,千葉県千葉市花見川区柏井１丁目４番３４号,35.692323,140.094312,しゃぶ葉,0
5401,"",むさしの森珈琲 杉並井草店,東京都杉並区井草３丁目１９－１６,35.727515,139.616771,むさしの森珈琲,0
5400,"",むさしの森珈琲 六ッ川店,神奈川県横浜市南区六ツ川２丁目１０８－８,35.425811,139.582928,むさしの森珈琲,0
5399,"",しゃぶ葉 広島本通店,広島県広島市中区本通９－２８丸美ビル２Ｆ,34.392422,132.46058,しゃぶ葉,0
5398,"",しゃぶ葉 久里浜店,神奈川県横須賀市舟倉１丁目１４番１号,35.23807,139.698192,しゃぶ葉,0
5397,"",しゃぶ葉 町田木曽店,東京都町田市忠生１丁目１－５,35.571738,139.420997,しゃぶ葉,0
5396,"",しゃぶ葉 木更津南店,千葉県木更津市請西１－１５－２０,35.373845,139.934489,しゃぶ葉,0
5395,"",しゃぶ葉 雀宮店,栃木県宇都宮市宮の内４丁目１９０－１０,36.501318,139.874809,しゃぶ葉,0
5394,"",しゃぶ葉 小松川西店,東京都江戸川区東小松川２丁目２６－１４,35.694344,139.86747,しゃぶ葉,0
5393,"",しゃぶ葉 相模原田名店,神奈川県相模原市中央区田名４８２９－１,35.550693,139.336007,しゃぶ葉,0
5392,"",しゃぶ葉 松本出川店,長野県松本市出川３丁目４４３－１,36.215893,137.979459,しゃぶ葉,0
5391,"",しゃぶ葉 新横浜店,神奈川県横浜市港北区鳥山町６５５,35.503483,139.606237,しゃぶ葉,0
5390,"",しゃぶ葉 清瀬上清戸店,東京都清瀬市上清戸２丁目３－７,35.777093,139.520839,しゃぶ葉,0
5389,"",しゃぶ葉 川越神明店,埼玉県川越市神明町１１－１,35.931378,139.480065,しゃぶ葉,0
5388,"",しゃぶ葉 鳥取店,鳥取県鳥取市商栄町１０３番地,35.512694,134.20961,しゃぶ葉,0
5387,"",しゃぶ葉 武蔵村山店,東京都武蔵村山市学園５丁目２６－１,35.742936,139.395389,しゃぶ葉,0
5386,"",しゃぶ葉 北本二ツ家店,埼玉県北本市二ツ家１丁目１５２－２,36.016404,139.548391,しゃぶ葉,0
5385,"",しゃぶ葉 吹田佐井寺店,大阪府吹田市佐井寺南が丘９－２,34.780174,135.51782,しゃぶ葉,0
5384,"",しゃぶ葉 国立富士見台店,東京都国立市富士見台１丁目５,35.685976,139.447621,しゃぶ葉,0
5383,"",しゃぶ葉 堀田店,愛知県名古屋市瑞穂区新開町２４－５５,35.121732,136.920494,しゃぶ葉,0
5382,"",しゃぶ葉 深谷店,埼玉県深谷市上柴町東４丁目１９－８,36.178771,139.304979,しゃぶ葉,0
5381,"",しゃぶ葉 調布南口店,東京都調布市布田４丁目１８－９,35.649958,139.543598,しゃぶ葉,0
5380,"",しゃぶ葉 滝ノ水店,愛知県名古屋市緑区池上台２丁目２５９,35.091597,136.966618,しゃぶ葉,0
5379,"",しゃぶ葉 東広島フジグラン店,広島県東広島市西条町御薗宇４３０２,34.406815,132.750055,しゃぶ葉,0
5378,"",しゃぶ葉 倉賀野店,群馬県高崎市倉賀野町３０９－１,36.299986,139.034005,しゃぶ葉,0
5377,"",しゃぶ葉 本庄店,埼玉県本庄市本庄４丁目３－１４,36.246451,139.191362,しゃぶ葉,0
5376,"",しゃぶ葉 希望ヶ丘店,神奈川県横浜市旭区東希望が丘１０７番－１　第６山庄ビル,35.46138,139.515324,しゃぶ葉,0
5375,"",しゃぶ葉 公津の杜店,千葉県成田市公津の杜３丁目４０－１１,35.757672,140.298362,しゃぶ葉,0
5374,"",しゃぶ葉 佐原店,千葉県香取市佐原イ４２４－３,35.895379,140.501417,しゃぶ葉,0
5373,"",しゃぶ葉 大井松田店,神奈川県足柄上郡大井町金子１７６８－１,35.329586,139.157267,しゃぶ葉,0
5372,"",しゃぶ葉 高岡向野店,富山県高岡市向野本町２６－１,36.760977,137.021401,しゃぶ葉,0
5371,"",しゃぶ葉 土浦北店,茨城県土浦市西真鍋町１丁目－３６,36.092864,140.199434,しゃぶ葉,0
5370,"",しゃぶ葉 横浜ＷＰ店,神奈川県横浜市中区新港２丁目２－１　横浜ワールドポーターズ５Ｆ,35.454112,139.63805,しゃぶ葉,0
5369,"",しゃぶ葉 大宮ラクーン店,埼玉県さいたま市大宮区宮町１丁目６０番地　４階　４０１区画,35.907708,139.625573,しゃぶ葉,0
5368,"",しゃぶ葉 川崎平店,神奈川県川崎市宮前区平１丁目１－２,35.600032,139.57868,しゃぶ葉,0
5367,"",しゃぶ葉 清水春日店,静岡県静岡市清水区春日１丁目５－１８,35.011393,138.472951,しゃぶ葉,0
5365,"",しゃぶ葉 婦中町店,富山県富山市婦中町下轡田２１５－１,36.661114,137.172326,しゃぶ葉,0
5364,"",しゃぶ葉 前橋店,群馬県前橋市下小出町３丁目１５－５,36.416231,139.061286,しゃぶ葉,0
5363,"",しゃぶ葉 館林店,群馬県館林市東美園町１８－２,36.234216,139.540892,しゃぶ葉,0
5362,"",しゃぶ葉 仙台木町通店,宮城県仙台市青葉区木町通２丁目６－６５,38.273979,140.868252,しゃぶ葉,0
5361,"",しゃぶ葉 大和中央店,神奈川県大和市中央１丁目４－１４,35.467285,139.460838,しゃぶ葉,0
5360,"",しゃぶ葉 八王子高倉店,東京都八王子市高倉町４０－９,35.667952,139.369206,しゃぶ葉,0
5359,"",しゃぶ葉 所沢店,埼玉県所沢市上新井５丁目１６－１,35.796761,139.454257,しゃぶ葉,0
5358,"",しゃぶ葉 松戸五香店,千葉県松戸市五香８丁目３－２,35.796651,139.976322,しゃぶ葉,0
5357,"",しゃぶ葉 相武台店,神奈川県座間市相武台１丁目３２－２４,35.500652,139.409324,しゃぶ葉,0
5356,"",しゃぶ葉 太田店,群馬県太田市西矢島町６３０－１,36.27751,139.377491,しゃぶ葉,0
5355,"",しゃぶ葉 上福岡店,埼玉県ふじみ野市鶴ケ舞３丁目５－６,35.866698,139.507907,しゃぶ葉,0
5354,"",しゃぶ葉 練馬光が丘店,東京都練馬区高松５丁目１２－１２,35.758423,139.620879,しゃぶ葉,0
5353,"",しゃぶ葉 浜松和田店,静岡県浜松市中央区和田町４９５－１,34.718213,137.770989,しゃぶ葉,0
5352,"",しゃぶ葉 船橋夏見台店,千葉県船橋市夏見台３丁目１８－１,35.722857,139.991466,しゃぶ葉,0
5351,"",しゃぶ葉 倉敷八王寺店,岡山県倉敷市八王寺町１０３－１,34.603548,133.751733,しゃぶ葉,0
5350,"",しゃぶ葉 つくば店,茨城県つくば市下原３７６－２,36.05027,140.13501,しゃぶ葉,0
5349,"",しゃぶ葉 茅ヶ崎中海岸店,神奈川県茅ヶ崎市中海岸４丁目１２９８６－３５,35.318286,139.398587,しゃぶ葉,0
5348,"",しゃぶ葉 羽村店,東京都羽村市栄町２丁目１４－１,35.770738,139.309347,しゃぶ葉,0
5347,"",しゃぶ葉 豊田喜多店,愛知県豊田市喜多町５丁目２－９,35.086585,137.162361,しゃぶ葉,0
5346,"",しゃぶ葉 長津田みなみ台店,神奈川県横浜市緑区長津田みなみ台５丁目７－１０,35.524917,139.498505,しゃぶ葉,0
5345,"",しゃぶ葉 海老名店,神奈川県海老名市河原口２丁目１０番１４号,35.446855,139.377733,しゃぶ葉,0
5344,"",しゃぶ葉 西新井店,東京都足立区西新井７丁目４－５,35.779215,139.770452,しゃぶ葉,0
5343,"",しゃぶ葉 昭島店,東京都昭島市武蔵野２丁目１１－１９,35.722567,139.373447,しゃぶ葉,0
5342,"",しゃぶ葉 熊谷銀座店,埼玉県熊谷市銀座３丁目３１－１,36.141812,139.396519,しゃぶ葉,0
5341,"",しゃぶ葉 沼津インター店,静岡県沼津市岡一色４７１,35.133969,138.872833,しゃぶ葉,0
5340,"",しゃぶ葉 町田店,東京都町田市原町田６丁目２－６　町田モディ１０Ｆ,35.543229,139.445168,しゃぶ葉,0
5339,"",しゃぶ葉 幸手店,埼玉県幸手市東２丁目２０－１７,36.072979,139.721643,しゃぶ葉,0
5338,"",しゃぶ葉 新潟青山店,新潟県新潟市西区青山１丁目５－３,37.893995,139.002261,しゃぶ葉,0
5337,"",しゃぶ葉 ココット彦根店,滋賀県彦根市松原町字石持１９０４－１,35.278262,136.258445,しゃぶ葉,0
5336,"",しゃぶ葉 長野あおぞら店,長野県長野市大字東和田９３０,36.653979,138.222437,しゃぶ葉,0
5335,"",しゃぶ葉 国府津店,神奈川県小田原市小八幡３丁目１８－８,35.27543,139.202821,しゃぶ葉,0
5334,"",しゃぶ葉 徳重店,愛知県名古屋市緑区元徳重１丁目５０５　ヒルズウォーク徳重ガーデンズ２階,35.095199,136.998733,しゃぶ葉,0
5333,"",しゃぶ葉 武蔵小山店,東京都品川区荏原３丁目７－２,35.617271,139.707119,しゃぶ葉,0
5332,"",しゃぶ葉 仙川店,東京都調布市若葉町２丁目１１－１,35.659078,139.587717,しゃぶ葉,0
5331,"",しゃぶ葉 静岡店,静岡県静岡市葵区紺屋町１７－１　葵タワー地下１階,34.972627,138.386369,しゃぶ葉,0
5330,"",しゃぶ葉 秦野平沢店,神奈川県秦野市平沢５６２－１３,35.375203,139.204598,しゃぶ葉,0
5315,"",むさしの森珈琲 田無駅前店,東京都西東京市田無町４丁目２８－１７　田無マーブルビル２階,35.728526,139.53946,むさしの森珈琲,0
5314,"",むさしの森珈琲 新潟八千代店,新潟県新潟市中央区八千代２丁目３－１０,37.9139891,139.0520706,むさしの森珈琲,0
5313,"",ラ・オハナ サザンビーチちがさき店,神奈川県茅ヶ崎市中海岸３丁目１１－５,35.3188463,139.4004561,ラ・オハナ,0
5312,"",ラ・オハナ 新座東店,埼玉県新座市東２丁目３－１４,35.8130941,139.570617,ラ・オハナ,0
5311,"",ラ・オハナ 船橋市場店,千葉県船橋市市場２丁目１－３０,35.706124,139.992664,ラ・オハナ,0
5310,"",むさしの森珈琲 小山本郷店,栃木県小山市本郷町２丁目９－８,36.321298,139.803707,むさしの森珈琲,0
5309,"",ラ・オハナ 熱田一番店,愛知県名古屋市熱田区一番１丁目２１－１８,35.1245112,136.8980248,ラ・オハナ,0
5308,"",むさしの森珈琲 城山店,鹿児島県鹿児島市照国町１－１,31.5910279,130.5497019,むさしの森珈琲,0
5307,"",ラ・オハナ 厚木恩名店,神奈川県厚木市恩名１丁目９ー７,35.435872,139.356867,ラ・オハナ,0
5306,"",むさしの森珈琲 鶴ヶ島三ツ木店,埼玉県鶴ヶ島市大字三ツ木１８６－１,35.935123,139.391533,むさしの森珈琲,0
5305,"",ラ・オハナ 宇都宮今泉店,栃木県宇都宮市元今泉３丁目３－１５,36.56268,139.907425,ラ・オハナ,0
5304,"",ラ・オハナ 朝霧店,兵庫県明石市大蔵八幡町１－３８－２,34.644233,135.015189,ラ・オハナ,0
5303,"",むさしの森珈琲 静岡千代田店,静岡県静岡市葵区千代田１丁目１－４５,34.98882,138.398317,むさしの森珈琲,0
5302,"",ラ・オハナ 南砂店,東京都江東区南砂４丁目４－２６,35.675098,139.827199,ラ・オハナ,0
5301,"",ラ・オハナ 西千葉店,千葉県千葉市稲毛区作草部町８５５－２,35.624754,140.115841,ラ・オハナ,0
5300,"",むさしの森珈琲 茅ヶ崎若松町店,神奈川県茅ヶ崎市若松町９－２,35.332901,139.419592,むさしの森珈琲,0
5299,"",ラ・オハナ 東川口店,埼玉県川口市戸塚５丁目１－３７,35.866012,139.745528,ラ・オハナ,0
5298,"",むさしの森珈琲 相模原横山店,神奈川県相模原市中央区横山１丁目７－２８,35.567965,139.364165,むさしの森珈琲,0
5297,"",むさしの森珈琲 浜田山店,東京都杉並区浜田山３丁目２８－１６,35.6842,139.62765,むさしの森珈琲,0
5296,"",ラ・オハナ 府中新町店,東京都府中市新町２丁目２０－１,35.688214,139.491457,ラ・オハナ,0
5295,"",ラ・オハナ 港北ニュータウン店,神奈川県横浜市都筑区中川７丁目１－９,35.553669,139.575916,ラ・オハナ,0
5294,"",ラ・オハナ 横浜霧ケ丘店,神奈川県横浜市緑区霧が丘２丁目９－３,35.517692,139.502319,ラ・オハナ,0
5293,"",ラ・オハナ 多摩境店,東京都町田市小山ヶ丘４丁目３－２,35.603394,139.364608,ラ・オハナ,0
5292,"",ラ・オハナ 新横浜店,神奈川県横浜市港北区大豆戸町６６５－１,35.513105,139.622271,ラ・オハナ,0
5291,"",ラ・オハナ 逗子海岸店,神奈川県逗子市新宿２丁目１０－１８,35.293973,139.571181,ラ・オハナ,0
5290,"",ラ・オハナ 三国店,大阪府大阪市淀川区新高３丁目３－９,34.734777,135.48253,ラ・オハナ,0
5289,"",ラ・オハナ ダイバーシティ東京店,東京都江東区青海１丁目１－１０　ダイバーシティ東京プラザ６Ｆ,35.625111,139.775468,ラ・オハナ,0
5288,"",ラ・オハナ 浦安マリナイースト店,千葉県浦安市日の出１丁目３－２－１０１,35.646266,139.920719,ラ・オハナ,0
5287,"",ラ・オハナ 宮前平店,神奈川県川崎市宮前区小台２丁目１　第２桔梗ビル２０６,35.583891,139.584432,ラ・オハナ,0
5286,"",むさしの森珈琲 甲府伊勢店,山梨県甲府市伊勢１丁目２－１２,35.65052,138.568481,むさしの森珈琲,0
5285,"",むさしの森珈琲 東大和店,東京都東大和市仲原３丁目１－６,35.746707,139.438857,むさしの森珈琲,0
5284,"",むさしの森珈琲 南越谷駅前店,埼玉県越谷市南越谷２丁目２－１２　コアーズビル,35.876941,139.790224,むさしの森珈琲,0
5283,"",むさしの森Ｄｉｎｅｒ ららぽーと磐田店,静岡県磐田市高見丘１２００　ららぽーと磐田２Ｆ,34.750045,137.840857,むさしの森珈琲,0
5282,"",むさしの森珈琲 昭島店,東京都昭島市松原町１丁目７－２０,35.713746,139.356165,むさしの森珈琲,0
5281,"",むさしの森珈琲 久が原店,東京都大田区久が原５丁目１４－１１,35.578496,139.700108,むさしの森珈琲,0
5280,"",むさしの森珈琲 川崎野川店,神奈川県川崎市宮前区南野川１丁目５－５,35.572268,139.59733,むさしの森珈琲,0
5279,"",むさしの森珈琲 国立富士見台店,東京都国立市富士見台２丁目８－３,35.6844,139.447084,むさしの森珈琲,0
5278,"",むさしの森珈琲 イーアスつくば店,茨城県つくば市研究学園５丁目１９　イーアス　つくば１Ｆ,36.087306,140.08469,むさしの森珈琲,0
5277,"",むさしの森珈琲 長津田みなみ台店,神奈川県横浜市緑区長津田みなみ台１丁目３８－３,35.522253,139.498185,むさしの森珈琲,0
5276,"",むさしの森珈琲 藤沢湘南台店,神奈川県藤沢市円行２－１－１,35.396267,139.460149,むさしの森珈琲,0
5275,"",むさしの森珈琲 三芳藤久保店,埼玉県入間郡三芳町大字藤久保５２４１,35.838688,139.532798,むさしの森珈琲,0
5274,"",むさしの森珈琲 旭川大雪通店,北海道旭川市７条通１８丁目９２－１０,43.767678,142.379199,むさしの森珈琲,0
5273,"",むさしの森珈琲 守谷店,茨城県守谷市美園２丁目１６－６５,35.923919,140.001942,むさしの森珈琲,0
5271,"",しゃぶ葉 新宿ＮＯＷＡビル店,東京都新宿区新宿３丁目３７番１２号　新宿ＮＯＷＡビル６階,35.690465,139.701345,しゃぶ葉,0
5270,"",しゃぶ葉 八戸沼館店,青森県八戸市沼館４丁目７－１０１,40.526409,141.4985755,しゃぶ葉,0
5269,"",しゃぶ葉 アトレ川崎店,神奈川県川崎市川崎区駅前本町２６番地１,35.531207,139.697908,しゃぶ葉,0
5268,"",しゃぶ葉 福山新涯店,広島県福山市新涯町２丁目８－２６,34.461128,133.396227,しゃぶ葉,0
5267,"",しゃぶ葉 瀬戸店,愛知県瀬戸市西長根町６６,35.21398,137.071707,しゃぶ葉,0
5266,"",しゃぶ葉 自由が丘店,東京都目黒区自由が丘１丁目１０－４　マイリッチビル　Ｂ１Ｆ,35.607725,139.669339,しゃぶ葉,0
5265,"",しゃぶ葉 千葉駅東口店,千葉県千葉市中央区富士見２丁目１－１　マインズ千葉Ａ館　地下Ｂ１０２－３,35.611861,140.115569,しゃぶ葉,0
5264,"",しゃぶ葉 イオンモール日の出店,東京都西多摩郡日の出町大字平井三吉野桜木２３７－３　イオンモール　日の出１Ｆ,35.734634,139.275159,しゃぶ葉,0
5263,"",しゃぶ葉 仙台駅西口店,宮城県仙台市青葉区中央１丁目８番３８号　ＡＫビル６階,38.261879,140.880626,しゃぶ葉,0
5262,"",しゃぶ葉 トナリエ宇都宮店,栃木県宇都宮市駅前通り１丁目４－６　トナリエ宇都宮１Ｆ,36.560433,139.89714,しゃぶ葉,0
5261,"",しゃぶ葉 富士吉田店,山梨県富士吉田市松山１５５５,35.482887,138.778651,しゃぶ葉,0
5260,"",しゃぶ葉 松戸栗山店,千葉県松戸市栗山１１－１,35.755321,139.899917,しゃぶ葉,0
5259,"",しゃぶ葉 稲毛海岸店,千葉県千葉市美浜区稲毛海岸２丁目３－９,35.629865,140.081707,しゃぶ葉,0
5258,"",しゃぶ葉 東戸塚店,神奈川県横浜市戸塚区川上町４３１－１,35.429058,139.549192,しゃぶ葉,0
5257,"",しゃぶ葉 豊橋花田店,愛知県豊橋市花田町荒木４７,34.767196,137.370848,しゃぶ葉,0
5256,"",しゃぶ葉 あざみ野店,神奈川県横浜市青葉区あざみ野南１丁目５－３,35.5624295,139.5533862,しゃぶ葉,0
5255,"",しゃぶ葉 上白根店,神奈川県横浜市旭区上白根町７２０,35.498174,139.537791,しゃぶ葉,0
5254,"",しゃぶ葉 池袋駅西口店,東京都豊島区西池袋１丁目１７－６　池袋西口センタービルＢ１,35.731138,139.708443,しゃぶ葉,0
5253,"",しゃぶ葉 那覇小禄店,沖縄県那覇市金城５丁目１１－６　小禄ガーデンビル１階,26.195074,127.664999,しゃぶ葉,0
5252,"",しゃぶ葉 フレスポ稲毛店,千葉県千葉市稲毛区長沼原町７３１－１７　フレスポ稲毛１Ｆ,35.657418,140.127648,しゃぶ葉,0
5251,"",しゃぶ葉 イオンモール福岡店,福岡県糟屋郡粕屋町大字酒殿字老ノ木１９２－１　イオンモール福岡１Ｆ,33.596139,130.480228,しゃぶ葉,0
5250,"",しゃぶ葉 トレッサ横浜店,神奈川県横浜市港北区師岡町７００　トレッサ横浜　南棟２Ｆ,35.524047,139.646888,しゃぶ葉,0
5249,"",しゃぶ葉 長野篠ノ井店,長野県長野市篠ノ井布施高田３９２－３,36.578342,138.146113,しゃぶ葉,0
5248,"",しゃぶ葉 宇都宮ゆいの杜店,栃木県宇都宮市ゆいの杜６丁目１７－２３,36.567819,139.995801,しゃぶ葉,0
5247,"",しゃぶ葉 札幌羊ヶ丘通り店,北海道札幌市豊平区西岡４条４丁目２,43.016063,141.39061,しゃぶ葉,0
5246,"",しゃぶ葉 アトレ秋葉原２店,東京都千代田区神田花岡町１－９　アトレ秋葉原２　４Ｆ,35.698358,139.774836,しゃぶ葉,0
5245,"",しゃぶ葉 四谷店,東京都新宿区四谷２丁目１－３　四谷２１３ビル２Ｆ,35.686568,139.726712,しゃぶ葉,0
5244,"",しゃぶ葉 北千住店,東京都足立区千住１丁目３０－３　カノン千住２Ｆ,35.748408,139.802373,しゃぶ葉,0
5243,"",しゃぶ葉 北佐世保店,長崎県佐世保市梅田町２－６,33.191378,129.718311,しゃぶ葉,0
5242,"",しゃぶ葉 長浜店,滋賀県長浜市八幡東町５６－１,35.383198,136.284768,しゃぶ葉,0
5241,"",しゃぶ葉 山形馬見ヶ崎店,山形県山形市馬見ケ崎３丁目２０－１８,38.283367,140.32624,しゃぶ葉,0
5240,"",しゃぶ葉 弘前城東店,青森県弘前市大字城東北４丁目１番９,40.603735,140.498948,しゃぶ葉,0
5239,"",しゃぶ葉 札幌狸小路店,北海道札幌市中央区南３条西４丁目１２－１　アルシュビル５Ｆ,43.056954,141.352561,しゃぶ葉,0
5238,"",しゃぶ葉 宇部店,山口県宇部市大字妻崎開作８７０－２,33.976884,131.208998,しゃぶ葉,0
5237,"",しゃぶ葉 浜松入野店,静岡県浜松市中央区入野町９９６９－１,34.69879,137.675367,しゃぶ葉,0
5236,"",しゃぶ葉 流山おおたかの森店,千葉県流山市おおたかの森北２丁目５０－９,35.876008,139.925266,しゃぶ葉,0
5235,"",しゃぶ葉 金沢神宮寺店,石川県金沢市神宮寺２丁目２０－８,36.583596,136.667391,しゃぶ葉,0
5234,"",しゃぶ葉 サントムーン柿田川店,静岡県駿東郡清水町伏見５２－１　サントムーン柿田川オアシス館２Ｆ,35.109779,138.902864,しゃぶ葉,0
5233,"",しゃぶ葉 柏駅南口店,千葉県柏市柏１丁目２－７　谷川ビル５Ｆ,35.861138,139.971037,しゃぶ葉,0
5232,"",しゃぶ葉 パークプレイス大分店,大分県大分市公園通り西２丁目１番　パークプレイス大分２Ｆ,33.195831,131.657268,しゃぶ葉,0
5231,"",しゃぶ葉 山口大内店,山口県山口市大内千坊６丁目１－３,34.162112,131.488748,しゃぶ葉,0
5230,"",しゃぶ葉 伊勢小俣店,三重県伊勢市小俣町宮前７５１－３,34.492609,136.676487,しゃぶ葉,0
5229,"",しゃぶ葉 久屋大通店,愛知県名古屋市中区錦３丁目６－１５　円庄ビル１階,35.172132,136.907612,しゃぶ葉,0
5228,"",しゃぶ葉 千葉加曽利店,千葉県千葉市若葉区加曽利町７０－１,35.608059,140.15281,しゃぶ葉,0
5227,"",しゃぶ葉 札幌厚別店,北海道札幌市厚別区厚別西４条６丁目７７５－１９,43.055328,141.468507,しゃぶ葉,0
5226,"",しゃぶ葉 大森駅前店,東京都大田区大森北１丁目２－２　福和ビル２Ｆ,35.587894,139.728943,しゃぶ葉,0
5225,"",しゃぶ葉 イオンタウン郡山店,福島県郡山市松木町２－８８,37.38918,140.390366,しゃぶ葉,0
5224,"",しゃぶ葉 小金井本町店,東京都小金井市本町５丁目３３－１７,35.705648,139.50102,しゃぶ葉,0
5223,"",しゃぶ葉 明石駅前店,兵庫県明石市本町２丁目１－１　インティ明石２Ｆ,34.647608,134.990744,しゃぶ葉,0
5222,"",しゃぶ葉 掛川店,静岡県掛川市城西１丁目１４－２,34.77656,138.008512,しゃぶ葉,0
5221,"",しゃぶ葉 原店,福岡県福岡市早良区原２丁目１４－１２,33.567827,130.347955,しゃぶ葉,0
5220,"",しゃぶ葉 扶桑店,愛知県丹羽郡扶桑町大字高雄宮島２５８,35.362425,136.915086,しゃぶ葉,0
5219,"",しゃぶ葉 泉バイパス店,宮城県仙台市泉区市名坂楢町１２５,38.318249,140.899265,しゃぶ葉,0
5218,"",しゃぶ葉 富山高屋敷店,富山県富山市高屋敷一区６８５－１,36.670936,137.243105,しゃぶ葉,0
5217,"",しゃぶ葉 上越インター店,新潟県上越市下門前１６３１,37.154528,138.254644,しゃぶ葉,0
5216,"",しゃぶ葉 水戸河和田町店,茨城県水戸市河和田町水窪４７３－１,36.362473,140.414444,しゃぶ葉,0
5215,"",しゃぶ葉 西葛西駅前店,東京都江戸川区西葛西３丁目１５ー１２　臼井第一ビル２Ｆ,35.664971,139.858707,しゃぶ葉,0
5214,"",しゃぶ葉 滋賀栗東店,滋賀県栗東市綣９丁目１２番１８号,35.044252,135.978653,しゃぶ葉,0
5213,"",しゃぶ葉 多度津店,香川県仲多度郡多度津町北鴨２－１０－１,34.274305,133.769365,しゃぶ葉,0
5212,"",しゃぶ葉 宮崎加納店,宮崎県宮崎市清武町加納甲２７１２－１,31.870038,131.392611,しゃぶ葉,0
5211,"",しゃぶ葉 名古屋小碓通店,愛知県名古屋市中川区小碓通３丁目２８,35.121325,136.868941,しゃぶ葉,0
5210,"",しゃぶ葉 高坂駅前店,埼玉県東松山市元宿２丁目２６－２０,36.002209,139.394659,しゃぶ葉,0
5209,"",しゃぶ葉 京都洛南店,京都府京都市南区吉祥院御池町３１　イオン洛南店１Ｆ,34.974725,135.7358,しゃぶ葉,0
5208,"",しゃぶ葉 盛岡上堂店,岩手県盛岡市上堂４丁目１３－１３,39.728844,141.122505,しゃぶ葉,0
5207,"",しゃぶ葉 岩国店,山口県岩国市麻里布町７丁目１２－８,34.171543,132.216182,しゃぶ葉,0
5206,"",しゃぶ葉 錦糸町ＰＡＲＣＯ店,東京都墨田区江東橋４丁目２７番１４号　６階６１７区画,35.696047,139.816023,しゃぶ葉,0
5205,"",しゃぶ葉 庄内通店,愛知県名古屋市西区庄内通１丁目３４－５,35.198911,136.890295,しゃぶ葉,0
5204,"",しゃぶ葉 多治見店,岐阜県多治見市三笠町１丁目５－１,35.328959,137.124469,しゃぶ葉,0
5203,"",しゃぶ葉 富士松岡店,静岡県富士市松岡１６２０－１,35.156683,138.633841,しゃぶ葉,0
5202,"",しゃぶ葉 横須賀ベイスクエア店,神奈川県横須賀市本町３丁目２７－１０３　横須賀ベイスクエア壱番舘,35.281369,139.663208,しゃぶ葉,0
5201,"",しゃぶ葉 富士宮弓沢店,静岡県富士宮市弓沢町８４０,35.223516,138.624825,しゃぶ葉,0
5200,"",しゃぶ葉 東海南加木屋店,愛知県東海市加木屋町中平地３４,34.981483,136.907945,しゃぶ葉,0
5199,"",しゃぶ葉 各務原店,岐阜県各務原市那加前洞新町３丁目５４番,35.406833,136.841294,しゃぶ葉,0
5198,"",しゃぶ葉 苫小牧店,北海道苫小牧市明野新町２丁目２番６,42.654112,141.630115,しゃぶ葉,0
5197,"",しゃぶ葉 川口駅前店,埼玉県川口市栄町３丁目５－１　そごう川口店２Ｆ,35.803047,139.718597,しゃぶ葉,0
5196,"",しゃぶ葉 八王子駅北口店,東京都八王子市旭町２－５　八王子ツインタワービルＡ館７Ｆ,35.656318,139.33846,しゃぶ葉,0
5195,"",しゃぶ葉 相模大野駅北口店,神奈川県相模原市南区相模大野２丁目２２－１６,35.534641,139.436733,しゃぶ葉,0
5194,"",しゃぶ葉 新潟三条店,新潟県三条市東裏館２丁目１３４３,37.634282,138.959516,しゃぶ葉,0
5193,"",しゃぶ葉 藤沢用田店,神奈川県藤沢市用田４７９－１,35.403259,139.422005,しゃぶ葉,0
5192,"",しゃぶ葉 大井川グランリバー店,静岡県焼津市下江留１３１４,34.8102,138.272602,しゃぶ葉,0
5191,"",しゃぶ葉 栃木昭和町店,栃木県栃木市昭和町６－７,36.391059,139.736627,しゃぶ葉,0
5190,"",しゃぶ葉 那覇おもろまち店,沖縄県那覇市おもろまち３丁目３番１号　あっぷるタウン２階,26.228798,127.691824,しゃぶ葉,0
5189,"",しゃぶ葉 福岡那珂川店,福岡県那珂川市片縄東１丁目２０－６,33.527216,130.425195,しゃぶ葉,0
5188,"",しゃぶ葉 熊本合志店,熊本県合志市須屋１９３５－５,32.863332,130.733078,しゃぶ葉,0
5187,"",しゃぶ葉 藤沢駅南口店,神奈川県藤沢市南藤沢１９－１２　ヤマタネ藤沢ビル２Ｆ,35.337046,139.490006,しゃぶ葉,0
5186,"",むさしの森珈琲 ひたちなか西光地店,茨城県ひたちなか市東石川３０８８番地１２,36.418894,140.531938,むさしの森珈琲,0
5185,"",むさしの森珈琲 長野若里店,長野県長野市若里６丁目１－１,36.628396,138.19113,むさしの森珈琲,0
5184,"",むさしの森珈琲 和泉府中店,大阪府和泉市府中町８５０－４,34.480333,135.430762,むさしの森珈琲,0
5183,"",むさしの森Ｄｉｎｅｒ 新宿中央公園店,東京都新宿区西新宿２丁目１１－５,35.691404,139.690131,むさしの森珈琲,0
5182,"",むさしの森珈琲 仙台富沢店,宮城県仙台市太白区富沢西１丁目６－３４,38.212907,140.862302,むさしの森珈琲,0
5181,"",むさしの森珈琲 小田原店,神奈川県小田原市扇町３丁目５－１３,35.269175,139.158752,むさしの森珈琲,0
5180,"",むさしの森珈琲 岡崎竜美丘ガーデンプレイス店,愛知県岡崎市東明大寺町１５－２,34.946188,137.176718,むさしの森珈琲,0
5179,"",むさしの森珈琲 世田谷オークラランド店,東京都世田谷区桜３丁目２４－１,35.640467,139.639288,むさしの森珈琲,0
5178,"",むさしの森珈琲 岡山中仙道店,岡山県岡山市北区中仙道２丁目１番２７号,34.64839,133.885472,むさしの森珈琲,0
5177,"",むさしの森珈琲 札幌北野店,北海道札幌市清田区北野３条３丁目２番６号,43.013086,141.435467,むさしの森珈琲,0
5176,"",むさしの森珈琲 沼津香貫店,静岡県沼津市上香貫１３７５,35.085649,138.868115,むさしの森珈琲,0
5175,"",むさしの森Ｄｉｎｅｒ ムスブ田町店,東京都港区芝浦３丁目１－１　ｍｓｂ　Ｔａｍａｃｈｉ　田町ステーションタワーＮ　１階Ｎ１１４室,35.645776,139.749728,むさしの森珈琲,0
5174,"",むさしの森珈琲 北九州青山店,福岡県北九州市八幡西区青山３丁目２番地４３号,33.858566,130.753243,むさしの森珈琲,0
5173,"",むさしの森珈琲 三鷹牟礼店,東京都三鷹市牟礼２丁目１６－１,35.683123,139.586195,むさしの森珈琲,0
5172,"",むさしの森珈琲 北本店,埼玉県北本市本宿２丁目７０－３,36.029013,139.53808,むさしの森珈琲,0
5171,"",むさしの森珈琲 市原更級公園店,千葉県市原市更級４丁目２－１　アクロスプラザ市原更級内,35.509661,140.100127,むさしの森珈琲,0
5169,"",ラ・オハナ 権太坂店,神奈川県横浜市保土ケ谷区権太坂３丁目２０－３３,35.434994,139.575867,ラ・オハナ,0
5168,"",ラ・オハナ 横浜本牧店,神奈川県横浜市中区本牧原１８－２２,35.423737,139.666289,ラ・オハナ,0
5167,"",むさしの森珈琲 宇都宮八幡山公園店,栃木県宇都宮市大曽２丁目９－７,36.5745754,139.8865449,むさしの森珈琲,0
5166,"",むさしの森珈琲 高崎問屋町店,群馬県高崎市問屋町４丁目８－１５,36.348974,139.015581,むさしの森珈琲,0
5165,"",むさしの森珈琲 太宰府向佐野店,福岡県太宰府市向佐野３丁目２－２９,33.50743,130.495904,むさしの森珈琲,0
5164,"",しゃぶ葉 吉祥寺店,東京都武蔵野市吉祥寺本町１丁目８－２２　パレスビル４Ｆ,35.704254,139.579536,しゃぶ葉,0
5162,"",むさしの森珈琲 流山おおたかの森店,千葉県流山市おおたかの森東２丁目４－２,35.874667,139.93196,むさしの森珈琲,0
5161,"",しゃぶ葉 北九州平野店,福岡県北九州市八幡東区平野１丁目３－１,33.861325,130.791022,しゃぶ葉,0
5160,"",しゃぶ葉 ライズモール戸塚店,神奈川県横浜市戸塚区戸塚町１３１３－７　ライズモール戸塚２Ｆ,35.380841,139.525745,しゃぶ葉,0
5159,"",しゃぶ葉 イオンモール北大路店,京都府京都市北区小山北上総町４９－１　イオンモール北大路３Ｆ,35.043996,135.758255,しゃぶ葉,0
5158,"",しゃぶ葉 キュープラザ心斎橋店,大阪府大阪市中央区心斎橋筋１丁目１番１０号　キュープラザ心斎橋６階,34.674832,135.501697,しゃぶ葉,0
5157,"",しゃぶ葉 池袋サンシャイン６０通店,東京都豊島区東池袋１丁目２９－１　サントロペ池袋ビル６階,35.730432,139.716445,しゃぶ葉,0
5156,"",むさしの森珈琲 奈良中登美ケ丘店,奈良県奈良市中登美ヶ丘６丁目１５－１２,34.722817,135.747061,むさしの森珈琲,0
5155,"",むさしの森珈琲 松戸新田店,千葉県松戸市松戸新田２９２－１,35.792089,139.923157,むさしの森珈琲,0
5154,"",むさしの森珈琲 札幌二十四軒店,北海道札幌市西区二十四軒３条１丁目２－２６,43.076073,141.313387,むさしの森珈琲,0
5153,"",しゃぶ葉 札幌新琴似店,北海道札幌市北区新琴似７条１２丁目１番３０号,43.119941,141.317657,しゃぶ葉,0
5152,"",しゃぶ葉 太子町店,兵庫県揖保郡太子町東南３５９－１,34.832948,134.586813,しゃぶ葉,0
5151,"",しゃぶ葉 王子駅前店,東京都北区王子１丁目１３－１６　エイムビル４階,35.755276,139.736945,しゃぶ葉,0
5150,"",しゃぶ葉 姫路幸町店,兵庫県姫路市幸町１７番地,34.83069,134.704206,しゃぶ葉,0
5149,"",しゃぶ葉 加古川店,兵庫県加古川市平岡町新在家５９６－２,34.747358,134.862462,しゃぶ葉,0
5148,"",しゃぶ葉 茅ヶ崎萩園店,神奈川県茅ヶ崎市萩園１２４６－１,35.34605,139.379666,しゃぶ葉,0
5147,"",むさしの森珈琲 フレスポ稲毛店,千葉県千葉市稲毛区長沼原町７３１－１７　フレスポ　稲毛内,35.65737,140.126854,むさしの森珈琲,0
5146,"",むさしの森珈琲 宝塚中筋店,兵庫県宝塚市中筋７丁目６－５,34.812151,135.379421,むさしの森珈琲,0
5145,"",むさしの森珈琲 鳥栖古賀町店,佐賀県鳥栖市古賀町５２５－１,33.384158,130.499725,むさしの森珈琲,0
5144,"",むさしの森珈琲 春日井篠木店,愛知県春日井市篠木町８丁目１－３,35.259874,136.996312,むさしの森珈琲,0
5143,"",むさしの森珈琲 松井山手店,京都府京田辺市山手西２丁目１－１　ロゼリ　松井山手,34.833266,135.720507,むさしの森珈琲,0
5142,"",むさしの森珈琲 浦和太田窪店,埼玉県さいたま市南区太田窪１２８０,35.859372,139.676558,むさしの森珈琲,0
5141,"",むさしの森珈琲 岐阜柳津店,岐阜県岐阜市柳津町蓮池３丁目２６－２,35.368266,136.747521,むさしの森珈琲,0
5140,"",むさしの森珈琲 福井若杉店,福井県福井市若杉２丁目１５４０,36.056749,136.188597,むさしの森珈琲,0
5139,"",むさしの森珈琲 朝霞本町店,埼玉県朝霞市青葉台１丁目１－５,35.7956,139.594912,むさしの森珈琲,0
5138,"",むさしの森珈琲 金沢入江店,石川県金沢市入江２丁目８９,36.566966,136.624238,むさしの森珈琲,0
5137,"",むさしの森珈琲 川口元郷店,埼玉県川口市元郷５丁目２７,35.799255,139.741472,むさしの森珈琲,0
5136,"",むさしの森珈琲 三ツ沢店,神奈川県横浜市神奈川区三ツ沢上町４－７,35.476682,139.6031,むさしの森珈琲,0
5135,"",むさしの森珈琲 平塚桜ヶ丘店,神奈川県平塚市桜ケ丘３－４３,35.329527,139.327736,むさしの森珈琲,0
5134,"",むさしの森珈琲 所沢住吉店,埼玉県所沢市南住吉２１－４０,35.78418,139.466812,むさしの森珈琲,0
5133,"",むさしの森珈琲 武蔵野西久保店,東京都武蔵野市西久保１丁目２６－９,35.707775,139.557482,むさしの森珈琲,0
5132,"",むさしの森珈琲 蕨店,埼玉県蕨市中央２丁目１６,35.822859,139.692852,むさしの森珈琲,0
5131,"",むさしの森珈琲 二俣川店,神奈川県横浜市旭区さちが丘４２－７,35.461734,139.522961,むさしの森珈琲,0
5130,"",しゃぶ葉 函館鍛治店,北海道函館市鍛治２丁目１番４号,41.803556,140.773059,しゃぶ葉,0
5129,"",しゃぶ葉 東向島店,東京都墨田区東向島１丁目２８－１１　コモディイイダ東向島店２階,35.719037,139.813736,しゃぶ葉,0
5128,"",しゃぶ葉 長岡川崎店,新潟県長岡市豊１丁目５８５－１,37.45777,138.868483,しゃぶ葉,0
5127,"",しゃぶ葉 高松レインボーロード店,香川県高松市伏石町２１３９－９,34.30961,134.060926,しゃぶ葉,0
5126,"",しゃぶ葉 垂水名谷店,兵庫県神戸市垂水区名谷町２０４３－１,34.666023,135.073805,しゃぶ葉,0
5125,"",しゃぶ葉 入間インター店,埼玉県入間市大字小谷田１２５８－４,35.812417,139.377232,しゃぶ葉,0
5124,"",しゃぶ葉 フレスポ大阪鶴見店,大阪府大阪市鶴見区鶴見４丁目１１－７０,34.702901,135.562635,しゃぶ葉,0
5123,"",しゃぶ葉 松井山手店,京都府京田辺市山手西２丁目１ー１　ロゼリ松井山手,34.832745,135.721378,しゃぶ葉,0
5122,"",しゃぶ葉 小倉駅前店,福岡県北九州市小倉北区京町２丁目４－２７　小倉駅前ＫＤビル４Ｆ,33.886416,130.881223,しゃぶ葉,0
5121,"",しゃぶ葉 鶴見駅前店,神奈川県横浜市鶴見区豊岡町１８番１号　地下１階,35.508701,139.675957,しゃぶ葉,0
5120,"",しゃぶ葉 札幌元町店,北海道札幌市東区北２４条東１８丁目１－３０,43.094715,141.375881,しゃぶ葉,0
5119,"",しゃぶ葉 都筑インター店,神奈川県横浜市都筑区新栄町１３－７　１Ｆ,35.540306,139.596883,しゃぶ葉,0
5118,"",しゃぶ葉 門真店,大阪府門真市柳田町５－１３,34.733883,135.59304,しゃぶ葉,0
5117,"",しゃぶ葉 徳島北田宮店,徳島県徳島市北田宮２丁目４７１－２,34.086867,134.544394,しゃぶ葉,0
5116,"",しゃぶ葉 磐田富士見台店,静岡県磐田市富士見台８ー２３,34.728153,137.868405,しゃぶ葉,0
5115,"",しゃぶ葉 宇治小倉店,京都府宇治市小倉町久保１１９－２　ビエラ宇治小倉２階,34.898687,135.783236,しゃぶ葉,0
5114,"",しゃぶ葉 札幌平岡店,北海道札幌市清田区平岡２条５丁目２ー７０,42.994891,141.455122,しゃぶ葉,0
5113,"",むさしの森珈琲 高松レインボーロード店,香川県高松市伏石町２１３９－１,34.310058,134.060631,むさしの森珈琲,0
5112,"",しゃぶ葉 札幌発寒店,北海道札幌市西区発寒８条１２丁目１　イオンモール札幌発寒１階,43.096193,141.277511,しゃぶ葉,0
5111,"",しゃぶ葉 美濃加茂店,岐阜県美濃加茂市太田町１３３,35.449657,137.015726,しゃぶ葉,0
5110,"",しゃぶ葉 西尾店,愛知県西尾市住崎１丁目３番,34.860847,137.044279,しゃぶ葉,0
5109,"",しゃぶ葉 溝の口駅前店,神奈川県川崎市高津区溝口１丁目１１－８　ＯＫＫＡ６３４　４階,35.600079,139.612477,しゃぶ葉,0
5108,"",しゃぶ葉 浦安東野店,千葉県浦安市東野３丁目４－１　アクロスプラザ浦安東野１階,35.647372,139.893052,しゃぶ葉,0
5107,"",しゃぶ葉 阪南下出店,大阪府阪南市下出４３６－１,34.358042,135.250511,しゃぶ葉,0
5106,"",しゃぶ葉 東大阪瓜生堂店,大阪府東大阪市瓜生堂１丁目１３－２９,34.661943,135.599212,しゃぶ葉,0
5105,"",しゃぶ葉 摂津鳥飼西店,大阪府摂津市鳥飼西５丁目５－３,34.769063,135.569887,しゃぶ葉,0
5104,"",しゃぶ葉 西大宮店,埼玉県さいたま市西区宮前町１４３－１,35.922159,139.592473,しゃぶ葉,0
5103,"",しゃぶ葉 上大岡ミオカ店,神奈川県横浜市港南区上大岡西１丁目１８－５　ＭＩＯＫＡ６Ｆ,35.407531,139.595082,しゃぶ葉,0
5102,"",しゃぶ葉 周南周陽店,山口県周南市周陽１丁目２番２３,34.049068,131.829894,しゃぶ葉,0
5101,"",しゃぶ葉 奈良柏木店,奈良県奈良市柏木町４５９,34.671478,135.800028,しゃぶ葉,0
5100,"",しゃぶ葉 津田沼駅前店,千葉県習志野市津田沼１丁目１１－４　ＪＰＴ津田沼ビル　５Ｆ,35.691428,140.021876,しゃぶ葉,0
5099,"",しゃぶ葉 イオンモール堺北花田店,大阪府堺市北区東浅香山町４丁１－１２　イオンモール堺北花田プラウ店４階,34.58367,135.51552,しゃぶ葉,0
5098,"",しゃぶ葉 小田急マルシェ本厚木店,神奈川県厚木市中町１丁目１番１号　３階,35.440593,139.366221,しゃぶ葉,0
5097,"",しゃぶ葉 渋谷駅前店,東京都渋谷区道玄坂２丁目３－１　渋谷駅前ビル　９Ｆ,35.659268,139.699971,しゃぶ葉,0
5096,"",しゃぶ葉 新潟堀之内店,新潟県新潟市中央区堀之内２３,37.904844,139.048218,しゃぶ葉,0
5095,"",しゃぶ葉 志木駅前店,埼玉県新座市東北２丁目３０－２１　エコスＴＡＩＲＡＹＡ２階,35.821346,139.573551,しゃぶ葉,0
5094,"",しゃぶ葉 池袋グリーン大通り店,東京都豊島区南池袋１丁目２６－９　第２ＭＹＴビル４階,35.728969,139.713491,しゃぶ葉,0
5093,"",しゃぶ葉 福井大和田店,福井県福井市大和田１丁目１１０１,36.091887,136.250316,しゃぶ葉,0
5092,"",しゃぶ葉 伊勢崎連取店,群馬県伊勢崎市連取町２３３５－２,36.310081,139.184191,しゃぶ葉,0
5091,"",しゃぶ葉 市原五井店,千葉県市原市五井２３４５－１,35.518214,140.087666,しゃぶ葉,0
5090,"",しゃぶ葉 南与野店,埼玉県さいたま市中央区大戸６丁目１７－６,35.86886,139.633062,しゃぶ葉,0
5089,"",しゃぶ葉 伊勢原店,神奈川県伊勢原市田中９０－１,35.404416,139.313427,しゃぶ葉,0
5088,"",しゃぶ葉 大和下和田店,神奈川県大和市下和田９６０－１,35.430041,139.468405,しゃぶ葉,0
5087,"",しゃぶ葉 旭川大雪通店,北海道旭川市大雪通６丁目５００－６,43.780836,142.387476,しゃぶ葉,0
5086,"",しゃぶ葉 広島アルパーク店,広島県広島市西区草津新町２丁目２６－１　アルパーク専門店３階Ａ－３０７,34.373585,132.394518,しゃぶ葉,0
5085,"",しゃぶ葉 東大宮店,埼玉県さいたま市見沼区東大宮７丁目４７－３,35.944671,139.643269,しゃぶ葉,0
5084,"",しゃぶ葉 草加清門町店,埼玉県草加市清門２丁目１番地４８,35.851035,139.784412,しゃぶ葉,0
5083,"",しゃぶ葉 宮崎大島店,宮崎県宮崎市大島町松ノ木下３０４－１,31.942072,131.441079,しゃぶ葉,0
5082,"",しゃぶ葉 高槻西店,大阪府高槻市川西町１丁目３－５,34.848336,135.606153,しゃぶ葉,0
5081,"",しゃぶ葉 岸和田南店,大阪府岸和田市南町１８－１２,34.456595,135.364981,しゃぶ葉,0
5080,"",しゃぶ葉 新茂原店,千葉県茂原市腰当宮ノ台１２０２,35.455625,140.298461,しゃぶ葉,0
5079,"",しゃぶ葉 多摩ニュータウン店,東京都多摩市乞田９０１,35.631168,139.432893,しゃぶ葉,0
5078,"",しゃぶ葉 磯子中原店,神奈川県横浜市磯子区中原１丁目２－９,35.391917,139.615151,しゃぶ葉,0
5077,"",しゃぶ葉 海老ケ瀬インター店,新潟県新潟市東区大形本町５丁目１８－１０,37.922307,139.125059,しゃぶ葉,0
5076,"",しゃぶ葉 秋田広面店,秋田県秋田市広面字樋の沖７５－１,39.719692,140.148658,しゃぶ葉,0
5075,"",しゃぶ葉 津高茶屋店,三重県津市高茶屋小森町字瓦ヶ野４０９２－３,34.669354,136.493873,しゃぶ葉,0
5074,"",しゃぶ葉 西船橋店,千葉県船橋市山野町１６０－１,35.703655,139.964321,しゃぶ葉,0
5073,"",しゃぶ葉 前橋大友店,群馬県前橋市大友町３丁目７－７,36.389529,139.044996,しゃぶ葉,0
5072,"",しゃぶ葉 博多駅南店,福岡県福岡市博多区博多駅南６丁目７－３６,33.578572,130.432146,しゃぶ葉,0
5071,"",しゃぶ葉 佐賀大和店,佐賀県佐賀市大和町大字尼寺３３８３－１,33.300904,130.280281,しゃぶ葉,0
5070,"",しゃぶ葉 高田馬場店,東京都新宿区高田馬場１丁目３３－１４,35.711169,139.703886,しゃぶ葉,0
5069,"",しゃぶ葉 下石神井店,東京都練馬区下石神井２丁目３７－５,35.729324,139.603412,しゃぶ葉,0
5068,"",しゃぶ葉 伊奈店,埼玉県北足立郡伊奈町栄３－８０,35.978081,139.639859,しゃぶ葉,0
5067,"",しゃぶ葉 岡崎店,愛知県岡崎市天白町字西池２０,34.934019,137.144985,しゃぶ葉,0
5066,"",しゃぶ葉 巣鴨店,東京都豊島区巣鴨２丁目５－４　ＦＲＯＭ８５０１巣鴨会館ビル３階,35.733985,139.739428,しゃぶ葉,0
5065,"",しゃぶ葉 伊丹大鹿店,兵庫県伊丹市大鹿７丁目４５,34.788657,135.406813,しゃぶ葉,0
5064,"",しゃぶ葉 新座野火止店,埼玉県新座市野火止７丁目６番２５号,35.800379,139.56569,しゃぶ葉,0
5063,"",しゃぶ葉 福島本内店,福島県福島市本内字松川畑２－５,37.778951,140.485836,しゃぶ葉,0
5062,"",しゃぶ葉 久留米櫛原店,福岡県久留米市東櫛原町字地蔵田３４番地,33.324766,130.520971,しゃぶ葉,0
5061,"",しゃぶ葉 柏呼塚店,千葉県柏市柏６丁目１０－１５,35.86558,139.979249,しゃぶ葉,0
5060,"",しゃぶ葉 橋本相原店,神奈川県相模原市緑区橋本５丁目５０－１,35.603754,139.341569,しゃぶ葉,0
5059,"",しゃぶ葉 加須店,埼玉県加須市三俣２丁目１９番地１,36.133317,139.602496,しゃぶ葉,0
5058,"",しゃぶ葉 宇都宮戸祭店,栃木県宇都宮市上戸祭町５３１,36.584961,139.866823,しゃぶ葉,0
5057,"",しゃぶ葉 フェニックスプラザ長田店,兵庫県神戸市長田区菅原通６丁目２番地,34.663158,135.153875,しゃぶ葉,0
5056,"",しゃぶ葉 西宮津門店,兵庫県西宮市津門大箇町１０－７,34.73579,135.358752,しゃぶ葉,0
5055,"",しゃぶ葉 東川口店,埼玉県さいたま市緑区東大門３丁目１－１２,35.884511,139.740379,しゃぶ葉,0
5054,"",しゃぶ葉 釜利谷店,神奈川県横浜市金沢区釜利谷東４丁目５３－３,35.347382,139.608757,しゃぶ葉,0
5053,"",しゃぶ葉 御殿場店,静岡県御殿場市萩原５５－１,35.312802,138.928362,しゃぶ葉,0
5052,"",しゃぶ葉 東岩槻店,埼玉県さいたま市岩槻区南平野３丁目２番地１０,35.956441,139.714271,しゃぶ葉,0
5051,"",しゃぶ葉 桐生相生店,群馬県桐生市相生町５丁目４７２－１,36.415947,139.289663,しゃぶ葉,0
5050,"",しゃぶ葉 北上店,岩手県北上市大通り４丁目８－２８,39.287623,141.1041,しゃぶ葉,0
5049,"",しゃぶ葉 井土ヶ谷店,神奈川県横浜市南区井土ケ谷下町１８－７,35.430396,139.604516,しゃぶ葉,0
5048,"",しゃぶ葉 上田中央店,長野県上田市中央東２－８,36.403142,138.262175,しゃぶ葉,0
5047,"",しゃぶ葉 金沢八日市店,石川県金沢市八日市出町３３１,36.553534,136.608701,しゃぶ葉,0
5046,"",しゃぶ葉 鶴ヶ島店,埼玉県鶴ヶ島市大字脚折１５１９－１,35.938138,139.392175,しゃぶ葉,0
5045,"",しゃぶ葉 八尾老原店,大阪府八尾市老原１丁目１３－２,34.609366,135.604918,しゃぶ葉,0
5044,"",しゃぶ葉 三河安城店,愛知県安城市緑町１丁目２５－８,34.971262,137.051033,しゃぶ葉,0
5043,"",しゃぶ葉 豊玉北店,東京都練馬区豊玉北１丁目１５－９,35.733293,139.667703,しゃぶ葉,0
5042,"",しゃぶ葉 上水前寺店,熊本県熊本市中央区上水前寺２丁目２－３２,32.797325,130.745104,しゃぶ葉,0
5041,"",しゃぶ葉 鳥栖店,佐賀県鳥栖市蔵上２丁目１１３,33.374121,130.498481,しゃぶ葉,0
5040,"",しゃぶ葉 堺上野芝店,大阪府堺市西区上野芝町２丁７－３,34.550452,135.482234,しゃぶ葉,0
5039,"",しゃぶ葉 三鷹牟礼店,東京都三鷹市牟礼７丁目１－３７,35.681912,139.57553,しゃぶ葉,0
5038,"",しゃぶ葉 南鹿児島店,鹿児島県鹿児島市新栄町１－２４,31.550706,130.543916,しゃぶ葉,0
5037,"",しゃぶ葉 西川口店,埼玉県川口市西青木２丁目４－１,35.815874,139.710948,しゃぶ葉,0
5035,"",しゃぶ葉 富山中島店,富山県富山市中島３丁目７－２５,36.720489,137.223461,しゃぶ葉,0
5034,"",しゃぶ葉 勝田店,茨城県ひたちなか市大字中根８８６,36.397818,140.553884,しゃぶ葉,0
5033,"",しゃぶ葉 群馬町店,群馬県高崎市中泉町５３１,36.373558,139.000437,しゃぶ葉,0
5032,"",しゃぶ葉 奈良押熊店,奈良県奈良市押熊町７７９－１８,34.716178,135.77945,しゃぶ葉,0
5031,"",しゃぶ葉 日立金沢店,茨城県日立市金沢町４丁目１－２０,36.539868,140.621712,しゃぶ葉,0
5030,"",しゃぶ葉 会津若松店,福島県会津若松市宝町４－６,37.486901,139.940711,しゃぶ葉,0
5029,"",しゃぶ葉 立川駅南口店,東京都立川市柴崎町２丁目２－２７　オスロー立川第２ビル１階,35.697178,139.411504,しゃぶ葉,0
5028,"",しゃぶ葉 香里園店,大阪府寝屋川市松屋町２０－２３,34.784906,135.625461,しゃぶ葉,0
5027,"",しゃぶ葉 おゆみ野店,千葉県千葉市緑区おゆみ野中央２丁目３－１　ミスターマックスおゆみ野ＳＣ内,35.553726,140.159737,しゃぶ葉,0
5026,"",しゃぶ葉 成田店,千葉県成田市ウイング土屋２４　イオンモール成田１Ｆ,35.796056,140.317581,しゃぶ葉,0
5025,"",バーミヤン 小田原駅前店,神奈川県小田原市栄町１丁目４－９,35.254488,139.156249,バーミヤン,0
5024,"",バーミヤン 生駒白庭台店,奈良県生駒市白庭台２丁目１２－１１,34.726303,135.715503,バーミヤン,0
5023,"",バーミヤン 世田谷上祖師谷店,東京都世田谷区上祖師谷５丁目９－２２,35.658017,139.593106,バーミヤン,0
5022,"",バーミヤン 宇都宮徳次郎店,栃木県宇都宮市徳次郎町２２５６－９,36.650289,139.844387,バーミヤン,0
5021,"",バーミヤン 川口青木店,埼玉県川口市中青木４丁目１０－５,35.815808,139.71864,バーミヤン,0
5020,"",バーミヤン 川崎北見方店,神奈川県川崎市高津区北見方３丁目６－３３,35.597206,139.631827,バーミヤン,0
5019,"",バーミヤン 千葉出洲港店,千葉県千葉市中央区出洲港１－７,35.599662,140.115419,バーミヤン,0
5018,"",バーミヤン 茨城友部店,茨城県笠間市中央１丁目６－３,36.344647,140.30952,バーミヤン,0
5017,"",バーミヤン 袖ヶ浦店,千葉県袖ケ浦市蔵波台６丁目５－１１,35.438219,139.997301,バーミヤン,0
5016,"",バーミヤン 茂原早野店,千葉県茂原市早野石川１３４７－１,35.419495,140.288161,バーミヤン,0
5015,"",バーミヤン 小田原堀之内店,神奈川県小田原市堀之内８－３,35.295053,139.149528,バーミヤン,0
5014,"",バーミヤン 神奈川愛川町店,神奈川県愛甲郡愛川町中津１５９０－１,35.528138,139.330598,バーミヤン,0
5013,"",バーミヤン 瀬谷南台店,神奈川県横浜市瀬谷区南台１丁目２９－６,35.466273,139.492692,バーミヤン,0
5012,"",バーミヤン 南行徳駅前店,千葉県市川市南行徳１丁目９－１８,35.673278,139.903449,バーミヤン,0
5011,"",バーミヤン 泉弥生台店,神奈川県横浜市泉区弥生台７５－４,35.428239,139.501983,バーミヤン,0
5010,"",バーミヤン 三郷戸ケ崎店,埼玉県三郷市戸ヶ崎２丁目７７２－１,35.799337,139.86408,バーミヤン,0
5009,"",バーミヤン 鎌ヶ谷大仏駅前店,千葉県鎌ケ谷市鎌ケ谷４丁目１－３　湯浅ビル１Ｆ,35.757884,140.012976,バーミヤン,0
5008,"",バーミヤン 千葉幕張店,千葉県千葉市花見川区幕張町２丁目７７０１,35.659717,140.047275,バーミヤン,0
5007,"",バーミヤン 流山加店,千葉県流山市加１－６－４,35.858827,139.906194,バーミヤン,0
5006,"",バーミヤン 緑園都市店,神奈川県横浜市泉区緑園４丁目２－１７　緑園アーバンプラザ２階,35.439843,139.523564,バーミヤン,0
5005,"",バーミヤン 小田急相模原駅前店,神奈川県相模原市南区松が枝町２１－１２,35.515489,139.423337,バーミヤン,0
5004,"",バーミヤン 篠崎駅前店,東京都江戸川区篠崎町７丁目２８－２,35.706475,139.903727,バーミヤン,0
5003,"",バーミヤン 越谷神明店,埼玉県越谷市神明町２丁目２２８－３,35.897489,139.76935,バーミヤン,0
5002,"",バーミヤン 西六郷店,東京都大田区西六郷４丁目３６－６,35.544355,139.704012,バーミヤン,0
5001,"",バーミヤン 大田原店,栃木県大田原市本町１丁目２－６,36.870933,140.018154,バーミヤン,0
5000,"",バーミヤン 東金文化会館前店,千葉県東金市八坂台２丁目１,35.569048,140.362049,バーミヤン,0
4999,"",バーミヤン 千葉おゆみ野店,千葉県千葉市緑区おゆみ野南５丁目１９－５,35.548036,140.177268,バーミヤン,0
4998,"",バーミヤン 大磯インター店,神奈川県中郡大磯町国府本郷９２２－１,35.30747,139.277769,バーミヤン,0
4997,"",バーミヤン 松戸二十世紀ケ丘店,千葉県松戸市二十世紀が丘萩町２５３－１,35.769142,139.90798,バーミヤン,0
4996,"",バーミヤン 茨城神栖店,茨城県神栖市溝口１６９０－１,35.889733,140.662316,バーミヤン,0
4995,"",バーミヤン 和光南店,埼玉県和光市南１丁目８－６６,35.773653,139.61756,バーミヤン,0
4994,"",バーミヤン 前橋広瀬店,群馬県前橋市天川大島町１４－１,36.364997,139.110196,バーミヤン,0
4993,"",バーミヤン 佐久店,長野県佐久市小田井６１３－１,36.289677,138.488358,バーミヤン,0
4992,"",バーミヤン 戸塚深谷店,神奈川県横浜市戸塚区深谷町１７１－４,35.382458,139.500197,バーミヤン,0
4991,"",バーミヤン 与野本町店,埼玉県さいたま市中央区本町西４丁目１０－３,35.887169,139.616625,バーミヤン,0
4990,"",バーミヤン 坂戸泉町店,埼玉県坂戸市泉町３丁目６－１,35.967496,139.390576,バーミヤン,0
4989,"",バーミヤン 新座片山店,埼玉県新座市片山３丁目９－５,35.763733,139.571193,バーミヤン,0
4988,"",バーミヤン 千葉長沼原店,千葉県千葉市稲毛区長沼原町７９５,35.657442,140.126191,バーミヤン,0
4987,"",バーミヤン 茨城那珂町店,茨城県那珂市竹ノ内２丁目３－１,36.449465,140.501346,バーミヤン,0
4986,"",バーミヤン 沼田インター店,群馬県沼田市下久屋町１０７２－１,36.657186,139.077757,バーミヤン,0
4985,"",バーミヤン 東橋本店,神奈川県相模原市緑区東橋本１丁目３－１,35.590321,139.356376,バーミヤン,0
4984,"",バーミヤン 習志野鷺沼店,千葉県習志野市鷺沼４丁目１－３,35.677093,140.031333,バーミヤン,0
4983,"",バーミヤン 横浜駒岡店,神奈川県横浜市鶴見区駒岡１丁目２６－１３,35.524315,139.652076,バーミヤン,0
4982,"",バーミヤン 小田原鴨宮店,神奈川県小田原市中里２８６－４,35.280003,139.188276,バーミヤン,0
4981,"",バーミヤン 成瀬駅南口店,東京都町田市成瀬が丘２丁目２７－２,35.535675,139.470618,バーミヤン,0
4980,"",バーミヤン 東久留米滝山店,東京都東久留米市滝山７丁目１－１６,35.750065,139.508069,バーミヤン,0
4979,"",バーミヤン 浦和道祖土店,埼玉県さいたま市緑区道祖土３丁目４－１３,35.879243,139.66957,バーミヤン,0
4978,"",バーミヤン 千歳烏山店,東京都世田谷区南烏山４丁目２０－１５　フィオ－レ１Ｆ,35.670221,139.602496,バーミヤン,0
4977,"",バーミヤン 碑文谷店,東京都目黒区碑文谷２丁目１－１７,35.624863,139.68823,バーミヤン,0
4976,"",バーミヤン 星川駅前店,神奈川県横浜市保土ケ谷区星川１丁目１－２,35.457868,139.596087,バーミヤン,0
4975,"",バーミヤン 足立加賀店,東京都足立区鹿浜６丁目３５－３,35.788355,139.760956,バーミヤン,0
4974,"",バーミヤン 前橋若宮店,群馬県前橋市若宮町４丁目１８－１７,36.406432,139.074487,バーミヤン,0
4973,"",バーミヤン 矢板店,栃木県矢板市東町３８０－６３,36.799288,139.942991,バーミヤン,0
4972,"",バーミヤン 厚木松枝店,神奈川県厚木市松枝２丁目５－３,35.450364,139.356594,バーミヤン,0
4971,"",バーミヤン 所沢山口店,埼玉県所沢市大字山口字児泉１５０８－１,35.778403,139.435207,バーミヤン,0
4970,"",バーミヤン 佐原東店,茨城県稲敷市西代１４７２－１,35.917713,140.485046,バーミヤン,0
4969,"",バーミヤン 三鷹駅南口店,東京都三鷹市下連雀３丁目２８－２３　２階,35.700701,139.561163,バーミヤン,0
4968,"",バーミヤン 南生田店,神奈川県川崎市多摩区長沢４丁目２５－１０,35.599837,139.536018,バーミヤン,0
4967,"",バーミヤン 東山田駅前店,神奈川県横浜市都筑区東山田町９９,35.553705,139.60801,バーミヤン,0
4966,"",バーミヤン 我孫子湖北台店,千葉県我孫子市湖北台８丁目７－１４,35.864964,140.070544,バーミヤン,0
4965,"",バーミヤン 鶴ヶ島店,埼玉県川越市大字天沼新田１０３－１,35.93072,139.418741,バーミヤン,0
4964,"",バーミヤン 平塚南原店,神奈川県平塚市南原２丁目３－４,35.338784,139.329362,バーミヤン,0
4963,"",バーミヤン 尾久店,東京都北区昭和町３丁目８－３,35.749599,139.750528,バーミヤン,0
4962,"",バーミヤン 大胡店,群馬県前橋市茂木町２７０－３,36.4104,139.150087,バーミヤン,0
4961,"",バーミヤン 守谷店,茨城県守谷市立沢１２０２－５,35.964311,139.971446,バーミヤン,0
4960,"",バーミヤン 武蔵小杉店,神奈川県川崎市中原区今井仲町４－３１,35.576877,139.650953,バーミヤン,0
4959,"",バーミヤン 栗橋店,埼玉県久喜市栗橋１３０１－１,36.130438,139.702792,バーミヤン,0
4958,"",バーミヤン 市ケ尾店,神奈川県横浜市青葉区市ケ尾町１６２８－２５,35.555016,139.539232,バーミヤン,0
4957,"",バーミヤン 長後店,神奈川県藤沢市長後９５３－１,35.418999,139.469003,バーミヤン,0
4956,"",バーミヤン 船橋松が丘店,千葉県船橋市松が丘３丁目７１－１７,35.736688,140.050566,バーミヤン,0
4955,"",バーミヤン 古河店,茨城県古河市古河７６１－１,36.191218,139.718192,バーミヤン,0
4954,"",バーミヤン 川越山田店,埼玉県川越市大字山田１９５４－１,35.936281,139.478245,バーミヤン,0
4953,"",バーミヤン 土浦真鍋店,茨城県土浦市真鍋４－１４－９,36.101931,140.20375,バーミヤン,0
4952,"",バーミヤン しらひげ橋店,東京都墨田区堤通１丁目１９－９　リバーサイド墨田ウエストコート１階,35.727201,139.811164,バーミヤン,0
4951,"",バーミヤン 石岡店,茨城県石岡市旭台１丁目１２－１０,36.194167,140.298064,バーミヤン,0
4950,"",バーミヤン 柏増尾台店,千葉県柏市増尾台１丁目３－６,35.827828,139.9738,バーミヤン,0
4949,"",バーミヤン 山梨櫛形店,山梨県南アルプス市小笠原１２４７,35.615978,138.466017,バーミヤン,0
4948,"",バーミヤン 江東白河店,東京都江東区白河３丁目３－１２,35.681629,139.806304,バーミヤン,0
4947,"",バーミヤン 千葉あすみが丘店,千葉県千葉市緑区あすみが丘４丁目１９－６,35.521855,140.265792,バーミヤン,0
4946,"",バーミヤン 川崎田島店,神奈川県川崎市川崎区田島町１３－１５,35.515607,139.708732,バーミヤン,0
4945,"",バーミヤン 八王子堀之内店,東京都八王子市堀之内２－５－４,35.628142,139.397377,バーミヤン,0
4944,"",バーミヤン 甲府住吉店,山梨県甲府市住吉４丁目２４－７,35.637365,138.584746,バーミヤン,0
4943,"",バーミヤン 上戸田店,埼玉県戸田市上戸田２丁目３－５,35.814518,139.681967,バーミヤン,0
4942,"",バーミヤン 京王稲田堤駅前店,神奈川県川崎市多摩区菅２丁目７－１,35.632929,139.531773,バーミヤン,0
4941,"",バーミヤン 館林店,群馬県館林市松原１丁目２２－１５,36.242471,139.538665,バーミヤン,0
4940,"",バーミヤン 秋川店,東京都あきる野市秋川６丁目３－２,35.728736,139.292205,バーミヤン,0
4939,"",バーミヤン 小川町店,埼玉県比企郡小川町大字小川３５６－２,36.055058,139.265179,バーミヤン,0
4938,"",バーミヤン 秦野東店,神奈川県秦野市曽屋５７８６－１,35.366986,139.241597,バーミヤン,0
4937,"",バーミヤン 富士急ハイランド駅前店,山梨県南都留郡富士河口湖町船津６６６３－１１,35.489384,138.78244,バーミヤン,0
4936,"",バーミヤン 太田内ケ島店,群馬県太田市内ケ島町９２８－１,36.283,139.400397,バーミヤン,0
4935,"",バーミヤン 伊勢原店,神奈川県伊勢原市神戸５９０－１,35.395142,139.289724,バーミヤン,0
4934,"",バーミヤン 新松戸店,千葉県松戸市新松戸５丁目１２６,35.82782,139.909056,バーミヤン,0
4933,"",バーミヤン 春日部豊町店,埼玉県春日部市豊町５丁目７－２,35.967908,139.738549,バーミヤン,0
4932,"",バーミヤン 水戸河和田店,茨城県水戸市河和田町水窪４７３－３,36.362691,140.414264,バーミヤン,0
4931,"",バーミヤン 鴨居店,神奈川県横浜市緑区鴨居３丁目６－８,35.508443,139.568362,バーミヤン,0
4930,"",バーミヤン 高崎高関店,群馬県高崎市高関町２７３－１,36.326878,139.027607,バーミヤン,0
4929,"",バーミヤン 酒々井店,千葉県印旛郡酒々井町上岩橋１１３０－１,35.737734,140.274886,バーミヤン,0
4928,"",バーミヤン 羽生店,埼玉県羽生市南６丁目１７－１６,36.164889,139.544714,バーミヤン,0
4927,"",バーミヤン 本庄店,埼玉県本庄市けや木２丁目２－１４,36.231156,139.190878,バーミヤン,0
4926,"",バーミヤン 四街道店,千葉県四街道市四街道１５３７－３５,35.662348,140.160213,バーミヤン,0
4925,"",バーミヤン 籠原店,埼玉県熊谷市新堀３２１－１,36.175634,139.336711,バーミヤン,0
4924,"",バーミヤン 入間仏子店,埼玉県入間市大字仏子下ケ谷戸１１５２－１,35.840182,139.362636,バーミヤン,0
4923,"",バーミヤン 児玉店,埼玉県本庄市児玉町吉田林３８２－１,36.19878,139.133936,バーミヤン,0
4922,"",バーミヤン 寒川大曲店,神奈川県高座郡寒川町大曲３－６－１,35.358466,139.392332,バーミヤン,0
4921,"",バーミヤン 渋川店,群馬県渋川市石原１１０－１,36.487883,139.002599,バーミヤン,0
4920,"",バーミヤン 市原白金店,千葉県市原市白金町５丁目３３,35.524813,140.098919,バーミヤン,0
4919,"",バーミヤン 麻溝台店,神奈川県相模原市南区麻溝台１丁目５－１,35.53725,139.401207,バーミヤン,0
4918,"",バーミヤン 瑞穂店,東京都西多摩郡瑞穂町大字武蔵２５－１,35.767545,139.349948,バーミヤン,0
4917,"",バーミヤン 君津大和田店,千葉県君津市大和田１丁目１－３６,35.338549,139.879992,バーミヤン,0
4916,"",バーミヤン 青梅河辺店,東京都青梅市河辺町４丁目１４－２,35.781619,139.285873,バーミヤン,0
4915,"",バーミヤン 東習志野店,千葉県習志野市東習志野８丁目１－１３,35.702339,140.077008,バーミヤン,0
4914,"",バーミヤン 大宮櫛引店,埼玉県さいたま市北区櫛引町２丁目１５１－１,35.91823,139.605382,バーミヤン,0
4913,"",バーミヤン 伊勢崎連取店,群馬県伊勢崎市連取本町２０３番地１１,36.320739,139.183458,バーミヤン,0
4912,"",バーミヤン 小山本郷店,栃木県小山市本郷町２丁目７－１０,36.319871,139.803214,バーミヤン,0
4911,"",バーミヤン ふじみ野店,埼玉県ふじみ野市大井１丁目１－３,35.854031,139.516438,バーミヤン,0
4910,"",バーミヤン 千葉千城台店,千葉県千葉市若葉区千城台南４丁目２－１,35.614327,140.192261,バーミヤン,0
4909,"",バーミヤン 荏原店,東京都品川区荏原４丁目６－３,35.61412,139.707626,バーミヤン,0
4908,"",バーミヤン 厚木小野店,神奈川県厚木市小野２１６６－７,35.434541,139.316901,バーミヤン,0
4907,"",バーミヤン 辻堂店,神奈川県藤沢市辻堂元町３丁目１９－１,35.329407,139.452217,バーミヤン,0
4906,"",バーミヤン 北加瀬店,神奈川県川崎市幸区北加瀬３丁目１６－５,35.556416,139.659236,バーミヤン,0
4905,"",バーミヤン 新座東店,埼玉県新座市東２丁目３－２０,35.812392,139.570689,バーミヤン,0
4904,"",バーミヤン 深大寺店,東京都調布市深大寺北町６丁目２１－７,35.678422,139.546904,バーミヤン,0
4903,"",バーミヤン 白岡店,埼玉県白岡市野牛１－１,36.046056,139.656156,バーミヤン,0
4902,"",バーミヤン 東大宮店,埼玉県さいたま市見沼区東大宮７丁目２－１,35.94661,139.64442,バーミヤン,0
4901,"",バーミヤン 立川幸町店,東京都立川市幸町２丁目２９－１１,35.721145,139.426199,バーミヤン,0
4900,"",バーミヤン 今宿店,神奈川県横浜市旭区今宿西町１８２－１,35.483503,139.526308,バーミヤン,0
4898,"",バーミヤン 千葉駅東口店,千葉県千葉市中央区富士見２丁目１－１　マインズ千葉Ａ館　地下Ｂ１０２－１,35.611862,140.115569,バーミヤン,0
4897,"",バーミヤン 八王子駅北口店,東京都八王子市旭町８－３　ＴＮ８ビル２Ｆ,35.6576418,139.3377924,バーミヤン,0
4896,"",バーミヤン 熊谷太井店,埼玉県熊谷市太井４９０,36.121487,139.426972,バーミヤン,0
4895,"",バーミヤン 四日市小杉店,三重県四日市市小杉町４０９,34.983817,136.609142,バーミヤン,0
4894,"",バーミヤン 札幌新道店,北海道札幌市東区北３０条東２０丁目３－３,43.102733,141.379724,バーミヤン,0
4893,"",バーミヤン 旭川大雪通店,北海道旭川市大雪通４丁目４９０－１０,43.7781168,142.3846415,バーミヤン,0
4892,"",バーミヤン 山形桧町店,山形県山形市桧町２丁目１１－１８,38.278403,140.331869,バーミヤン,0
4891,"",バーミヤン 和歌山市駅前店,和歌山県和歌山市元博労町２４,34.234876,135.169818,バーミヤン,0
4890,"",バーミヤン 仙台一番町店,宮城県仙台市青葉区一番町３丁目９－１３　ＤＡＴＥ　ＯＮＥビル２階,38.261312,140.871506,バーミヤン,0
4889,"",バーミヤン 柏呼塚店,千葉県柏市柏６丁目１０－１５,35.865634,139.979245,バーミヤン,0
4888,"",バーミヤン 一宮尾西店,愛知県一宮市東五城東備前３８－２,35.310594,136.756258,バーミヤン,0
4887,"",バーミヤン 滝の水店,愛知県名古屋市緑区上旭１丁目５０１,35.094209,136.97576,バーミヤン,0
4886,"",バーミヤン 板橋仲宿店,東京都板橋区仲宿４１－８　ヒラヰ仲宿ビル２Ｆ,35.753048,139.710138,バーミヤン,0
4885,"",バーミヤン 豊田秋葉町店,愛知県豊田市秋葉町１丁目１－１,35.063598,137.164208,バーミヤン,0
4884,"",バーミヤン 郡山桑野店,福島県郡山市桑野１丁目２１－４,37.399415,140.3534,バーミヤン,0
4883,"",バーミヤン 岡崎竜美ケ丘店,愛知県岡崎市東明大寺町１０－１,34.945427,137.17729,バーミヤン,0
4882,"",バーミヤン 松戸駅西口店,千葉県松戸市松戸１２８７－１　サントロペ松戸ビル２Ｆ,35.783476,139.899501,バーミヤン,0
4881,"",バーミヤン 水主町店,愛知県名古屋市中村区名駅南５丁目１－７　マンツネビル１Ｆ,35.158837,136.891202,バーミヤン,0
4880,"",バーミヤン 府中中河原店,東京都府中市住吉町１丁目１０－１　シャトレープランドール,35.66274,139.458554,バーミヤン,0
4879,"",バーミヤン 福岡貝塚店,福岡県福岡市東区箱崎７丁目８－８　箱崎パルク１Ｆ,33.631133,130.423436,バーミヤン,0
4878,"",バーミヤン 東中野店,東京都中野区東中野４丁目３０－６－１０１,35.710248,139.684844,バーミヤン,0
4877,"",バーミヤン 平和台駅前店,東京都練馬区早宮２丁目１７－４３,35.757716,139.653765,バーミヤン,0
4876,"",バーミヤン イオンモール橿原店,奈良県橿原市曲川町７丁目２０－１　イオンモール橿原３Ｆ,34.505194,135.762328,バーミヤン,0
4875,"",バーミヤン 大森駅前店,東京都大田区山王２丁目８－２６　東辰ビル２Ｆ,35.589223,139.727544,バーミヤン,0
4874,"",バーミヤン 町屋店,東京都荒川区町屋３丁目８－１８　ＪＫハイム２Ｆ,35.746684,139.78295,バーミヤン,0
4873,"",バーミヤン 蒲田駅東口店,東京都大田区蒲田５丁目２４－２　損保ジャパン蒲田ビル　２Ｆ,35.562681,139.719413,バーミヤン,0
4872,"",バーミヤン 新潟近江店,新潟県新潟市中央区上近江３丁目１９－３１,37.899931,139.032418,バーミヤン,0
4871,"",バーミヤン 市川真間店,千葉県市川市真間１丁目１２－４,35.732099,139.910987,バーミヤン,0
4870,"",バーミヤン 足立綾瀬店,東京都足立区綾瀬５丁目２２－１１,35.767102,139.82913,バーミヤン,0
4869,"",バーミヤン 昭島昭和町店,東京都昭島市昭和町４丁目８－２３,35.711589,139.363069,バーミヤン,0
4868,"",バーミヤン 木の葉モール橋本店,福岡県福岡市西区橋本２丁目２７－２　木の葉モール橋本１Ｆ,33.555369,130.321889,バーミヤン,0
4867,"",バーミヤン 帯広白樺店,北海道帯広市白樺１６条西１丁目１,42.919681,143.17499,バーミヤン,0
4866,"",バーミヤン 京都木津川店,京都府木津川市州見台３丁目２－８,34.716188,135.827654,バーミヤン,0
4865,"",バーミヤン 博多ミスト店,福岡県福岡市博多区諸岡３丁目１－３５　博多ミスト東棟１Ｆ,33.563735,130.444032,バーミヤン,0
4864,"",バーミヤン 札幌白石本通店,北海道札幌市白石区本通１２丁目南４番１０号,43.040616,141.424639,バーミヤン,0
4863,"",バーミヤン 湯里店,大阪府大阪市東住吉区湯里６丁目５－１５,34.609546,135.538824,バーミヤン,0
4862,"",バーミヤン 四谷店,東京都新宿区四谷２丁目１－３　四谷２１３ビル２Ｆ,35.686596,139.726622,バーミヤン,0
4861,"",バーミヤン イオンモール京都五条店,京都府京都市右京区西院追分町２５－１　イオンモール京都五条３Ｆ,34.997621,135.7272092,バーミヤン,0
4860,"",バーミヤン 太宰府大佐野店,福岡県太宰府市大佐野１丁目５－１,33.504955,130.499561,バーミヤン,0
4859,"",バーミヤン 京都新堀川店,京都府京都市伏見区下鳥羽東芹川町４６,34.942812,135.751162,バーミヤン,0
4858,"",バーミヤン 桜山店,愛知県名古屋市昭和区桜山町３丁目５６,35.143149,136.93372,バーミヤン,0
4857,"",バーミヤン 豊中緑丘店,大阪府豊中市春日町５丁目９－２３,34.816352,135.473786,バーミヤン,0
4856,"",バーミヤン 富山二口店,富山県富山市二口町５丁目８－５　＿１Ｆ,36.667037,137.202865,バーミヤン,0
4855,"",バーミヤン 東広島店,広島県東広島市西条中央１丁目５－１０,34.421941,132.739676,バーミヤン,0
4854,"",バーミヤン 春日井店,愛知県春日井市柏原町５丁目８,35.24746,136.9646,バーミヤン,0
4853,"",バーミヤン 袋井店,静岡県袋井市旭町１丁目５－１,34.750789,137.922871,バーミヤン,0
4852,"",バーミヤン 高岡あわら町店,富山県高岡市あわら町６－４５,36.754852,137.022568,バーミヤン,0
4851,"",バーミヤン 日立鮎川店,茨城県日立市鮎川町６丁目７－２２,36.572568,140.634801,バーミヤン,0
4850,"",バーミヤン 高松松島店,香川県高松市松島町１丁目１１番１９号,34.340486,134.059839,バーミヤン,0
4849,"",バーミヤン 秋田旭南店,秋田県秋田市旭南１丁目９－２９,39.71134,140.107901,バーミヤン,0
4848,"",バーミヤン 用賀駅前店,東京都世田谷区用賀４丁目１１－５　リエルナ用賀２Ｆ,35.626925,139.634126,バーミヤン,0
4847,"",バーミヤン 千川駅前店,東京都豊島区要町３丁目３９－５　アジリア千川駅前Ｂ１階,35.738585,139.689344,バーミヤン,0
4846,"",バーミヤン 吉祥寺ダイヤ街店,東京都武蔵野市吉祥寺本町１丁目７－８　マーブルビルＢ１,35.704097,139.578394,バーミヤン,0
4845,"",バーミヤン 狭山下広瀬店,埼玉県狭山市広瀬１－８－３１,35.857162,139.391297,バーミヤン,0
4844,"",バーミヤン 各務原店,岐阜県各務原市蘇原花園町１丁目２０－１,35.411979,136.846731,バーミヤン,0
4843,"",バーミヤン 新宿西口大ガード店,東京都新宿区西新宿７丁目１－１　新宿カレイドビル３Ｆ,35.693908,139.69937,バーミヤン,0
4842,"",バーミヤン 宮前平店,神奈川県川崎市宮前区小台２丁目１－１,35.583862,139.5841,バーミヤン,0
4841,"",バーミヤン みなとみらい店,神奈川県横浜市西区みなとみらい４－４－５,35.459875,139.628709,バーミヤン,0
4840,"",バーミヤン 西橋本店,神奈川県相模原市緑区相原２丁目３４－２,35.598713,139.324453,バーミヤン,0
4839,"",バーミヤン 下平間店,神奈川県川崎市幸区下平間３１３　レオナⅠビル２階,35.547916,139.684098,バーミヤン,0
4838,"",バーミヤン 神宮前店,東京都渋谷区神宮前６丁目１７－１０　原宿アール２Ｆ,35.665278,139.703213,バーミヤン,0
4837,"",バーミヤン 水戸南店,茨城県東茨城郡茨城町大字長岡３４８０－１,36.310662,140.441356,バーミヤン,0
4836,"",バーミヤン 青砥駅前店,東京都葛飾区青戸３丁目３７－１５,35.74594,139.855925,バーミヤン,0
4835,"",バーミヤン 稲城若葉台店,東京都稲城市若葉台１丁目２３番地,35.627235,139.471441,バーミヤン,0
4834,"",バーミヤン 新横浜店,神奈川県横浜市港北区大豆戸町４６６－１,35.515721,139.625716,バーミヤン,0
4833,"",バーミヤン 国立矢川店,東京都国立市富士見台４丁目９－２,35.685603,139.432345,バーミヤン,0
4832,"",バーミヤン 山梨豊富店,山梨県中央市浅利３５５５ー１,35.586184,138.547765,バーミヤン,0
4831,"",バーミヤン 相模原千代田店,神奈川県相模原市中央区千代田１丁目６番４号,35.567815,139.373121,バーミヤン,0
4830,"",バーミヤン 川越駅東口店,埼玉県川越市脇田町１０３　川越マインビル３Ｆ,35.907308,139.484123,バーミヤン,0
4829,"",バーミヤン 海老名上郷店,神奈川県海老名市上郷４０８番,35.452452,139.381992,バーミヤン,0
4828,"",バーミヤン 日野万願寺店,東京都日野市万願寺４丁目３１－２,35.670114,139.408853,バーミヤン,0
4827,"",バーミヤン 東所沢店,埼玉県所沢市東所沢２丁目６番２,35.797903,139.511583,バーミヤン,0
4826,"",バーミヤン 千葉ニュータウン中央店,千葉県印西市中央北３丁目１－１,35.802441,140.113558,バーミヤン,0
4825,"",バーミヤン 南葛西店,東京都江戸川区南葛西４丁目２番１５号,35.647243,139.873672,バーミヤン,0
4824,"",バーミヤン 厚木岡田店,神奈川県厚木市岡田３丁目１－２７,35.42454,139.36515,バーミヤン,0
4823,"",バーミヤン 船橋本中山店,千葉県船橋市本中山４丁目１０－３,35.70894,139.940987,バーミヤン,0
4822,"",バーミヤン 古淵店,神奈川県相模原市南区古淵２丁目１０－１　イオン相模原店１階,35.553315,139.417434,バーミヤン,0
4821,"",バーミヤン 八幡山駅前店,東京都世田谷区上北沢４丁目３５－４,35.669949,139.616618,バーミヤン,0
4820,"",バーミヤン 栃木さくら店,栃木県さくら市櫻野１５５１,36.689031,139.980029,バーミヤン,0
4819,"",バーミヤン 座間広野台店,神奈川県座間市広野台１丁目４５－２,35.503826,139.420906,バーミヤン,0
4818,"",バーミヤン 綾瀬市役所前店,神奈川県綾瀬市深谷上１丁目１－１６,35.437953,139.42728,バーミヤン,0
4817,"",バーミヤン 西台駅前店,東京都板橋区蓮根３丁目９－８,35.787748,139.674578,バーミヤン,0
4816,"",バーミヤン 都留店,山梨県都留市桂町１１８５－１,35.537926,138.877223,バーミヤン,0
4815,"",バーミヤン 東新宿駅前店,東京都新宿区新宿７丁目２７－９　Ｂ１Ｆ,35.698549,139.707904,バーミヤン,0
4814,"",バーミヤン 水天宮前店,東京都中央区日本橋人形町１丁目１２－１１　リガーレ日本橋人形町２０３（２階）,35.683575,139.783352,バーミヤン,0
4813,"",バーミヤン 清水矢部店,静岡県静岡市清水区中矢部町３－８,35.000834,138.481623,バーミヤン,0
4812,"",バーミヤン 自由が丘駅前店,東京都目黒区自由が丘１丁目１３－１０　山田ビル２Ｆ,35.608109,139.669929,バーミヤン,0
4811,"",バーミヤン 北久里浜店,神奈川県横須賀市根岸町３丁目１－４,35.253191,139.685188,バーミヤン,0
4810,"",バーミヤン 栄上郷店,神奈川県横浜市栄区上郷町８０－６,35.364007,139.566627,バーミヤン,0
4809,"",バーミヤン 溝の口店,神奈川県川崎市高津区溝口２丁目３－１３,35.599867,139.60955,バーミヤン,0
4808,"",バーミヤン 向ヶ丘遊園駅前店,神奈川県川崎市多摩区登戸２７３５　中和ビル２階,35.616257,139.564543,バーミヤン,0
4807,"",バーミヤン 下北沢南店,東京都世田谷区代沢５丁目７－１０,35.655892,139.667575,バーミヤン,0
4806,"",バーミヤン 新杉田店,神奈川県横浜市磯子区杉田１丁目１－１　らびすた新杉田２階,35.385225,139.619255,バーミヤン,0
4805,"",バーミヤン 野田七光台店,千葉県野田市七光台４番ー２,35.98071,139.851792,バーミヤン,0
4804,"",バーミヤン 桑名サンシパーク店,三重県桑名市大字大仲新田１６８－２,35.081826,136.606535,バーミヤン,0
4803,"",バーミヤン 大井町店,東京都品川区東大井５丁目１－１２　かんべ土地Ｋ－１３ビル,35.607999,139.7363,バーミヤン,0
4802,"",バーミヤン 豊洲店,東京都江東区豊洲５丁目６番５２号　ＮＢＦ豊洲キャナルフロントビル１Ｆ,35.650875,139.799472,バーミヤン,0
4801,"",バーミヤン 町田小山店,東京都町田市小山ヶ丘１丁目８－７,35.599231,139.381991,バーミヤン,0
4800,"",バーミヤン 立川駅北口店,東京都立川市曙町２丁目４２－２３,35.701693,139.411448,バーミヤン,0
4799,"",バーミヤン 西鎌倉店,神奈川県鎌倉市西鎌倉２丁目１－１,35.323759,139.50624,バーミヤン,0
4798,"",バーミヤン 伊勢ララパーク店,三重県伊勢市小木町５３８番地,34.506439,136.722369,バーミヤン,0
4797,"",バーミヤン 神奈川大口店,神奈川県横浜市神奈川区神之木町１８－１２,35.49556,139.647125,バーミヤン,0
4796,"",バーミヤン 八尾南店,大阪府八尾市沼１丁目１番地１　イズミヤ八尾店内,34.588765,135.604943,バーミヤン,0
4795,"",バーミヤン 茅ヶ崎駅前店,神奈川県茅ヶ崎市元町２番４号　湘南山鉄ビル２Ｆ,35.331403,139.406518,バーミヤン,0
4794,"",バーミヤン 茅野店,長野県茅野市ちの横内２６３２,35.998169,138.142672,バーミヤン,0
4793,"",バーミヤン 浦安今川店,千葉県浦安市今川４丁目１３－２,35.643391,139.905105,バーミヤン,0
4792,"",バーミヤン 裾野店,静岡県裾野市佐野１５２０－１,35.17149,138.905099,バーミヤン,0
4791,"",バーミヤン 品川グランドコモンズ店,東京都港区港南２丁目１６－２　太陽生命品川ビル３Ｆ,35.62703,139.74055,バーミヤン,0
4790,"",バーミヤン 白金台店,東京都港区白金台４丁目７－８　ＫＤＸレジデンス白金Ⅰ,35.637889,139.725784,バーミヤン,0
4789,"",バーミヤン 山梨落合店,山梨県山梨市落合４０７－１,35.680039,138.659719,バーミヤン,0
4788,"",バーミヤン 高槻南平台店,大阪府高槻市南平台４丁目１５－１７,34.860515,135.585261,バーミヤン,0
4787,"",バーミヤン 八王子並木町店,東京都八王子市並木町２５－９,35.653151,139.302537,バーミヤン,0
4786,"",バーミヤン 中浦和駅前店,埼玉県さいたま市南区鹿手袋１丁目１－１　プラザホテル２Ｆ,35.853396,139.638261,バーミヤン,0
4785,"",バーミヤン 新羽駅前店,神奈川県横浜市港北区新羽町１６３４－１　パティオワン２Ｆ,35.527832,139.612361,バーミヤン,0
4784,"",バーミヤン 静岡国吉田店,静岡県静岡市駿河区国吉田１丁目３－３４,34.997396,138.425846,バーミヤン,0
4783,"",バーミヤン 一之江駅前店,東京都江戸川区一之江７丁目３５－２２　一富ビル２Ｆ,35.686055,139.881802,バーミヤン,0
4782,"",バーミヤン 西東京田無店,東京都西東京市田無町７丁目１９－３,35.732392,139.53598,バーミヤン,0
4781,"",バーミヤン 浮間舟渡店,東京都板橋区舟渡２丁目３－４,35.793356,139.69037,バーミヤン,0
4780,"",バーミヤン 横浜野島公園店,神奈川県横浜市金沢区平潟町２９番５号,35.330633,139.628771,バーミヤン,0
4779,"",バーミヤン 朝霞本町店,埼玉県朝霞市青葉台１丁目１－６,35.795634,139.595359,バーミヤン,0
4778,"",バーミヤン 横浜笹下店,神奈川県横浜市港南区笹下３丁目１４ー１０,35.389297,139.601818,バーミヤン,0
4777,"",バーミヤン 城東野江店,大阪府大阪市城東区野江４丁目１－２,34.708455,135.537987,バーミヤン,0
4776,"",バーミヤン 新小岩店,東京都江戸川区中央４丁目７－１　２階,35.710867,139.865774,バーミヤン,0
4775,"",バーミヤン 神奈川開成町店,神奈川県足柄上郡開成町宮台西川原１４９－１,35.327071,139.119639,バーミヤン,0
4774,"",バーミヤン 高松十川店,香川県高松市十川東町５５－１　フジグラン十川ＳＣ内,34.271681,134.107515,バーミヤン,0
4773,"",バーミヤン 伊那日影店,長野県伊那市日影４４０－１,35.836559,137.972963,バーミヤン,0
4772,"",バーミヤン 府中天神町店,東京都府中市天神町４丁目２８－１,35.684728,139.494156,バーミヤン,0
4771,"",バーミヤン 八王子みなみ野店,東京都八王子市西片倉２丁目２－７,35.634166,139.330381,バーミヤン,0
4770,"",バーミヤン 沼津御幸店,静岡県沼津市御幸町２０－７,35.094635,138.864076,バーミヤン,0
4769,"",バーミヤン 浜松白羽店,静岡県浜松市中央区白羽町６０８－１,34.678867,137.740058,バーミヤン,0
4768,"",バーミヤン 須玉インター店,山梨県北杜市須玉町若神子字小林３１２４－１,35.792279,138.419723,バーミヤン,0
4767,"",バーミヤン 小平仲町店,東京都小平市仲町２８４,35.730843,139.490907,バーミヤン,0
4766,"",バーミヤン 東新小岩店,東京都葛飾区東新小岩３丁目９－３,35.723593,139.859574,バーミヤン,0
4765,"",バーミヤン 津山昭和店,岡山県津山市昭和町１丁目７０－１,35.054351,133.998141,バーミヤン,0
4764,"",バーミヤン 西宮今津店,兵庫県西宮市津門住江町１３－２８,34.726629,135.348035,バーミヤン,0
4763,"",バーミヤン 愛知阿久比店,愛知県知多郡阿久比町大字植大字東徳吉７－１,34.920108,136.919961,バーミヤン,0
4762,"",バーミヤン 津北店,三重県津市一身田上津部田字イノ坪４３－１　マックスバリュ津北ＳＣ,34.745811,136.504077,バーミヤン,0
4761,"",バーミヤン 西宮北口店,兵庫県西宮市芦原町９－２７,34.742133,135.354612,バーミヤン,0
4760,"",バーミヤン 徳島北島店,徳島県板野郡北島町鯛浜西ノ須１７４　フジグラン北島内,34.112345,134.546954,バーミヤン,0
4759,"",バーミヤン 浅草かっぱ橋店,東京都台東区西浅草３丁目２５　台東区生涯学習センター２Ｆ,35.717536,139.789615,バーミヤン,0
4758,"",バーミヤン 松戸五香店,千葉県松戸市五香８丁目３－３,35.79648,139.976757,バーミヤン,0
4757,"",バーミヤン 河口湖店,山梨県南都留郡富士河口湖町船津字西上ノ段３９２－５,35.503566,138.757219,バーミヤン,0
4756,"",バーミヤン 大正千島店,大阪府大阪市大正区千島１丁目２３－１２１　千島ガーデンモール内,34.652798,135.474081,バーミヤン,0
4755,"",バーミヤン 修善寺店,静岡県伊豆市修善寺西ナメド６５,34.985035,138.949501,バーミヤン,0
4754,"",バーミヤン 磯子店,神奈川県横浜市磯子区磯子１丁目２－１４,35.413126,139.624901,バーミヤン,0
4753,"",バーミヤン 成田三里塚店,千葉県成田市三里塚御料１－２４５,35.746773,140.371646,バーミヤン,0
4752,"",バーミヤン 調布駅南店,東京都調布市小島町３丁目７０－１　グランドール調布　１Ｆ,35.648575,139.542738,バーミヤン,0
4751,"",バーミヤン 飛田給駅北口店,東京都調布市飛田給１丁目２７－４,35.661483,139.523729,バーミヤン,0
4750,"",バーミヤン 和歌山打田店,和歌山県紀の川市下井阪５０４－１　オ－クワオ－ストリ－ト打田内,34.259198,135.340586,バーミヤン,0
4749,"",バーミヤン 新子安店,神奈川県横浜市神奈川区新子安１丁目２－５　オルトヨコハマ　２階,35.487135,139.652691,バーミヤン,0
4748,"",バーミヤン 鴨川店,千葉県鴨川市貝渚字南川田５９,35.102878,140.094909,バーミヤン,0
4747,"",バーミヤン 長岡堺町店,新潟県長岡市堺町２０７－２,37.456107,138.811672,バーミヤン,0
4746,"",バーミヤン 小諸東店,長野県小諸市御幸町２丁目２－２６,36.316374,138.436711,バーミヤン,0
4745,"",バーミヤン 江東南砂店,東京都江東区南砂６丁目７－１５,35.671923,139.836766,バーミヤン,0
4744,"",バーミヤン 湯河原店,神奈川県足柄下郡湯河原町吉浜１５７６－４７　湯河原エスポットモ－ル内,35.145117,139.114233,バーミヤン,0
4743,"",バーミヤン 三田ウッディタウン店,兵庫県三田市けやき台１丁目６－２,34.908485,135.186119,バーミヤン,0
4742,"",バーミヤン 伊丹鴻池店,兵庫県伊丹市鴻池３丁目２０番３９号,34.799161,135.387206,バーミヤン,0
4741,"",バーミヤン 甲斐一宮店,山梨県笛吹市一宮町東原１２,35.64567,138.675422,バーミヤン,0
4740,"",バーミヤン 愛知弥富店,愛知県弥富市五明１３７１－４,35.115151,136.718319,バーミヤン,0
4739,"",バーミヤン 千里丘店,大阪府吹田市山田南１－１　イズミヤ千里丘店別館１Ｆ,34.787812,135.537378,バーミヤン,0
4738,"",バーミヤン 船橋藤原店,千葉県船橋市藤原３丁目３６－４０,35.735835,139.979093,バーミヤン,0
4737,"",バーミヤン 取手駅東口店,茨城県取手市取手３丁目１－２,35.895607,140.063819,バーミヤン,0
4736,"",バーミヤン 越谷花田店,埼玉県越谷市花田２丁目１４－９,35.911828,139.800441,バーミヤン,0
4735,"",バーミヤン 横須賀ベイスクエア店,神奈川県横須賀市本町３丁目３３,35.281656,139.663468,バーミヤン,0
4734,"",バーミヤン 鹿嶋店,茨城県鹿嶋市宮中字東山３１４－１,35.960624,140.641416,バーミヤン,0
4733,"",バーミヤン 鶴見中央店,神奈川県横浜市鶴見区鶴見中央３丁目４－２７,35.510381,139.682646,バーミヤン,0
4732,"",バーミヤン 岐阜公園前店,岐阜県岐阜市大宮町１－１,35.435568,136.772645,バーミヤン,0
4731,"",バーミヤン 甲府下飯田店,山梨県甲府市下飯田３丁目８－９,35.660666,138.551086,バーミヤン,0
4730,"",バーミヤン 近江八幡店,滋賀県近江八幡市上田町１２７８－３,35.116749,136.108718,バーミヤン,0
4729,"",バーミヤン 国分寺駅前店,東京都国分寺市本町４丁目１－１８　柳屋ビル２Ｆ,35.700498,139.479538,バーミヤン,0
4728,"",バーミヤン 玉川上水店,東京都東大和市桜が丘２丁目５３－１,35.734843,139.417628,バーミヤン,0
4727,"",バーミヤン 海浜幕張店,千葉県千葉市美浜区打瀬１丁目２,35.644667,140.045505,バーミヤン,0
4726,"",バーミヤン 小岩西店,東京都江戸川区南小岩６丁目４－９,35.729844,139.876889,バーミヤン,0
4725,"",バーミヤン 勢子坊店,愛知県名古屋市名東区勢子坊３丁目４０２－１,35.162738,137.018748,バーミヤン,0
4724,"",バーミヤン 今市店,栃木県日光市芹沼字石神殿１４５３－１,36.740814,139.710599,バーミヤン,0
4723,"",バーミヤン 富士今泉店,静岡県富士市今泉１丁目１７－３８,35.162408,138.692276,バーミヤン,0
4722,"",バーミヤン 八千代中央店,千葉県八千代市ゆりのき台３丁目１－６,35.728977,140.104366,バーミヤン,0
4721,"",バーミヤン 赤塚新町店,東京都板橋区赤塚新町３丁目４－１３,35.770947,139.640809,バーミヤン,0
4720,"",バーミヤン 六ツ川店,神奈川県横浜市南区六ツ川２丁目１０８－８,35.425672,139.583224,バーミヤン,0
4719,"",バーミヤン 大宮宮原店,埼玉県さいたま市北区宮原町２丁目８７－７,35.942753,139.615685,バーミヤン,0
4718,"",バーミヤン 平塚広川店,神奈川県平塚市広川３２－１,35.356283,139.302151,バーミヤン,0
4717,"",バーミヤン 須坂店,長野県須坂市大字須坂１６１１－２６,36.654222,138.303138,バーミヤン,0
4716,"",バーミヤン 刈谷店,愛知県刈谷市東境町京和１　イオンタウン刈谷内,35.038329,137.029165,バーミヤン,0
4715,"",バーミヤン 上石神井店,東京都練馬区上石神井２丁目７－１１,35.729324,139.597946,バーミヤン,0
4714,"",バーミヤン 守山村前店,愛知県名古屋市守山区村前町２１１,35.208362,136.965564,バーミヤン,0
4713,"",バーミヤン 館山バイパス店,千葉県館山市湊高田３１－１,35.006373,139.871916,バーミヤン,0
4712,"",バーミヤン 青葉あかね台店,神奈川県横浜市青葉区あかね台１丁目３１－４,35.5404,139.488178,バーミヤン,0
4711,"",バーミヤン 東村山店,東京都東村山市久米川町４丁目３－３５,35.759644,139.473182,バーミヤン,0
4710,"",バーミヤン 港当知店,愛知県名古屋市港区当知１丁目５０１,35.112644,136.851525,バーミヤン,0
4709,"",バーミヤン 相模大塚店,神奈川県大和市上草柳１２１－１６,35.471211,139.443271,バーミヤン,0
4708,"",バーミヤン 長野稲里店,長野県長野市稲里町中央１丁目２４－１５,36.603643,138.169956,バーミヤン,0
4707,"",バーミヤン 木更津長須賀店,千葉県木更津市長須賀２９３,35.386918,139.935788,バーミヤン,0
4706,"",バーミヤン 韮崎店,山梨県韮崎市富士見１丁目９－２８,35.710368,138.454701,バーミヤン,0
4705,"",バーミヤン 雪ケ谷大塚駅前店,東京都大田区南雪谷２丁目２－１３　ＷＩＺフジマサビル　２階,35.591681,139.681301,バーミヤン,0
4704,"",バーミヤン 船橋本町店,千葉県船橋市本町４丁目４０－２１,35.698108,139.98669,バーミヤン,0
4703,"",バーミヤン 調布つつじケ丘店,東京都調布市西つつじケ丘４丁目３０－７,35.655772,139.57556,バーミヤン,0
4702,"",バーミヤン 横浜中山店,神奈川県横浜市緑区中山２丁目１０－１,35.513024,139.548571,バーミヤン,0
4701,"",バーミヤン 船堀駅前店,東京都江戸川区船堀３丁目７,35.683151,139.865315,バーミヤン,0
4700,"",バーミヤン 藤沢駅南店,神奈川県藤沢市鵠沼石上１丁目７－７,35.335584,139.488864,バーミヤン,0
4699,"",バーミヤン 練馬高野台駅前店,東京都練馬区高野台１丁目３－７,35.740406,139.616392,バーミヤン,0
4698,"",バーミヤン 大原店,千葉県いすみ市日在５９３－１,35.275021,140.394328,バーミヤン,0
4697,"",バーミヤン 東海村店,茨城県那珂郡東海村大山台２－２１－１９,36.472493,140.560493,バーミヤン,0
4696,"",バーミヤン 流山青田店,千葉県流山市青田１８－１,35.899195,139.920619,バーミヤン,0
4695,"",バーミヤン 長野大豆島店,長野県長野市大字大豆島５２１１－１,36.627488,138.236353,バーミヤン,0
4694,"",バーミヤン 川口伊刈店,埼玉県川口市芝高木１丁目２１－３４,35.84219,139.703179,バーミヤン,0
4693,"",バーミヤン 足立栗原店,東京都足立区栗原４丁目１１－７,35.785063,139.786127,バーミヤン,0
4692,"",バーミヤン 佐倉王子台店,千葉県佐倉市王子台６丁目２６－３,35.722345,140.177714,バーミヤン,0
4691,"",バーミヤン 川口東本郷店,埼玉県川口市東本郷１丁目６－３,35.823613,139.756743,バーミヤン,0
4690,"",バーミヤン 平塚店,神奈川県平塚市四之宮５丁目２０－１４,35.358781,139.358732,バーミヤン,0
4689,"",バーミヤン 若葉店,埼玉県坂戸市千代田３丁目２１－１７,35.950654,139.410559,バーミヤン,0
4688,"",バーミヤン 八王子万町店,東京都八王子市万町１７０－１,35.651339,139.333876,バーミヤン,0
4687,"",バーミヤン 八街店,千葉県八街市八街ほ９４７,35.654773,140.303945,バーミヤン,0
4686,"",バーミヤン 海老名上河内店,神奈川県海老名市上河内２９３,35.421598,139.390382,バーミヤン,0
4685,"",バーミヤン 宇都宮明保野店,栃木県宇都宮市明保野町５－１０,36.549003,139.865776,バーミヤン,0
4684,"",バーミヤン 北本店,埼玉県北本市中丸１丁目２９９,36.019154,139.546111,バーミヤン,0
4683,"",バーミヤン 富士見関沢店,埼玉県富士見市関沢１丁目５－１０,35.843443,139.544638,バーミヤン,0
4682,"",バーミヤン 足立保塚店,東京都足立区一ツ家２丁目１４－５,35.784392,139.810916,バーミヤン,0
4681,"",バーミヤン 武蔵藤沢店,埼玉県入間市東藤沢２丁目１５－１,35.821732,139.414511,バーミヤン,0
4680,"",バーミヤン 久喜店,埼玉県久喜市吉羽２丁目２９－３,36.070625,139.689141,バーミヤン,0
4679,"",バーミヤン 狛江店,東京都狛江市中和泉５丁目１７－３０,35.64234,139.567993,バーミヤン,0
4678,"",バーミヤン 市川下貝塚店,千葉県市川市下貝塚３丁目１９－１６,35.740484,139.949033,バーミヤン,0
4677,"",バーミヤン 杉並宮前店,東京都杉並区宮前４丁目２８－１９,35.693323,139.60702,バーミヤン,0
4676,"",バーミヤン 武蔵野緑町店,東京都武蔵野市緑町１丁目３－８,35.713271,139.56189,バーミヤン,0
4675,"",バーミヤン 練馬豊玉店,東京都練馬区豊玉北４丁目４－３,35.735237,139.66011,バーミヤン,0
4674,"",バーミヤン 板橋相生店,東京都板橋区相生町７－１,35.777223,139.681005,バーミヤン,0
4673,"",バーミヤン 日野多摩平店,東京都日野市多摩平３丁目３０－４,35.665614,139.371939,バーミヤン,0
4671,"",桃菜 多摩センター駅前店,東京都多摩市鶴牧１丁目１９－２,35.62454,139.422629,桃菜,0
4670,"",桃菜 柏光ヶ丘店,千葉県柏市光ケ丘２丁目２１－１２,35.826638,139.957549,桃菜,0
4669,"",桃菜 足立入谷店,東京都足立区入谷５丁目１６－１８,35.803915,139.760525,桃菜,0
4668,"",桃菜 志木本町店,埼玉県志木市本町５丁目８－１４,35.826312,139.577942,桃菜,0
4667,"",桃菜 戸塚上矢部店,神奈川県横浜市戸塚区上矢部町１５５８－６,35.423688,139.530835,桃菜,0
4666,"",桃菜 北本店,埼玉県北本市東間２丁目２８－２,36.036171,139.533056,桃菜,0
4665,"",桃菜 新所沢店,埼玉県所沢市泉町８９２－１,35.7984115,139.4599154,桃菜,0
4664,"",桃菜 川越新河岸店,埼玉県川越市大字扇河岸１０２－１,35.8924709,139.4924928,桃菜,0
4663,"",桃菜 巣鴨店,東京都豊島区巣鴨２丁目５－４,35.734027,139.739396,桃菜,0
4662,"",包包點心 イオンモール堺北花田店,大阪府堺市北区東浅香山町４丁１－１２　イオンモール堺北花田４Ｆ,34.58625,135.513994,包包點心,0
4661,"",包包點心 市川ニッケコルトンプラザ店,千葉県市川市鬼高１丁目１－１　ニッケコルトンプラザ　ツムグテラス１Ｆ,35.7168406,139.9329766,包包點心,0
4660,"",點心甜心 心斎橋パルコ店,大阪府大阪市中央区心斎橋筋１丁目８－３　心斎橋パルコ１３Ｆ,34.6738473,135.5009574,點心甜心,0
4659,"",包包點心 ららぽーと横浜店,神奈川県横浜市都筑区池辺町４０３５－１　ららぽーと　横浜３Ｆ,35.517467,139.5665435,包包點心,0
4658,"",點心甜心 南町田グランベリーパーク店,東京都町田市鶴間３丁目４－１　南町田グランベリーパーク　Ｇ１０４,35.5103098,139.4713495,點心甜心,0
4657,"",桃菜 南砂店,東京都江東区南砂４丁目４－２１,35.6749135,139.8274172,桃菜,0
4656,"",桃菜 三鷹店,東京都三鷹市野崎３丁目２４－１１,35.6815517,139.539893,桃菜,0
4655,"",桃菜 鶴川店,東京都町田市大蔵町１８８,35.583962,139.4733421,桃菜,0
4654,"",八郎そば 南荻島店,埼玉県越谷市大字南荻島２７７－１,35.907658,139.768762,八郎そば,0
4653,"",八郎そば 白岡店,埼玉県白岡市野牛１－１,36.046384,139.655878,八郎そば,0
4652,"",ゆめあん食堂 立川駅南口店,東京都立川市柴崎町３丁目７－２５　ビイルーム立川２階,35.696966,139.412483,ゆめあん食堂,0
4651,"",夢庵 成増店,東京都板橋区成増１丁目１４－１３　池田ビル２階,35.775922,139.63218,夢庵,0
4650,"",夢庵 鴨居駅前店,神奈川県横浜市緑区鴨居４丁目２－３１　鴨居駅前ビル地下１階,35.510159,139.566943,夢庵,0
4649,"",夢庵 交野倉治店,大阪府交野市倉治１丁目６２３－１,34.792526,135.691169,夢庵,0
4648,"",夢庵 早川店,神奈川県小田原市早川３丁目１９番地３,35.243968,139.139451,夢庵,0
4647,"",夢庵 落合駅前店,東京都新宿区上落合３丁目８－２５　ＦＬＡＭＰ２Ｆ,35.710844,139.684231,夢庵,0
4646,"",ゆめあん食堂 調布駅北口店,東京都調布市小島町１丁目３６－１６　グレーシア調布１Ｆ,35.652693,139.543023,ゆめあん食堂,0
4645,"",夢庵 小田原駅前店,神奈川県小田原市栄町２丁目１－２　トザンイースト２Ｆ,35.255777,139.156989,夢庵,0
4644,"",夢庵 埼玉ふじみ野店,埼玉県ふじみ野市亀久保２丁目１－２２,35.859232,139.509015,夢庵,0
4643,"",夢庵 海老名店,神奈川県海老名市国分南４丁目１４－５,35.452844,139.403458,夢庵,0
4642,"",夢庵 土浦富士崎店,茨城県土浦市富士崎１丁目１２－１８,36.072623,140.198603,夢庵,0
4641,"",夢庵 ひたちなか店,茨城県ひたちなか市大字市毛１１０１－１,36.395815,140.504516,夢庵,0
4640,"",夢庵 愛知東海店,愛知県東海市高横須賀町６－１７５,35.008949,136.896352,夢庵,0
4639,"",夢庵 稲沢店,愛知県稲沢市大塚南５丁目１番１号,35.240119,136.801939,夢庵,0
4638,"",夢庵 前田橋店,愛知県名古屋市中川区中須町１－９,35.140331,136.839581,夢庵,0
4637,"",夢庵 泉北ニュータウン店,大阪府堺市南区豊田９３５－１,34.494029,135.494369,夢庵,0
4636,"",夢庵 西宮神楽店,兵庫県西宮市神楽町１１－１１　ネーピア夙川,34.738556,135.330813,夢庵,0
4635,"",夢庵 柏駅東口店,千葉県柏市柏１丁目４－５　石戸画材ビルＢ１階,35.86101,139.971916,夢庵,0
4634,"",夢庵 龍野店,兵庫県たつの市龍野町富永３７９－１,34.857371,134.549886,夢庵,0
4633,"",夢庵 兵庫福崎店,兵庫県神崎郡福崎町南田原２２２１－３,34.944573,134.759319,夢庵,0
4632,"",夢庵 南小岩店,東京都江戸川区南小岩６丁目２７番１６号　ＴｈｅＤｏｍｅ南小岩２Ｆ,35.729106,139.881475,夢庵,0
4631,"",夢庵 八王子めじろ台店,東京都八王子市めじろ台２丁目７０－７,35.639378,139.312474,夢庵,0
4630,"",夢庵 江東住吉店,東京都江東区住吉１丁目４－２　フレスポ住吉２Ｆ,35.688526,139.810907,夢庵,0
4629,"",三〇三 ららぽーと富士見店,埼玉県富士見市山室１丁目１３１３,35.859621,139.548242,三〇三,0
4628,"",夢庵 蕨中央店,埼玉県蕨市中央６丁目１６－２０,35.818684,139.681845,夢庵,0
4627,"",夢庵 成田中央通り店,千葉県成田市加良部６丁目２,35.773983,140.293101,夢庵,0
4626,"",夢庵 多摩センター店,東京都多摩市落合１丁目１６－２,35.626623,139.429576,夢庵,0
4625,"",夢庵 南流山店,千葉県流山市木３丁目１ー２,35.831054,139.896675,夢庵,0
4624,"",夢庵 湯河原店,神奈川県足柄下郡湯河原町吉浜１５７６－４７,35.145052,139.114128,夢庵,0
4623,"",夢庵 横浜宮元町店,神奈川県横浜市南区宮元町１丁目７番地,35.433776,139.61539,夢庵,0
4622,"",藍屋 落合南長崎店,東京都豊島区南長崎４丁目５－２０　ｉＴｅｒｒａｃｅ落合南長崎２階,35.724408,139.68267,藍屋,0
4621,"",夢庵 淵野辺店,神奈川県相模原市中央区淵野辺本町３丁目１番３号,35.570703,139.402764,夢庵,0
4620,"",夢庵 日野石田店,東京都日野市石田２丁目１番１号,35.669976,139.420322,夢庵,0
4619,"",夢庵 戸塚深谷店,神奈川県横浜市戸塚区深谷町９５７－１,35.388613,139.498346,夢庵,0
4618,"",夢庵 千葉あすみが丘店,千葉県千葉市緑区あすみが丘４丁目１９－４,35.521873,140.266063,夢庵,0
4617,"",夢庵 東村山駅前店,東京都東村山市久米川町４丁目８－１０,35.760625,139.469442,夢庵,0
4616,"",夢庵 さいたま三橋店,埼玉県さいたま市西区三橋５丁目１６６０番１,35.908086,139.596839,夢庵,0
4615,"",夢庵 松戸串崎店,千葉県松戸市串崎新田２１８－１,35.777343,139.973863,夢庵,0
4614,"",夢庵 松戸小金原店,千葉県松戸市小金原８丁目３－４,35.814677,139.938559,夢庵,0
4613,"",夢庵 千葉ニュータウン店,千葉県白井市桜台１丁目１－１アクロスプラ　ザ千葉ニュータウン内,35.799494,140.110871,夢庵,0
4612,"",夢庵 沼津新沢田店,静岡県沼津市新沢田町２－４４,35.117316,138.853938,夢庵,0
4611,"",夢庵 石和松本店,山梨県笛吹市石和町松本８４６－２,35.658288,138.623868,夢庵,0
4610,"",夢庵 羽生店,埼玉県羽生市西３丁目２１－５,36.169394,139.530138,夢庵,0
4609,"",夢庵 館山バイパス店,千葉県館山市北条１６８－１,35.000071,139.872845,夢庵,0
4608,"",夢庵 綾瀬中央店,神奈川県綾瀬市深谷上１丁目１２－５４,35.438049,139.429773,夢庵,0
4607,"",夢庵 板橋前野町店,東京都板橋区前野町６丁目１－１２,35.763729,139.686238,夢庵,0
4606,"",夢庵 横須賀粟田店,神奈川県横須賀市粟田２丁目５－１,35.224524,139.684159,夢庵,0
4605,"",夢庵 飯田上郷店,長野県飯田市上郷飯沼２０１５－１,35.5182,137.849537,夢庵,0
4604,"",夢庵 横浜笹下店,神奈川県横浜市港南区笹下３丁目１４－１０,35.389297,139.601818,夢庵,0
4603,"",夢庵 三島北店,静岡県駿東郡長泉町下土狩１０２４－１,35.135724,138.894459,夢庵,0
4602,"",夢庵 日高店,埼玉県日高市高麗川２丁目２２－２,35.892375,139.334942,夢庵,0
4601,"",夢庵 瀬谷店,神奈川県横浜市瀬谷区橋戸２丁目２７－８,35.462236,139.480004,夢庵,0
4600,"",夢庵 さがみ野店,神奈川県座間市さがみ野１丁目１－３８,35.473323,139.42281,夢庵,0
4599,"",夢庵 新津店,新潟県新潟市秋葉区程島１９３１－１,37.786048,139.112509,夢庵,0
4598,"",夢庵 亀田店,新潟県新潟市江南区五月町２丁目６－１４,37.873515,139.098241,夢庵,0
4597,"",夢庵 常陸太田店,茨城県常陸太田市内堀町３５６７,36.542544,140.529088,夢庵,0
4596,"",夢庵 渋川店,群馬県渋川市渋川１６９７－１１,36.491176,139.003822,夢庵,0
4595,"",夢庵 千葉高品町店,千葉県千葉市若葉区高品町１５８７－４,35.620494,140.132803,夢庵,0
4594,"",夢庵 つくばみらい店,茨城県つくばみらい市絹の台３丁目２６－１,35.977903,139.974649,夢庵,0
4593,"",夢庵 長野若槻店,長野県長野市稲田１丁目６－２３,36.675469,138.215335,夢庵,0
4592,"",夢庵 沼田バイパス店,群馬県沼田市薄根町３４７２－１,36.642404,139.029963,夢庵,0
4591,"",夢庵 川崎小田栄店,神奈川県川崎市川崎区小田栄２丁目１－２,35.514331,139.709971,夢庵,0
4590,"",夢庵 佐久平駅前店,長野県佐久市佐久平駅東１５－１１,36.277384,138.467563,夢庵,0
4589,"",夢庵 厚木小野店,神奈川県厚木市小野２１６６－１,35.434613,139.316508,夢庵,0
4588,"",夢庵 茅ヶ崎西インター店,神奈川県茅ヶ崎市下町屋２丁目１５－４６,35.332855,139.385348,夢庵,0
4587,"",夢庵 江戸川大杉店,東京都江戸川区大杉２丁目２３－１２,35.702808,139.880957,夢庵,0
4586,"",夢庵 木更津東店,千葉県木更津市ほたる野１丁目１９－１,35.37329,139.960108,夢庵,0
4585,"",夢庵 府中押立町店,東京都府中市押立町１丁目１７－１０,35.659771,139.509976,夢庵,0
4584,"",夢庵 大磯店,神奈川県中郡大磯町国府新宿３２２－２,35.301719,139.268385,夢庵,0
4583,"",夢庵 東川口店,埼玉県川口市戸塚２丁目１６－１,35.872442,139.747535,夢庵,0
4582,"",夢庵 横浜本郷台店,神奈川県横浜市栄区小菅ケ谷４丁目１７－１１,35.375304,139.552082,夢庵,0
4581,"",藍屋 静岡東千代田店,静岡県静岡市葵区東千代田２丁目１１－１０,35.00331,138.406135,藍屋,0
4580,"",夢庵 横浜片倉町店,神奈川県横浜市神奈川区片倉２丁目７１－３,35.48412,139.602247,夢庵,0
4579,"",夢庵 長野ビッグハット前店,長野県長野市若里稲葉上千田２５１,36.629002,138.19815,夢庵,0
4578,"",夢庵 葉山店,神奈川県三浦郡葉山町一色１７７１－１,35.265586,139.583044,夢庵,0
4577,"",夢庵 本町田店,東京都町田市木曽東４丁目８－１０,35.563034,139.430923,夢庵,0
4576,"",夢庵 鶴ヶ峰店,神奈川県横浜市旭区四季美台２－１３,35.47322,139.544561,夢庵,0
4575,"",夢庵 静岡池田店,静岡県静岡市駿河区池田７５６－２４,34.980574,138.423905,夢庵,0
4574,"",夢庵 元八王子店,東京都八王子市元八王子町１丁目４７４－１,35.665691,139.289335,夢庵,0
4573,"",夢庵 印旛栄町店,千葉県印旛郡栄町酒直１５８２,35.830881,140.256564,夢庵,0
4572,"",夢庵 我孫子北店,千葉県我孫子市我孫子４丁目３８番２３,35.876387,140.01458,夢庵,0
4571,"",夢庵 カリブ梅島店,東京都足立区梅田６丁目９－１６,35.766787,139.798284,夢庵,0
4570,"",夢庵 川崎殿町店,神奈川県川崎市川崎区殿町１丁目１５－１３,35.537376,139.743763,夢庵,0
4569,"",夢庵 鴻巣店,埼玉県鴻巣市東３丁目７－４,36.06418,139.518849,夢庵,0
4568,"",夢庵 平塚豊田店,神奈川県平塚市南豊田３２３,35.355441,139.327803,夢庵,0
4567,"",夢庵 敷島店,山梨県甲斐市中下条１２１２－１,35.683605,138.525733,夢庵,0
4566,"",夢庵 大井松田店,神奈川県足柄上郡大井町上大井１０９,35.321908,139.159053,夢庵,0
4565,"",夢庵 伊豆大仁店,静岡県伊豆の国市吉田３７０,35.002388,138.939865,夢庵,0
4564,"",夢庵 小田原鴨宮店,神奈川県小田原市前川１９７－１,35.279681,139.192183,夢庵,0
4563,"",夢庵 上池台店,東京都大田区上池台５丁目１７－２５,35.594214,139.70007,夢庵,0
4562,"",夢庵 東海大学前店,神奈川県秦野市南矢名２５９－１,35.364755,139.269252,夢庵,0
4561,"",夢庵 東久留米弥生店,東京都東久留米市弥生１丁目７－２,35.736286,139.505621,夢庵,0
4560,"",夢庵 三鷹北野店,東京都三鷹市新川２丁目４－２８,35.677302,139.576512,夢庵,0
4559,"",夢庵 イオンタウン大須賀店,静岡県掛川市西大渕３３５９,34.676638,137.967692,夢庵,0
4558,"",夢庵 都留店,山梨県都留市上谷４丁目２－８,35.547351,138.904274,夢庵,0
4557,"",夢庵 桶川店,埼玉県桶川市泉１丁目８－２６,36.000473,139.557433,夢庵,0
4556,"",夢庵 山梨甲西店,山梨県南アルプス市西南湖字巡り木３４１－２,35.587946,138.49767,夢庵,0
4555,"",夢庵 船橋前原店,千葉県船橋市前原東４丁目１７－４,35.700599,140.029003,夢庵,0
4554,"",夢庵 朝霞本町店,埼玉県朝霞市本町１丁目３４－１５,35.80233,139.592571,夢庵,0
4552,"",夢庵 大和鶴間店,神奈川県大和市下鶴間２丁目９－７,35.492656,139.461546,夢庵,0
4551,"",夢庵 東茂原店,千葉県茂原市東茂原９－２,35.415465,140.313846,夢庵,0
4550,"",夢庵 松戸和名ヶ谷店,千葉県松戸市和名ケ谷１４３０－１,35.773381,139.915833,夢庵,0
4549,"",夢庵 南足柄店,神奈川県南足柄市生駒４０８,35.312361,139.117045,夢庵,0
4548,"",夢庵 毛呂山店,埼玉県入間郡毛呂山町大字川角１－１,35.94757,139.328567,夢庵,0
4547,"",夢庵 千葉宮野木店,千葉県千葉市稲毛区宮野木町１６５０－１,35.653007,140.106477,夢庵,0
4546,"",夢庵 太田植木野店,群馬県太田市東新町３,36.322824,139.411392,夢庵,0
4545,"",夢庵 塩山店,山梨県甲州市塩山上塩後２９７－１,35.701364,138.720801,夢庵,0
4544,"",夢庵 市川福栄店,千葉県市川市福栄１丁目２３－７,35.673918,139.907515,夢庵,0
4543,"",夢庵 入間野田店,埼玉県入間市大字野田１４４４,35.845896,139.351406,夢庵,0
4542,"",夢庵 市川大野店,千葉県市川市北方町４丁目１４６３－１,35.737486,139.953711,夢庵,0
4541,"",夢庵 甲府西店,山梨県甲斐市富竹新田２０８０,35.6502,138.534205,夢庵,0
4540,"",夢庵 港北新羽駅前店,神奈川県横浜市港北区新羽町１６９２－１,35.528284,139.610961,夢庵,0
4539,"",夢庵 佐野店,栃木県佐野市赤坂町９５４－３,36.302472,139.566145,夢庵,0
4538,"",夢庵 埼玉伊奈町店,埼玉県北足立郡伊奈町寿３－２７６,36.005318,139.606838,夢庵,0
4537,"",夢庵 吉川店,埼玉県吉川市高富２丁目８－１,35.871926,139.845178,夢庵,0
4536,"",夢庵 秩父駅前店,埼玉県秩父市野坂町１丁目２０－１３,35.98928,139.085232,夢庵,0
4535,"",夢庵 厚木林店,神奈川県厚木市林４丁目１２－４１,35.457131,139.350803,夢庵,0
4534,"",夢庵 春日部栄町店,埼玉県春日部市栄町２丁目６２,35.984092,139.73327,夢庵,0
4533,"",夢庵 黒磯店,栃木県那須塩原市大黒町３－１１,36.968818,140.048321,夢庵,0
4532,"",夢庵 前橋広瀬店,群馬県前橋市天川大島町１２－１,36.364887,139.110477,夢庵,0
4531,"",夢庵 大網白里店,千葉県大網白里市みやこ野２丁目４－１,35.519209,140.320559,夢庵,0
4530,"",夢庵 八潮店,埼玉県八潮市緑町５丁目１４－１９,35.826467,139.823875,夢庵,0
4529,"",夢庵 栃木小金井店,栃木県下野市駅東１丁目１２－７,36.372971,139.844718,夢庵,0
4528,"",藍屋 久が原店,東京都大田区久が原５丁目１４ー１４,35.578668,139.700173,藍屋,0
4527,"",夢庵 水戸元吉田店,茨城県水戸市元吉田町１２３４－４,36.348691,140.471791,夢庵,0
4526,"",夢庵 高根台プラザ店,千葉県船橋市高根台１丁目２－２　高根台プラザ２階,35.730499,140.030967,夢庵,0
4525,"",夢庵 大宮新堤店,埼玉県さいたま市見沼区大字新堤２７９,35.92664,139.676734,夢庵,0
4524,"",夢庵 柏増尾台店,千葉県柏市増尾台４丁目１２－１５,35.821011,139.972254,夢庵,0
4523,"",夢庵 水元公園店,東京都葛飾区東水元４丁目１,35.786214,139.865287,夢庵,0
4522,"",夢庵 新座片山店,埼玉県新座市片山３丁目１３－４,35.765153,139.566641,夢庵,0
4521,"",夢庵 厚木下荻野店,神奈川県厚木市下荻野字四ツ谷９７４－２,35.489093,139.340039,夢庵,0
4520,"",夢庵 岡谷店,長野県岡谷市塚間町２丁目１－１０,36.064435,138.051874,夢庵,0
4519,"",夢庵 千葉おゆみ野店,千葉県千葉市緑区おゆみ野中央３－２２－７,35.552027,140.169461,夢庵,0
4518,"",夢庵 江戸川台店,千葉県流山市富士見台２丁目１－２,35.892216,139.900929,夢庵,0
4517,"",夢庵 入間藤沢店,埼玉県入間市大字下藤沢１２９９－３,35.823474,139.396939,夢庵,0
4516,"",夢庵 富士宮阿幸地店,静岡県富士宮市東阿幸地６７６,35.227604,138.624998,夢庵,0
4515,"",夢庵 秋川店,東京都あきる野市秋川６丁目３－３,35.728758,139.292503,夢庵,0
4514,"",藍屋 鶴見二国店,神奈川県横浜市鶴見区東寺尾中台１１－１,35.509165,139.662511,藍屋,0
4513,"",夢庵 総和町店,茨城県古河市関戸１６０５－６,36.193578,139.750086,夢庵,0
4512,"",藍屋 横浜戸部店,神奈川県横浜市西区戸部本町４９,35.456911,139.618983,藍屋,0
4511,"",夢庵 富士錦町店,静岡県富士市錦町１丁目１４－２３,35.157418,138.677802,夢庵,0
4510,"",藍屋 浜田山店,東京都杉並区浜田山３丁目２８－１４,35.684187,139.62762,藍屋,0
4509,"",藍屋 大月店,山梨県大月市大月町花咲１９８－２,35.605356,138.927658,藍屋,0
4508,"",夢庵 秦野インター店,神奈川県秦野市西大竹２５－１,35.360944,139.233563,夢庵,0
4507,"",夢庵 川口赤井店,埼玉県川口市赤井１丁目２５－６,35.826504,139.749374,夢庵,0
4506,"",藍屋 湘南ライフタウン店,神奈川県藤沢市遠藤６９８－７,35.371546,139.441102,藍屋,0
4505,"",夢庵 川崎水沢店,神奈川県川崎市宮前区水沢２丁目１６－１,35.593381,139.5399,夢庵,0
4504,"",夢庵 甲府住吉店,山梨県甲府市住吉５丁目１－２,35.636761,138.583332,夢庵,0
4503,"",藍屋 京葉谷河内店,東京都江戸川区谷河内１丁目７－１７,35.702009,139.894227,藍屋,0
4502,"",藍屋 御殿場インター店,静岡県御殿場市東田中２丁目１５－８,35.303221,138.942907,藍屋,0
4501,"",藍屋 世田谷八幡山店,東京都世田谷区八幡山３丁目３９－１０,35.669542,139.613588,藍屋,0
4500,"",夢庵 南加瀬店,神奈川県川崎市幸区南加瀬４丁目３０－１５,35.542048,139.661399,夢庵,0
4499,"",夢庵 足立栗原店,東京都足立区栗原４丁目１１－８,35.785243,139.786151,夢庵,0
4498,"",夢庵 西船橋店,千葉県船橋市山野町１１３－１,35.70422,139.962895,夢庵,0
4497,"",夢庵 越谷大里店,埼玉県越谷市大字大里５５４,35.921241,139.783316,夢庵,0
4496,"",夢庵 上永谷店,神奈川県横浜市港南区上永谷２丁目１０－２５,35.402385,139.57454,夢庵,0
4495,"",夢庵 宇都宮戸祭店,栃木県宇都宮市上戸祭町５３０－１,36.585274,139.866564,夢庵,0
4494,"",夢庵 鎌ヶ谷店,千葉県鎌ケ谷市丸山１丁目１８－１,35.762193,140.010474,夢庵,0
4493,"",夢庵 三ツ境店,神奈川県横浜市瀬谷区三ツ境１６４－２,35.458278,139.499244,夢庵,0
4492,"",夢庵 つきみ野店,神奈川県大和市つきみ野４丁目１３－１,35.510283,139.459925,夢庵,0
4491,"",夢庵 青梅店,東京都青梅市野上町４丁目１４－５,35.788061,139.290606,夢庵,0
4490,"",藍屋 佐倉店,千葉県佐倉市栄町２２－１１,35.724713,140.227144,藍屋,0
4489,"",藍屋 川崎生田店,神奈川県川崎市多摩区生田１丁目１６－１,35.625258,139.543695,藍屋,0
4488,"",藍屋 幕張店,千葉県千葉市美浜区幕張西２丁目１－６,35.666324,140.039069,藍屋,0
4487,"",夢庵 上尾西店,埼玉県上尾市西宮下２丁目３５８,35.963104,139.589903,夢庵,0
4486,"",夢庵 西国分寺店,東京都国分寺市西恋ケ窪１丁目４１－９,35.702733,139.466311,夢庵,0
4485,"",藍屋 王子店,東京都北区王子５丁目２－１４,35.765008,139.73548,藍屋,0
4484,"",藍屋 三鷹新川店,東京都三鷹市新川３丁目１－１７,35.681606,139.574298,藍屋,0
4483,"",藍屋 弥生台店,神奈川県横浜市泉区岡津町２０４２,35.428089,139.516428,藍屋,0
4482,"",藍屋 諏訪店,長野県諏訪市大字四賀赤沼１７３８－１,36.020416,138.123309,藍屋,0
4481,"",夢庵 町田南成瀬店,東京都町田市南成瀬６丁目１,35.535036,139.474365,夢庵,0
4480,"",夢庵 寒川店,神奈川県高座郡寒川町宮山３６８－１,35.376318,139.384569,夢庵,0
4479,"",夢庵 伊勢崎店,群馬県伊勢崎市東本町３８３－２,36.319484,139.208277,夢庵,0
4478,"",夢庵 川崎有馬店,神奈川県川崎市宮前区有馬６丁目３－１,35.571582,139.581719,夢庵,0
4477,"",夢庵 我孫子若松店,千葉県我孫子市寿２丁目２４－９,35.865391,140.023086,夢庵,0
4476,"",藍屋 綾瀬店,東京都足立区東綾瀬３丁目１－１,35.768988,139.829736,藍屋,0
4475,"",夢庵 釜利谷店,神奈川県横浜市金沢区釜利谷東２丁目６－３０,35.343971,139.614639,夢庵,0
4474,"",夢庵 津久井湖店,神奈川県相模原市緑区谷ヶ原１丁目１６－３０,35.591621,139.293656,夢庵,0
4473,"",藍屋 海老名上河内店,神奈川県海老名市上河内字永池２６０,35.421386,139.391146,藍屋,0
4472,"",夢庵 君津店,千葉県君津市南子安９丁目２－３３,35.328346,139.924449,夢庵,0
4471,"",夢庵 袖ヶ浦店,千葉県袖ケ浦市福王台２丁目３－２,35.427974,139.963335,夢庵,0
4470,"",夢庵 逗子店,神奈川県逗子市新宿２丁目１０－１８,35.293848,139.571427,夢庵,0
4469,"",夢庵 東金店,千葉県東金市押堀４９－１,35.550798,140.360861,夢庵,0
4468,"",夢庵 土浦真鍋店,茨城県土浦市真鍋１丁目１５－９,36.090656,140.203577,夢庵,0
4467,"",藍屋 大井店,東京都品川区大井７丁目２７－８,35.595101,139.729372,藍屋,0
4466,"",藍屋 横須賀佐原店,神奈川県横須賀市佐原３丁目３－８,35.241196,139.684347,藍屋,0
4465,"",夢庵 小平店,東京都小平市小川町２丁目１３５９,35.730344,139.478891,夢庵,0
4464,"",夢庵 加須店,埼玉県加須市浜町３－２６,36.126306,139.612316,夢庵,0
4463,"",藍屋 東大和店,東京都東大和市仲原３丁目１,35.746601,139.439177,藍屋,0
4462,"",藍屋 三郷店,埼玉県三郷市三郷３丁目１２－１,35.846167,139.879372,藍屋,0
4461,"",藍屋 松戸八柱店,千葉県松戸市牧の原１丁目１１１,35.791914,139.946215,藍屋,0
4460,"",藍屋 蕨中央店,埼玉県蕨市中央２丁目１５－２,35.823106,139.692423,藍屋,0
4459,"",藍屋 羽村店,東京都羽村市五ノ神４丁目１２－３,35.760191,139.317149,藍屋,0
4458,"",藍屋 春日部店,埼玉県春日部市中央１丁目５９－５,35.975275,139.754803,藍屋,0
4457,"",夢庵 日立鮎川店,茨城県日立市鮎川町６丁目７－２５,36.572176,140.634826,夢庵,0
4456,"",藍屋 国立富士見台店,東京都国立市富士見台２丁目３５－６,35.686296,139.444726,藍屋,0
4455,"",藍屋 武蔵野西久保店,東京都武蔵野市西久保１丁目１９－９,35.70749,139.558731,藍屋,0
4454,"",藍屋 平塚大野店,神奈川県平塚市東真土２丁目５番４９号,35.354431,139.356478,藍屋,0
4453,"",藍屋 大宮公園店,埼玉県さいたま市大宮区寿能町１丁目８１－２,35.922047,139.63475,藍屋,0
4452,"",夢庵 八王子西店,東京都八王子市平岡町１０－１４,35.663431,139.324343,夢庵,0
4450,"",藍屋 新横浜店,神奈川県横浜市港北区岸根町５８６－１,35.499887,139.611415,藍屋,0
4449,"",夢庵 本庄店,埼玉県本庄市若泉１丁目７－１５,36.247243,139.188523,夢庵,0
4448,"",藍屋 新所沢店,埼玉県所沢市泉町８９３－１,35.798417,139.459811,藍屋,0
4447,"",藍屋 東松山店,埼玉県東松山市大字石橋１５３４－１,36.036862,139.382236,藍屋,0
4446,"",藍屋 富士吉田店,山梨県富士吉田市新西原２丁目３３－１１,35.480135,138.784603,藍屋,0
4445,"",藍屋 練馬光が丘店,東京都練馬区高松５丁目１２－１０,35.758148,139.620962,藍屋,0
4444,"",藍屋 与野バイパス店,埼玉県さいたま市中央区桜丘２丁目８－２３,35.882359,139.615879,藍屋,0
4443,"",ジョナサン アトレ川崎店,神奈川県川崎市川崎区駅前本町２６－１　アトレ川崎８階,35.531183,139.69802,ジョナサン,0
4442,"",ジョナサン 新小岩駅前店,東京都葛飾区東新小岩１丁目１－３,35.71809,139.858448,ジョナサン,0
4441,"",ジョナサン 武蔵中原店,神奈川県川崎市中原区上小田中６丁目２１－１４,35.580481,139.642422,ジョナサン,0
4440,"",ジョナサン 王子店,東京都北区王子５丁目２－１４,35.764853,139.735483,ジョナサン,0
4439,"",ジョナサン 小田原店,神奈川県小田原市栄町２丁目８－２０　宮澤商事ビル２Ｆ,35.25479,139.15852,ジョナサン,0
4438,"",ジョナサン 堀切店,東京都葛飾区堀切３丁目３２－６,35.7436344,139.833094,ジョナサン,0
4437,"",ジョナサン 秋葉原駅前店,東京都千代田区外神田１丁目１７－４,35.697791,139.772645,ジョナサン,0
4436,"",ジョナサン 浦安店,千葉県浦安市東野１丁目３－１２　ナツミ・ガーデン１階,35.6523164,139.8996365,ジョナサン,0
4435,"",ジョナサン 松戸八ヶ崎店,千葉県松戸市八ケ崎１丁目３１－９,35.8180195,139.9352001,ジョナサン,0
4434,"",ジョナサン 菊名駅前店,神奈川県横浜市港北区篠原北２丁目１－１８,35.509798,139.63014,ジョナサン,0
4433,"",ジョナサン 春日部中央店,埼玉県春日部市中央４丁目４－５,35.9737083,139.7493559,ジョナサン,0
4432,"",ジョナサン 清瀬駅前店,東京都清瀬市元町１丁目３－１０　村野ビル　オークスティ清瀬２Ｆ,35.772667,139.520866,ジョナサン,0
4431,"",ジョナサン 横浜ワールドポーターズ店,神奈川県横浜市中区新港２丁目２－１　横浜ワールドポーターズ２Ｆ,35.453402,139.639393,ジョナサン,0
4430,"",ジョナサン 上福岡店,埼玉県ふじみ野市上野台１丁目２－３,35.876969,139.517333,ジョナサン,0
4429,"",ジョナサン 八潮西袋店,埼玉県八潮市大字西袋１３３０－１,35.817862,139.825781,ジョナサン,0
4428,"",ジョナサン 水元店,東京都葛飾区東水元２丁目９－５,35.778258,139.869604,ジョナサン,0
4427,"",ジョナサン 本駒込店,東京都文京区本駒込５丁目１９－４,35.732912,139.750757,ジョナサン,0
4426,"",ジョナサン 三軒茶屋店,東京都世田谷区太子堂２丁目１５－４　Ｂ１Ｆ,35.643869,139.671137,ジョナサン,0
4425,"",ジョナサン 新宿西口大ガード店,東京都新宿区西新宿７丁目１－１　新宿カレイドビル３Ｆ,35.693998,139.699332,ジョナサン,0
4424,"",ジョナサン イオンモール多摩平の森店,東京都日野市多摩平２丁目４ー１　イオンモール多摩平の森,35.662407,139.380262,ジョナサン,0
4423,"",ジョナサン 台場デックス東京ビーチ店,東京都港区台場１丁目６－１　デックス東京ビーチ　シーサイドモール　１－０８ａ,35.629363,139.776886,ジョナサン,0
4422,"",ジョナサン 瀬谷駅前店,神奈川県横浜市瀬谷区中央７－３０,35.472231,139.4829,ジョナサン,0
4421,"",ジョナサン 川崎宿河原店,神奈川県川崎市多摩区宿河原３丁目１９－５０,35.61215,139.578638,ジョナサン,0
4420,"",ジョナサン 稲田堤店,神奈川県川崎市多摩区菅３丁目１１－３５,35.636321,139.525884,ジョナサン,0
4419,"",ジョナサン 海老名中央店,神奈川県海老名市中央２丁目５－３,35.451217,139.393856,ジョナサン,0
4418,"",ジョナサン 向ヶ丘遊園店,神奈川県川崎市多摩区登戸２７４７,35.616451,139.563437,ジョナサン,0
4417,"",ジョナサン 月島店,東京都中央区月島２丁目１４－１２　月島セントラルビル２Ｆ,35.662641,139.782856,ジョナサン,0
4416,"",ジョナサン 三鷹井口店,東京都三鷹市井口２丁目３－３,35.687407,139.54996,ジョナサン,0
4415,"",ジョナサン 藤が丘店,神奈川県横浜市青葉区もえぎ野１－１７,35.545873,139.526441,ジョナサン,0
4413,"",ジョナサン 鮫洲店,東京都品川区東大井１丁目２－２０,35.60566,139.742719,ジョナサン,0
4412,"",ジョナサン 横浜中山店,神奈川県横浜市緑区中山１丁目１５－２３,35.517062,139.54313,ジョナサン,0
4411,"",ジョナサン 新小岩店,東京都江戸川区松島３丁目４７－９,35.710076,139.86581,ジョナサン,0
4410,"",ジョナサン 熱海サンビーチ店,静岡県熱海市渚町２－５,35.096593,139.075603,ジョナサン,0
4409,"",ジョナサン みずほ台駅前店,埼玉県富士見市西みずほ台２丁目２－１,35.83641,139.549721,ジョナサン,0
4408,"",ジョナサン 茅ヶ崎高田店,神奈川県茅ヶ崎市高田４丁目２－１０,35.342391,139.411834,ジョナサン,0
4407,"",ジョナサン 函南店,静岡県田方郡函南町間宮３４８－９,35.084476,138.937759,ジョナサン,0
4406,"",ジョナサン 横須賀店,神奈川県横須賀市長坂３丁目９－１,35.224443,139.626833,ジョナサン,0
4405,"",ジョナサン 下田店,静岡県下田市柿崎５－１４,34.676943,138.955668,ジョナサン,0
4403,"",ジョナサン 菊川店,東京都墨田区菊川２丁目７－９,35.688775,139.805593,ジョナサン,0
4402,"",ジョナサン 白金台店,東京都港区白金台４丁目７－８　ＫＤＸレジデンス白金Ⅰ　２Ｆ,35.637767,139.725523,ジョナサン,0
4401,"",ジョナサン 横浜公園店,神奈川県横浜市中区不老町１丁目２　ホテルレンブラントスタイル横浜関内１階,35.442321,139.637277,ジョナサン,0
4400,"",ジョナサン 豊洲店,東京都江東区豊洲５丁目５－１　豊洲シェルタワー２０４,35.653818,139.796584,ジョナサン,0
4399,"",ジョナサン 池袋サンシャイン前店,東京都豊島区東池袋４丁目２５－９　タイムズステーション池袋２Ｆ,35.728928,139.717456,ジョナサン,0
4398,"",ジョナサン 芝公園店,東京都港区芝２丁目１－２７　穴水ビル２Ｆ,35.653298,139.751169,ジョナサン,0
4397,"",ジョナサン 鳩ヶ谷店,埼玉県川口市南鳩ヶ谷４丁目２６－４,35.814216,139.740024,ジョナサン,0
4396,"",ジョナサン 宮前平店,神奈川県川崎市宮前区宮前平２丁目８－６,35.589841,139.580616,ジョナサン,0
4395,"",ジョナサン 馬車道店,神奈川県横浜市中区本町５丁目４８　ニッセイ同和損害保険横浜ビル１Ｆ,35.449498,139.636799,ジョナサン,0
4394,"",ジョナサン 東大島駅前店,東京都江東区大島８丁目４１－１３,35.689498,139.844399,ジョナサン,0
4393,"",ジョナサン ビアレ横浜店,神奈川県横浜市金沢区並木２丁目１３－２　ビアレヨコハマ新館１Ｆ,35.362154,139.639164,ジョナサン,0
4392,"",ジョナサン 要町駅前店,東京都豊島区要町１丁目９－１　イヤサカビル２階,35.7337,139.69823,ジョナサン,0
4390,"",ジョナサン 五反田駅前店,東京都品川区東五反田１丁目１２－２　東急ステイ五反田　２階,35.626995,139.724675,ジョナサン,0
4389,"",ジョナサン 上星川店,神奈川県横浜市保土ケ谷区釜台町１－１,35.466824,139.581492,ジョナサン,0
4388,"",ジョナサン 北与野店,埼玉県さいたま市中央区上落合１丁目１１－３,35.891488,139.628892,ジョナサン,0
4387,"",ジョナサン 上大岡駅前店,神奈川県横浜市港南区上大岡西１丁目１５－１　カミオ２０３号,35.409007,139.595429,ジョナサン,0
4386,"",ジョナサン 東浦和店,埼玉県さいたま市緑区大字大間木１６３３－７,35.860705,139.708306,ジョナサン,0
4384,"",ジョナサン 都立大学駅前店,東京都目黒区柿の木坂１丁目３０－１６　松壽ハイツ１Ｆ,35.618679,139.6761,ジョナサン,0
4383,"",ジョナサン 新御徒町店,東京都台東区小島２丁目１８－１８　深山小島町ビル２Ｆ,35.706545,139.784618,ジョナサン,0
4382,"",ジョナサン 蒲田西口店,東京都大田区西蒲田７丁目５－１０　蒲田駅西口会館２Ｆ,35.563559,139.715392,ジョナサン,0
4381,"",ジョナサン 水道橋店,東京都文京区本郷１丁目２２－６,35.705168,139.754932,ジョナサン,0
4380,"",ジョナサン 川崎塩浜店,神奈川県川崎市川崎区四谷下町１－１,35.527883,139.738349,ジョナサン,0
4379,"",ジョナサン 平和島店,東京都大田区平和島１丁目１－１　クアリゾート平和島内,35.584696,139.740799,ジョナサン,0
4378,"",ジョナサン 神楽坂駅前店,東京都新宿区矢来町１０９－２,35.703836,139.733741,ジョナサン,0
4377,"",ジョナサン 日本橋浜町店,東京都中央区日本橋久松町９－９　ＦＲＡＭＥ日本橋１Ｆ,35.688832,139.785394,ジョナサン,0
4376,"",ジョナサン 葛西駅前店,東京都江戸川区中葛西５丁目３４－１１　Ｋ－ｐｌａｚａ２Ｆ,35.662901,139.871988,ジョナサン,0
4375,"",ジョナサン 御徒町店,東京都台東区上野５丁目１０－２１,35.70503,139.774486,ジョナサン,0
4374,"",ジョナサン 山梨開国橋店,山梨県南アルプス市上今諏訪４３９－１,35.636769,138.499786,ジョナサン,0
4373,"",ジョナサン 横浜北幸店,神奈川県横浜市西区北幸２丁目９－４０　銀洋ビル１Ｆ,35.466904,139.615894,ジョナサン,0
4372,"",ジョナサン 蓮田店,埼玉県蓮田市山ノ内７－１,35.983415,139.643867,ジョナサン,0
4371,"",ジョナサン 新座駅前店,埼玉県新座市野火止５丁目２－４０　パークス新座１Ｆ,35.803629,139.557913,ジョナサン,0
4370,"",ジョナサン 立川北口店,東京都立川市曙町２丁目４２－１　パークアベニュー１Ｆ,35.700649,139.412347,ジョナサン,0
4369,"",ジョナサン 新子安店,神奈川県横浜市神奈川区新子安１丁目２－５,35.487341,139.65278,ジョナサン,0
4367,"",ジョナサン 神谷町店,東京都港区虎ノ門５丁目１－４,35.66381,139.745628,ジョナサン,0
4366,"",ジョナサン 国領駅前店,東京都調布市国領町３丁目１－３８　ココスクエア２Ｆ,35.649721,139.558658,ジョナサン,0
4365,"",ジョナサン 大関横丁店,東京都荒川区東日暮里１丁目８－１,35.73107,139.789554,ジョナサン,0
4364,"",ジョナサン 溝の口駅前店,神奈川県川崎市高津区溝口１丁目１－３,35.598827,139.611727,ジョナサン,0
4362,"",ジョナサン 武蔵小山店,東京都品川区荏原３丁目６－１３,35.616749,139.707888,ジョナサン,0
4361,"",ジョナサン 鹿嶋店,茨城県鹿嶋市大字鉢形１５１７－１,35.964337,140.651649,ジョナサン,0
4360,"",ジョナサン 東池袋店,東京都豊島区東池袋１丁目３０－６　セイコービル２階,35.731526,139.71623,ジョナサン,0
4359,"",ジョナサン 伊勢原店,神奈川県伊勢原市田中８６－１,35.404605,139.313825,ジョナサン,0
4358,"",ジョナサン 花小金井店,東京都小平市花小金井南町１丁目２６－１,35.725844,139.511143,ジョナサン,0
4357,"",ジョナサン 八街店,千葉県八街市八街ほ１４８－５,35.671047,140.317927,ジョナサン,0
4356,"",ジョナサン 秩父店,埼玉県秩父市宮側町１７－５,35.997294,139.082671,ジョナサン,0
4355,"",ジョナサン 上石神井店,東京都練馬区上石神井２丁目７－１１,35.729311,139.597656,ジョナサン,0
4354,"",ジョナサン 佐倉高岡店,千葉県佐倉市高岡４６３－２,35.713166,140.234651,ジョナサン,0
4353,"",ジョナサン 調布駅前店,東京都調布市布田４丁目１６－１　アルテサーノ調布２Ｆ,35.650696,139.544232,ジョナサン,0
4351,"",ジョナサン 相模原若松店,神奈川県相模原市南区若松２丁目２１－３９,35.541764,139.429013,ジョナサン,0
4350,"",ジョナサン 愛川町店,神奈川県愛甲郡愛川町角田５８２－１,35.531698,139.331601,ジョナサン,0
4348,"",ジョナサン 杉並梅里店,東京都杉並区阿佐谷南１丁目１－４４,35.697919,139.643698,ジョナサン,0
4347,"",ジョナサン 西新宿店,東京都新宿区西新宿８丁目１１－１　日東星野ビル１Ｆ,35.694861,139.692375,ジョナサン,0
4346,"",ジョナサン 亀戸店,東京都江東区亀戸５丁目６－１,35.698278,139.827394,ジョナサン,0
4345,"",ジョナサン 鎌倉手広店,神奈川県鎌倉市笛田１丁目５－１１,35.332077,139.509493,ジョナサン,0
4344,"",ジョナサン 淵野辺駅前店,神奈川県相模原市中央区鹿沼台２丁目１２－８,35.567864,139.393808,ジョナサン,0
4342,"",ジョナサン 綱島店,神奈川県横浜市港北区箕輪町２丁目５－２５　プレイヤー日吉２Ｆ,35.544639,139.643136,ジョナサン,0
4341,"",ジョナサン 奥戸店,東京都葛飾区奥戸２丁目９－２３,35.736319,139.855363,ジョナサン,0
4340,"",ジョナサン 藤沢石川店,神奈川県藤沢市石川４丁目１－１０,35.377473,139.451589,ジョナサン,0
4339,"",ジョナサン 習志野台店,千葉県船橋市習志野台１丁目２２－１０,35.726044,140.040521,ジョナサン,0
4338,"",ジョナサン 京急富岡店,神奈川県横浜市金沢区富岡東６丁目３－２,35.366458,139.631108,ジョナサン,0
4337,"",ジョナサン 瑞江店,東京都江戸川区南篠崎町３丁目２４－１４,35.694323,139.900797,ジョナサン,0
4336,"",ジョナサン 梅屋敷店,東京都大田区蒲田１丁目３－１２,35.568245,139.722973,ジョナサン,0
4335,"",ジョナサン 川崎生田店,神奈川県川崎市多摩区栗谷４丁目１－８,35.612774,139.539643,ジョナサン,0
4334,"",ジョナサン 新百合ヶ丘駅前店,神奈川県川崎市麻生区万福寺１丁目１７－１,35.604356,139.507624,ジョナサン,0
4332,"",ジョナサン 成増駅前店,東京都板橋区成増３丁目１３－１,35.778677,139.6325,ジョナサン,0
4331,"",ジョナサン 山下公園店,神奈川県横浜市中区山下町１番地　シルクセンタ－国際貿易観光会,35.447462,139.645442,ジョナサン,0
4330,"",ジョナサン 中野坂上店,東京都中野区本町１丁目３２－５,35.696482,139.683897,ジョナサン,0
4328,"",ジョナサン 護国寺店,東京都文京区音羽２丁目５－３,35.719391,139.727541,ジョナサン,0
4327,"",ジョナサン 北朝霞駅前店,埼玉県朝霞市西原１丁目５－３,35.816145,139.5874,ジョナサン,0
4326,"",ジョナサン あざみ野駅前店,神奈川県横浜市青葉区あざみ野１丁目１１－２　フレンドリーあざみ野２階,35.56846,139.551895,ジョナサン,0
4325,"",ジョナサン 方南町店,東京都杉並区和泉４丁目５１－１０,35.683105,139.656524,ジョナサン,0
4324,"",ジョナサン 東山田店,神奈川県横浜市都筑区東山田町９９,35.553649,139.608008,ジョナサン,0
4323,"",ジョナサン 湯河原店,神奈川県足柄下郡湯河原町土肥５丁目２０－１０,35.140783,139.098366,ジョナサン,0
4322,"",ジョナサン 水天宮駅前店,東京都中央区日本橋蛎殻町１丁目３９－５,35.683464,139.784162,ジョナサン,0
4321,"",ジョナサン 平塚田村店,神奈川県平塚市田村４丁目１６－１８,35.379823,139.361528,ジョナサン,0
4320,"",ジョナサン 赤羽西店,東京都北区赤羽西１丁目４１－１０,35.779449,139.719011,ジョナサン,0
4318,"",ジョナサン 君津駅前店,千葉県君津市東坂田４丁目１－４,35.336466,139.894884,ジョナサン,0
4316,"",ジョナサン 下井草店,東京都杉並区下井草５丁目１－７,35.719279,139.61591,ジョナサン,0
4315,"",ジョナサン 東茂原店,千葉県茂原市東茂原字長ケ台３－４,35.417283,140.313315,ジョナサン,0
4314,"",ジョナサン 伊東店,静岡県伊東市竹の内１丁目２－１,34.969924,139.096928,ジョナサン,0
4312,"",ジョナサン 武蔵新城店,神奈川県川崎市中原区上新城２丁目１１－１０,35.58741,139.629219,ジョナサン,0
4311,"",ジョナサン 相模原古淵店,神奈川県相模原市南区古淵２－１５－１７,35.555591,139.418512,ジョナサン,0
4310,"",ジョナサン 横浜岡津店,神奈川県横浜市泉区岡津町１３９－１,35.426344,139.527625,ジョナサン,0
4308,"",ジョナサン 行徳新浜店,千葉県市川市新浜１丁目２０－２０,35.67604,139.916568,ジョナサン,0
4307,"",ジョナサン ふじみ野店,埼玉県ふじみ野市大井１丁目１－２,35.853881,139.516178,ジョナサン,0
4306,"",ジョナサン 西馬込店,東京都大田区南馬込５丁目４３－３　ヴィラ森１Ｆ,35.585302,139.704999,ジョナサン,0
4305,"",ジョナサン 中野弥生町店,東京都中野区弥生町４丁目２６－９,35.688307,139.669113,ジョナサン,0
4304,"",ジョナサン 二俣川店,神奈川県横浜市旭区本村町２６－２,35.465243,139.534203,ジョナサン,0
4303,"",ジョナサン 秋川店,東京都あきる野市油平３５,35.726054,139.287598,ジョナサン,0
4302,"",ジョナサン 武蔵村山店,東京都武蔵村山市伊奈平５丁目６１－１,35.738279,139.376708,ジョナサン,0
4301,"",ジョナサン 岩槻店,埼玉県さいたま市岩槻区東町２丁目７－１６,35.943149,139.70383,ジョナサン,0
4300,"",ジョナサン 志茂駅前店,東京都北区志茂３丁目２１－５－２０１,35.77818,139.732624,ジョナサン,0
4299,"",ジョナサン 御殿場インター店,静岡県御殿場市東田中２丁目１５－１１,35.302936,138.943266,ジョナサン,0
4297,"",ジョナサン 千葉さつきが丘店,千葉県千葉市花見川区さつきが丘１丁目４５－１,35.667389,140.100484,ジョナサン,0
4296,"",ジョナサン 川越笠幡店,埼玉県川越市大字笠幡字山伝１５６－２１,35.908774,139.416463,ジョナサン,0
4295,"",ジョナサン 牛浜店,東京都福生市大字熊川９４９,35.733308,139.334226,ジョナサン,0
4293,"",ジョナサン 横浜反町店,神奈川県横浜市神奈川区反町２丁目１３－８　丸協ビル２Ｆ,35.475306,139.626904,ジョナサン,0
4291,"",ジョナサン 本八幡店,千葉県市川市東大和田２丁目４－１０,35.717564,139.922766,ジョナサン,0
4290,"",ジョナサン 氷川台店,東京都練馬区氷川台４丁目８－４,35.752536,139.667029,ジョナサン,0
4289,"",ジョナサン 横浜宮元町店,神奈川県横浜市南区宮元町１丁目－２２－１,35.432477,139.613015,ジョナサン,0
4288,"",ジョナサン 吉川店,埼玉県吉川市高富２丁目１－５,35.873677,139.844976,ジョナサン,0
4286,"",ジョナサン 上尾店,埼玉県上尾市柏座２丁目７－７,35.972035,139.584267,ジョナサン,0
4285,"",ジョナサン 入間店,埼玉県入間市豊岡４丁目４－５,35.834618,139.393346,ジョナサン,0
4284,"",ジョナサン 十日市場店,神奈川県横浜市緑区十日市場町８１２－１３,35.525161,139.513261,ジョナサン,0
4283,"",ジョナサン 葉山店,神奈川県三浦郡葉山町堀内１８４５－１,35.272844,139.579714,ジョナサン,0
4280,"",ジョナサン 谷津店,千葉県習志野市谷津２丁目２－２２,35.680633,140.015211,ジョナサン,0
4279,"",ジョナサン 西葛西店,東京都江戸川区西葛西７丁目３－６,35.662123,139.859128,ジョナサン,0
4278,"",ジョナサン 草加谷塚店,埼玉県草加市瀬崎４丁目２－１４,35.808892,139.802024,ジョナサン,0
4277,"",ジョナサン 板橋大山店,東京都板橋区大谷口上町３９－１,35.748078,139.693683,ジョナサン,0
4276,"",ジョナサン 浦和田島店,埼玉県さいたま市桜区田島１丁目１３－３,35.840864,139.633869,ジョナサン,0
4274,"",ジョナサン 業平店,東京都墨田区業平１丁目１５－７,35.708142,139.808447,ジョナサン,0
4272,"",ジョナサン 東寺尾店,神奈川県横浜市鶴見区東寺尾１丁目４－８,35.504709,139.647303,ジョナサン,0
4271,"",ジョナサン 横浜芹が谷店,神奈川県横浜市港南区芹が谷３丁目１－２２,35.414621,139.576425,ジョナサン,0
4270,"",ジョナサン 富士見台店,東京都中野区上鷺宮４丁目６－１６,35.73367,139.629222,ジョナサン,0
4269,"",ジョナサン 青梅店,東京都青梅市師岡町４丁目９－４,35.788548,139.284642,ジョナサン,0
4268,"",ジョナサン 柴又店,東京都葛飾区柴又４丁目３１－８,35.752646,139.8779,ジョナサン,0
4267,"",ジョナサン 狛江店,東京都狛江市東和泉１丁目２－１６,35.633059,139.580035,ジョナサン,0
4266,"",ジョナサン 豊玉店,東京都練馬区豊玉南２丁目１８－１９,35.728381,139.65486,ジョナサン,0
4263,"",ジョナサン 矢川駅前店,東京都国立市富士見台３丁目３６－２,35.685436,139.432699,ジョナサン,0
4262,"",ジョナサン 川口駅前店,埼玉県川口市本町４丁目５－３２,35.801338,139.720709,ジョナサン,0
4260,"",ジョナサン 練馬高松店,東京都練馬区高松６丁目３１－２３,35.759531,139.620133,ジョナサン,0
4259,"",chawan イオンモール新潟亀田インター店,新潟県新潟市江南区下早通柳田１丁目１番地１号,37.876408,139.081919,chawan,0
4258,"",chawan イオンモール大高店,愛知県名古屋市緑区南大高２丁目４５０　イオンモール大高１Ｆ,35.05262,136.947626,chawan,0
4257,"",chawan ららぽーと横浜店,神奈川県横浜市都筑区池辺町４０３５－１　ららぽーと横浜３Ｆ,35.516969,139.566563,chawan,0
4256,"",chawan アトレ大井町店,東京都品川区大井１丁目２－１　アトレ大井町６Ｆ,35.60626,139.734834,chawan,0
4255,"",chawan 仙台パルコ店,宮城県仙台市青葉区中央１丁目２－３　仙台パルコ　本館９Ｆ,38.261951,140.881566,chawan,0
4254,"",chawan シャポー船橋店,千葉県船橋市本町７丁目１－１　シャポー船橋南館２階,35.701366,139.985341,chawan,0
4253,"",chawan 舞浜駅前店,千葉県浦安市舞浜２６－５,35.636422,139.882958,chawan,0
4252,"",chawan ミーツ国分寺店,東京都国分寺市本町３丁目１－１　ミーツ国分寺４階,35.700946,139.480734,chawan,0
4251,"",chawan 高崎オーパ店,群馬県高崎市八島町４６－１　高崎オーパ８Ｆ,36.323227,139.011061,chawan,0
4250,"",chawan ビーンズ阿佐ヶ谷店,東京都杉並区阿佐谷南２丁目４２,35.705,139.636922,chawan,0
4249,"",chawan イオンモール松本店,長野県松本市中央４丁目９－５１　イオンモール松本　１Ｆ,36.233292,137.978294,chawan,0
4248,"",chawan 新百合ヶ丘エルミロード店,神奈川県川崎市麻生区上麻生１丁目４－１　新百合ヶ丘エルミロード５Ｆ,35.602794,139.50911,chawan,0
4246,"",chawan イオンモール新小松店,石川県小松市清六町３１５　イオンモール新小松１階,36.3952,136.465419,chawan,0
4245,"",chawan エキュート立川店,東京都立川市柴崎町３丁目１－１　エキュート立川３Ｆ,35.697507,139.413488,chawan,0
4244,"",chawan アリオ橋本店,神奈川県相模原市緑区大山町１－２２　アリオ橋本　２階,35.59074,139.349127,chawan,0
4243,"",chawan ラスカ平塚店,神奈川県平塚市宝町１－１　ラスカ平塚　５階,35.328119,139.350466,chawan,0
4242,"",chawan イオンモール浦和美園店,埼玉県さいたま市緑区美園５丁目５０番地１　イオンモール浦和美園１Ｆ,35.890873,139.731376,chawan,0
4241,"",chawan ウィングキッチン京急川崎店,神奈川県川崎市川崎区砂子１丁目３－１　ウィングキッチン京急川崎３階,35.532246,139.700601,chawan,0
4240,"",chawan イオンモールむさし村山店,東京都武蔵村山市榎１丁目１－３　イオンモールむさし村山１階,35.74628,139.3848,chawan,0
4239,"",chawan ラスカ茅ヶ崎店,神奈川県茅ヶ崎市元町１－１　ラスカ茅ヶ崎６階,35.33063,139.406411,chawan,0
4238,"",ガスト 新宿三丁目店（から好し取扱店）,東京都新宿区新宿３丁目１７－４　レミナビル４Ｆ,35.691874,139.703383,ガスト,0
4237,"",ガスト 松戸駅東口店（から好し取扱店）,千葉県松戸市松戸１２３０－１　ピアザ松戸７Ｆ,35.783533,139.900792,ガスト,0
4236,"",chawan ららぽーとＴＯＫＹＯ－ＢＡＹ店,千葉県船橋市浜町２丁目１－１　ららぽーとＴＯＫＹＯーＢＡＹ南３階,35.685531,139.991232,chawan,0
4235,"",ガスト 池袋駅東口店（から好し取扱店）,東京都豊島区東池袋１丁目１－２　高村ビル７Ｆ,35.729816,139.713491,ガスト,0
4234,"",ガスト 阪急茨木市駅店（から好し取扱店）,大阪府茨木市別院町３－３４　サンワビル２Ｆ,34.817644,135.574682,ガスト,0
4233,"",ガスト 草加駅西口店（から好し取扱店）,埼玉県草加市氷川町２１２１番地３号　フレアーコート２Ｆ,35.827946,139.802836,ガスト,0
4232,"",ガスト 川崎駅前本町店（から好し取扱店）,神奈川県川崎市川崎区駅前本町２－１７　川崎ＭＣビル３Ｆ,35.529389,139.698859,ガスト,0
4231,"",ガスト 上野広小路店（から好し取扱店）,東京都台東区上野４丁目４－４　広小路２０００ビルＢ１,35.708216,139.77353,ガスト,0
4230,"",ガスト 新潟紫竹山店（から好し取扱店）,新潟県新潟市中央区紫竹山２丁目５番１０号,37.901248,139.06729,ガスト,0
4229,"",ガスト 武蔵小杉駅前店（から好し取扱店）,神奈川県川崎市中原区小杉町１丁目４０３番地　小杉ビルディング２Ｆ,35.576868,139.658924,ガスト,0
4228,"",ガスト 放出駅前店（から好し取扱店）,大阪府大阪市鶴見区放出東３丁目３１－３５　鶴見グリーンビル２Ｆ,34.688354,135.563998,ガスト,0
4227,"",ガスト 姫路駅前店,兵庫県姫路市駅前町３６３－１　フェスタビル南館３Ｆ,34.828065,134.691057,ガスト,0
4226,"",ガスト 宇都宮駒生店（から好し取扱店）,栃木県宇都宮市駒生町２－１５－３,36.57607,139.851748,ガスト,0
4225,"",ガスト 長岡川崎店（から好し取扱店）,新潟県長岡市川崎町１２７５,37.458173,138.8741,ガスト,0
4224,"",ガスト イオンタウン黒崎店（から好し取扱店）,福岡県北九州市八幡西区西曲里町３－３,33.858959,130.761346,ガスト,0
4223,"",ガスト 大宮ラクーン店（から好し取扱店）,埼玉県さいたま市大宮区宮町１丁目６０,35.907646,139.625689,ガスト,0
4222,"",ガスト 関大前店（から好し取扱店）,大阪府吹田市千里山東１丁目７－１８,34.77286,135.506234,ガスト,0
4221,"",ガスト 大山駅前店（から好し取扱店）,東京都板橋区大山町５－８　トリアノン大山ビル２Ｆ,35.74877,139.701876,ガスト,0
4220,"",ガスト みなとみらい店（から好し取扱店）,神奈川県横浜市西区みなとみらい４－４－５,35.460016,139.628775,ガスト,0
4219,"",ガスト 神戸元町店（から好し取扱店）,兵庫県神戸市中央区元町通１丁目１１－１７　大本元町ビル　２階,34.689614,135.188946,ガスト,0
4218,"",ガスト 渋谷駅前店（から好し取扱店）,東京都渋谷区道玄坂２丁目３－１　渋谷駅前ビル　７Ｆ,35.659279,139.699872,ガスト,0
4217,"",ガスト うるま店（から好し取扱店）,沖縄県うるま市字田場２１１６,26.373857,127.856534,ガスト,0
4216,"",ガスト 広島府中店（から好し取扱店）,広島県安芸郡府中町大須４－５－２２,34.397768,132.499021,ガスト,0
4215,"",ガスト 三河安城南町店（から好し取扱店）,愛知県安城市三河安城南町１丁目１６－５,34.965706,137.058008,ガスト,0
4214,"",ガスト 飯能店（から好し取扱店）,埼玉県飯能市仲町５－１７,35.853619,139.319134,ガスト,0
4213,"",ガスト 銀座インズ店,東京都中央区銀座西３丁目１番地　銀座インズ１　二階,35.674143,139.764601,ガスト,0
4212,"",ガスト さいたま山崎店（から好し取扱店）,埼玉県さいたま市緑区山崎１丁目１９番１７号,35.889763,139.66349,ガスト,0
4211,"",ガスト 三重大学前店（から好し取扱店）,三重県津市栗真町屋町字松ヶ枝３９８－４,34.750216,136.521126,ガスト,0
4210,"",ガスト 目白駅前店（から好し取扱店）,東京都豊島区目白３丁目５－１４　リッチモンドホテル東京目白２Ｆ,35.721971,139.705051,ガスト,0
4208,"",ガスト 蕨駅前店（から好し取扱店）,埼玉県蕨市塚越１丁目２－１４　花見屋第３ビル２Ｆ,35.828628,139.691257,ガスト,0
4207,"",ガスト 横浜西口店（から好し取扱店）,神奈川県横浜市西区南幸２丁目１６－８　二幸ビル２階,35.464065,139.616995,ガスト,0
4206,"",ガスト 六本木店（から好し取扱店）,東京都港区六本木５丁目２－１　ほうらいやビル　地下１階,35.662386,139.733537,ガスト,0
4205,"",ガスト 天神橋筋六丁目店（から好し取扱店）,大阪府大阪市北区天神橋６丁目４－１３　フェリス天六ビル２階,34.710139,135.511449,ガスト,0
4204,"",ガスト 麻布十番店（から好し取扱店）,東京都港区麻布十番２丁目２－１０　麻布十番スクエアＢ１Ｆ,35.655463,139.735639,ガスト,0
4203,"",ガスト 蒲生四丁目店（から好し取扱店）,大阪府大阪市城東区今福西１丁目７ー４　キリンドプラザ２階,34.699859,135.546538,ガスト,0
4202,"",ガスト 立川曙橋店（から好し取扱店）,東京都立川市曙町２丁目１０－１　ふどうやビルＢ１階,35.700496,139.415286,ガスト,0
4201,"",ガスト 秋葉原昭和通店（から好し取扱店）,東京都千代田区神田佐久間町１丁目１５番　川初ビル２Ｆ,35.697723,139.774512,ガスト,0
4200,"",ガスト 大宮西口店（から好し取扱店）,埼玉県さいたま市大宮区桜木町１丁目１－８　ＯＺ　ＳＡＫＵＲＡビル２Ｆ,35.905422,139.621802,ガスト,0
4199,"",ガスト むつ中央店（から好し取扱店）,青森県むつ市中央２丁目５－７,41.288263,141.185394,ガスト,0
4198,"",ガスト 京成八幡店（から好し取扱店）,千葉県市川市八幡３丁目３－１,35.723525,139.927742,ガスト,0
4197,"",ガスト 大阪ＡＴＣ店（から好し取扱店）,大阪府大阪市住之江区南港北２丁目１番１０号　ＩＴＭ棟２階,34.637401,135.411445,ガスト,0
4196,"",ガスト 成田店（から好し取扱店）,千葉県成田市不動ケ岡２１５４－１,35.773656,140.31549,ガスト,0
4195,"",ガスト ビオルネ枚方店（から好し取扱店）,大阪府枚方市岡本町７番１号　枚方ビオルネ北館２階,34.815656,135.647027,ガスト,0
4194,"",ガスト 平塚駅前店（から好し取扱店）,神奈川県平塚市紅谷町６－２６　平塚駅前北口ビル,35.328179,139.349671,ガスト,0
4193,"",ガスト 京都四条大宮店（から好し取扱店）,京都府京都市下京区四条大宮町２,35.003387,135.748226,ガスト,0
4192,"",ガスト イオン半田店（から好し取扱店）,愛知県半田市有楽町８丁目７,34.869696,136.918395,ガスト,0
4191,"",ガスト 取手駅前店（から好し取扱店）,茨城県取手市新町２丁目３－１２,35.899139,140.062193,ガスト,0
4190,"",ガスト 東神奈川店（から好し取扱店）,神奈川県横浜市神奈川区西神奈川１丁目１１－５　ＡＲＴＶＩＳＴＡ横浜ビル１Ｆ,35.480196,139.631539,ガスト,0
4189,"",ガスト 京都河原町店（から好し取扱店）,京都府京都市中京区河原町通三条下ル２丁目山崎町　２３５　ＦＯＲＥＣＡＳＴ京都河原町２階,35.007501,135.768828,ガスト,0
4188,"",ガスト 北心斎橋店（から好し取扱店）,大阪府大阪市中央区南船場３丁目１０－５　ＮＯＲＤ＋Ｓ　南船場２Ｆ,34.677,135.501206,ガスト,0
4187,"",ガスト 四谷三丁目店（から好し取扱店）,東京都新宿区左門町２－６　ワコービル２Ｆ,35.687165,139.720527,ガスト,0
4186,"",ガスト 新宿靖国通店（から好し取扱店）,東京都新宿区歌舞伎町１丁目１－１７,35.693195,139.704172,ガスト,0
4185,"",ガスト 藤沢湘南台店（から好し取扱店）,神奈川県藤沢市湘南台５丁目３６－２,35.404009,139.469542,ガスト,0
4184,"",ガスト 越谷駅東口店（から好し取扱店）,埼玉県越谷市弥生町１７番地１号　越谷ツインシティＡシティ２階,35.889276,139.786605,ガスト,0
4183,"",ガスト 名古屋栄店（から好し取扱店）,愛知県名古屋市中区栄３丁目７－９　新鏡栄ビルＢ１Ｆ,35.167616,136.906665,ガスト,0
4182,"",ガスト 王子駅前店（から好し取扱店）,東京都北区王子１丁目１３－１６　エイムビル２Ｆ,35.755263,139.736993,ガスト,0
4181,"",ガスト 高田馬場駅前店（から好し取扱店）,東京都新宿区高田馬場１丁目２６－７　名店ビル２Ｆ,35.712978,139.705138,ガスト,0
4180,"",ガスト 京急杉田駅前店（から好し取扱店）,神奈川県横浜市磯子区杉田１丁目１４－１３,35.383784,139.61682,ガスト,0
4179,"",ガスト 藤沢駅北口店（から好し取扱店）,神奈川県藤沢市藤沢４３８－６　Ｆ・Ｉ・Ｃ藤沢ビルＢ１Ｆ,35.338977,139.485517,ガスト,0
4178,"",ガスト なんば店（から好し取扱店）,大阪府大阪市中央区難波３丁目５－１　ナンバ一番ビル２階,34.666696,135.501178,ガスト,0
4177,"",ガスト 池袋サンシャイン通店（から好し取扱店）,東京都豊島区東池袋１丁目２０－６　プラザイン池袋ビル１Ｆ,35.730941,139.715543,ガスト,0
4176,"",ガスト 北千住駅東口店（から好し取扱店）,東京都足立区千住旭町４－１３　コートダジュール２Ｆ,35.749256,139.806959,ガスト,0
4175,"",ガスト 春日部小渕店（から好し取扱店）,埼玉県春日部市小渕８５－２,35.989414,139.754358,ガスト,0
4174,"",ガスト 向ヶ丘遊園駅前店（から好し取扱店）,神奈川県川崎市多摩区登戸２７３７－１　Ｙビル２Ｆ,35.616188,139.564187,ガスト,0
4173,"",ガスト 浅草雷門店（から好し取扱店）,東京都台東区浅草１丁目５－３　浅草セントラルホテル２Ｆ,35.71133,139.79418,ガスト,0
4172,"",ガスト 鶴川駅前店（から好し取扱店）,東京都町田市能ヶ谷１丁目７－６　鈴木ビル１Ｆ,35.583995,139.482281,ガスト,0
4171,"",ガスト 京王リトナードつつじヶ丘店（から好し取扱店）,東京都調布市西つつじケ丘３丁目３５－１　京王リトナード３階,35.658069,139.575323,ガスト,0
4170,"",ガスト 巣鴨駅前店（から好し取扱店）,東京都豊島区巣鴨２丁目１－６　森川第２ビル２Ｆ,35.733924,139.738742,ガスト,0
4169,"",ガスト 日本橋店（から好し取扱店）,東京都中央区日本橋２丁目３－４　日本橋プラザビル１Ｆ,35.681363,139.77209,ガスト,0
4168,"",ガスト 浦和駅西口店（から好し取扱店）,埼玉県さいたま市浦和区高砂１丁目１３－１２　ミリスクエアー２Ｆ,35.859053,139.655553,ガスト,0
4167,"",ガスト 三軒茶屋店（から好し取扱店）,東京都世田谷区三軒茶屋２丁目１３－２１　グランドメゾン三軒茶屋Ｂ１０１号室,35.642798,139.670115,ガスト,0
4166,"",ガスト 茗荷谷駅前店（から好し取扱店）,東京都文京区大塚１丁目４－１０　銀嶺ビル２Ｆ,35.717538,139.736442,ガスト,0
4165,"",ガスト 中野駅南口店（から好し取扱店）,東京都中野区中野３丁目３６番１５号　ニュークリアービル２階,35.705297,139.66524,ガスト,0
4164,"",ガスト 京急川崎駅前店（から好し取扱店）,神奈川県川崎市川崎区駅前本町１０－５－１８　クリエ川崎２Ｆ,35.531846,139.699513,ガスト,0
4163,"",ガスト 中山駅北口店（から好し取扱店）,神奈川県横浜市緑区中山１丁目２６ー３　中山北口ビル２Ｆ,35.515108,139.539823,ガスト,0
4162,"",ガスト 秩父駅前店（から好し取扱店）,埼玉県秩父市野坂町１丁目５４４－１,35.988832,139.084812,ガスト,0
4161,"",ガスト 甲府酒折店（から好し取扱店）,山梨県甲府市酒折１丁目４－１４,35.6585945,138.5974376,ガスト,0
4160,"",ガスト 九段下店（から好し取扱店）,東京都千代田区九段北１丁目９－５　朝日九段マンションＢ,35.697667,139.750796,ガスト,0
4159,"",ガスト 久我山駅前店（から好し取扱店）,東京都杉並区久我山４丁目１－１１,35.688071,139.59984,ガスト,0
4158,"",ガスト 八王子松木店（から好し取扱店）,東京都八王子市松木３２－１０,35.625515,139.39424,ガスト,0
4157,"",ガスト 小竹向原駅前店（から好し取扱店）,東京都板橋区向原２丁目３６－２,35.742437,139.681004,ガスト,0
4155,"",ガスト 東品川店（から好し取扱店）,東京都品川区東品川３丁目９－１０,35.616814,139.750341,ガスト,0
4154,"",ガスト 六角橋店（から好し取扱店）,神奈川県横浜市神奈川区六角橋６丁目１７－２４,35.492743,139.620153,ガスト,0
4153,"",ガスト 世田谷八幡山店（から好し取扱店）,東京都世田谷区八幡山３丁目３９－１２,35.66968,139.613632,ガスト,0
4152,"",ガスト 東伏見店（から好し取扱店）,東京都西東京市富士町４丁目５－２,35.731596,139.566504,ガスト,0
4151,"",ガスト 八王子駅北口店（から好し取扱店）,東京都八王子市旭町２－５　八王子ツインタワービルＡ館７Ｆ,35.6564119,139.3384299,ガスト,0
4150,"",ガスト 新座片山店（から好し取扱店）,埼玉県新座市片山１丁目２０－３２,35.769775,139.56324,ガスト,0
4149,"",ガスト 田無店（から好し取扱店）,東京都西東京市芝久保町５丁目８－２,35.735078,139.52528,ガスト,0
4148,"",ガスト 小菅店（から好し取扱店）,東京都葛飾区堀切７丁目１－２,35.754141,139.827656,ガスト,0
4147,"",ガスト 八王子大横町店（から好し取扱店）,東京都八王子市大横町１１－６,35.663781,139.329149,ガスト,0
4146,"",ガスト 大久保店（から好し取扱店）,東京都新宿区百人町１丁目１７－８　Ｂ１,35.701196,139.697687,ガスト,0
4145,"",ガスト 秋川小川店（から好し取扱店）,東京都あきる野市小川６１２,35.721507,139.314088,ガスト,0
4144,"",ガスト 国立駅前店（から好し取扱店）,東京都国立市中１丁目１７－１,35.696182,139.446395,ガスト,0
4143,"",ガスト 横浜本牧店（から好し取扱店）,神奈川県横浜市中区本牧宮原６－４,35.428901,139.663856,ガスト,0
4142,"",ガスト 目黒不動前店（から好し取扱店）,東京都品川区西五反田５丁目９－２,35.625556,139.714501,ガスト,0
4141,"",ガスト 戸塚駅東口店（から好し取扱店）,神奈川県横浜市戸塚区上倉田町４８１－１,35.399501,139.536148,ガスト,0
4140,"",ガスト 船堀店（から好し取扱店）,東京都江戸川区船堀４丁目３－４,35.685933,139.86524,ガスト,0
4138,"",ガスト 渋谷桜丘店（から好し取扱店）,東京都渋谷区桜丘町２３－２３　第２カスヤビル１Ｆ,35.655809,139.700457,ガスト,0
4137,"",ガスト 甲府上石田店（から好し取扱店）,山梨県甲府市上石田４丁目８－５,35.650271,138.558054,ガスト,0
4136,"",ガスト 目黒駅東口店（から好し取扱店）,東京都品川区上大崎２丁目１０－３３　コミュニティースペース目黒２Ｆ,35.635352,139.717065,ガスト,0
4135,"",ガスト 板橋西台店（から好し取扱店）,東京都板橋区西台２丁目４１－２,35.78101,139.668166,ガスト,0
4134,"",ガスト 世田谷給田店（から好し取扱店）,東京都世田谷区給田３丁目２９－１,35.667329,139.591923,ガスト,0
4133,"",ガスト 日野南平店（から好し取扱店）,東京都日野市南平７丁目３－３,35.655174,139.394588,ガスト,0
4132,"",ガスト 野々市店（から好し取扱店）,石川県野々市市上林４丁目７０４,36.5039736,136.6066598,ガスト,0
4131,"",ガスト 後楽園春日町店（から好し取扱店）,東京都文京区小石川１丁目１番１８ー２０１号,35.708738,139.752951,ガスト,0
4130,"",ガスト 亀有駅北口店（から好し取扱店）,東京都葛飾区亀有５丁目３１－７　クレードル亀有２階,35.767905,139.847485,ガスト,0
4129,"",ガスト 函館鍛治店（から好し取扱店）,北海道函館市鍛治２丁目１番３号,41.803816,140.772831,ガスト,0
4128,"",ガスト ふじみ野店（から好し取扱店）,埼玉県富士見市ふじみ野西１丁目２０－２,35.860653,139.522186,ガスト,0
4127,"",ガスト 富士見関沢店（から好し取扱店）,埼玉県富士見市関沢１丁目４－１５,35.844626,139.543764,ガスト,0
4126,"",ガスト 川口新郷店（から好し取扱店）,埼玉県川口市榛松２３８－１,35.819526,139.767836,ガスト,0
4125,"",ガスト 大宮深作店（から好し取扱店）,埼玉県さいたま市見沼区深作１丁目７－６,35.952263,139.665409,ガスト,0
4124,"",ガスト 川口石神店（から好し取扱店）,埼玉県川口市大字石神海道西６４９－５,35.860644,139.733919,ガスト,0
4123,"",ガスト 相模原南台店（から好し取扱店）,神奈川県相模原市南区南台１丁目１－３,35.524466,139.425673,ガスト,0
4122,"",ガスト 柏崎日吉店（から好し取扱店）,新潟県柏崎市日吉町３－２８,37.367738,138.57462,ガスト,0
4121,"",ガスト 上溝店（から好し取扱店）,神奈川県相模原市中央区陽光台５丁目１９－１４,35.549863,139.378367,ガスト,0
4120,"",ガスト 小作店（から好し取扱店）,東京都羽村市栄町１丁目２－３,35.775891,139.304998,ガスト,0
4119,"",ガスト 深谷店（から好し取扱店）,埼玉県深谷市西島町１丁目４－１４,36.192354,139.284899,ガスト,0
4118,"",ガスト 松本中央店（から好し取扱店）,長野県松本市中央１丁目１０－７　中兼ビル１Ｆ,36.232847,137.967546,ガスト,0
4117,"",ガスト 横浜能見台店（から好し取扱店）,神奈川県横浜市金沢区能見台東１－１,35.359503,139.627913,ガスト,0
4116,"",ガスト 上尾上町店（から好し取扱店）,埼玉県上尾市上町２丁目１－２３,35.978244,139.585601,ガスト,0
4115,"",ガスト 大泉北園店（から好し取扱店）,東京都練馬区大泉学園町２丁目２０－３７,35.759231,139.588538,ガスト,0
4114,"",ガスト 船橋宮本店（から好し取扱店）,千葉県船橋市宮本７丁目１番５号,35.696704,139.99699,ガスト,0
4113,"",ガスト 熊谷肥塚店（から好し取扱店）,埼玉県熊谷市肥塚４－１２８,36.163797,139.384986,ガスト,0
4112,"",ガスト 小牧原新田店（から好し取扱店）,愛知県小牧市小牧原１丁目１５３,35.304759,136.927139,ガスト,0
4110,"",ガスト 猪子石原店（から好し取扱店）,愛知県名古屋市名東区猪子石原２丁目１１１２,35.194023,136.991013,ガスト,0
4109,"",ガスト 平針店（から好し取扱店）,愛知県名古屋市天白区平針３丁目１１９,35.123478,137.008034,ガスト,0
4108,"",ガスト 京都嵯峨野店（から好し取扱店）,京都府京都市右京区嵯峨野神ノ木町２９－１,35.014309,135.695541,ガスト,0
4107,"",ガスト 尼崎道意店（から好し取扱店）,兵庫県尼崎市道意町７丁目１　ＡＭＡＤｏオートバックス棟内,34.715697,135.396942,ガスト,0
4106,"",ガスト 枚方養父店（から好し取扱店）,大阪府枚方市養父東町１７－１０,34.845884,135.67622,ガスト,0
4105,"",ガスト 伊丹野間店（から好し取扱店）,兵庫県伊丹市南野６－４－２７,34.76753,135.398225,ガスト,0
4104,"",ガスト 宮崎フェニックスガーデン店（から好し取扱店）,宮崎県宮崎市柳丸町１５０番外,31.926697,131.436239,ガスト,0
4103,"",ガスト 佐世保早岐店（から好し取扱店）,長崎県佐世保市早岐１丁目３－１,33.132036,129.798931,ガスト,0
4102,"",ガスト 長田御屋敷通店（から好し取扱店）,兵庫県神戸市長田区御屋敷通３丁目１番４７号,34.660838,135.142466,ガスト,0
4101,"",ガスト 米子久米町店（から好し取扱店）,鳥取県米子市久米町５３－１,35.425563,133.329149,ガスト,0
4100,"",ガスト 直方店（から好し取扱店）,福岡県直方市大字下新入３９０番の２,33.7620734,130.7166293,ガスト,0
4099,"",ガスト 生駒鹿の台東店（から好し取扱店）,奈良県生駒市鹿畑町７３－１,34.728826,135.752662,ガスト,0
4098,"",ガスト 幡ヶ谷店（から好し取扱店）,東京都渋谷区幡ケ谷２丁目１７－１　ドゥーエ幡ヶ谷２Ｆ,35.677127,139.675403,ガスト,0
4097,"",ガスト 群馬藤岡店（から好し取扱店）,群馬県藤岡市藤岡９１３－４,36.254098,139.077328,ガスト,0
4096,"",ガスト 鹿屋店（から好し取扱店）,鹿児島県鹿屋市大浦町１４０１５－８,31.403348,130.840649,ガスト,0
4095,"",ガスト 成東店（から好し取扱店）,千葉県山武市津辺１６９－１,35.603758,140.411156,ガスト,0
4094,"",ガスト 西国分寺店（から好し取扱店）,東京都国分寺市西恋ケ窪１丁目４６－５,35.704467,139.467128,ガスト,0
4093,"",ガスト 板橋仲宿店（から好し取扱店）,東京都板橋区板橋３丁目２７－１,35.749627,139.714402,ガスト,0
4092,"",ガスト 徳島佐古店（から好し取扱店）,徳島県徳島市佐古五番町９番５号,34.078969,134.530329,ガスト,0
4091,"",ガスト 福山東深津店（から好し取扱店）,広島県福山市東深津町１丁目１１－２３,34.501515,133.390488,ガスト,0
4090,"",ガスト つくばテクノパーク桜店（から好し取扱店）,茨城県つくば市桜１丁目１２－４,36.110032,140.109739,ガスト,0
4089,"",ガスト 青葉藤が丘店（から好し取扱店）,神奈川県横浜市青葉区藤が丘１丁目３６,35.543054,139.528533,ガスト,0
4088,"",ガスト 阪急岡町駅前店（から好し取扱店）,大阪府豊中市岡町１－３０,34.780061,135.464716,ガスト,0
4087,"",ガスト 習志野台店（から好し取扱店）,千葉県船橋市習志野台４丁目４６,35.716128,140.046326,ガスト,0
4086,"",ガスト 本庄上里町店（から好し取扱店）,埼玉県児玉郡上里町大字七本木２５５８－１,36.238576,139.164423,ガスト,0
4085,"",ガスト 市ヶ谷駅前店（から好し取扱店）,東京都新宿区市谷田町２丁目５,35.694294,139.73745,ガスト,0
4084,"",ガスト 上板橋店（から好し取扱店）,東京都板橋区上板橋２丁目２－２０　レスタージュ上板橋,35.761672,139.674959,ガスト,0
4083,"",ガスト 雑色駅前店（から好し取扱店）,東京都大田区仲六郷２丁目１８－１２,35.550832,139.713521,ガスト,0
4082,"",ガスト 国領駅前店（から好し取扱店）,東京都調布市国領町２丁目５－１５,35.650549,139.557344,ガスト,0
4081,"",ガスト 横須賀中央店（から好し取扱店）,神奈川県横須賀市若松町２丁目８　セントラルホテル２Ｆ,35.279137,139.669445,ガスト,0
4080,"",ガスト 兵庫駅前店（から好し取扱店）,兵庫県神戸市兵庫区駅南通５丁目２－１,34.66792,135.164858,ガスト,0
4079,"",ガスト 戸塚店（から好し取扱店）,神奈川県横浜市戸塚区戸塚町２２８４－１,35.384091,139.523993,ガスト,0
4078,"",ガスト 茨城大宮町店（から好し取扱店）,茨城県常陸大宮市上村田３８０－１１,36.534987,140.420531,ガスト,0
4077,"",ガスト 下高井戸駅前店（から好し取扱店）,東京都杉並区下高井戸１丁目７－７,35.666146,139.639307,ガスト,0
4076,"",ガスト 横浜杉田店（から好し取扱店）,神奈川県横浜市磯子区杉田５丁目２１－２９,35.380922,139.622753,ガスト,0
4075,"",ガスト あざみ野店（から好し取扱店）,神奈川県横浜市青葉区あざみ野２丁目１２－２,35.568409,139.549756,ガスト,0
4074,"",ガスト 二宮インター店（から好し取扱店）,神奈川県中郡二宮町中里２－３４－５,35.308824,139.244853,ガスト,0
4073,"",ガスト 関西学院前店（から好し取扱店）,兵庫県西宮市上ケ原三番町１－３４,34.764414,135.348744,ガスト,0
4071,"",ガスト 府中中河原店（から好し取扱店）,東京都府中市住吉町１丁目１５－１,35.662622,139.457992,ガスト,0
4070,"",ガスト 鵜の木駅前店（から好し取扱店）,東京都大田区鵜の木２丁目１５－５　鵜の木ガーデン２１　２階,35.575129,139.680519,ガスト,0
4069,"",ガスト 新所沢店（から好し取扱店）,埼玉県所沢市緑町４丁目３２－１,35.807616,139.451863,ガスト,0
4068,"",ガスト 仲町台駅前店（から好し取扱店）,神奈川県横浜市都筑区仲町台１丁目２３－１,35.534855,139.587994,ガスト,0
4067,"",ガスト 初台駅北口店（から好し取扱店）,東京都渋谷区本町１丁目５３－１１,35.68286,139.684395,ガスト,0
4066,"",ガスト 観音寺吉岡町店（から好し取扱店）,香川県観音寺市吉岡町２１１－１,34.126853,133.689345,ガスト,0
4065,"",ガスト 柏原国分店（から好し取扱店）,大阪府柏原市国分東条町１－１５,34.565434,135.644815,ガスト,0
4064,"",ガスト 奈良藤ノ木台店（から好し取扱店）,奈良県奈良市藤ノ木台１丁目１－２３,34.682448,135.755947,ガスト,0
4062,"",ガスト 敦賀店（から好し取扱店）,福井県敦賀市白銀町１３－３９,35.647469,136.071578,ガスト,0
4061,"",ガスト 町田真光寺店（から好し取扱店）,東京都町田市広袴３丁目１－３,35.598041,139.470098,ガスト,0
4060,"",ガスト 栃木大平店（から好し取扱店）,栃木県栃木市大平町西水代１８４６－１,36.319433,139.712146,ガスト,0
4059,"",ガスト 大曽根店（から好し取扱店）,愛知県名古屋市北区大曽根３丁目１４－２５,35.192149,136.935967,ガスト,0
4058,"",ガスト 東山公園店（から好し取扱店）,愛知県名古屋市千種区東山通５丁目１５－１,35.160669,136.97401,ガスト,0
4057,"",ガスト 滋賀野洲店（から好し取扱店）,滋賀県野洲市市三宅１０１３,35.067774,136.01746,ガスト,0
4056,"",ガスト 宇都宮江曽島店（から好し取扱店）,栃木県宇都宮市江曽島町１０９３－２,36.526926,139.871099,ガスト,0
4055,"",ガスト 富谷大清水店（から好し取扱店）,宮城県富谷市富谷３３－１,38.363612,140.87343,ガスト,0
4054,"",ガスト 野田阪神店（から好し取扱店）,大阪府大阪市福島区吉野４丁目２９－２７,34.690094,135.47034,ガスト,0
4053,"",ガスト 東生駒店（から好し取扱店）,奈良県生駒市小明町５５８－１,34.70665,135.706076,ガスト,0
4052,"",ガスト 仙台鈎取店（から好し取扱店）,宮城県仙台市太白区鈎取本町１丁目２１－２,38.218313,140.837633,ガスト,0
4051,"",ガスト 仙台北四番丁店（から好し取扱店）,宮城県仙台市青葉区木町通２丁目６－６６,38.273693,140.868306,ガスト,0
4050,"",ガスト 本羽田店（から好し取扱店）,東京都大田区本羽田３丁目６－１,35.548954,139.740634,ガスト,0
4049,"",ガスト 毛呂山店（から好し取扱店）,埼玉県入間郡毛呂山町大字毛呂本郷５－１,35.941597,139.307448,ガスト,0
4048,"",ガスト 岡谷インター店（から好し取扱店）,長野県岡谷市神明町４丁目１１－１７,36.084732,138.04122,ガスト,0
4047,"",ガスト 川越東洋大学前店（から好し取扱店）,埼玉県川越市大字天沼新田３１７－３,35.938064,139.435729,ガスト,0
4046,"",ガスト 鹿沼店（から好し取扱店）,栃木県鹿沼市貝島町下上野５０２－２,36.561855,139.766681,ガスト,0
4045,"",ガスト つくば学園南店（から好し取扱店）,茨城県土浦市西根西１丁目２－１,36.046015,140.151406,ガスト,0
4044,"",ガスト 鶴舞店（から好し取扱店）,愛知県名古屋市中区千代田５丁目１９－１９,35.157909,136.916351,ガスト,0
4043,"",ガスト 上田店（から好し取扱店）,長野県上田市材木町２丁目１０－４,36.397603,138.265174,ガスト,0
4042,"",ガスト 朝霞城山店（から好し取扱店）,埼玉県朝霞市岡３丁目１１－１,35.809992,139.598428,ガスト,0
4040,"",ガスト 福井春江店（から好し取扱店）,福井県坂井市春江町江留上昭和１３３,36.122307,136.219529,ガスト,0
4039,"",ガスト 石和駅前通店（から好し取扱店）,山梨県笛吹市石和町窪中島１０１,35.6459,138.634328,ガスト,0
4037,"",ガスト 中島店（から好し取扱店）,愛知県名古屋市中川区中島新町３丁目４０３,35.124381,136.853717,ガスト,0
4036,"",ガスト 下平間店（から好し取扱店）,神奈川県川崎市幸区下平間３１０－１４,35.548098,139.683674,ガスト,0
4035,"",ガスト 安芸宮島店（から好し取扱店）,広島県廿日市市宮島口西１丁目３－３８,34.307297,132.300547,ガスト,0
4034,"",ガスト 広島三原店（から好し取扱店）,広島県三原市円一町１丁目１－１　フジグラン三原内,34.394351,133.078562,ガスト,0
4033,"",ガスト 佐世保駅南店（から好し取扱店）,長崎県佐世保市干尽町２３－３,33.161817,129.728528,ガスト,0
4032,"",ガスト 東大阪小阪店（から好し取扱店）,大阪府東大阪市西堤本通東２丁目１－５,34.672618,135.579371,ガスト,0
4031,"",ガスト 篠ノ井バイパス店（から好し取扱店）,長野県長野市川中島町御厨字高柳２３４６－１,36.582454,138.163846,ガスト,0
4030,"",ガスト 高岳店（から好し取扱店）,愛知県名古屋市東区泉１丁目１９－１７,35.175217,136.913775,ガスト,0
4029,"",ガスト 南阿佐ヶ谷店（から好し取扱店）,東京都杉並区阿佐谷南３丁目２－１,35.699865,139.635085,ガスト,0
4028,"",ガスト 富士加島店（から好し取扱店）,静岡県富士市加島町２－２,35.15805,138.649866,ガスト,0
4027,"",ガスト 吹上店（から好し取扱店）,埼玉県鴻巣市北新宿道下通６２,36.111558,139.442366,ガスト,0
4026,"",ガスト 尾久店（から好し取扱店）,東京都北区昭和町２丁目５－１,35.748302,139.752976,ガスト,0
4025,"",ガスト 丸亀フジグラン店（から好し取扱店）,香川県丸亀市川西町南１２８０－１　フジグラン丸亀内,34.242384,133.834254,ガスト,0
4024,"",ガスト 清瀬店（から好し取扱店）,東京都清瀬市竹丘１丁目６－１０,35.764056,139.512172,ガスト,0
4023,"",ガスト 勝浦店（から好し取扱店）,千葉県勝浦市新官１３３８－１,35.152096,140.318611,ガスト,0
4022,"",ガスト 港弁天町店（から好し取扱店）,大阪府大阪市港区磯路２丁目２０番地１７,34.666824,135.458686,ガスト,0
4021,"",ガスト 樟葉駅前店（から好し取扱店）,大阪府枚方市楠葉花園町１２－５　アクアくずはビル２階,34.860664,135.675916,ガスト,0
4020,"",ガスト 山梨万力店（から好し取扱店）,山梨県山梨市万力９５－１,35.686161,138.668616,ガスト,0
4019,"",ガスト 川崎大師店（から好し取扱店）,神奈川県川崎市川崎区四谷上町２８－１５,35.525494,139.734837,ガスト,0
4018,"",ガスト 錦糸町北口店（から好し取扱店）,東京都墨田区錦糸１丁目１７－１０,35.697793,139.808969,ガスト,0
4017,"",ガスト 海老名上河内店（から好し取扱店）,神奈川県海老名市上河内字永池２６０,35.421331,139.391519,ガスト,0
4016,"",ガスト 成瀬駅北口店（から好し取扱店）,東京都町田市南成瀬１丁目９－３,35.537213,139.47338,ガスト,0
4015,"",ガスト 栗橋店（から好し取扱店）,埼玉県久喜市栗橋東４丁目２１－１２,36.129988,139.700909,ガスト,0
4014,"",ガスト 千葉貝塚店（から好し取扱店）,千葉県千葉市若葉区貝塚２丁目１０－４,35.632376,140.150867,ガスト,0
4013,"",ガスト 石岡店（から好し取扱店）,茨城県石岡市東光台３丁目１－７,36.18566,140.300351,ガスト,0
4012,"",ガスト 高槻土室店（から好し取扱店）,大阪府高槻市土室町１番１６号,34.850163,135.585035,ガスト,0
4011,"",ガスト 静岡国吉田店（から好し取扱店）,静岡県静岡市駿河区国吉田１丁目２－２６,34.996528,138.426691,ガスト,0
4010,"",ガスト 大牟田ゆめタウン店（から好し取扱店）,福岡県大牟田市旭町２８－７　ゆめタウン大牟田ＳＣ内,33.036907,130.452091,ガスト,0
4009,"",ガスト 那珂湊店（から好し取扱店）,茨城県ひたちなか市田中後７３６３－５,36.346176,140.583416,ガスト,0
4008,"",ガスト 仙台榴岡店（から好し取扱店）,宮城県仙台市宮城野区榴岡５丁目１０－１４,38.257903,140.894933,ガスト,0
4007,"",ガスト 押上店（から好し取扱店）,東京都墨田区業平３丁目１７－９　マルホンビル２階,35.709382,139.813461,ガスト,0
4006,"",ガスト 三ノ宮店（から好し取扱店）,兵庫県神戸市中央区下山手通２丁目２ー１０　神戸サウナビル２Ｆ,34.692847,135.190338,ガスト,0
4005,"",ガスト 京都十条通店（から好し取扱店）,京都府京都市南区東九条松田町３３番,34.973432,135.754484,ガスト,0
4004,"",ガスト 大阪産業大学前店（から好し取扱店）,大阪府大東市中垣内３丁目２－２８,34.706966,135.644926,ガスト,0
4003,"",ガスト 安城住吉店（から好し取扱店）,愛知県安城市住吉町７丁目１９－６,34.984722,137.077939,ガスト,0
4002,"",ガスト 山梨増穂店（から好し取扱店）,山梨県南巨摩郡富士川町青柳町６６５－２,35.554852,138.462879,ガスト,0
4001,"",ガスト 平塚河内店（から好し取扱店）,神奈川県平塚市河内亀ノ甲島５２９－４,35.335454,139.314526,ガスト,0
4000,"",ガスト 所沢小手指店（から好し取扱店）,埼玉県所沢市小手指町４丁目１０－５,35.796845,139.431499,ガスト,0
3999,"",ガスト 杉戸店（から好し取扱店）,埼玉県北葛飾郡杉戸町清地１丁目４－１９,36.028014,139.73517,ガスト,0
3998,"",ガスト 板橋本町店（から好し取扱店）,東京都板橋区清水町４－１,35.763103,139.711225,ガスト,0
3997,"",ガスト 稲沢店（から好し取扱店）,愛知県稲沢市井之口大坪町８０－１,35.236559,136.819837,ガスト,0
3996,"",ガスト 港南中央店（から好し取扱店）,神奈川県横浜市港南区港南中央通１２－３１　港南中央ビル２階,35.40145,139.592337,ガスト,0
3995,"",ガスト 検見川浜駅前店（から好し取扱店）,千葉県千葉市美浜区真砂４丁目２　セザール検見川浜１Ｆ,35.638052,140.059599,ガスト,0
3994,"",ガスト 富士宮店（から好し取扱店）,静岡県富士宮市小泉２１４９－１,35.219692,138.641263,ガスト,0
3993,"",ガスト 諏訪インター店（から好し取扱店）,長野県諏訪市沖田町４丁目４１－２,36.008081,138.130803,ガスト,0
3992,"",ガスト 大今里店（から好し取扱店）,大阪府大阪市東成区大今里西３丁目３－９,34.668527,135.542579,ガスト,0
3991,"",ガスト 朝霧店（から好し取扱店）,兵庫県明石市大蔵八幡町１－３８,34.644202,135.015541,ガスト,0
3990,"",ガスト 北小金店（から好し取扱店）,千葉県松戸市小金きよしケ丘４丁目１１－１,35.825527,139.935597,ガスト,0
3989,"",ガスト 茨城境町店（から好し取扱店）,茨城県猿島郡境町３５４－１,36.109676,139.798297,ガスト,0
3988,"",ガスト 津山小原店（から好し取扱店）,岡山県津山市小原２０７ー１,35.082183,134.003335,ガスト,0
3987,"",ガスト 高知野市町店（から好し取扱店）,高知県香南市野市町西野２０５８－２,33.561242,133.697788,ガスト,0
3986,"",ガスト 開成町店（から好し取扱店）,神奈川県足柄上郡開成町宮台２３８－１,35.328513,139.122915,ガスト,0
3985,"",ガスト 都留店（から好し取扱店）,山梨県都留市桂町７９３－１,35.536274,138.873031,ガスト,0
3984,"",ガスト 川越インター店（から好し取扱店）,埼玉県川越市豊田町３丁目１１－１０,35.899932,139.465247,ガスト,0
3983,"",ガスト 富山開店（から好し取扱店）,富山県富山市開２９,36.681576,137.259241,ガスト,0
3982,"",ガスト 伊豆高原店（から好し取扱店）,静岡県伊東市八幡野１１７２－５,34.880806,139.106792,ガスト,0
3981,"",ガスト 仙台八乙女店（から好し取扱店）,宮城県仙台市泉区八乙女中央３丁目４－５２,38.315353,140.88338,ガスト,0
3980,"",ガスト 小諸店（から好し取扱店）,長野県小諸市大字諸１丁目５番２１号,36.336686,138.41545,ガスト,0
3979,"",ガスト 玉出店（から好し取扱店）,大阪府大阪市西成区玉出西２丁目７－１９,34.623296,135.488631,ガスト,0
3978,"",ガスト 立川駅南口店（から好し取扱店）,東京都立川市柴崎町２丁目２－１　ＫＳビル２階,35.697211,139.411885,ガスト,0
3977,"",ガスト 市原市役所前店（から好し取扱店）,千葉県市原市惣社２－１－２,35.498806,140.112281,ガスト,0
3976,"",ガスト 甲府上今井店（から好し取扱店）,山梨県甲府市上今井町７３９－１,35.625326,138.572112,ガスト,0
3975,"",ガスト 野比店（から好し取扱店）,神奈川県横須賀市野比１丁目４０－２７,35.217541,139.689718,ガスト,0
3974,"",ガスト 大宮大成店（から好し取扱店）,埼玉県さいたま市大宮区大成町３丁目５１６－１,35.918493,139.614626,ガスト,0
3973,"",ガスト 沼田インター店（から好し取扱店）,群馬県沼田市上原町１６７９－６,36.654025,139.071597,ガスト,0
3972,"",ガスト 本陣通店（から好し取扱店）,愛知県名古屋市中村区本陣通４丁目９,35.177835,136.863414,ガスト,0
3971,"",ガスト 山口小郡店（から好し取扱店）,山口県山口市小郡前田町３－２４,34.087487,131.397875,ガスト,0
3970,"",ガスト 茨城県庁前店（から好し取扱店）,茨城県水戸市笠原町１５６２－１,36.339225,140.445743,ガスト,0
3969,"",ガスト 住之江スポーツビレッジ店（から好し取扱店）,大阪府大阪市住之江区泉１丁目１番１０５号,34.610036,135.466743,ガスト,0
3968,"",ガスト 宇部東岐波店（から好し取扱店）,山口県宇部市大字東岐波１４１３－１,33.998409,131.349185,ガスト,0
3966,"",ガスト 三重朝日町店（から好し取扱店）,三重県三重郡朝日町大字小向字御田２５７－１,35.033041,136.671569,ガスト,0
3965,"",ガスト 新川崎明津店（から好し取扱店）,神奈川県川崎市高津区明津２３６－３,35.56697,139.637667,ガスト,0
3964,"",ガスト 滑川店（から好し取扱店）,富山県滑川市沖田新３－１,36.754788,137.347636,ガスト,0
3963,"",ガスト 西日暮里店（から好し取扱店）,東京都荒川区西日暮里５丁目２－１９,35.733938,139.770626,ガスト,0
3962,"",ガスト 清水口店（から好し取扱店）,愛知県名古屋市東区白壁２丁目７－１０,35.183669,136.913181,ガスト,0
3961,"",ガスト 湯河原店（から好し取扱店）,神奈川県足柄下郡湯河原町門川１－３,35.144001,139.112363,ガスト,0
3960,"",ガスト 大月店（から好し取扱店）,山梨県大月市大月町花咲１８２,35.60574,138.928583,ガスト,0
3959,"",ガスト 亀戸店（から好し取扱店）,東京都江東区亀戸６丁目２６－５,35.696264,139.826482,ガスト,0
3958,"",ガスト 中山店（から好し取扱店）,千葉県市川市北方町４丁目１８３８－１,35.729631,139.959163,ガスト,0
3957,"",ガスト 渋川店（から好し取扱店）,群馬県渋川市石原２０４－１２,36.490828,139.002998,ガスト,0
3956,"",ガスト 大宮三橋店（から好し取扱店）,埼玉県さいたま市西区三橋５丁目９２３,35.907547,139.595136,ガスト,0
3955,"",ガスト 布施店（から好し取扱店）,大阪府東大阪市寿町３丁目２０－２８,34.652755,135.562619,ガスト,0
3954,"",ガスト 太閤通店（から好し取扱店）,愛知県名古屋市中村区太閤通６丁目５９,35.168214,136.863027,ガスト,0
3953,"",ガスト 伊豆川奈店（から好し取扱店）,静岡県伊東市吉田７５３－２３,34.941043,139.116705,ガスト,0
3952,"",ガスト 韮崎店（から好し取扱店）,山梨県韮崎市栄１丁目１０－２８,35.695343,138.464456,ガスト,0
3951,"",ガスト たちばな台店（から好し取扱店）,神奈川県横浜市青葉区たちばな台１丁目６－１,35.554726,139.514175,ガスト,0
3949,"",ガスト 伊勢崎店（から好し取扱店）,群馬県伊勢崎市連取町２３３２－５,36.312006,139.183688,ガスト,0
3948,"",ガスト 阪急三国駅店（から好し取扱店）,大阪府大阪市淀川区三国本町３丁目３７番１号,34.737459,135.483063,ガスト,0
3947,"",ガスト 広島矢賀店（から好し取扱店）,広島県広島市東区矢賀新町４丁目１－２６,34.391968,132.498029,ガスト,0
3946,"",ガスト 兵庫香寺店（から好し取扱店）,兵庫県姫路市香寺町岩部字柳木８番５,34.920647,134.742612,ガスト,0
3945,"",ガスト 新潟山田店（から好し取扱店）,新潟県新潟市西区山田２３０７－３６４,37.867362,139.019164,ガスト,0
3944,"",ガスト 長吉長原店（から好し取扱店）,大阪府大阪市平野区長吉長原４丁目１８－４,34.601698,135.573067,ガスト,0
3943,"",ガスト 西宮鳴尾店（から好し取扱店）,兵庫県西宮市小松西町１丁目４－２４,34.722256,135.375638,ガスト,0
3942,"",ガスト 京都桂店（から好し取扱店）,京都府京都市西京区牛ケ瀬奥ノ防町２２,34.973872,135.714718,ガスト,0
3941,"",ガスト 江口橋店（から好し取扱店）,大阪府大阪市東淀川区北江口４丁目２－４５,34.757859,135.550631,ガスト,0
3940,"",ガスト 袋井インター店（から好し取扱店）,静岡県袋井市川井１１４３－１,34.745813,137.911679,ガスト,0
3939,"",ガスト 松本村井店（から好し取扱店）,長野県松本市村井町南２丁目２１－５２,36.175832,137.96144,ガスト,0
3938,"",ガスト 荒子店（から好し取扱店）,愛知県名古屋市中川区荒子２丁目３８－１,35.140178,136.859223,ガスト,0
3937,"",ガスト 河口湖店（から好し取扱店）,山梨県南都留郡富士河口湖町船津５６８－１,35.50284,138.757662,ガスト,0
3936,"",ガスト 明大前北口店（から好し取扱店）,東京都世田谷区松原１丁目３８－１０,35.669564,139.650692,ガスト,0
3935,"",ガスト 君津店（から好し取扱店）,千葉県君津市南子安９丁目１－１,35.328888,139.924332,ガスト,0
3934,"",ガスト 東松山店（から好し取扱店）,埼玉県東松山市大字石橋１５３３,36.03698,139.382952,ガスト,0
3933,"",ガスト 幸手店（から好し取扱店）,埼玉県幸手市中２丁目１０－２０,36.074341,139.722358,ガスト,0
3932,"",ガスト 長崎大浦海岸店（から好し取扱店）,長崎県長崎市常盤町１番５０号,32.737913,129.870398,ガスト,0
3931,"",ガスト いわき泉店（から好し取扱店）,福島県いわき市泉町７丁目１５－４,36.949283,140.861263,ガスト,0
3930,"",ガスト 豊中南店（から好し取扱店）,大阪府豊中市豊南町東３丁目１－８,34.749886,135.483336,ガスト,0
3929,"",ガスト 和泉店（から好し取扱店）,大阪府和泉市観音寺町６７７－１,34.477507,135.433109,ガスト,0
3928,"",ガスト 岐阜茜部店（から好し取扱店）,岐阜県岐阜市茜部野瀬２丁目１－１,35.377841,136.747097,ガスト,0
3927,"",ガスト 一宮大和店（から好し取扱店）,愛知県一宮市大和町苅安賀字山王５２－２,35.286464,136.788504,ガスト,0
3926,"",ガスト 網代店（から好し取扱店）,静岡県熱海市下多賀字風越５５６,35.046491,139.074045,ガスト,0
3925,"",ガスト 富士吉田松山店（から好し取扱店）,山梨県富士吉田市松山１５６０－１,35.482574,138.779458,ガスト,0
3924,"",ガスト 愛川町店（から好し取扱店）,神奈川県愛甲郡愛川町中津３５１９－１,35.509455,139.338806,ガスト,0
3923,"",ガスト 立川栄店（から好し取扱店）,東京都立川市栄町３丁目４５－１,35.709538,139.426053,ガスト,0
3922,"",ガスト 大原店（から好し取扱店）,千葉県いすみ市大原９７１３－１,35.247977,140.395139,ガスト,0
3921,"",ガスト 静岡菊川町店（から好し取扱店）,静岡県菊川市半済１７４０,34.756237,138.087802,ガスト,0
3920,"",ガスト 駒ヶ根店（から好し取扱店）,長野県駒ヶ根市赤穂１５６８,35.741494,137.927041,ガスト,0
3919,"",ガスト 台東根岸店（から好し取扱店）,東京都台東区根岸４丁目１６－２５,35.725456,139.78564,ガスト,0
3918,"",ガスト 田園調布店（から好し取扱店）,東京都大田区田園調布１丁目９－３,35.586899,139.67274,ガスト,0
3917,"",ガスト 小川町店（から好し取扱店）,埼玉県比企郡小川町みどりが丘２－８－１,36.067895,139.260456,ガスト,0
3916,"",から好し 赤羽すずらん通り店,東京都北区赤羽２丁目１４－３　富士屋ビル１Ｆ,35.779433,139.723219,から好し（ガスト内店含む）,0
3915,"",から好し 巣鴨店,東京都豊島区巣鴨１丁目１７－６　中島ビル１Ｆ,35.732861,139.738944,から好し（ガスト内店含む）,0
3914,"",から好し 福岡伊都店,福岡県福岡市西区横浜３丁目３５－５,33.581815,130.260167,から好し（ガスト内店含む）,0
3912,"",から好し 東小金井店,東京都小金井市東町４丁目４２－２０　ＳＫビル１Ｆ,35.701336,139.524387,から好し（ガスト内店含む）,0
3911,"",から好し 久喜駅店,埼玉県久喜市中央２丁目１－１,36.065497,139.677853,から好し（ガスト内店含む）,0
3908,"",から好し 西橋本店,神奈川県相模原市緑区西橋本３丁目１２－１,35.589197,139.334742,から好し（ガスト内店含む）,0
3907,"",から好し 中野南口店,東京都中野区中野２丁目２９－８　本荘ビル１Ｆ,35.703767,139.665624,から好し（ガスト内店含む）,0
3906,"",から好し 神田神保町店,東京都千代田区神田神保町１丁目１５　神保町一丁目ＴＳビル１Ｆ,35.695288,139.759554,から好し（ガスト内店含む）,0
3905,"",から好し 西五反田店,東京都品川区西五反田８丁目１－１　スパシエルクス五反田１Ｆ,35.6235437,139.721075,から好し（ガスト内店含む）,0
3902,"",から好し 沼津三園店,静岡県沼津市三園町１２－３０,35.088246,138.866929,から好し（ガスト内店含む）,0
3900,"",から好し 京都伏見店,京都府京都市伏見区下鳥羽長田町１７０,34.939785,135.744904,から好し（ガスト内店含む）,0
3899,"",から好し 甲府住吉店,山梨県甲府市住吉４丁目２４－１７,35.637804,138.584599,から好し（ガスト内店含む）,0
3898,"",から好し 静岡曲金店,静岡県静岡市駿河区曲金２丁目２－３０,34.975099,138.404023,から好し（ガスト内店含む）,0
3897,"",から好し 草津店,滋賀県草津市草津３丁目１４－３３,35.013002,135.962824,から好し（ガスト内店含む）,0
3896,"",から好し 高崎江木店,群馬県高崎市江木町１６８１,36.330091,139.027437,から好し（ガスト内店含む）,0
3894,"",から好し 上尾久保店,埼玉県上尾市大字久保６５－１０,35.990958,139.579291,から好し（ガスト内店含む）,0
3893,"",から好し 荻窪北口店,東京都杉並区上荻１丁目６－２,35.704961,139.621353,から好し（ガスト内店含む）,0
3891,"",から好し 東村山富士見町店,東京都東村山市富士見町３丁目２８－１,35.749397,139.450087,から好し（ガスト内店含む）,0
3890,"",から好し 四日市新正店,三重県四日市市新正２丁目８－２３,34.958664,136.618413,から好し（ガスト内店含む）,0
3889,"",から好し 瑞穂別府店,岐阜県瑞穂市別府１０８７－１,35.393324,136.690224,から好し（ガスト内店含む）,0
3888,"",から好し 上福岡店,埼玉県ふじみ野市亀久保２丁目１５,35.865136,139.508547,から好し（ガスト内店含む）,0
3887,"",から好し 伊勢原店,神奈川県伊勢原市田中９６－１,35.404506,139.314068,から好し（ガスト内店含む）,0
3886,"",から好し 安城宮地店,愛知県安城市安城町戸崎４１－１,34.947333,137.095465,から好し（ガスト内店含む）,0
3884,"",から好し 豊橋柱店,愛知県豊橋市柱二番町２０４－１,34.747592,137.380688,から好し（ガスト内店含む）,0
3883,"",から好し 枚方堂山店,大阪府枚方市堂山２丁目３６－２０,34.817938,135.673565,から好し（ガスト内店含む）,0
3881,"",から好し 堺鉄砲町店,大阪府堺市堺区鉄砲町３７－２,34.593953,135.478198,から好し（ガスト内店含む）,0
3879,"",から好し 富山空港通店,富山県富山市布瀬町南２丁目９－１,36.674536,137.201977,から好し（ガスト内店含む）,0
3878,"",から好し 守山瀬古東店,愛知県名古屋市守山区瀬古東１丁目１７１５,35.206191,136.943487,から好し（ガスト内店含む）,0
3876,"",から好し 浜田山店,東京都杉並区浜田山３丁目３１－６,35.681627,139.627725,から好し（ガスト内店含む）,0
3875,"",から好し 成田並木町店,千葉県成田市並木町２１９－７２,35.75441,140.30395,から好し（ガスト内店含む）,0
3873,"",から好し 相模原鵜野森店,神奈川県相模原市南区鵜野森１丁目１５－２６,35.542881,139.430133,から好し（ガスト内店含む）,0
3871,"",から好し 岡崎栄町店,愛知県岡崎市栄町１丁目１－２,34.950987,137.179523,から好し（ガスト内店含む）,0
3870,"",から好し 福井長本町店,福井県福井市長本町６０６,36.072176,136.243167,から好し（ガスト内店含む）,0
3869,"",から好し 草津新浜店,滋賀県草津市新浜町４１８－１,34.996057,135.921106,から好し（ガスト内店含む）,0
3868,"",から好し 青梅河辺店,東京都青梅市河辺町６丁目４－８,35.780018,139.289273,から好し（ガスト内店含む）,0
3867,"",から好し 松江北田町店,島根県松江市北田町２６７－３,35.475861,133.063996,から好し（ガスト内店含む）,0
3866,"",から好し 門前仲町店,東京都江東区門前仲町２丁目４－１０,35.67204,139.79618,から好し（ガスト内店含む）,0
3864,"",から好し 広島八幡東店,広島県広島市佐伯区八幡東３丁目２６番１７－４号,34.384684,132.363176,から好し（ガスト内店含む）,0
3862,"",から好し 小田原鴨宮店,神奈川県小田原市中里字反町２８７－３,35.28024,139.189145,から好し（ガスト内店含む）,0
3860,"",から好し 稲田堤駅店,神奈川県川崎市多摩区菅稲田堤１丁目１７－２　よこはたビル１Ｆ,35.633836,139.53495,から好し（ガスト内店含む）,0
3859,"",から好し 金町店,東京都葛飾区東金町１丁目４２－１　松竹ビル１Ｆ,35.770336,139.870865,から好し（ガスト内店含む）,0
3858,"",から好し 立川駅南口店,東京都立川市柴崎町３丁目３－６,35.696781,139.414059,から好し（ガスト内店含む）,0
3857,"",から好し 川崎新川通り店,神奈川県川崎市川崎区小川町１４－１　岩本第３ビル１Ｆ,35.528329,139.699543,から好し（ガスト内店含む）,0
3856,"",ステーキガスト 北九州則松店,福岡県北九州市八幡西区則松４丁目２１－１２,33.857736,130.719142,ステーキガスト,0
3855,"",ステーキガスト 小牧店,愛知県小牧市川西１丁目１－８,35.285761,136.906397,ステーキガスト,0
3854,"",ステーキガスト 刈谷今川町店,愛知県刈谷市今川町井田８１－６,35.031934,137.018624,ステーキガスト,0
3853,"",ステーキガスト 福岡新宮店,福岡県糟屋郡新宮町大字原上１４５４－４,33.688737,130.452776,ステーキガスト,0
3852,"",ステーキガスト 堺浜寺店,大阪府堺市西区浜寺石津町西２丁９番４号,34.560718,135.452094,ステーキガスト,0
3851,"",ステーキガスト ゆめまち習志野台モール店,千葉県船橋市習志野台８丁目５８－１　ゆめまち習志野台モール２階,35.718018,140.065751,ステーキガスト,0
3850,"",ステーキガスト 大津瀬田店,滋賀県大津市大江２丁目２４－２５,34.978518,135.912785,ステーキガスト,0
3849,"",ステーキガスト 天理嘉幡店,奈良県天理市嘉幡町６７７－５,34.595085,135.797917,ステーキガスト,0
3848,"",ステーキガスト 宝塚店,兵庫県宝塚市中筋７丁目１００－１,34.813071,135.379978,ステーキガスト,0
3847,"",ステーキガスト 奈良柏木店,奈良県奈良市柏木町４５９,34.671477,135.800028,ステーキガスト,0
3846,"",ステーキガスト 秋田広面店,秋田県秋田市広面字谷地沖２８－１,39.722442,140.147846,ステーキガスト,0
3845,"",ステーキガスト 高崎問屋町店,群馬県高崎市問屋町４丁目８－１５,36.348788,139.015527,ステーキガスト,0
3844,"",ステーキガスト 東越谷店,埼玉県越谷市東越谷１０丁目３３番地４,35.897128,139.805373,ステーキガスト,0
3843,"",ステーキガスト 伊東海岸店,静岡県伊東市東松原町６番１２号,34.972842,139.098346,ステーキガスト,0
3842,"",ステーキガスト 大牟田店,福岡県大牟田市大字田隈八反田９４７－１,33.059064,130.466329,ステーキガスト,0
3841,"",ステーキガスト 小田原東インター店,神奈川県小田原市成田字諏訪脇１４４－１,35.28728,139.169548,ステーキガスト,0
3840,"",ステーキガスト 鶴瀬店,埼玉県富士見市羽沢２丁目１－４１,35.854535,139.539389,ステーキガスト,0
3839,"",ステーキガスト 落合南長崎店,東京都豊島区南長崎４丁目５－２０　ｉＴｅｒｒａｃｅ落合南長崎２階,35.72395,139.682775,ステーキガスト,0
3838,"",ステーキガスト 羽曳野店,大阪府羽曳野市西浦１丁目１９９６－１,34.546961,135.603025,ステーキガスト,0
3837,"",ステーキガスト 伊勢原店,神奈川県伊勢原市白根４９６,35.397879,139.294058,ステーキガスト,0
3836,"",ステーキガスト 市原店,千葉県市原市八幡３－４,35.533918,140.112741,ステーキガスト,0
3835,"",ステーキガスト 横浜駒岡店,神奈川県横浜市鶴見区駒岡４丁目２９－５,35.532322,139.652342,ステーキガスト,0
3834,"",ステーキガスト 相模原店,神奈川県相模原市中央区矢部１丁目１４－５,35.575479,139.378936,ステーキガスト,0
3833,"",ステーキガスト 松山三津店,愛媛県松山市須賀町６－１,33.857522,132.713287,ステーキガスト,0
3832,"",ステーキガスト 姫路砥堀店,兵庫県姫路市砥堀石橋２８６－１,34.862956,134.724966,ステーキガスト,0
3831,"",ステーキガスト 熊本光の森店,熊本県菊池郡菊陽町光の森２丁目３０番５,32.860552,130.782548,ステーキガスト,0
3829,"",ステーキガスト 豊橋藤沢店,愛知県豊橋市潮崎町５５,34.744266,137.370294,ステーキガスト,0
3828,"",ステーキガスト 泉中田店,神奈川県横浜市泉区中田町西２－６－３,35.412813,139.504398,ステーキガスト,0
3827,"",ステーキガスト 京都十条通店,京都府京都市南区東九条松田町３３番地,34.973493,135.754848,ステーキガスト,0
3826,"",ステーキガスト 滋賀長浜店,滋賀県長浜市室町４２４－１,35.376853,136.287253,ステーキガスト,0
3825,"",ステーキガスト 伊丹堀池店,兵庫県伊丹市昆陽南５丁目１－３,34.773934,135.395503,ステーキガスト,0
3824,"",ステーキガスト 上戸田店,埼玉県戸田市上戸田３丁目１３－４,35.812528,139.674339,ステーキガスト,0
3823,"",ガスト 横浜元町店（から好し取扱店）,神奈川県横浜市中区石川町１丁目１　カーサ元町２Ｆ,35.438979,139.645123,ガスト,0
3822,"",ガスト 横浜浅間町店（から好し取扱店）,神奈川県横浜市西区浅間町３丁目１７４－９,35.461719,139.609371,ガスト,0
3821,"",ガスト 我孫子町駅前店（から好し取扱店）,大阪府大阪市住吉区我孫子西２丁目３－１,34.601483,135.506114,ガスト,0
3820,"",ガスト 酒々井店（から好し取扱店）,千葉県印旛郡酒々井町酒々井字大道８８９－１４,35.73367,140.272005,ガスト,0
3819,"",ステーキガスト 岐阜鏡島店,岐阜県岐阜市鏡島精華１－７－１３,35.411339,136.724036,ステーキガスト,0
3818,"",ステーキガスト 松井山手店,京都府八幡市欽明台西２３番地,34.835593,135.717837,ステーキガスト,0
3817,"",ステーキガスト 京都桂店,京都府京都市西京区桂池尻町１３７,34.98742,135.704854,ステーキガスト,0
3816,"",ステーキガスト 神戸白川台店,兵庫県神戸市須磨区白川字向井坂２３－１０,34.694787,135.103021,ステーキガスト,0
3815,"",ステーキガスト 総社店,岡山県総社市総社１３６６－８,34.677741,133.762335,ステーキガスト,0
3814,"",ステーキガスト 長野柳原店,長野県長野市大字北長池１１８４－１,36.657059,138.249117,ステーキガスト,0
3813,"",ステーキガスト 広島可部店,広島県広島市安佐北区可部１丁目１５－８,34.513565,132.505592,ステーキガスト,0
3812,"",ステーキガスト 生駒南店,奈良県生駒市小平尾町１２１－１,34.659614,135.707079,ステーキガスト,0
3811,"",ステーキガスト 本牧店,神奈川県横浜市中区本牧間門３３－１３,35.420749,139.655164,ステーキガスト,0
3810,"",ステーキガスト 与野店,埼玉県さいたま市中央区下落合２丁目６－９,35.881476,139.633449,ステーキガスト,0
3809,"",ステーキガスト 三郷谷口店,埼玉県三郷市谷口６２４,35.827561,139.874458,ステーキガスト,0
3808,"",ステーキガスト 岩槻インター店,埼玉県さいたま市岩槻区加倉４丁目２３－２２,35.941406,139.692031,ステーキガスト,0
3807,"",ステーキガスト 福生熊川店,東京都福生市大字熊川３６０－２,35.721235,139.33549,ステーキガスト,0
3806,"",ステーキガスト 木更津南インター店,千葉県木更津市畑沢１３０３－１,35.344111,139.920455,ステーキガスト,0
3805,"",ステーキガスト 須賀川店,福島県須賀川市西川町１０７－１,37.295809,140.359316,ステーキガスト,0
3804,"",ステーキガスト 鹿児島宇宿店,鹿児島県鹿児島市宇宿２丁目１９番２２号,31.540304,130.539426,ステーキガスト,0
3803,"",ステーキガスト 浜松東田町店,静岡県浜松市中央区東田町３６－１,34.709141,137.733839,ステーキガスト,0
3802,"",ステーキガスト 松戸梨香台店,千葉県松戸市高塚新田３０１－１,35.759176,139.936642,ステーキガスト,0
3801,"",ステーキガスト 大分木ノ上店,大分県大分市大字木上字鉾手５－１,33.184296,131.569822,ステーキガスト,0
3800,"",ステーキガスト 横須賀佐原インター店,神奈川県横須賀市佐原１丁目１５番６号,35.238776,139.679636,ステーキガスト,0
3799,"",ステーキガスト 厚木妻田店,神奈川県厚木市妻田西１丁目１－２１,35.454805,139.358694,ステーキガスト,0
3798,"",ステーキガスト 相模大野店,神奈川県相模原市南区鵜野森２丁目２－６,35.542148,139.430769,ステーキガスト,0
3797,"",ステーキガスト 宮崎旭店,宮崎県宮崎市旭２丁目２－２２,31.909187,131.428655,ステーキガスト,0
3795,"",ステーキガスト 竜王店,山梨県甲斐市富竹新田１３６４－１,35.661223,138.521432,ステーキガスト,0
3794,"",ステーキガスト 狭山店,埼玉県狭山市富士見１丁目２９－３,35.85117,139.416953,ステーキガスト,0
3793,"",ステーキガスト 深大寺店,東京都調布市深大寺元町４丁目１０－３,35.668906,139.54425,ステーキガスト,0
3792,"",ステーキガスト 門真店,大阪府門真市一番町１番６号,34.733793,135.593921,ステーキガスト,0
3791,"",ステーキガスト 東大分店,大分県大分市牧３－１２－６,33.242147,131.645498,ステーキガスト,0
3790,"",ステーキガスト 寒川店,神奈川県高座郡寒川町宮山４２０－１,35.377285,139.385023,ステーキガスト,0
3789,"",ステーキガスト 東仙台店,宮城県仙台市宮城野区燕沢１丁目２８番２１号,38.282977,140.926976,ステーキガスト,0
3788,"",ステーキガスト 太平通店,愛知県名古屋市中川区太平通４丁目１１,35.133757,136.869301,ステーキガスト,0
3787,"",ステーキガスト 甲府住吉店,山梨県甲府市住吉４丁目２４－７,35.637608,138.585293,ステーキガスト,0
3786,"",ステーキガスト 川崎菅生店,神奈川県川崎市宮前区菅生５丁目２番１８号,35.595761,139.558083,ステーキガスト,0
3785,"",ステーキガスト 岡山下中野店,岡山県岡山市南区下中野字下ノ才１－２,34.637913,133.910361,ステーキガスト,0
3783,"",ステーキガスト 高松松繩店,香川県高松市松縄町４９－９,34.322947,134.060753,ステーキガスト,0
3782,"",ステーキガスト 徳島応神店,徳島県徳島市応神町東貞方字諏訪ノ市３８－１,34.116312,134.51778,ステーキガスト,0
3781,"",ステーキガスト 静岡ＳＢＳ通店,静岡県静岡市駿河区中村町３３３－１,34.951011,138.390139,ステーキガスト,0
3780,"",ステーキガスト 西掛川店,静岡県掛川市細田２４５－１,34.77338,137.985535,ステーキガスト,0
3778,"",ステーキガスト 新潟堀之内店,新潟県新潟市中央区堀之内南１丁目３３－２３,37.903026,139.049658,ステーキガスト,0
3777,"",ステーキガスト 伊勢崎柳原店,群馬県伊勢崎市柳原町５７－２,36.327747,139.198188,ステーキガスト,0
3776,"",ステーキガスト 天白保呂町店,愛知県名古屋市天白区保呂町２２１１,35.117505,136.969649,ステーキガスト,0
3775,"",ステーキガスト 鶴ヶ島店,埼玉県鶴ヶ島市脚折町４丁目２２－６,35.945786,139.394644,ステーキガスト,0
3774,"",ステーキガスト 沢良宜駅前店,大阪府茨木市高浜町１－２６,34.794248,135.566323,ステーキガスト,0
3773,"",ステーキガスト 岸和田店,大阪府岸和田市東大路町１１－６,34.469994,135.418625,ステーキガスト,0
3772,"",ステーキガスト 諏訪店,長野県諏訪市大字四賀字中通２２４０－６,36.015207,138.126281,ステーキガスト,0
3771,"",ステーキガスト 広島羽衣店,広島県広島市中区羽衣町７番７号,34.378967,132.450594,ステーキガスト,0
3770,"",ステーキガスト 名東よもぎ台店,愛知県名古屋市名東区よもぎ台１－６０２,35.179333,136.988349,ステーキガスト,0
3769,"",ステーキガスト 栄鍛冶ヶ谷店,神奈川県横浜市栄区鍛冶ケ谷１丁目１５番地１０号,35.36729,139.561509,ステーキガスト,0
3768,"",ステーキガスト 小平上水本町店,東京都小平市上水本町４丁目２－２,35.717626,139.472913,ステーキガスト,0
3767,"",ガスト 大倉山駅前店（から好し取扱店）,神奈川県横浜市港北区大倉山３丁目５－５　大倉山飯田ビル１Ｆ,35.520893,139.629699,ガスト,0
3766,"",ステーキガスト 大和店,神奈川県大和市大和南２丁目１０－１６,35.464645,139.466669,ステーキガスト,0
3765,"",ガスト 知立店（から好し取扱店）,愛知県知立市南新地１丁目１３－２５,35.001928,137.035259,ガスト,0
3764,"",ガスト 島原店（から好し取扱店）,長崎県島原市蛭子町２丁目８７９番地,32.777768,130.373754,ガスト,0
3763,"",ガスト 徳島鴨島店（から好し取扱店）,徳島県吉野川市鴨島町上下島字呉島５２１－１,34.068247,134.347643,ガスト,0
3762,"",ガスト 春日井柏井店（から好し取扱店）,愛知県春日井市柏井町６丁目１０３,35.233977,136.963389,ガスト,0
3761,"",ガスト 姫路飾磨店（から好し取扱店）,兵庫県姫路市飾磨区中野田２丁目８９,34.806617,134.680726,ガスト,0
3760,"",ガスト 天理インター店（から好し取扱店）,奈良県天理市石上町５０４,34.615006,135.832347,ガスト,0
3759,"",ガスト 岩倉北店（から好し取扱店）,愛知県岩倉市八剱町下り松３３－２,35.292859,136.880423,ガスト,0
3758,"",ガスト 大和高田店（から好し取扱店）,奈良県大和高田市大字築山１１４－１,34.525103,135.735371,ガスト,0
3757,"",ガスト 北上金ヶ崎店（から好し取扱店）,岩手県胆沢郡金ケ崎町三ケ尻荒巻１６５,39.220203,141.099628,ガスト,0
3756,"",ガスト 阪急高槻市駅前店（から好し取扱店）,大阪府高槻市城北町２丁目１－１８,34.849077,135.621618,ガスト,0
3755,"",ガスト 本宮インター店（から好し取扱店）,福島県本宮市荒井字久保田　１３２－８－６,37.485536,140.379648,ガスト,0
3754,"",ガスト 札幌桑園店（から好し取扱店）,北海道札幌市中央区北８条西１４丁目２８番地,43.069418,141.333076,ガスト,0
3753,"",ガスト 石狩店（から好し取扱店）,北海道石狩市緑苑台中央１丁目２番,43.158541,141.335354,ガスト,0
3752,"",ガスト 三笠店（から好し取扱店）,北海道三笠市岡山１０５９－１,43.243444,141.80546,ガスト,0
3751,"",ガスト 豊中本町店（から好し取扱店）,大阪府豊中市本町２丁目４－８０,34.789131,135.457698,ガスト,0
3750,"",ガスト 福島本内店（から好し取扱店）,福島県福島市本内字松川畑２－２,37.779661,140.485536,ガスト,0
3749,"",ガスト 徳島脇町店（から好し取扱店）,徳島県美馬市脇町大字猪尻字八幡神社下南　１２７－１,34.064426,134.156618,ガスト,0
3748,"",ガスト 郡山八山田店（から好し取扱店）,福島県郡山市富田東３丁目１３１,37.426311,140.365477,ガスト,0
3747,"",ガスト 徳島沖浜店（から好し取扱店）,徳島県徳島市問屋町４番地,34.047617,134.551716,ガスト,0
3746,"",ガスト 千歳店（から好し取扱店）,北海道千歳市千代田町７丁目１７８９－３,42.828544,141.650717,ガスト,0
3745,"",ガスト 札幌西野店（から好し取扱店）,北海道札幌市西区西野３条３丁目２－１,43.074417,141.28208,ガスト,0
3744,"",ガスト 下井草店（から好し取扱店）,東京都杉並区下井草２丁目４０－１５,35.723511,139.625017,ガスト,0
3743,"",ガスト 大和店（から好し取扱店）,神奈川県大和市中央１丁目１－２０,35.469398,139.46082,ガスト,0
3742,"",ガスト 練馬店（から好し取扱店）,東京都練馬区練馬１丁目５－６　練馬クリスタルビル２階,35.737318,139.653041,ガスト,0
3741,"",ガスト 千歳船橋店（から好し取扱店）,東京都世田谷区船橋１丁目２９－５,35.647363,139.621487,ガスト,0
3740,"",ガスト 聖蹟桜ヶ丘オーパ店（から好し取扱店）,東京都多摩市関戸４丁目７２　聖蹟桜ヶ丘オーパ内,35.649516,139.446845,ガスト,0
3739,"",ガスト 下総中山店（から好し取扱店）,千葉県船橋市本中山２丁目１７－３７,35.714594,139.942711,ガスト,0
3738,"",ガスト 荻窪南口店（から好し取扱店）,東京都杉並区荻窪５丁目２８－１３　宇田川ビル２Ｆ,35.70397,139.621038,ガスト,0
3737,"",ガスト 川越クレアモール店（から好し取扱店）,埼玉県川越市脇田町８－３,35.910275,139.482763,ガスト,0
3736,"",ガスト 平井駅南口店（から好し取扱店）,東京都江戸川区平井３丁目２３－１９,35.705175,139.844369,ガスト,0
3735,"",ガスト 大鳥居店（から好し取扱店）,東京都大田区東糀谷３丁目３－２２,35.552582,139.740588,ガスト,0
3734,"",ガスト 湘南台店（から好し取扱店）,神奈川県藤沢市湘南台２丁目５－１１,35.396174,139.464706,ガスト,0
3733,"",ガスト 相模大野駅前店（から好し取扱店）,神奈川県相模原市南区相模大野７丁目８－１０　大塚ビル,35.531045,139.438331,ガスト,0
3732,"",ガスト 学芸大学店（から好し取扱店）,東京都目黒区鷹番２丁目２０－６　Ｋｈ．０１　２階,35.628983,139.686837,ガスト,0
3731,"",ガスト 大泉学園店（から好し取扱店）,東京都練馬区東大泉５丁目４３－１　大泉学園ゆめりあ２Ｆ,35.749444,139.585759,ガスト,0
3730,"",ガスト 大船店（から好し取扱店）,神奈川県鎌倉市大船１丁目１０－１８,35.352636,139.531965,ガスト,0
3729,"",ガスト 本八幡店（から好し取扱店）,千葉県市川市南八幡４丁目２－３　丸玉第一ビル２Ｆ,35.720684,139.926741,ガスト,0
3728,"",ガスト 行徳店（から好し取扱店）,千葉県市川市行徳駅前２丁目３,35.682954,139.91424,ガスト,0
3727,"",ガスト 明大前店（から好し取扱店）,東京都世田谷区松原２丁目２７－１４,35.667963,139.649988,ガスト,0
3726,"",ガスト 中央林間店（から好し取扱店）,神奈川県大和市中央林間９丁目６－６,35.510477,139.450781,ガスト,0
3725,"",ガスト 所沢プロぺ通り店（から好し取扱店）,埼玉県所沢市日吉町８－４,35.788757,139.471586,ガスト,0
3724,"",ガスト 橋本駅前店（から好し取扱店）,神奈川県相模原市緑区橋本２丁目３－２　京王橋本駅ビル１階,35.594394,139.344851,ガスト,0
3723,"",ガスト 和光市駅前店（から好し取扱店）,埼玉県和光市本町３－１３　タウンコートエクセル１階,35.787856,139.612957,ガスト,0
3722,"",ガスト 中村橋店（から好し取扱店）,東京都練馬区中村北３丁目２３－３　フォレスト中村橋,35.736321,139.638423,ガスト,0
3721,"",ガスト 日暮里店（から好し取扱店）,東京都荒川区東日暮里５丁目５２－２　２階,35.727805,139.771899,ガスト,0
3720,"",ガスト 板橋駅前店（から好し取扱店）,東京都板橋区板橋１丁目５５－１６　板橋ビュー・クロッシング２階,35.746959,139.720234,ガスト,0
3719,"",ガスト 渋谷道玄坂店（から好し取扱店）,東京都渋谷区道玄坂２丁目１１－４　ストークビル道玄坂２階,35.657668,139.69599,ガスト,0
3718,"",ガスト 柏駅南口店（から好し取扱店）,千葉県柏市柏１丁目６－１０　さくら屋ビル１階,35.85995,139.97295,ガスト,0
3717,"",ガスト 南池袋店（から好し取扱店）,東京都豊島区南池袋２丁目２４－５,35.727331,139.713384,ガスト,0
3716,"",ガスト 葛西店（から好し取扱店）,東京都江戸川区東葛西６丁目２－７,35.662874,139.873413,ガスト,0
3715,"",ガスト 海老名店（から好し取扱店）,神奈川県海老名市中央２丁目１－１,35.451124,139.392391,ガスト,0
3714,"",ガスト 吉祥寺店（から好し取扱店）,東京都武蔵野市吉祥寺本町１丁目１８－３,35.704358,139.58113,ガスト,0
3713,"",ガスト 田端店（から好し取扱店）,東京都北区田端１丁目２１－８　ＮＳＫビル２Ｆ,35.73798,139.760367,ガスト,0
3712,"",ガスト 西葛西駅前店（から好し取扱店）,東京都江戸川区西葛西６丁目１０－１２　ＭＭビル２階,35.663797,139.85867,ガスト,0
3711,"",ガスト 京王リトナード東府中店（から好し取扱店）,東京都府中市清水が丘１丁目８－３　京王リトナード１階,35.669233,139.495056,ガスト,0
3710,"",ガスト 金町駅北口店（から好し取扱店）,東京都葛飾区東金町１丁目４３－１　常総金町ビル２階,35.770148,139.870986,ガスト,0
3709,"",ガスト 鶴見駅東口店（から好し取扱店）,神奈川県横浜市鶴見区鶴見中央１丁目２番１号　第２日野ビル３Ｆ,35.508424,139.67705,ガスト,0
3708,"",ガスト 小倉貴船店（から好し取扱店）,福岡県北九州市小倉北区貴船町１－１６,33.871844,130.870741,ガスト,0
3707,"",ガスト 岩倉店（から好し取扱店）,愛知県岩倉市旭町１丁目２５番地,35.276178,136.873273,ガスト,0
3706,"",ガスト 京成船橋駅前店（から好し取扱店）,千葉県船橋市本町４丁目４５番３０号　京成船橋駅東側施設２階,35.700443,139.986257,ガスト,0
3705,"",ガスト 今池駅前店（から好し取扱店）,愛知県名古屋市千種区今池４丁目９－２３,35.169533,136.937389,ガスト,0
3704,"",ガスト プレナ幕張店（から好し取扱店）,千葉県千葉市美浜区ひび野２丁目４　プレナ幕張４階,35.647905,140.040408,ガスト,0
3703,"",ガスト 府中けやき通店（から好し取扱店）,東京都府中市宮西町１丁目５－１　Ｂ１,35.671342,139.478817,ガスト,0
3702,"",ガスト 盛岡上堂店（から好し取扱店）,岩手県盛岡市上堂４丁目１３－１０,39.729122,141.122541,ガスト,0
3701,"",ガスト 吉祥寺元町通店（から好し取扱店）,東京都武蔵野市吉祥寺本町１丁目８－５　チェリービル・レンガ館Ｂ１,35.704596,139.578544,ガスト,0
3700,"",ガスト 志木駅前店（から好し取扱店）,埼玉県新座市東北２丁目３０－１６　高橋ビル１階,35.821972,139.573479,ガスト,0
3699,"",ガスト 三田慶応大学前店（から好し取扱店）,東京都港区芝５丁目１４－１０　プレミアステージ三田慶大前２階,35.647906,139.744811,ガスト,0
3698,"",ガスト 池袋西口店（から好し取扱店）,東京都豊島区池袋２丁目７－３　オアシス１階,35.732392,139.70853,ガスト,0
3697,"",ガスト 仲御徒町店（から好し取扱店）,東京都台東区上野５丁目１５－１　ホテルニューグリーン１Ｆ,35.704898,139.775619,ガスト,0
3696,"",ガスト 渋谷宇田川町店（から好し取扱店）,東京都渋谷区宇田川町３４－５　サイトービル３　２階,35.661088,139.696442,ガスト,0
3695,"",ガスト 市川駅北口店（から好し取扱店）,千葉県市川市市川１丁目４－１７　アクティオーレ２Ｆ,35.729067,139.908916,ガスト,0
3694,"",ガスト 東武練馬駅前店（から好し取扱店）,東京都板橋区徳丸２丁目３－１,35.768962,139.66171,ガスト,0
3693,"",ガスト 奈良桜井店（から好し取扱店）,奈良県桜井市大字阿部４２９－１,34.508919,135.837877,ガスト,0
3692,"",ガスト 蘇我店（から好し取扱店）,千葉県千葉市中央区川崎町１－１６,35.579785,140.125719,ガスト,0
3691,"",ガスト 港北センター南店（から好し取扱店）,神奈川県横浜市都筑区茅ケ崎中央３－２５　ａｕｎｅ港北２Ｆ,35.544572,139.574456,ガスト,0
3690,"",ガスト 鶯谷店（から好し取扱店）,東京都台東区根岸１丁目１－２１,35.720777,139.780767,ガスト,0
3689,"",ガスト 久居インター店（から好し取扱店）,三重県津市戸木町７８２７－１,34.679805,136.453607,ガスト,0
3688,"",ガスト 自治医大前店（から好し取扱店）,栃木県下野市祇園１丁目１５－１,36.393423,139.857986,ガスト,0
3687,"",ガスト 練馬春日町店（から好し取扱店）,東京都練馬区春日町６丁目８－４８,35.754895,139.637326,ガスト,0
3686,"",ガスト 上新庄駅前店（から好し取扱店）,大阪府大阪市東淀川区瑞光１丁目２－５　グラン・ノア２Ｆ,34.748001,135.53346,ガスト,0
3685,"",ガスト 伊勢佐木町店（から好し取扱店）,神奈川県横浜市中区伊勢佐木町４丁目１１５番,35.441434,139.628456,ガスト,0
3684,"",ガスト 北本店（から好し取扱店）,埼玉県北本市東間４丁目３８－１,36.037712,139.531866,ガスト,0
3683,"",ガスト 可児下恵土店（から好し取扱店）,岐阜県可児市下恵土字野区路２９１６－１,35.424653,137.0497,ガスト,0
3682,"",ガスト 奈良平群店（から好し取扱店）,奈良県生駒郡平群町大字下垣内７５－１,34.628557,135.706204,ガスト,0
3681,"",ガスト 名張店（から好し取扱店）,三重県名張市蔵持町原出１７５８番,34.632377,136.110156,ガスト,0
3680,"",ガスト 寒河江店（から好し取扱店）,山形県寒河江市大字寒河江字赤田１３２－２,38.373476,140.290754,ガスト,0
3679,"",ガスト 桑名店（から好し取扱店）,三重県桑名市矢田磧１６４－１,35.059899,136.685191,ガスト,0
3678,"",ガスト 金沢駅前店（から好し取扱店）,石川県金沢市昭和町１３－２０,36.574748,136.647584,ガスト,0
3677,"",ガスト 本厚木駅前店（から好し取扱店）,神奈川県厚木市中町２丁目６－２０,35.441033,139.364677,ガスト,0
3676,"",ガスト 広島本通店（から好し取扱店）,広島県広島市中区本通８－２３　本通ヒルズＢ１Ｆ,34.393023,132.458719,ガスト,0
3675,"",ガスト 加治木店（から好し取扱店）,鹿児島県姶良市加治木町木田１５９－２　ソレイユタウン加治木,31.735937,130.656949,ガスト,0
3674,"",ガスト 物井店（から好し取扱店）,千葉県四街道市もねの里３丁目１５－１,35.690299,140.190435,ガスト,0
3673,"",ガスト 船橋日大前店（から好し取扱店）,千葉県船橋市坪井東３丁目６－１,35.725994,140.060852,ガスト,0
3672,"",ガスト 南陽店（から好し取扱店）,山形県南陽市赤湯３０５１－１,38.048127,140.174432,ガスト,0
3671,"",ガスト 弘前樋ノ口店（から好し取扱店）,青森県弘前市大字樋の口２丁目９－６,40.602682,140.444332,ガスト,0
3670,"",ガスト 西葛西店（から好し取扱店）,東京都江戸川区西葛西４丁目２－２８,35.668258,139.861533,ガスト,0
3669,"",ガスト 福岡志免店（から好し取扱店）,福岡県糟屋郡志免町別府３丁目５－１２,33.605031,130.456773,ガスト,0
3668,"",ガスト 天王寺桃山店（から好し取扱店）,大阪府大阪市天王寺区筆ケ崎町２番地２２号,34.662599,135.526979,ガスト,0
3667,"",ガスト 長崎深堀店（から好し取扱店）,長崎県長崎市深堀町１丁目１４５－２１　フレスポ深堀,32.684833,129.834103,ガスト,0
3666,"",ガスト 加古川水足店（から好し取扱店）,兵庫県加古川市野口町水足３３３－３３,34.763648,134.861439,ガスト,0
3665,"",ガスト 太宰府南店（から好し取扱店）,福岡県太宰府市梅香苑１丁目２１－１３,33.500194,130.530906,ガスト,0
3664,"",ガスト 安城南町店（から好し取扱店）,愛知県安城市南町４番２２号,34.949019,137.092023,ガスト,0
3663,"",ガスト 犬山楽田店（から好し取扱店）,愛知県犬山市字外屋敷８６－１,35.328143,136.948506,ガスト,0
3662,"",ガスト 四日市インター店（から好し取扱店）,三重県四日市市智積町字間渡５９３１,34.989196,136.550491,ガスト,0
3660,"",ガスト 新発田店（から好し取扱店）,新潟県新発田市舟入町３丁目２番１５号,37.960816,139.306998,ガスト,0
3659,"",ガスト 福井文京店（から好し取扱店）,福井県福井市文京５丁目１５－２９,36.076202,136.203642,ガスト,0
3658,"",ガスト 佐伯店（から好し取扱店）,大分県佐伯市鶴岡西町２丁目１８４,32.961009,131.865506,ガスト,0
3657,"",ガスト 町田図師店（から好し取扱店）,東京都町田市図師町１７６５,35.583721,139.428678,ガスト,0
3656,"",ガスト 野方店（から好し取扱店）,東京都中野区野方５丁目２９番１号,35.718884,139.652747,ガスト,0
3655,"",ガスト ウニクス成田店（から好し取扱店）,千葉県成田市はなのき台２丁目２５－１,35.778131,140.284356,ガスト,0
3653,"",ガスト 象潟店（から好し取扱店）,秋田県にかほ市象潟町字大門先６番地１,39.218927,139.901493,ガスト,0
3652,"",ガスト 神戸ひよどり台店（から好し取扱店）,兵庫県神戸市北区ひよどり台南町２丁目１－２,34.688103,135.123746,ガスト,0
3651,"",ガスト 宇治東店（から好し取扱店）,京都府宇治市宇治乙方５２－９,34.894748,135.807846,ガスト,0
3650,"",ガスト 茨木島店（から好し取扱店）,大阪府茨木市宮島１丁目３番２３号,34.790361,135.578436,ガスト,0
3649,"",ガスト 岡山野殿店（から好し取扱店）,岡山県岡山市北区野殿東町１－４３,34.658849,133.881959,ガスト,0
3648,"",ガスト 岡山平井店（から好し取扱店）,岡山県岡山市中区平井５丁目７番４３号,34.637613,133.943416,ガスト,0
3647,"",ガスト 新習志野店（から好し取扱店）,千葉県習志野市茜浜１丁目１－１,35.674824,140.001043,ガスト,0
3646,"",ガスト 古渡町店（から好し取扱店）,愛知県名古屋市中区古渡町１８番１２号,35.149714,136.898549,ガスト,0
3645,"",ガスト 京都醍醐店（から好し取扱店）,京都府京都市伏見区醍醐川久保町２６－９,34.954449,135.811497,ガスト,0
3644,"",ガスト 三鷹新川店（から好し取扱店）,東京都三鷹市新川６丁目３４－８,35.683298,139.564157,ガスト,0
3643,"",ガスト 岸辺駅前店（から好し取扱店）,大阪府吹田市岸部南１丁目２－６,34.776766,135.543604,ガスト,0
3642,"",ガスト 京都常盤店（から好し取扱店）,京都府京都市右京区常盤村ノ内町１－４,35.019704,135.708133,ガスト,0
3641,"",ガスト 桐生店（から好し取扱店）,群馬県桐生市相生町１丁目１２４－１,36.405039,139.318566,ガスト,0
3640,"",ガスト 保土ケ谷駅前店（から好し取扱店）,神奈川県横浜市保土ケ谷区帷子町１丁目４３－３,35.447153,139.598479,ガスト,0
3639,"",ガスト 小倉城野店（から好し取扱店）,福岡県北九州市小倉北区重住３丁目３番３号,33.857001,130.890051,ガスト,0
3638,"",ガスト 神戸新在家店（から好し取扱店）,兵庫県神戸市灘区新在家南町１丁目２－２,34.707891,135.23972,ガスト,0
3637,"",ガスト 吹田千里山店（から好し取扱店）,大阪府吹田市千里山竹園２丁目１７－３５ノア・イン　ドアステージ南千里２Ｆ,34.786608,135.50421,ガスト,0
3636,"",ガスト 高崎駅西口店（から好し取扱店）,群馬県高崎市あら町１５６,36.322473,139.007679,ガスト,0
3634,"",ガスト 春日桜ケ丘店（から好し取扱店）,福岡県春日市桜ヶ丘２丁目１４,33.5455982,130.4462701,ガスト,0
3633,"",ガスト 東村山市役所前店（から好し取扱店）,東京都東村山市本町１丁目１７－２,35.755913,139.466776,ガスト,0
3632,"",ガスト 町田駅前店（から好し取扱店）,東京都町田市原町田６丁目９番地１８号　ＴＮ　ＳＱＵＡＲＥ　３階,35.543202,139.446666,ガスト,0
3631,"",ガスト 新宿西口エルタワー店（から好し取扱店）,東京都新宿区西新宿１丁目６－１　新宿エルタワーＢ２Ｆ,35.6922237,139.6972271,ガスト,0
3630,"",ガスト 千葉駅東口店（から好し取扱店）,千葉県千葉市中央区富士見２丁目１－１　マインズ千葉Ａ館　地下Ｂ１０２－２,35.61186,140.115568,ガスト,0
3629,"",ガスト あびこショッピングプラザ店（から好し取扱店）,千葉県我孫子市我孫子４丁目１１－１　あびこショッピングプラザ１階,35.876248,140.008558,ガスト,0
3628,"",ガスト 下赤塚店（から好し取扱店）,東京都練馬区田柄２丁目４８－１０　ＧＲＡＮＤ　ＴＥＲＲＡＣＥ　ＡＫＡＴＳＵＫＡ　２Ｆ,35.770456,139.642738,ガスト,0
3627,"",ガスト 宗像店（から好し取扱店）,福岡県宗像市光岡２７７－１　（ガスト棟）,33.785718,130.556088,ガスト,0
3626,"",ガスト 五反野店（から好し取扱店）,東京都足立区中央本町２丁目２６－１２　サミットストア五反野店２Ｆ,35.767367,139.808923,ガスト,0
3625,"",ガスト 太田駅前店（から好し取扱店）,群馬県太田市東本町２７－６,36.295944,139.377944,ガスト,0
3624,"",ガスト 尼崎塚口店（から好し取扱店）,兵庫県尼崎市南塚口町８丁目９－１,34.750584,135.411588,ガスト,0
3623,"",ガスト 札幌厚別店（から好し取扱店）,北海道札幌市厚別区厚別東４条４丁目１０－１,43.04945,141.482369,ガスト,0
3622,"",ガスト 札幌手稲店（から好し取扱店）,北海道札幌市手稲区前田４条１１丁目１－３１,43.123129,141.249769,ガスト,0
3621,"",ガスト 苫小牧店（から好し取扱店）,北海道苫小牧市元中野町３丁目６－２０,42.640483,141.614598,ガスト,0
3620,"",ガスト 那覇天久店（から好し取扱店）,沖縄県那覇市天久２丁目６－３０,26.230509,127.686432,ガスト,0
3619,"",ガスト 瑞江駅前店（から好し取扱店）,東京都江戸川区瑞江２丁目５－１　ドーミー瑞江２Ｆ,35.693588,139.897342,ガスト,0
3618,"",ガスト イトーヨーカドー武蔵小金井店（から好し取扱店）,東京都小金井市本町６丁目１４ー９　イトーヨーカドー武蔵小金井１Ｆ,35.700513,139.504926,ガスト,0
3617,"",ガスト 札幌狸小路店（から好し取扱店）,北海道札幌市中央区南３条西４丁目１２－１　アルシュビル５Ｆ,43.0569712,141.3525778,ガスト,0
3616,"",ガスト 帯広白樺店（から好し取扱店）,北海道帯広市白樺１６条西２丁目２番地　ダイイチ白樺店内,42.919346,143.172422,ガスト,0
3615,"",ガスト イトーヨーカドー武蔵境店（から好し取扱店）,東京都武蔵野市境南町２丁目２－２０　イトーヨーカドー東館４階,35.701109,139.545671,ガスト,0
3614,"",ガスト イトーヨーカドー赤羽店（から好し取扱店）,東京都北区赤羽西１丁目７－１　イトーヨーカドー赤羽店６Ｆ,35.777077,139.719325,ガスト,0
3613,"",ガスト 茅場町駅前店（から好し取扱店）,東京都中央区日本橋茅場町２丁目１３－５　スマイルホテル東京日本橋　地下１階,35.678946,139.780108,ガスト,0
3612,"",ガスト 藤沢駅南口店（から好し取扱店）,神奈川県藤沢市南藤沢１９－１２　ヤマタネ藤沢ビル２Ｆ,35.337013,139.489974,ガスト,0
3611,"",ガスト 流山おおたかの森駅前店（から好し取扱店）,千葉県流山市おおたかの森西１丁目１－１　こかげテラス１階,35.871655,139.924778,ガスト,0
3610,"",ガスト 長崎中央橋店（から好し取扱店）,長崎県長崎市銅座町４－１　りそな長崎ビル２Ｆ,32.743866,129.876528,ガスト,0
3609,"",ガスト 薬院駅前店（から好し取扱店）,福岡県福岡市中央区白金１丁目２１番１５号　薬院ロイヤルビル２Ｆ,33.58142,130.401519,ガスト,0
3608,"",ガスト 仙台名掛丁店（から好し取扱店）,宮城県仙台市青葉区中央１丁目８－２０　ドン・キホーテ仙台駅西口本店　Ｂ１階,38.261595,140.879263,ガスト,0
3607,"",ガスト 堺北花田店（から好し取扱店）,大阪府堺市北区北花田町３丁１７－１,34.582936,135.516725,ガスト,0
3606,"",ガスト 小倉駅前店（から好し取扱店）,福岡県北九州市小倉北区京町２丁目４－２７　小倉駅前ＫＤビル３Ｆ,33.886421,130.881209,ガスト,0
3605,"",ガスト 佐賀武雄店（から好し取扱店）,佐賀県武雄市武雄町大字昭和２７７,33.193624,130.027763,ガスト,0
3604,"",ガスト 熊谷ニットーモール店（から好し取扱店）,埼玉県熊谷市銀座２丁目２４５番地２４６番地　熊谷ニットーモール１階,36.139227,139.392778,ガスト,0
3603,"",ガスト 川西能勢口駅前店（から好し取扱店）,兵庫県川西市栄町１６－６　アクロスキューブ川西能勢口１Ｆ,34.828411,135.412534,ガスト,0
3602,"",ガスト 尾張旭店（から好し取扱店）,愛知県尾張旭市南原山町赤土２９０－１,35.214717,137.049006,ガスト,0
3601,"",ガスト 静岡呉服町通り店（から好し取扱店）,静岡県静岡市葵区紺屋町１－６　協友ビル２階,34.973601,138.385183,ガスト,0
3600,"",ガスト 上大岡駅前店（から好し取扱店）,神奈川県横浜市港南区上大岡西２丁目９－５　ａｋａｆｏｏ　ｐａｒｋ西館１Ｆ,35.40653,139.595281,ガスト,0
3599,"",ガスト 秋葉原駅前店,東京都千代田区外神田１丁目１８－１８　秋葉原駅前プラザ４階,35.698743,139.772291,ガスト,0
3598,"",ガスト 高松丸亀町店（から好し取扱店）,香川県高松市丸亀町１４－６　高松丸亀町弐番街２号館２Ｆ,34.345008,134.050479,ガスト,0
3597,"",ガスト 住ノ江駅店（から好し取扱店）,大阪府大阪市住之江区西住之江１丁目１－４１　Ｎ．ＫＬＡＳＳ住ノ江２４号区画,34.605131,135.487025,ガスト,0
3596,"",ガスト 大岡山駅前店（から好し取扱店）,東京都大田区北千束１丁目４４－１　リバーレプラザ大岡山２階,35.608186,139.685465,ガスト,0
3595,"",ガスト 綱島店（から好し取扱店）,神奈川県横浜市港北区綱島東１丁目１－６　２階,35.53698,139.635279,ガスト,0
3594,"",ガスト 溝の口駅前店（から好し取扱店）,神奈川県川崎市高津区溝口１丁目１１－８　ＯＫＫＡ６３４　４階,35.599944,139.6126,ガスト,0
3593,"",ガスト 大森山王店（から好し取扱店）,東京都大田区山王３丁目６－３　ＭＥＧＡドン・キホーテ大森山王店　４階,35.58311,139.723598,ガスト,0
3592,"",ガスト 赤坂見附店（から好し取扱店）,東京都港区赤坂３丁目９－５　マーブル赤坂ビル　２Ｆ,35.676902,139.736473,ガスト,0
3591,"",ガスト 天王寺東店（から好し取扱店）,大阪府大阪市生野区林寺２丁目１９－１４,34.64401,135.529892,ガスト,0
3590,"",ガスト 下北沢駅前店（から好し取扱店）,東京都世田谷区北沢２丁目１１－８　ＴＡＲＯビル２Ｆ,35.661252,139.667907,ガスト,0
3589,"",ガスト 堺筋本町店（から好し取扱店）,大阪府大阪市中央区安土町２丁目２－１５　ハウザー堺筋駅前ビル２Ｆ,34.684056,135.506161,ガスト,0
3578,"",とんから亭 葛西駅前店,東京都江戸川区中葛西５丁目４３－１　メトロセンター１Ｆ,35.66363,139.871564,とんから亭,0
3577,"",から好し 三重名張店,三重県名張市鴻之台１番町１９２,34.627376,136.109866,から好し（ガスト内店含む）,0
3576,"",から好し 摂津鳥飼西店,大阪府摂津市鳥飼西５丁目５－４,34.769245,135.570402,から好し（ガスト内店含む）,0
3574,"",から好し 一宮木曽川インター店,愛知県一宮市大毛白山東２１－１,35.343938,136.795155,から好し（ガスト内店含む）,0
3573,"",から好し 甲府中央店,山梨県甲府市飯田１丁目２－４,35.668121,138.55791,から好し（ガスト内店含む）,0
3572,"",から好し 大津堅田店,滋賀県大津市本堅田５丁目１４２７－６,35.114241,135.912666,から好し（ガスト内店含む）,0
3571,"",から好し さいたま道祖土店,埼玉県さいたま市緑区道祖土３丁目５－１８,35.879406,139.670901,から好し（ガスト内店含む）,0
3570,"",とんから亭 米子車尾店,鳥取県米子市車尾４丁目３－３６,35.432455,133.360573,とんから亭,0
3569,"",から好し 鈴鹿三日市町店,三重県鈴鹿市三日市町字赤土田１０４２－１,34.875,136.559651,から好し（ガスト内店含む）,0
3568,"",から好し 寒川店,神奈川県高座郡寒川町宮山１７３番１,35.372961,139.383071,から好し（ガスト内店含む）,0
3567,"",から好し 横浜岡津店,神奈川県横浜市泉区岡津町１４４－１,35.426417,139.52808,から好し（ガスト内店含む）,0
3566,"",から好し 大和下和田店,神奈川県大和市下和田字中ノ原９５９－１,35.430483,139.468281,から好し（ガスト内店含む）,0
3565,"",から好し 東大阪瓜生堂店,大阪府東大阪市瓜生堂１丁目１３－３４,34.662357,135.599183,から好し（ガスト内店含む）,0
3564,"",から好し 百舌鳥店,大阪府堺市北区百舌鳥赤畑町２丁１１３－１,34.560794,135.493858,から好し（ガスト内店含む）,0
3562,"",から好し 小平小川町店,東京都小平市小川町２丁目１８６３,35.730518,139.474514,から好し（ガスト内店含む）,0
3561,"",とんから亭 鳥取安長店,鳥取県鳥取市安長１６７－１,35.513466,134.200217,とんから亭,0
3560,"",とんから亭 八尾店,大阪府八尾市宮町１丁目１０－２７,34.63406,135.596325,とんから亭,0
3559,"",とんから亭 川口道合店,埼玉県川口市大字道合放山８４番の１,35.84985,139.711187,とんから亭,0
3558,"",とんから亭 広島霞町店,広島県広島市南区霞２丁目５－７,34.377999,132.480043,とんから亭,0
3557,"",とんから亭 三郷彦成店,埼玉県三郷市彦成２丁目２４６－１,35.854891,139.850079,とんから亭,0
3555,"",とんから亭 東久留米店,東京都東久留米市本町３丁目２－１,35.759284,139.530812,とんから亭,0
3554,"",とんから亭 草加柳島店,埼玉県草加市柳島町字道通９０４番地１,35.816363,139.786619,とんから亭,0
3553,"",ガスト 丸亀店（から好し取扱店）,香川県丸亀市中府町１丁目６ー３１,34.279888,133.796759,ガスト,0
3552,"",ガスト 豊中旭丘店（から好し取扱店）,大阪府豊中市旭丘４番１３０号,34.787536,135.481578,ガスト,0
3551,"",ガスト 郡山南店（から好し取扱店）,福島県郡山市南２丁目１４,37.368912,140.371354,ガスト,0
3550,"",ガスト 長野稲里店（から好し取扱店）,長野県長野市稲里１丁目６－２５,36.61271,138.173914,ガスト,0
3549,"",ガスト 八王子大和田店（から好し取扱店）,東京都八王子市大和田町４丁目１５－１０,35.666013,139.35661,ガスト,0
3548,"",ガスト 日本橋浜町店（から好し取扱店）,東京都中央区日本橋浜町３丁目３番１号　トルナーレ日本橋浜町２階,35.684806,139.788339,ガスト,0
3547,"",ガスト 名古屋港ショッピングモール店（から好し取扱店）,愛知県名古屋市港区一州町１－３,35.091565,136.863819,ガスト,0
3546,"",ガスト 佐倉店（から好し取扱店）,千葉県佐倉市栄町２２－１１,35.724551,140.227704,ガスト,0
3545,"",ガスト 千葉ニュータウン中央店（から好し取扱店）,千葉県印西市中央南２丁目５,35.798436,140.112343,ガスト,0
3544,"",ガスト 名護店（から好し取扱店）,沖縄県名護市字宮里８７５番地１６,26.600987,127.967727,ガスト,0
3543,"",ガスト 大森中店（から好し取扱店）,東京都大田区大森中１丁目１７－１９,35.569372,139.731028,ガスト,0
3542,"",ガスト 鹿児島吉野店（から好し取扱店）,鹿児島県鹿児島市吉野町２２３５－２,31.638537,130.569959,ガスト,0
3541,"",ガスト 豊田上野店（から好し取扱店）,愛知県豊田市上野町６丁目１０６－１,35.086633,137.181576,ガスト,0
3540,"",ガスト 星川駅前店（から好し取扱店）,神奈川県横浜市保土ケ谷区星川１丁目１－２,35.457963,139.595916,ガスト,0
3539,"",ガスト 泉パークタウン店（から好し取扱店）,宮城県仙台市泉区紫山１丁目１－４,38.344656,140.835653,ガスト,0
3538,"",ガスト 船橋二和店（から好し取扱店）,千葉県船橋市咲が丘２丁目１９－１３,35.757123,140.019973,ガスト,0
3537,"",ガスト 緑園都市店（から好し取扱店）,神奈川県横浜市泉区緑園４丁目１－８,35.439515,139.523927,ガスト,0
3536,"",ガスト 羽生店（から好し取扱店）,埼玉県羽生市南６丁目２１－１,36.16419,139.544429,ガスト,0
3535,"",ガスト 日高店（から好し取扱店）,埼玉県日高市大字鹿山ハヤシ２８４－１,35.897702,139.343953,ガスト,0
3534,"",ガスト 板橋坂下店（から好し取扱店）,東京都板橋区坂下１丁目１３－１,35.778061,139.682252,ガスト,0
3533,"",ガスト 調布上石原店（から好し取扱店）,東京都調布市上石原２丁目４２－４,35.654777,139.529127,ガスト,0
3532,"",ガスト 東十条店（から好し取扱店）,東京都北区東十条５丁目７－２,35.768524,139.727297,ガスト,0
3531,"",ガスト 伊万里駅前店（から好し取扱店）,佐賀県伊万里市新天町浜の浦５４９－１１,33.271321,129.876603,ガスト,0
3530,"",ガスト 豊橋三ノ輪店（から好し取扱店）,愛知県豊橋市三ノ輪町５丁目１番地,34.753013,137.411527,ガスト,0
3529,"",ガスト 関内店（から好し取扱店）,神奈川県横浜市中区尾上町３丁目４６－１,35.445503,139.635923,ガスト,0
3528,"",ガスト 東戸塚店（から好し取扱店）,神奈川県横浜市戸塚区品濃町５４８－２,35.431844,139.558041,ガスト,0
3527,"",ガスト 長岡京店（から好し取扱店）,京都府長岡京市滝ノ町１丁目１７番８号,34.941194,135.698037,ガスト,0
3526,"",ガスト 茨木豊川店（から好し取扱店）,大阪府茨木市西豊川町４番６号,34.83578,135.52287,ガスト,0
3525,"",ガスト 水俣店（から好し取扱店）,熊本県水俣市昭和町２丁目１番２６号,32.207183,130.397262,ガスト,0
3524,"",ガスト 岩国店（から好し取扱店）,山口県岩国市立石町３丁目１－３２,34.176357,132.225271,ガスト,0
3523,"",ガスト 大分森町店（から好し取扱店）,大分県大分市大字森町２３８－１,33.229431,131.681327,ガスト,0
3522,"",ガスト 八王子寺町店（から好し取扱店）,東京都八王子市寺町３－１,35.657261,139.33293,ガスト,0
3521,"",ガスト 延岡店（から好し取扱店）,宮崎県延岡市共栄町４５９７－３,32.566149,131.671741,ガスト,0
3520,"",ガスト 島根平田店（から好し取扱店）,島根県出雲市平田町７１４５番地,35.439708,132.822867,ガスト,0
3519,"",ガスト 奈良三条店（から好し取扱店）,奈良県奈良市下三条町３１－１,34.682212,135.822939,ガスト,0
3518,"",ガスト 各務原店（から好し取扱店）,岐阜県各務原市那加住吉町２丁目１２－１,35.398247,136.851014,ガスト,0
3517,"",ガスト いわき平店（から好し取扱店）,福島県いわき市内郷御厩町４丁目１４０,37.05107,140.876983,ガスト,0
3516,"",ガスト 水戸インター店（から好し取扱店）,茨城県水戸市大塚町成就院下１５５７－１,36.386105,140.394361,ガスト,0
3515,"",ガスト 登別店（から好し取扱店）,北海道登別市富岸町１丁目１－１,42.385309,141.071461,ガスト,0
3514,"",ガスト 伊勢崎東店（から好し取扱店）,群馬県伊勢崎市三室町５３２７－２,36.328705,139.23542,ガスト,0
3513,"",ガスト 札幌新琴似店（から好し取扱店）,北海道札幌市北区新琴似１条１３丁目１６番２０号,43.11415,141.305466,ガスト,0
3512,"",ガスト 湯沢店（から好し取扱店）,秋田県湯沢市材木町１丁目３－２８,39.161026,140.489379,ガスト,0
3511,"",ガスト 札幌美しが丘店（から好し取扱店）,北海道札幌市清田区美しが丘４条７丁目１番１８号,42.976545,141.460916,ガスト,0
3510,"",ガスト 五城目店（から好し取扱店）,秋田県南秋田郡五城目町上樋口字熊野堂５９－１,39.934398,140.108935,ガスト,0
3509,"",ガスト 角館店（から好し取扱店）,秋田県仙北市角館町下菅沢２２７番地,39.585706,140.571331,ガスト,0
3508,"",ガスト 鷲宮店（から好し取扱店）,埼玉県久喜市西大輪４丁目１－６,36.087436,139.676135,ガスト,0
3507,"",ガスト 旭川豊岡店（から好し取扱店）,北海道旭川市豊岡１４条６丁目６－１５,43.772663,142.412909,ガスト,0
3506,"",ガスト 旭川旭町店（から好し取扱店）,北海道旭川市旭町１条７丁目８４１－５５,43.786949,142.352279,ガスト,0
3505,"",ガスト 広島千代田店（から好し取扱店）,広島県山県郡北広島町有田１５３５－１,34.674595,132.535194,ガスト,0
3504,"",ガスト 沖縄南風原店（から好し取扱店）,沖縄県島尻郡南風原町字津嘉山１４６８－５,26.189764,127.709094,ガスト,0
3503,"",ガスト 大分木ノ上店（から好し取扱店）,大分県大分市大字木上字鉾手４１－１,33.184467,131.569046,ガスト,0
3502,"",ガスト 玉川上水店（から好し取扱店）,東京都東大和市桜が丘２丁目５３－１２,35.734852,139.418368,ガスト,0
3501,"",ガスト 新潟上王瀬店（から好し取扱店）,新潟県新潟市東区上王瀬町２番３２号,37.936171,139.088566,ガスト,0
3500,"",ガスト 玉名店（から好し取扱店）,熊本県玉名市築地字市場９７,32.929947,130.532829,ガスト,0
3499,"",ガスト 志摩阿児店（から好し取扱店）,三重県志摩市阿児町鵜方４８７３,34.328809,136.821613,ガスト,0
3498,"",ガスト 滝川店（から好し取扱店）,北海道滝川市東町１丁目４９－１,43.553491,141.926234,ガスト,0
3497,"",ガスト 亀岡店（から好し取扱店）,京都府亀岡市余部町天神又７ー４,35.016874,135.565035,ガスト,0
3496,"",ガスト 岡山高屋店（から好し取扱店）,岡山県岡山市中区高屋１５３－１,34.673543,133.964893,ガスト,0
3495,"",ガスト 久慈店（から好し取扱店）,岩手県久慈市長内町３０－５０－２－２,40.191028,141.78579,ガスト,0
3494,"",ガスト 矢吹町店（から好し取扱店）,福島県西白河郡矢吹町八幡町４２０番地１,37.195229,140.332173,ガスト,0
3493,"",ガスト 門真店（から好し取扱店）,大阪府門真市一番町１番６号,34.733767,135.59377,ガスト,0
3492,"",ガスト 青森浜館店（から好し取扱店）,青森県青森市浜館５丁目１－３,40.806683,140.786936,ガスト,0
3491,"",ガスト 山口湯田店（から好し取扱店）,山口県山口市湯田温泉４丁目１－８,34.164404,131.456285,ガスト,0
3490,"",ガスト 金沢入江店（から好し取扱店）,石川県金沢市入江２丁目１６８,36.565349,136.625973,ガスト,0
3489,"",ガスト 宜野湾長田店（から好し取扱店）,沖縄県宜野湾市長田４丁目３－５,26.261969,127.762262,ガスト,0
3488,"",ガスト 原町店（から好し取扱店）,福島県南相馬市原町区桜井町１丁目８,37.639895,140.97649,ガスト,0
3487,"",ガスト 呉店（から好し取扱店）,広島県呉市中央７丁目３－１８－１０１,34.253527,132.568785,ガスト,0
3486,"",ガスト 東出雲店（から好し取扱店）,島根県松江市東出雲町揖屋藤木６６５－１４,35.426339,133.14709,ガスト,0
3485,"",ガスト 福井坂井店（から好し取扱店）,福井県坂井市坂井町下新庄１６－２５,36.168845,136.221103,ガスト,0
3484,"",ガスト 札幌福住店（から好し取扱店）,北海道札幌市豊平区福住３条１丁目１－５,43.018841,141.406,ガスト,0
3483,"",ガスト 大村店（から好し取扱店）,長崎県大村市片町１７５番地,32.903555,129.958212,ガスト,0
3482,"",ガスト 洲本店（から好し取扱店）,兵庫県洲本市桑間ナカマチ６８１番地,34.343304,134.859442,ガスト,0
3481,"",ガスト 沖縄佐敷店（から好し取扱店）,沖縄県南城市佐敷津波古西原１１８１,26.186424,127.774036,ガスト,0
3480,"",ガスト 札幌豊平店（から好し取扱店）,北海道札幌市豊平区豊平３条１１丁目２－２９,43.046401,141.379873,ガスト,0
3479,"",ガスト 諫早店（から好し取扱店）,長崎県諫早市小船越町１０７０－１,32.838489,130.036119,ガスト,0
3478,"",ガスト 西条店（から好し取扱店）,愛媛県西条市朔日市７６７番地１,33.928635,133.18524,ガスト,0
3477,"",ガスト 八戸類家店（から好し取扱店）,青森県八戸市南類家２丁目１－２６,40.503352,141.506951,ガスト,0
3476,"",ガスト 船引町店（から好し取扱店）,福島県田村市船引町東部台６丁目３７,37.435979,140.585631,ガスト,0
3475,"",ガスト 東広島西条インター店（から好し取扱店）,広島県東広島市西条町吉行８５５－５,34.438774,132.756425,ガスト,0
3474,"",ガスト 札幌藻岩店（から好し取扱店）,北海道札幌市南区南３７条西１０丁目１－２６,43.007607,141.344626,ガスト,0
3473,"",ガスト 飯田上郷店（から好し取扱店）,長野県飯田市上郷飯沼２０１８－１,35.51838,137.849739,ガスト,0
3472,"",ガスト 能代店（から好し取扱店）,秋田県能代市字大瀬儘下６－２０,40.189871,140.03747,ガスト,0
3471,"",ガスト 松江南店（から好し取扱店）,島根県松江市袖師町２－３８,35.458281,133.051678,ガスト,0
3470,"",ガスト 梓川店（から好し取扱店）,長野県松本市梓川倭１－５,36.243259,137.890147,ガスト,0
3469,"",ガスト 下松店（から好し取扱店）,山口県下松市望町１丁目８－５,34.028158,131.862557,ガスト,0
3468,"",ガスト 豊栄店（から好し取扱店）,新潟県新潟市北区葛塚字巳高入１２４６－７,37.920341,139.207174,ガスト,0
3467,"",ガスト 札幌元町店（から好し取扱店）,北海道札幌市東区北２４条東１８丁目１－２５,43.094703,141.376314,ガスト,0
3466,"",ガスト 須崎店（から好し取扱店）,高知県須崎市緑町１番３８号,33.410397,133.289229,ガスト,0
3465,"",ガスト 茅野店（から好し取扱店）,長野県茅野市本町東１５番２号,36.001776,138.171119,ガスト,0
3464,"",ガスト 浦添牧港店（から好し取扱店）,沖縄県浦添市牧港２丁目４８－７,26.266399,127.725281,ガスト,0
3463,"",ガスト 長崎三芳店（から好し取扱店）,長崎県長崎市三芳町２番２号,32.778494,129.860439,ガスト,0
3462,"",ガスト 富山荒川店,富山県富山市荒川２丁目１５－３１,36.696309,137.246303,ガスト,0
3461,"",ガスト 柳井店（から好し取扱店）,山口県柳井市南町５丁目３－９,33.960962,132.10302,ガスト,0
3460,"",ガスト 黒部店（から好し取扱店）,富山県黒部市荻生字西小路７６６３－１,36.882897,137.462429,ガスト,0
3459,"",ガスト 鳥取南店（から好し取扱店）,鳥取県鳥取市正蓮寺４９－１,35.47142,134.244094,ガスト,0
3458,"",ガスト 宇和島店（から好し取扱店）,愛媛県宇和島市川内甲１１００－１,33.20317,132.553443,ガスト,0
3457,"",ガスト 西千葉駅ビル店（から好し取扱店）,千葉県千葉市中央区春日２丁目２４－４,35.623086,140.103151,ガスト,0
3456,"",ガスト 佐賀兵庫店（から好し取扱店）,佐賀県佐賀市兵庫南２丁目２－２４,33.263056,130.313942,ガスト,0
3455,"",ガスト 徳島大学前店（から好し取扱店）,徳島県徳島市南常三島町１丁目２－１,34.077833,134.558579,ガスト,0
3454,"",ガスト 十和田店（から好し取扱店）,青森県十和田市大字相坂字小林２４－１,40.598407,141.228422,ガスト,0
3453,"",ガスト 文の里店（から好し取扱店）,大阪府大阪市阿倍野区松崎町３丁目１３－８,34.639635,135.518031,ガスト,0
3452,"",ガスト 宮崎大塚店（から好し取扱店）,宮崎県宮崎市大塚町宮田２９８８,31.914907,131.39862,ガスト,0
3451,"",ガスト 熊本戸島店（から好し取扱店）,熊本県熊本市東区戸島西４丁目２－５３,32.812889,130.786503,ガスト,0
3450,"",ガスト 沖縄高原店（から好し取扱店）,沖縄県沖縄市高原７丁目２０－１１,26.319758,127.82155,ガスト,0
3449,"",ガスト 弘前駅前店（から好し取扱店）,青森県弘前市大字大町３丁目１－７,40.596994,140.48085,ガスト,0
3448,"",ガスト 盛岡大通店（から好し取扱店）,岩手県盛岡市大通３丁目１－２３,39.703293,141.144236,ガスト,0
3447,"",ガスト 一志嬉野店（から好し取扱店）,三重県松阪市嬉野中川新町４丁目７５－５,34.632493,136.478038,ガスト,0
3446,"",ガスト 幸田店（から好し取扱店）,愛知県額田郡幸田町大字大草字瓶割７０－１,34.874315,137.176824,ガスト,0
3445,"",ガスト 富士吉田店（から好し取扱店）,山梨県富士吉田市中曽根２丁目１３－２６,35.481088,138.802981,ガスト,0
3444,"",ガスト 氷上柏原店（から好し取扱店）,兵庫県丹波市氷上町稲継堂ノ坪２４９－１,35.153118,135.04765,ガスト,0
3443,"",ガスト 西神戸店（から好し取扱店）,兵庫県神戸市西区竜が岡１丁目２１－１,34.70916,134.940267,ガスト,0
3442,"",ガスト 山形新庄店（から好し取扱店）,山形県新庄市金沢字中関谷７０３－１,38.768432,140.310706,ガスト,0
3441,"",ガスト 厚木白山店（から好し取扱店）,神奈川県厚木市飯山南１丁目１３－３１,35.452591,139.330005,ガスト,0
3439,"",ガスト 恵庭店（から好し取扱店）,北海道恵庭市恵央町１１－１３,42.892094,141.568269,ガスト,0
3438,"",ガスト 広島海田店（から好し取扱店）,広島県安芸郡海田町栄町７番１１号,34.360234,132.534532,ガスト,0
3437,"",ガスト 鹿角店（から好し取扱店）,秋田県鹿角市花輪字下夕町１６４－１,40.200496,140.792732,ガスト,0
3436,"",ガスト 多治見南店（から好し取扱店）,岐阜県多治見市大畑町赤松９６番地１,35.314203,137.13333,ガスト,0
3435,"",ガスト 南佐久店（から好し取扱店）,長野県南佐久郡佐久穂町大字高野町７１６－１,36.16502,138.485139,ガスト,0
3434,"",ガスト 札幌石山通店（から好し取扱店）,北海道札幌市中央区南８条西１０丁目１０３５－２３,43.049636,141.342797,ガスト,0
3433,"",ガスト 福山松永店（から好し取扱店）,広島県福山市松永町６丁目１０番４１－１４,34.443487,133.255429,ガスト,0
3432,"",ガスト 吉野ヶ里店（から好し取扱店）,佐賀県神埼郡吉野ヶ里町吉田７７－６,33.322521,130.396141,ガスト,0
3431,"",ガスト 社店（から好し取扱店）,兵庫県加東市社字駒通１２０２－１,34.916365,134.959482,ガスト,0
3429,"",ガスト 綾瀬店（から好し取扱店）,神奈川県綾瀬市寺尾中１丁目５－１５,35.457153,139.426318,ガスト,0
3428,"",ガスト 多摩中和田店（から好し取扱店）,東京都多摩市和田１１４５－１,35.64248,139.427646,ガスト,0
3427,"",ガスト 南熊本店（から好し取扱店）,熊本県熊本市中央区南熊本３丁目１０－１７,32.787629,130.711346,ガスト,0
3426,"",ガスト 坂戸店（から好し取扱店）,埼玉県坂戸市薬師町３２－５,35.968647,139.398588,ガスト,0
3425,"",ガスト 児玉店（から好し取扱店）,埼玉県本庄市児玉町吉田林３９１－１,36.198722,139.132719,ガスト,0
3424,"",ガスト 太宰府インター店（から好し取扱店）,福岡県大野城市瓦田４丁目１５－３４,33.531981,130.485619,ガスト,0
3423,"",ガスト 西新店（から好し取扱店）,福岡県福岡市早良区西新２丁目１－１,33.585614,130.362434,ガスト,0
3422,"",ガスト 流山江戸川台店（から好し取扱店）,千葉県流山市富士見台２丁目２－１,35.891847,139.901004,ガスト,0
3421,"",ガスト 新潟関屋店（から好し取扱店）,新潟県新潟市中央区関新３丁目２－１５,37.907254,139.020159,ガスト,0
3420,"",ガスト 八街店（から好し取扱店）,千葉県八街市八街ほ９４５－１１,35.653977,140.30337,ガスト,0
3419,"",ガスト 佃店（から好し取扱店）,大阪府大阪市西淀川区佃１丁目２２－１５,34.716848,135.446337,ガスト,0
3418,"",ガスト 東比恵店（から好し取扱店）,福岡県福岡市博多区東比恵１丁目２－８,33.591513,130.427456,ガスト,0
3417,"",ガスト 京都丸太町店（から好し取扱店）,京都府京都市中京区烏丸通竹屋町上る大倉町２０３番地　誉仁ビル　２Ｆ,35.017072,135.759245,ガスト,0
3416,"",ガスト 我孫子高野山店（から好し取扱店）,千葉県我孫子市高野山２９５－１,35.86675,140.033641,ガスト,0
3415,"",ガスト 青森新町店（から好し取扱店）,青森県青森市新町１丁目９－１７,40.827328,140.737664,ガスト,0
3414,"",ガスト 千葉御成台店（から好し取扱店）,千葉県四街道市鷹の台１丁目６－２５,35.635173,140.198869,ガスト,0
3413,"",ガスト 今治西店（から好し取扱店）,愛媛県今治市馬越町２丁目３－４１,34.059031,132.982948,ガスト,0
3412,"",ガスト 東長崎店（から好し取扱店）,長崎県長崎市田中町８２２,32.768701,129.949459,ガスト,0
3411,"",ガスト 札幌栄町店（から好し取扱店）,北海道札幌市東区北４９条東８丁目３番１２号,43.1212,141.354299,ガスト,0
3410,"",ガスト 神戸森友店（から好し取扱店）,兵庫県神戸市西区森友２丁目３９－１,34.663542,134.979957,ガスト,0
3409,"",ガスト 五所川原店（から好し取扱店）,青森県五所川原市中央３丁目６１,40.797774,140.450176,ガスト,0
3408,"",ガスト 松本元町店（から好し取扱店）,長野県松本市元町２丁目１－１１,36.242971,137.981181,ガスト,0
3407,"",ガスト 江別幸町店（から好し取扱店）,北海道江別市幸町２３－１１,43.100046,141.534005,ガスト,0
3406,"",ガスト 高山三福寺店（から好し取扱店）,岐阜県高山市三福寺町３９４－１,36.152699,137.261339,ガスト,0
3404,"",ガスト 千葉多古町店（から好し取扱店）,千葉県香取郡多古町多古１６５５－１,35.729339,140.464631,ガスト,0
3403,"",ガスト 宝塚南口店（から好し取扱店）,兵庫県宝塚市南口２丁目５－４３,34.803587,135.347648,ガスト,0
3402,"",ガスト 門司大里店（から好し取扱店）,福岡県北九州市門司区下二十町２－２８,33.912434,130.938369,ガスト,0
3401,"",ガスト 久留米中央店（から好し取扱店）,福岡県久留米市六ツ門町１４－１０,33.310668,130.513782,ガスト,0
3400,"",ガスト 横須賀汐入店（から好し取扱店）,神奈川県横須賀市汐入町２丁目２－５　澤田ビル　２Ｆ,35.281489,139.660952,ガスト,0
3399,"",ガスト 鴨池店（から好し取扱店）,鹿児島県鹿児島市下荒田４丁目４９－１０,31.565528,130.556344,ガスト,0
3398,"",ガスト 紀伊田辺店（から好し取扱店）,和歌山県田辺市目良４３－２３,33.736408,135.35841,ガスト,0
3397,"",ガスト 新倉敷店（から好し取扱店）,岡山県倉敷市新倉敷駅前３丁目１６３,34.56216,133.683472,ガスト,0
3396,"",ガスト 兵庫山崎店（から好し取扱店）,兵庫県宍粟市山崎町三津３２０,35.014456,134.548994,ガスト,0
3395,"",ガスト 氷見店（から好し取扱店）,富山県氷見市大野新４７,36.858846,136.975509,ガスト,0
3394,"",ガスト 茨木鮎川店（から好し取扱店）,大阪府茨木市鮎川５丁目２０－５,34.814433,135.599227,ガスト,0
3393,"",ガスト 入間市駅前店（から好し取扱店）,埼玉県入間市豊岡１丁目２－２８,35.839952,139.388794,ガスト,0
3392,"",ガスト 千葉大多喜店（から好し取扱店）,千葉県夷隅郡大多喜町船子字東前８６３－２,35.287793,140.252657,ガスト,0
3391,"",ガスト 沼津椎路店（から好し取扱店）,静岡県沼津市東椎路字春ノ木５０４,35.11703,138.834696,ガスト,0
3390,"",ガスト 盛岡津志田店（から好し取扱店）,岩手県盛岡市津志田南３丁目１３－８,39.657328,141.153311,ガスト,0
3389,"",ガスト 笠岡店（から好し取扱店）,岡山県笠岡市四番町１－１６,34.498878,133.516272,ガスト,0
3388,"",ガスト 鹿児島草牟田店（から好し取扱店）,鹿児島県鹿児島市草牟田町４－２,31.607277,130.536453,ガスト,0
3387,"",ガスト 赤穂店（から好し取扱店）,兵庫県赤穂市黒崎町１９１番地,34.763095,134.370166,ガスト,0
3386,"",ガスト 水戸常澄店（から好し取扱店）,茨城県水戸市東前町７９５,36.342441,140.533546,ガスト,0
3385,"",ガスト 塩尻店（から好し取扱店）,長野県塩尻市大字広丘高出８８－６,36.130132,137.954863,ガスト,0
3384,"",ガスト 小平小川町店（から好し取扱店）,東京都小平市小川町１丁目２２２７　レイクルイーズビル,35.730602,139.460986,ガスト,0
3383,"",ガスト 磯子店（から好し取扱店）,神奈川県横浜市磯子区磯子１丁目２－１１,35.413325,139.625166,ガスト,0
3382,"",ガスト 大宮北袋店（から好し取扱店）,埼玉県さいたま市大宮区北袋町２丁目１９０,35.893685,139.642822,ガスト,0
3381,"",ガスト 津山インター店（から好し取扱店）,岡山県津山市河辺９６６－１,35.064277,134.048918,ガスト,0
3380,"",ガスト 横浜平沼店（から好し取扱店）,神奈川県横浜市西区平沼１丁目２甘糟平沼ビル１階,35.460795,139.620872,ガスト,0
3379,"",ガスト 益田店（から好し取扱店）,島根県益田市高津７丁目２１－２４,34.689792,131.816728,ガスト,0
3377,"",ガスト 碧南店（から好し取扱店）,愛知県碧南市緑町５丁目５９,34.893178,137.004818,ガスト,0
3376,"",ガスト 和歌山平井店（から好し取扱店）,和歌山県和歌山市平井１６９－１,34.259296,135.16903,ガスト,0
3375,"",ガスト 東海大学前店（から好し取扱店）,神奈川県平塚市南金目３５０－１,35.357128,139.273673,ガスト,0
3374,"",ガスト 名取田高店（から好し取扱店）,宮城県名取市田高字原３１８－１,38.179809,140.875706,ガスト,0
3373,"",ガスト 横手店（から好し取扱店）,秋田県横手市婦気大堤字中田９３－１,39.296676,140.555118,ガスト,0
3372,"",ガスト 北島町店（から好し取扱店）,徳島県板野郡北島町高房字川ノ上２－１,34.126071,134.537315,ガスト,0
3371,"",ガスト 佐久平駅前店（から好し取扱店）,長野県佐久市佐久平駅東１５－１１,36.277033,138.467469,ガスト,0
3370,"",ガスト 新潟五十嵐店（から好し取扱店）,新潟県新潟市西区五十嵐一の町６７８８－３,37.872732,138.95696,ガスト,0
3369,"",ガスト 三田ウッディタウン店（から好し取扱店）,兵庫県三田市けやき台１丁目６－２,34.908579,135.186304,ガスト,0
3368,"",ガスト 新田町店（から好し取扱店）,群馬県太田市新田市野井町字房田１０１５,36.306904,139.297158,ガスト,0
3367,"",ガスト 如意店（から好し取扱店）,愛知県名古屋市北区如意１丁目１７１,35.233825,136.920976,ガスト,0
3366,"",ガスト 東岡崎店（から好し取扱店）,愛知県岡崎市大西１丁目１－１０,34.944285,137.178624,ガスト,0
3365,"",ガスト 島根大田店（から好し取扱店）,島根県大田市長久町土江９７,35.198133,132.482594,ガスト,0
3364,"",ガスト 大東町店（から好し取扱店）,静岡県掛川市大坂２８１４－１,34.673804,138.044825,ガスト,0
3363,"",ガスト 羽後本荘店（から好し取扱店）,秋田県由利本荘市一番堰２６０,39.380723,140.059797,ガスト,0
3362,"",ガスト 岡山学南町店（から好し取扱店）,岡山県岡山市北区学南町２丁目２０５－１,34.682072,133.921544,ガスト,0
3361,"",ガスト 知多店（から好し取扱店）,愛知県知多市新知東町２丁目２３－３,34.980412,136.864691,ガスト,0
3360,"",ガスト 竹原店（から好し取扱店）,広島県竹原市下野町３３０８,34.348319,132.903871,ガスト,0
3359,"",ガスト 大館店（から好し取扱店）,秋田県大館市清水３丁目２－１,40.279409,140.554222,ガスト,0
3358,"",ガスト 泉中田店（から好し取扱店）,神奈川県横浜市泉区中田西１丁目６－６,35.413991,139.502061,ガスト,0
3357,"",ガスト 秋田茨島店（から好し取扱店）,秋田県秋田市茨島４丁目３－２７,39.69698,140.098287,ガスト,0
3356,"",ガスト 海南店（から好し取扱店）,和歌山県海南市日方字新浜１５２３－２,34.153543,135.209993,ガスト,0
3355,"",ガスト 市川国分店（から好し取扱店）,千葉県市川市国分１丁目４－１０,35.739184,139.917881,ガスト,0
3354,"",ガスト 長野飯山店（から好し取扱店）,長野県飯山市大字静間字町尻１３８５－１,36.835138,138.357236,ガスト,0
3353,"",ガスト 瑞浪店（から好し取扱店）,岐阜県瑞浪市穂並１丁目１７,35.356267,137.248263,ガスト,0
3352,"",ガスト 豊岡店（から好し取扱店）,兵庫県豊岡市野田字仁倉１７３－４,35.552667,134.8153,ガスト,0
3351,"",ガスト 八王子楢原町店（から好し取扱店）,東京都八王子市楢原町４７７－１,35.681243,139.306456,ガスト,0
3350,"",ガスト 鳥取北店（から好し取扱店）,鳥取県鳥取市南隈５２５,35.522177,134.202246,ガスト,0
3349,"",ガスト 亀田店（から好し取扱店）,新潟県新潟市江南区西町３丁目１－８０,37.874995,139.103197,ガスト,0
3348,"",ガスト 小千谷店（から好し取扱店）,新潟県小千谷市大字平沢新田字荒田４０－２,37.319109,138.795876,ガスト,0
3347,"",ガスト 伊勢バイパス店（から好し取扱店）,三重県伊勢市御薗町長屋２２１４,34.507782,136.711743,ガスト,0
3346,"",ガスト 足立西伊興店（から好し取扱店）,東京都足立区西伊興４丁目６－２６,35.802908,139.782007,ガスト,0
3344,"",ガスト 厚木中荻野店（から好し取扱店）,神奈川県厚木市中荻野１７２５－４,35.484183,139.331752,ガスト,0
3343,"",ガスト 山梨田富町店（から好し取扱店）,山梨県中央市西花輪３４８２,35.593852,138.519359,ガスト,0
3342,"",ガスト 仁戸名店（から好し取扱店）,千葉県千葉市中央区仁戸名町４８０－５,35.587346,140.161532,ガスト,0
3341,"",ガスト 江東千石店（から好し取扱店）,東京都江東区千石２丁目２－３１,35.676886,139.815763,ガスト,0
3340,"",ガスト 千葉土気店（から好し取扱店）,千葉県千葉市緑区あすみが丘１丁目４８－１,35.531796,140.262571,ガスト,0
3339,"",ガスト 宮野木店（から好し取扱店）,千葉県千葉市花見川区畑町４６９－１,35.659864,140.089058,ガスト,0
3338,"",ガスト 上永谷店（から好し取扱店）,神奈川県横浜市港南区丸山台３丁目４１－１１,35.396224,139.565133,ガスト,0
3337,"",ガスト 川口中央店（から好し取扱店）,埼玉県川口市中青木３丁目８－２２,35.814746,139.718531,ガスト,0
3336,"",ガスト 横須賀三春店（から好し取扱店）,神奈川県横須賀市三春町４丁目２１－２,35.264353,139.691381,ガスト,0
3335,"",ガスト 高蔵寺店（から好し取扱店）,愛知県春日井市高蔵寺町２丁目９番地,35.263009,137.0375,ガスト,0
3334,"",ガスト 北小岩店（から好し取扱店）,東京都江戸川区北小岩１丁目１１－９,35.737045,139.88983,ガスト,0
3333,"",ガスト 秋田外旭川店（から好し取扱店）,秋田県秋田市外旭川字三後田３５－１,39.748937,140.096076,ガスト,0
3332,"",ガスト 岡崎北店（から好し取扱店）,愛知県岡崎市井田南町１－２,34.974339,137.160029,ガスト,0
3331,"",ガスト 浦和中島店（から好し取扱店）,埼玉県さいたま市桜区中島４丁目２－１５,35.862799,139.620478,ガスト,0
3330,"",ガスト 芦屋店（から好し取扱店）,兵庫県芦屋市楠町７－１８,34.734054,135.313781,ガスト,0
3329,"",ガスト 生田駅前店（から好し取扱店）,神奈川県川崎市多摩区生田８丁目９－６,35.616462,139.544758,ガスト,0
3328,"",ガスト 静岡下川原店（から好し取扱店）,静岡県静岡市駿河区下川原３丁目１９－３３,34.937056,138.371011,ガスト,0
3327,"",ガスト 溝の口店（から好し取扱店）,神奈川県川崎市高津区溝口５－２４－１,35.606076,139.610786,ガスト,0
3326,"",ガスト 武蔵藤沢店（から好し取扱店）,埼玉県入間市東藤沢２丁目１０－２９,35.821475,139.414809,ガスト,0
3325,"",ガスト 橿原店（から好し取扱店）,奈良県橿原市葛本町６７７－１,34.522115,135.797782,ガスト,0
3324,"",ガスト 京王若葉台店（から好し取扱店）,神奈川県川崎市麻生区黒川５９４－１,35.618049,139.473077,ガスト,0
3323,"",ガスト 鴨居店（から好し取扱店）,神奈川県横浜市緑区鴨居２丁目１６－８,35.509708,139.569607,ガスト,0
3322,"",ガスト 大分駅前店（から好し取扱店）,大分県大分市金池町１丁目２７７５－１,33.232264,131.611061,ガスト,0
3321,"",ガスト 浦和駒形店（から好し取扱店）,埼玉県さいたま市緑区大字中尾駒形１６２８,35.872178,139.690992,ガスト,0
3320,"",ガスト 北鈴蘭台店（から好し取扱店）,兵庫県神戸市北区山田町小部字大脇山１７－１２,34.740554,135.159425,ガスト,0
3319,"",ガスト 所沢北原店（から好し取扱店）,埼玉県所沢市北原町１４２０－１,35.808223,139.480229,ガスト,0
3318,"",ガスト 京都宝ヶ池店（から好し取扱店）,京都府京都市左京区岩倉南三宅町６５,35.06437,135.789324,ガスト,0
3316,"",ガスト 袖ヶ浦店（から好し取扱店）,千葉県袖ケ浦市神納２丁目１６－１,35.42316,139.96053,ガスト,0
3315,"",ガスト 釜利谷店（から好し取扱店）,神奈川県横浜市金沢区釜利谷東４丁目５３－２,35.347082,139.608775,ガスト,0
3314,"",ガスト 熊本藤崎店（から好し取扱店）,熊本県熊本市中央区北千反畑町１ー２３,32.809622,130.715268,ガスト,0
3313,"",ガスト 川崎大島店（から好し取扱店）,神奈川県川崎市川崎区大島１丁目２８－１５,35.523956,139.712941,ガスト,0
3312,"",ガスト 師岡店（から好し取扱店）,神奈川県横浜市港北区師岡町９２７－１,35.524656,139.641254,ガスト,0
3311,"",ガスト 福岡土井店（から好し取扱店）,福岡県福岡市東区土井２丁目１１－１,33.632366,130.462279,ガスト,0
3310,"",ガスト 相武台店（から好し取扱店）,神奈川県座間市相武台１丁目１９－２５,35.504219,139.411097,ガスト,0
3309,"",ガスト 谷原店（から好し取扱店）,東京都練馬区高野台４丁目１８－６,35.748854,139.618984,ガスト,0
3308,"",ガスト 東川口店（から好し取扱店）,埼玉県さいたま市緑区東大門３丁目１－１,35.884952,139.739894,ガスト,0
3307,"",ガスト 川崎長尾店（から好し取扱店）,神奈川県川崎市宮前区神木本町２丁目１６－１,35.601764,139.582136,ガスト,0
3306,"",ガスト 野田市役所前店（から好し取扱店）,千葉県野田市鶴奉１－１,35.957068,139.87219,ガスト,0
3305,"",ガスト 茂原店（から好し取扱店）,千葉県茂原市高師１６７９－２,35.435935,140.286833,ガスト,0
3304,"",ガスト 相模原清新店（から好し取扱店）,神奈川県相模原市中央区清新２丁目１６－１６,35.581938,139.362008,ガスト,0
3302,"",グラッチェガーデンズ 港北貝塚店,神奈川県横浜市港北区新吉田東８丁目２０－６,35.536644,139.612764,グラッチェガーデンズ,0
3301,"",グラッチェガーデンズ 大和深見店,神奈川県大和市深見西４丁目４－４,35.481307,139.459695,グラッチェガーデンズ,0
3299,"",グラッチェガーデンズ 練馬土支田店,東京都練馬区土支田３丁目２７－２２,35.761327,139.607114,グラッチェガーデンズ,0
3297,"",グラッチェガーデンズ 山梨南アルプス店,山梨県南アルプス市在家塚５４０－１,35.638169,138.473764,グラッチェガーデンズ,0
3296,"",グラッチェガーデンズ 津久井城山店,神奈川県相模原市緑区久保沢１丁目４－１６,35.596978,139.302823,グラッチェガーデンズ,0
3295,"",グラッチェガーデンズ 新潟小新店,新潟県新潟市西区小新４丁目９番１８号,37.882679,139.002811,グラッチェガーデンズ,0
3293,"",グラッチェガーデンズ 一宮大和店,愛知県一宮市末広３丁目１２ー６,35.296353,136.785983,グラッチェガーデンズ,0
3292,"",グラッチェガーデンズ 木更津東店,千葉県木更津市ほたる野１丁目１６－１,35.375713,139.961325,グラッチェガーデンズ,0
3291,"",グラッチェガーデンズ 岡谷中央店,長野県岡谷市中央町２丁目４－１０,36.061579,138.048116,グラッチェガーデンズ,0
3290,"",グラッチェガーデンズ 名東よもぎ台店,愛知県名古屋市名東区よもぎ台２丁目１２１４,35.174782,136.990061,グラッチェガーデンズ,0
3289,"",グラッチェガーデンズ 双葉響が丘店,山梨県甲斐市龍地３５９４－４,35.683827,138.507509,グラッチェガーデンズ,0
3288,"",ガスト 香川志度店（から好し取扱店）,香川県さぬき市志度６４３－１,34.321658,134.174428,ガスト,0
3287,"",ガスト 栃木田沼町店（から好し取扱店）,栃木県佐野市田沼町３７７－２,36.367231,139.574482,ガスト,0
3286,"",ガスト 五條店（から好し取扱店）,奈良県五條市須恵３丁目４－２２,34.352985,135.698895,ガスト,0
3285,"",ガスト 豊科店（から好し取扱店）,長野県安曇野市豊科南穂高６０３－１,36.301294,137.914848,ガスト,0
3284,"",ガスト 新居浜上泉店（から好し取扱店）,愛媛県新居浜市上泉町２１３２－１,33.936658,133.307569,ガスト,0
3283,"",ガスト 加古川平岡店（から好し取扱店）,兵庫県加古川市平岡町一色２２５－１,34.739267,134.856829,ガスト,0
3282,"",ガスト 小松島店（から好し取扱店）,徳島県小松島市日開野町勝久４－２,34.004551,134.570784,ガスト,0
3281,"",ガスト 妙高新井店（から好し取扱店）,新潟県妙高市大字中川４番２０号,37.040285,138.260594,ガスト,0
3280,"",ガスト 藤枝青木店（から好し取扱店）,静岡県藤枝市青木３丁目１６－３７,34.855778,138.253949,ガスト,0
3279,"",ガスト 大治店（から好し取扱店）,愛知県海部郡大治町大字西條字附田６３－１,35.184239,136.809637,ガスト,0
3277,"",ガスト 香川三木店（から好し取扱店）,香川県木田郡三木町大字氷上字花丸９０７－１,34.263337,134.135638,ガスト,0
3276,"",ガスト 磐田上岡田店（から好し取扱店）,静岡県磐田市上岡田９２３－１,34.702354,137.850683,ガスト,0
3275,"",ガスト 萩店（から好し取扱店）,山口県萩市大字土原３４３－２,34.413523,131.40692,ガスト,0
3274,"",ガスト 高幡不動店（から好し取扱店）,東京都日野市三沢１丁目３３－１,35.659153,139.41733,ガスト,0
3273,"",ガスト 西宮北口店（から好し取扱店）,兵庫県西宮市高木東町２２－２８,34.748758,135.364488,ガスト,0
3272,"",ガスト 大和上和田店（から好し取扱店）,神奈川県大和市上和田１０２６－３,35.451631,139.471637,ガスト,0
3271,"",ガスト 姫路網干店（から好し取扱店）,兵庫県姫路市網干区和久１１４－１,34.809644,134.585149,ガスト,0
3270,"",ガスト 木更津中央店（から好し取扱店）,千葉県木更津市中央３丁目９－６,35.38402,139.918253,ガスト,0
3269,"",ガスト 柏豊四季店（から好し取扱店）,千葉県柏市豊四季３０３－１０,35.862593,139.951548,ガスト,0
3268,"",ガスト 別府店（から好し取扱店）,大分県別府市南的ケ浜町５－２３,33.282716,131.505004,ガスト,0
3267,"",ガスト 長泉町店（から好し取扱店）,静岡県駿東郡長泉町下土狩９０７－１,35.136586,138.895126,ガスト,0
3266,"",ガスト 東根店（から好し取扱店）,山形県東根市大林１丁目３－２３,38.432166,140.383698,ガスト,0
3265,"",ガスト 八王子宇津木店（から好し取扱店）,東京都八王子市宇津木町５０４－３,35.680555,139.353979,ガスト,0
3264,"",ガスト 尾道店（から好し取扱店）,広島県尾道市栗原町５５７０－１,34.425835,133.187402,ガスト,0
3263,"",ガスト 八千代村上店（から好し取扱店）,千葉県八千代市勝田台北２丁目３－１,35.718627,140.125594,ガスト,0
3262,"",ガスト 大府店（から好し取扱店）,愛知県大府市共栄町９丁目８－７,35.036437,136.956436,ガスト,0
3261,"",ガスト 西条寺家店（から好し取扱店）,広島県東広島市西条町寺家３９８３,34.441668,132.719787,ガスト,0
3260,"",ガスト 有田店（から好し取扱店）,和歌山県有田市宮崎町１１６－２,34.079485,135.116542,ガスト,0
3259,"",ガスト 岐阜城東店（から好し取扱店）,岐阜県岐阜市城東通１丁目３６,35.400664,136.766304,ガスト,0
3258,"",ガスト 総社店（から好し取扱店）,岡山県総社市駅南２丁目２－１,34.669844,133.742556,ガスト,0
3257,"",ガスト 岡山下中野店（から好し取扱店）,岡山県岡山市北区下中野４６６－３,34.636244,133.90206,ガスト,0
3256,"",ガスト 一関店（から好し取扱店）,岩手県一関市石畑６－２５,38.938336,141.134617,ガスト,0
3255,"",ガスト 高砂市役所前店（から好し取扱店）,兵庫県高砂市荒井町千鳥３丁目３－５,34.765571,134.792844,ガスト,0
3254,"",ガスト 日光店（から好し取扱店）,栃木県日光市御幸町５９５－１,36.750357,139.611631,ガスト,0
3253,"",ガスト 前橋西店（から好し取扱店）,群馬県前橋市大友町３丁目１４－３,36.390162,139.044846,ガスト,0
3252,"",ガスト 新座野火止店（から好し取扱店）,埼玉県新座市野火止１丁目１０－２７,35.796143,139.569617,ガスト,0
3251,"",ガスト 三郷高州店（から好し取扱店）,埼玉県三郷市高州１丁目１８３－１,35.789498,139.882794,ガスト,0
3250,"",ガスト 鳴海最中店（から好し取扱店）,愛知県名古屋市緑区浦里３丁目２２５,35.08451,136.945322,ガスト,0
3249,"",ガスト 竜王店（から好し取扱店）,山梨県甲斐市富竹新田１３００－１,35.660781,138.521338,ガスト,0
3248,"",ガスト 草加西町店（から好し取扱店）,埼玉県草加市西町６３－６,35.826666,139.792518,ガスト,0
3247,"",ガスト 西船橋店（から好し取扱店）,千葉県船橋市山野町１６０－１,35.703468,139.964623,ガスト,0
3246,"",ガスト 水戸駅南店（から好し取扱店）,茨城県水戸市中央２丁目２－７,36.367573,140.470589,ガスト,0
3245,"",ガスト 宇都宮簗瀬店（から好し取扱店）,栃木県宇都宮市東簗瀬１丁目５－２５,36.543193,139.901351,ガスト,0
3243,"",ガスト おもちゃのまち駅前店（から好し取扱店）,栃木県下都賀郡壬生町あけぼの町１３－１１,36.466501,139.826237,ガスト,0
3242,"",ガスト 美濃加茂店（から好し取扱店）,岐阜県美濃加茂市太田本町５丁目１－５,35.43856,137.009345,ガスト,0
3241,"",ガスト 黒磯店（から好し取扱店）,栃木県那須塩原市共墾社１丁目６－２５,36.961548,140.049619,ガスト,0
3240,"",ガスト 大和新庄店（から好し取扱店）,奈良県葛城市東室１４９－１,34.496311,135.734671,ガスト,0
3239,"",ガスト 城陽店（から好し取扱店）,京都府城陽市平川横道３２－１,34.863385,135.777058,ガスト,0
3238,"",ガスト 前橋東店（から好し取扱店）,群馬県前橋市西片貝町５丁目１１－２,36.390135,139.086678,ガスト,0
3237,"",ガスト 土浦店（から好し取扱店）,茨城県土浦市永国１０４５,36.064228,140.182731,ガスト,0
3236,"",ガスト 高崎店（から好し取扱店）,群馬県高崎市飯塚町３２－１,36.345528,138.996536,ガスト,0
3235,"",ガスト 静岡石田店（から好し取扱店）,静岡県静岡市駿河区石田１丁目４－３６,34.960009,138.400043,ガスト,0
3234,"",ガスト 新津店（から好し取扱店）,新潟県新潟市秋葉区古田１－４－８,37.794073,139.110092,ガスト,0
3233,"",ガスト 白河店（から好し取扱店）,福島県白河市新高山１－１,37.119406,140.194674,ガスト,0
3232,"",ガスト 師勝店（から好し取扱店）,愛知県北名古屋市高田寺字北の川６９,35.242684,136.895882,ガスト,0
3231,"",ガスト 高松三名店（から好し取扱店）,香川県高松市三名町１１７－１,34.287316,134.031763,ガスト,0
3230,"",ガスト 松江北店（から好し取扱店）,島根県松江市学園２丁目２９－８,35.484122,133.070578,ガスト,0
3228,"",ガスト 和白店（から好し取扱店）,福岡県福岡市東区和白丘１丁目１－４,33.690918,130.434254,ガスト,0
3227,"",ガスト 寒川田端店（から好し取扱店）,神奈川県高座郡寒川町田端１４９５,35.351562,139.379831,ガスト,0
3226,"",ガスト 福山光南店（から好し取扱店）,広島県福山市光南町３丁目７－２７,34.475314,133.367411,ガスト,0
3225,"",ガスト 天白池場店（から好し取扱店）,愛知県名古屋市天白区池場４丁目－１０４,35.120484,136.984477,ガスト,0
3224,"",ガスト 岐阜北方店（から好し取扱店）,岐阜県本巣郡北方町平成８－２５,35.432458,136.679818,ガスト,0
3223,"",ガスト 御坊店（から好し取扱店）,和歌山県御坊市名屋町３丁目５－４,33.88308,135.154399,ガスト,0
3222,"",ガスト 下妻店（から好し取扱店）,茨城県下妻市長塚１０２－１,36.182716,139.950561,ガスト,0
3221,"",ガスト 鯖江店（から好し取扱店）,福井県鯖江市糺町３３号１番９号,35.973998,136.17609,ガスト,0
3220,"",ガスト 新潟村上店（から好し取扱店）,新潟県村上市大字仲間町５３９－４,38.216701,139.487456,ガスト,0
3219,"",ガスト 糸魚川店（から好し取扱店）,新潟県糸魚川市大字横町２－４－３,37.042821,137.851494,ガスト,0
3218,"",ガスト 高知北金田店（から好し取扱店）,高知県高知市北金田５－２,33.566231,133.555892,ガスト,0
3216,"",ガスト 伊予三島店（から好し取扱店）,愛媛県四国中央市中之庄町２８２－１,33.975224,133.531136,ガスト,0
3215,"",ガスト 佐原店（から好し取扱店）,千葉県香取市北２丁目１５－３,35.899008,140.495082,ガスト,0
3214,"",ガスト 上田天神店（から好し取扱店）,長野県上田市天神１丁目４－１,36.39947,138.24773,ガスト,0
3213,"",ガスト 大沢野店（から好し取扱店）,富山県富山市長附６９５－１,36.587031,137.205383,ガスト,0
3211,"",ガスト 蟹江店（から好し取扱店）,愛知県海部郡蟹江町錦２－１５５,35.136054,136.780181,ガスト,0
3210,"",ガスト 小松店（から好し取扱店）,石川県小松市一針町１２－１３,36.42396,136.47901,ガスト,0
3209,"",ガスト 見附店（から好し取扱店）,新潟県見附市葛巻町１６８１－１,37.530281,138.909086,ガスト,0
3208,"",ガスト 大東栄和店（から好し取扱店）,大阪府大東市栄和町１４－１９,34.702757,135.626515,ガスト,0
3207,"",ガスト 流山駒木台店（から好し取扱店）,千葉県流山市駒木台１０８－５,35.886962,139.931005,ガスト,0
3206,"",ガスト 春日井坂下店（から好し取扱店）,愛知県春日井市坂下町６丁目７２０－１,35.288811,137.018367,ガスト,0
3205,"",ガスト 浜北店（から好し取扱店）,静岡県浜松市浜名区西美薗２５４６－１,34.809079,137.804561,ガスト,0
3204,"",ガスト 岐阜大学前店（から好し取扱店）,岐阜県岐阜市折立２８９－１,35.458603,136.733395,ガスト,0
3203,"",ガスト 大曲店（から好し取扱店）,秋田県大仙市戸蒔東６９－１,39.458299,140.496016,ガスト,0
3202,"",ガスト 男鹿店（から好し取扱店）,秋田県男鹿市船越字内子２２４－２２,39.902709,139.937797,ガスト,0
3201,"",ガスト 大分日田店（から好し取扱店）,大分県日田市清岸寺町１０２－２,33.334284,130.933613,ガスト,0
3200,"",ガスト 田川店（から好し取扱店）,福岡県田川市大字川宮１６９３－２,33.650254,130.798722,ガスト,0
3199,"",ガスト 水沢店（から好し取扱店）,岩手県奥州市水沢区佐倉河字川原田１４０－１,39.144198,141.149383,ガスト,0
3198,"",ガスト 杁ケ池店（から好し取扱店）,愛知県長久手市長配３丁目５０８,35.164685,137.037942,ガスト,0
3197,"",ガスト 出雲店（から好し取扱店）,島根県出雲市渡橋町５１４－２,35.366109,132.746467,ガスト,0
3196,"",ガスト 福島北店（から好し取扱店）,福島県福島市南矢野目字中屋敷５０－７,37.788959,140.452998,ガスト,0
3195,"",ガスト 小杉店（から好し取扱店）,富山県射水市中太閤山１５丁目２－２,36.70374,137.096984,ガスト,0
3194,"",ガスト 藤沢大庭店（から好し取扱店）,神奈川県藤沢市大庭５１４４－３,35.35662,139.453001,ガスト,0
3193,"",ガスト 鶴岡南店（から好し取扱店）,山形県鶴岡市ほなみ町１０－１,38.715933,139.846438,ガスト,0
3192,"",ガスト 福山駅家町店（から好し取扱店）,広島県福山市駅家町大字万能倉２８８－２,34.544735,133.339156,ガスト,0
3191,"",ガスト 加西店（から好し取扱店）,兵庫県加西市北条町古坂６－６７,34.925713,134.84809,ガスト,0
3189,"",ガスト 新潟白根店（から好し取扱店）,新潟県新潟市南区七軒１５２－１,37.770831,139.017198,ガスト,0
3188,"",ガスト 甘木店（から好し取扱店）,福岡県朝倉市甘木字甘木畑１９５７－２,33.423533,130.656849,ガスト,0
3187,"",ガスト 鬼怒川店（から好し取扱店）,栃木県日光市鬼怒川温泉大原１５－６,36.802329,139.707067,ガスト,0
3186,"",ガスト 三島梅名店（から好し取扱店）,静岡県三島市梅名５４４－８,35.09687,138.925767,ガスト,0
3185,"",ガスト 津山二宮店（から好し取扱店）,岡山県津山市二宮字夏目１０７番３,35.061262,133.960682,ガスト,0
3184,"",ガスト 会津インター店（から好し取扱店）,福島県会津若松市町北町大字上荒久田１１６－１,37.517711,139.927215,ガスト,0
3183,"",ガスト 金沢松村店（から好し取扱店）,石川県金沢市松村町又７９,36.588633,136.618138,ガスト,0
3182,"",ガスト 宇佐店（から好し取扱店）,大分県宇佐市大字辛島字栗屋田１０,33.527837,131.340405,ガスト,0
3181,"",ガスト 福知山店（から好し取扱店）,京都府福知山市広峯町２９番,35.291979,135.11829,ガスト,0
3180,"",ガスト 米沢店（から好し取扱店）,山形県米沢市金池５丁目８－１１,37.923988,140.117886,ガスト,0
3179,"",ガスト 防府店（から好し取扱店）,山口県防府市国衙２丁目２－４５,34.055964,131.583338,ガスト,0
3178,"",ガスト 榛原吉田町店（から好し取扱店）,静岡県榛原郡吉田町住吉７５９－１,34.768594,138.250336,ガスト,0
3177,"",ガスト 堺緑ヶ丘中町店（から好し取扱店）,大阪府堺市堺区緑ヶ丘中町１丁１番３３号,34.556185,135.469786,ガスト,0
3176,"",ガスト 京滋バイパス店（から好し取扱店）,滋賀県草津市野路東５－１４－３４,34.995223,135.952566,ガスト,0
3175,"",ガスト 広路通店（から好し取扱店）,愛知県名古屋市昭和区広路通４丁目３,35.149712,136.942326,ガスト,0
3174,"",ガスト 市原山木店（から好し取扱店）,千葉県市原市山木１１９２－１,35.523028,140.127356,ガスト,0
3173,"",ガスト 上大岡店（から好し取扱店）,神奈川県横浜市港南区最戸１丁目４－９,35.415181,139.597563,ガスト,0
3172,"",ガスト 砺波店（から好し取扱店）,富山県砺波市豊町２丁目１４－２２,36.627598,136.956859,ガスト,0
3171,"",ガスト 高萩店（から好し取扱店）,茨城県高萩市大字安良川１８７－２,36.706558,140.709223,ガスト,0
3170,"",ガスト 茨城大学前店（から好し取扱店）,茨城県水戸市堀町１０６５－１,36.400789,140.438585,ガスト,0
3169,"",ガスト 善通寺店（から好し取扱店）,香川県善通寺市生野町１０６１－１,34.229518,133.791403,ガスト,0
3168,"",ガスト 松井山手店（から好し取扱店）,京都府京田辺市山手南１丁目２－２,34.832177,135.724863,ガスト,0
3167,"",ガスト 三河田原店（から好し取扱店）,愛知県田原市神戸町大坪１８５,34.668542,137.277028,ガスト,0
3166,"",ガスト 羽曳野店（から好し取扱店）,大阪府羽曳野市伊賀２丁目２８番２号,34.558298,135.585918,ガスト,0
3165,"",ガスト 岐阜芥見店（から好し取扱店）,岐阜県岐阜市芥見４丁目２番,35.450317,136.844926,ガスト,0
3164,"",ガスト 熊本宇土店（から好し取扱店）,熊本県宇土市新松原町４０－１,32.689135,130.670952,ガスト,0
3162,"",ガスト 津久井太井店（から好し取扱店）,神奈川県相模原市緑区太井６４２,35.585716,139.270546,ガスト,0
3161,"",ガスト 栗林公園店（から好し取扱店）,香川県高松市室町１９１５－１,34.326244,134.044046,ガスト,0
3160,"",ガスト 和光笹目通り店（から好し取扱店）,埼玉県和光市白子３丁目１７－４７,35.792643,139.636808,ガスト,0
3159,"",ガスト 尻手駅前店（から好し取扱店）,神奈川県横浜市鶴見区矢向４丁目４－６,35.53138,139.683566,ガスト,0
3158,"",ガスト 京都山科店（から好し取扱店）,京都府京都市山科区音羽山等地４７,34.98708,135.827713,ガスト,0
3157,"",ガスト 野川店（から好し取扱店）,神奈川県川崎市宮前区野川本町２丁目３１－４,35.572628,139.61475,ガスト,0
3156,"",ガスト 寄居店（から好し取扱店）,埼玉県大里郡寄居町大字桜沢漆原１１８５,36.123326,139.20543,ガスト,0
3155,"",ガスト 国府津店（から好し取扱店）,神奈川県小田原市小八幡３丁目１８－１２,35.275682,139.203037,ガスト,0
3154,"",ガスト 福生店（から好し取扱店）,東京都福生市大字福生１０６６－１,35.74345,139.324736,ガスト,0
3153,"",ガスト 前原店（から好し取扱店）,福岡県糸島市前原東１丁目７－１,33.56061,130.207769,ガスト,0
3152,"",ガスト 指宿店（から好し取扱店）,鹿児島県指宿市西方字島廻１９４７－１,31.259041,130.632205,ガスト,0
3151,"",ガスト 紀伊橋本店（から好し取扱店）,和歌山県橋本市高野口町伏原２７６－２,34.307231,135.572684,ガスト,0
3150,"",ガスト 松阪大黒田店（から好し取扱店）,三重県松阪市大黒田町７５２,34.562876,136.528098,ガスト,0
3149,"",ガスト 倉吉店（から好し取扱店）,鳥取県倉吉市伊木２４８－４,35.444805,133.849013,ガスト,0
3148,"",ガスト 福島西口店（から好し取扱店）,福島県福島市太田町３８－１４,37.755545,140.453031,ガスト,0
3147,"",ガスト 若松高須東店（から好し取扱店）,福岡県北九州市若松区高須東４丁目２－１４,33.889785,130.690342,ガスト,0
3146,"",ガスト 倉敷水島北店（から好し取扱店）,岡山県倉敷市北畝７丁目１１－５５,34.549695,133.752051,ガスト,0
3145,"",ガスト 姫路白浜店（から好し取扱店）,兵庫県姫路市白浜町宇佐崎中１丁目１１１番地,34.783098,134.71702,ガスト,0
3144,"",ガスト 鳴門店（から好し取扱店）,徳島県鳴門市撫養町斎田字北浜２２５,34.184107,134.600043,ガスト,0
3143,"",ガスト 熊本合志店（から好し取扱店）,熊本県菊池郡菊陽町杉並台２丁目１１－１,32.867034,130.781574,ガスト,0
3142,"",ガスト 高松太田店（から好し取扱店）,香川県高松市松縄町１０９１－１,34.316476,134.062016,ガスト,0
3141,"",ガスト 津島店（から好し取扱店）,愛知県津島市橘町４丁目６０,35.172987,136.733003,ガスト,0
3140,"",ガスト 児島店（から好し取扱店）,岡山県倉敷市児島小川町３６７８－３４,34.467503,133.814624,ガスト,0
3139,"",ガスト 秋田山王店（から好し取扱店）,秋田県秋田市山王７丁目３－３２,39.718629,140.096873,ガスト,0
3138,"",ガスト 久喜店（から好し取扱店）,埼玉県久喜市大字吉羽２－２９－４,36.070615,139.689504,ガスト,0
3137,"",ガスト 浜金谷店（から好し取扱店）,千葉県富津市金谷字上原２２９２－１,35.168786,139.819557,ガスト,0
3136,"",ガスト 中津川店（から好し取扱店）,岐阜県中津川市中津川字法導寺３１１９－１,35.486362,137.507179,ガスト,0
3135,"",ガスト 滋賀守山店（から好し取扱店）,滋賀県守山市今市町字法実２０３－９,35.080654,135.988238,ガスト,0
3134,"",ガスト 東大阪額田店（から好し取扱店）,大阪府東大阪市南荘町４－２,34.675974,135.641177,ガスト,0
3133,"",ガスト 富津店（から好し取扱店）,千葉県富津市青木１２３３－１,35.323852,139.84532,ガスト,0
3132,"",ガスト 三条須頃店（から好し取扱店）,新潟県三条市大字上須頃字中沢道下３２９－１,37.635841,138.939963,ガスト,0
3131,"",ガスト 武蔵嵐山店（から好し取扱店）,埼玉県比企郡嵐山町大字平澤字京枝４１２,36.042931,139.314598,ガスト,0
3130,"",ガスト 十四山店（から好し取扱店）,愛知県弥富市鍋平１丁目９０,35.117254,136.748537,ガスト,0
3129,"",ガスト 徳山周陽店（から好し取扱店）,山口県周南市周陽１丁目５１,34.049286,131.829604,ガスト,0
3128,"",ガスト 白馬店（から好し取扱店）,長野県北安曇郡白馬村大字北城字前田６１５,36.686305,137.858249,ガスト,0
3127,"",ガスト 加茂店（から好し取扱店）,新潟県加茂市寿町１５７７ー３,37.660626,139.045823,ガスト,0
3126,"",ガスト 富士宮バイパス店（から好し取扱店）,静岡県富士宮市富士見ケ丘４１３,35.236594,138.620429,ガスト,0
3125,"",ガスト 千葉ＮＴ白井店（から好し取扱店）,千葉県白井市根７１３－７,35.785166,140.045536,ガスト,0
3124,"",ガスト 土佐バイパス店（から好し取扱店）,高知県高知市鴨部２丁目２２－１５,33.54727,133.503273,ガスト,0
3123,"",ガスト 鈴鹿白子店（から好し取扱店）,三重県鈴鹿市寺家５丁目１－３１,34.830126,136.581988,ガスト,0
3121,"",ガスト 喜多方店（から好し取扱店）,福島県喜多方市字西四ツ谷３２７－１,37.647505,139.878989,ガスト,0
3120,"",ガスト 兵庫駅南店（から好し取扱店）,兵庫県神戸市兵庫区駅南通２丁目１ー１,34.665706,135.164452,ガスト,0
3119,"",ガスト 枚方田口店（から好し取扱店）,大阪府枚方市田口１丁目４８－５,34.825148,135.676681,ガスト,0
3118,"",ガスト 茨城那珂町店（から好し取扱店）,茨城県那珂市竹ノ内２丁目３－１,36.449186,140.501366,ガスト,0
3117,"",ガスト 姪浜店（から好し取扱店）,福岡県福岡市西区内浜１丁目１５－７,33.578377,130.322941,ガスト,0
3116,"",ガスト 浜松初生店（から好し取扱店）,静岡県浜松市中央区初生町１３６０ー１,34.767996,137.714117,ガスト,0
3115,"",ガスト 桑名西店（から好し取扱店）,三重県桑名市大字星川字半之木８００ー３,35.066725,136.627578,ガスト,0
3114,"",ガスト 群馬境町店（から好し取扱店）,群馬県伊勢崎市境３９７番地,36.273642,139.255247,ガスト,0
3113,"",ガスト 浜松有玉店（から好し取扱店）,静岡県浜松市中央区有玉北町７７２ー１,34.765902,137.75625,ガスト,0
3112,"",ガスト 高岡木津新店（から好し取扱店）,富山県高岡市木津１５６１ー１,36.731126,137.001569,ガスト,0
3111,"",ガスト 宇部店（から好し取扱店）,山口県宇部市居能町３丁目１９７１ー１,33.971369,131.229162,ガスト,0
3110,"",ガスト 長野大町店（から好し取扱店）,長野県大町市常盤字上橋５８９７ー１３,36.482342,137.851486,ガスト,0
3109,"",ガスト 伊予松前町店（から好し取扱店）,愛媛県伊予郡松前町大字北黒田字石山２１８ー２,33.780576,132.711775,ガスト,0
3108,"",ガスト 伊丹荒牧店（から好し取扱店）,兵庫県伊丹市荒牧１丁目３－２３,34.8088,135.381533,ガスト,0
3107,"",ガスト 牛久柏田店（から好し取扱店）,茨城県牛久市上柏田２丁目３７－６,35.988514,140.155454,ガスト,0
3106,"",ガスト 龍野店（から好し取扱店）,兵庫県たつの市龍野町小宅北字大町６４－１,34.853331,134.556668,ガスト,0
3105,"",ガスト 米子店（から好し取扱店）,鳥取県米子市上福原５－５－７１,35.448155,133.353102,ガスト,0
3104,"",ガスト 氏家店（から好し取扱店）,栃木県さくら市卯の里１丁目１７－２,36.68118,139.959073,ガスト,0
3103,"",ガスト 川崎田島店（から好し取扱店）,神奈川県川崎市川崎区田島町１３－１６,35.515786,139.708477,ガスト,0
3102,"",ガスト 酒田店（から好し取扱店）,山形県酒田市みずほ２丁目２０－１,38.903003,139.850908,ガスト,0
3101,"",ガスト 鶴岡店（から好し取扱店）,山形県鶴岡市みどり町１４－２７,38.735209,139.809389,ガスト,0
3100,"",ガスト 白石店（から好し取扱店）,宮城県白石市大平森合字森合沖７９－１,37.996778,140.611181,ガスト,0
3099,"",ガスト 西加茂三好店（から好し取扱店）,愛知県みよし市三好町三好字弁財天３７,35.089048,137.06611,ガスト,0
3098,"",ガスト 町田相原店（から好し取扱店）,東京都町田市相原町開都２１７４－１,35.606085,139.317359,ガスト,0
3097,"",ガスト 久留米上津店（から好し取扱店）,福岡県久留米市上津１丁目９－２１,33.289481,130.529903,ガスト,0
3096,"",ガスト 備前店（から好し取扱店）,岡山県備前市伊部２３９２,34.738413,134.153611,ガスト,0
3095,"",ガスト 近大前店（から好し取扱店）,大阪府東大阪市東上小阪１－１９,34.652944,135.589616,ガスト,0
3094,"",ガスト 東海店（から好し取扱店）,愛知県東海市荒尾町脇ノ田１１０,35.031301,136.914573,ガスト,0
3093,"",ガスト 富里店（から好し取扱店）,千葉県富里市七栄４７５－１,35.739978,140.321445,ガスト,0
3092,"",ガスト 豊川中央通店（から好し取扱店）,愛知県豊川市中央通３丁目２０,34.823103,137.386379,ガスト,0
3091,"",ガスト 須賀川店（から好し取扱店）,福島県須賀川市上人坦１３２,37.300676,140.37313,ガスト,0
3090,"",ガスト 行橋店（から好し取扱店）,福岡県京都郡苅田町大字二崎１１２－４,33.746175,130.979124,ガスト,0
3089,"",ガスト 佐賀本庄店（から好し取扱店）,佐賀県佐賀市本庄町大字本庄１９７－１,33.239454,130.295279,ガスト,0
3088,"",ガスト 池田駅前店（から好し取扱店）,大阪府池田市満寿美町１－５,34.820856,135.425852,ガスト,0
3087,"",ガスト 川西通店（から好し取扱店）,愛知県名古屋市港区川西通４丁目４－１,35.113871,136.867838,ガスト,0
3086,"",ガスト 更埴店（から好し取扱店）,長野県千曲市大字杭瀬下字東沖３２－２,36.532392,138.122936,ガスト,0
3085,"",ガスト 香川国分寺町店（から好し取扱店）,香川県高松市国分寺町国分１８８－１,34.296929,133.95324,ガスト,0
3084,"",ガスト 群馬富岡店（から好し取扱店）,群馬県富岡市富岡２６５１－１,36.262412,138.905669,ガスト,0
3083,"",ガスト 南大橋店（から好し取扱店）,福岡県福岡市南区野多目１丁目１－１１,33.543375,130.42763,ガスト,0
3082,"",ガスト 萩野通店（から好し取扱店）,愛知県名古屋市北区萩野通１丁目６－１,35.204686,136.911109,ガスト,0
3081,"",ガスト 中津店（から好し取扱店）,大分県中津市大字下池永４６－４,33.588861,131.211755,ガスト,0
3080,"",ガスト こてはし台店（から好し取扱店）,千葉県千葉市花見川区大日町１３７９ー１,35.683403,140.127993,ガスト,0
3079,"",ガスト 南大分店（から好し取扱店）,大分県大分市羽屋４丁目１－５５,33.209263,131.599801,ガスト,0
3078,"",ガスト 人吉店（から好し取扱店）,熊本県人吉市上薩摩瀬町字園田９９９－１,32.21227,130.741371,ガスト,0
3077,"",ガスト 松原南店（から好し取扱店）,大阪府松原市丹南２丁目２９０－１,34.558453,135.551757,ガスト,0
3076,"",ガスト 横芝町店（から好し取扱店）,千葉県山武郡横芝光町横芝折戸２１４６－１,35.661181,140.486263,ガスト,0
3075,"",ガスト 八代店（から好し取扱店）,熊本県八代市松江町１１２,32.511273,130.597322,ガスト,0
3074,"",ガスト 神戸北別府店（から好し取扱店）,兵庫県神戸市西区北別府４丁目２－４,34.671768,135.008055,ガスト,0
3073,"",ガスト 江南店（から好し取扱店）,愛知県江南市大間町新町１６０,35.33283,136.863454,ガスト,0
3072,"",ガスト 広島八木店（から好し取扱店）,広島県広島市安佐南区八木１丁目２８－３９,34.475801,132.488952,ガスト,0
3071,"",ガスト 柏崎店（から好し取扱店）,新潟県柏崎市柳橋町１０,37.360981,138.556038,ガスト,0
3070,"",ガスト 大垣南店（から好し取扱店）,岐阜県大垣市築捨町５丁目１１７,35.331917,136.620301,ガスト,0
3069,"",ガスト 新居浜店（から好し取扱店）,愛媛県新居浜市徳常町１－１,33.96416,133.283691,ガスト,0
3068,"",ガスト 信州中野店（から好し取扱店）,長野県中野市大字吉田５４８－３,36.755098,138.356658,ガスト,0
3067,"",ガスト 豊中向丘店（から好し取扱店）,大阪府豊中市向丘３丁目１０－１５,34.813693,135.473973,ガスト,0
3066,"",ガスト 寝屋川秦店（から好し取扱店）,大阪府寝屋川市秦町２－３,34.766642,135.631649,ガスト,0
3065,"",ガスト 岡山福成店（から好し取扱店）,岡山県岡山市南区福成２丁目２５－１９,34.616481,133.940933,ガスト,0
3064,"",ガスト 蒲郡店（から好し取扱店）,愛知県蒲郡市港町１３－１７,34.820674,137.229269,ガスト,0
3063,"",ガスト 西尾店（から好し取扱店）,愛知県西尾市山下町八幡山１７－１０,34.864008,137.041952,ガスト,0
3062,"",ガスト 豊橋橋良店（から好し取扱店）,愛知県豊橋市中橋良町７０－１,34.748026,137.380883,ガスト,0
3061,"",ガスト 八幡店（から好し取扱店）,京都府八幡市美濃山幸水２－３,34.855379,135.708567,ガスト,0
3060,"",ガスト 長府店（から好し取扱店）,山口県下関市長府才川１丁目４４－５０,34.026442,131.008301,ガスト,0
3059,"",ガスト 太田植木野店（から好し取扱店）,群馬県太田市植木野町６１９－４,36.322577,139.41207,ガスト,0
3058,"",ガスト 岐阜羽島店（から好し取扱店）,岐阜県羽島市竹鼻町丸の内１丁目１２－１,35.324219,136.696452,ガスト,0
3057,"",ガスト 浜松インター店（から好し取扱店）,静岡県浜松市中央区下石田町９８７－１,34.737981,137.789429,ガスト,0
3056,"",ガスト 荒本駅前店（から好し取扱店）,大阪府東大阪市荒本新町５番３５号,34.678261,135.604489,ガスト,0
3055,"",ガスト 伊豆長岡店（から好し取扱店）,静岡県伊豆の国市南條７５６－２,35.03818,138.947161,ガスト,0
3054,"",ガスト 伊那店（から好し取扱店）,長野県伊那市山寺１７６５,35.846019,137.967052,ガスト,0
3053,"",ガスト 堺菱木店（から好し取扱店）,大阪府堺市西区山田３丁１０６０－１,34.510732,135.465868,ガスト,0
3052,"",ガスト 倉賀野店（から好し取扱店）,群馬県高崎市倉賀野町３０８番地,36.299844,139.034292,ガスト,0
3051,"",ガスト 徳重店（から好し取扱店）,愛知県名古屋市緑区徳重１丁目８１３,35.092401,136.998394,ガスト,0
3050,"",ガスト 小見川店（から好し取扱店）,千葉県香取市小見川１０４１,35.850394,140.610978,ガスト,0
3049,"",ガスト 水海道店（から好し取扱店）,茨城県常総市水海道淵頭町２９４０－１,36.01775,139.994974,ガスト,0
3048,"",ガスト 浜松相生店（から好し取扱店）,静岡県浜松市中央区相生町７－２１,34.709037,137.747266,ガスト,0
3047,"",ガスト 須坂インター店（から好し取扱店）,長野県須坂市大字福島雁土橋３２２－１,36.637988,138.268612,ガスト,0
3046,"",ガスト 八千代大和田店（から好し取扱店）,千葉県八千代市大和田新田４１０－１,35.723417,140.090486,ガスト,0
3045,"",ガスト 浦和沼影店（から好し取扱店）,埼玉県さいたま市南区沼影１丁目１－１８,35.842336,139.64016,ガスト,0
3044,"",ガスト 相模原下九沢店（から好し取扱店）,神奈川県相模原市緑区下九沢１４８０番７,35.575615,139.337618,ガスト,0
3043,"",ガスト 野田七光台店（から好し取扱店）,千葉県野田市七光台４２４－２８,35.981251,139.841061,ガスト,0
3042,"",ガスト 竜ケ崎ニュータウン店（から好し取扱店）,茨城県龍ケ崎市久保台１丁目１－３２,35.931522,140.176533,ガスト,0
3041,"",ガスト 高根沢店（から好し取扱店）,栃木県塩谷郡高根沢町宝石台１－７－２,36.622184,139.992279,ガスト,0
3040,"",ガスト 松山朝生田店（から好し取扱店）,愛媛県松山市朝生田町４－４－２,33.82187,132.76421,ガスト,0
3038,"",ガスト 沼津下香貫店（から好し取扱店）,静岡県沼津市下香貫下障子３１６１－１,35.080411,138.870255,ガスト,0
3037,"",ガスト 各務原駅前店（から好し取扱店）,岐阜県各務原市鵜沼各務原町１丁目１０６番,35.403916,136.903398,ガスト,0
3036,"",ガスト 亀山店（から好し取扱店）,三重県亀山市東御幸町穴渕２１９－９,34.851601,136.457668,ガスト,0
3035,"",ガスト 鶴巻温泉店（から好し取扱店）,神奈川県秦野市鶴巻南１丁目１９番３５号,35.376318,139.276489,ガスト,0
3034,"",ガスト 大網白里店（から好し取扱店）,千葉県大網白里市東駒込５番地３,35.520523,140.315676,ガスト,0
3033,"",ガスト 山梨白根店（から好し取扱店）,山梨県南アルプス市飯野３４６１－１,35.636924,138.465239,ガスト,0
3032,"",ガスト 岸和田東店（から好し取扱店）,大阪府岸和田市箕土路町１丁目９－２２,34.474449,135.407432,ガスト,0
3031,"",ガスト 騎西店（から好し取扱店）,埼玉県加須市騎西１８７－６,36.100766,139.573335,ガスト,0
3030,"",ガスト 五日市山田店（から好し取扱店）,東京都あきる野市山田５８５－１,35.726339,139.261381,ガスト,0
3029,"",ガスト 宇都宮岩曽店（から好し取扱店）,栃木県宇都宮市岩曽町１３３５－１,36.582762,139.911129,ガスト,0
3028,"",ガスト 高浜店（から好し取扱店）,愛知県高浜市沢渡町２丁目７－３,34.935858,136.989975,ガスト,0
3027,"",ガスト 関店（から好し取扱店）,岐阜県関市栄町４丁目１番５４号,35.486129,136.901756,ガスト,0
3026,"",ガスト 守山大森店（から好し取扱店）,愛知県名古屋市守山区大森１丁目２４１０,35.201339,136.994945,ガスト,0
3025,"",ガスト 泉佐野貝田店（から好し取扱店）,大阪府泉佐野市鶴原１２１０番地－４,34.422215,135.345368,ガスト,0
3024,"",ガスト 富士錦町店（から好し取扱店）,静岡県富士市錦町１丁目１４－２２,35.157179,138.677754,ガスト,0
3023,"",ガスト 近江八幡店（から好し取扱店）,滋賀県近江八幡市中村町４０９－１,35.131448,136.093218,ガスト,0
3022,"",ガスト 広島高取店（から好し取扱店）,広島県広島市安佐南区高取北３丁目１４－７０,34.474405,132.433829,ガスト,0
3021,"",ガスト 四日市久保田店（から好し取扱店）,三重県四日市市久保田１丁目５－３９,34.974626,136.606448,ガスト,0
3020,"",ガスト 八尾高美店（から好し取扱店）,大阪府八尾市高美町１丁目４番２４号,34.623456,135.609403,ガスト,0
3019,"",ガスト 八日市店（から好し取扱店）,滋賀県東近江市幸町２－５,35.1074,136.206461,ガスト,0
3018,"",ガスト 鹿児島城南店（から好し取扱店）,鹿児島県鹿児島市城南町７－４１番地,31.581018,130.562738,ガスト,0
3017,"",ガスト 上飯田店（から好し取扱店）,愛知県名古屋市北区上飯田東町１丁目５３－１,35.200911,136.939182,ガスト,0
3016,"",ガスト 上三川店（から好し取扱店）,栃木県河内郡上三川町しらさぎ１－７－１０,36.442678,139.907073,ガスト,0
3015,"",ガスト 焼津東小川店（から好し取扱店）,静岡県焼津市東小川２丁目２－３,34.857381,138.317777,ガスト,0
3014,"",ガスト 南流山駅前店（から好し取扱店）,千葉県流山市南流山１丁目８－７,35.839236,139.904739,ガスト,0
3013,"",ガスト 日立駅前店（から好し取扱店）,茨城県日立市幸町１丁目９－７,36.592544,140.656882,ガスト,0
3012,"",ガスト かしわ沼南店（から好し取扱店）,千葉県柏市塚崎１３２４－２,35.832536,140.004215,ガスト,0
3011,"",ガスト 東松山高坂店（から好し取扱店）,埼玉県東松山市大字西本宿３４５－２,36.001651,139.385707,ガスト,0
3010,"",ガスト 有松店（から好し取扱店）,愛知県名古屋市緑区境松１丁目４０２,35.06185,136.978439,ガスト,0
3009,"",ガスト 栄中野店（から好し取扱店）,神奈川県横浜市栄区中野町１２０,35.363308,139.563841,ガスト,0
3008,"",ガスト 高槻東店（から好し取扱店）,大阪府高槻市宮野町４７－１,34.854152,135.637127,ガスト,0
3007,"",ガスト 岡崎店（から好し取扱店）,愛知県岡崎市天白町東池２７－１,34.934033,137.145656,ガスト,0
3006,"",ガスト 徳力店（から好し取扱店）,福岡県北九州市小倉南区守恒本町２丁目１－２３,33.837133,130.873776,ガスト,0
3005,"",ガスト 静岡曲金店（から好し取扱店）,静岡県静岡市駿河区曲金５丁目２－４０,34.977906,138.410723,ガスト,0
3004,"",ガスト 西新井店（から好し取扱店）,東京都足立区栗原３丁目２８－１１,35.782175,139.785159,ガスト,0
3003,"",ガスト 練馬向山店（から好し取扱店）,東京都練馬区向山２丁目１２－３,35.739694,139.639775,ガスト,0
3002,"",ガスト 市原牛久店（から好し取扱店）,千葉県市原市牛久５９５－１,35.401274,140.138675,ガスト,0
3001,"",ガスト 尾西店（から好し取扱店）,愛知県一宮市開明字名古羅１５－１,35.318522,136.771934,ガスト,0
3000,"",ガスト 浜松宮竹店（から好し取扱店）,静岡県浜松市中央区宮竹町３２２－１,34.722851,137.765929,ガスト,0
2999,"",ガスト 実籾店（から好し取扱店）,千葉県習志野市実籾２丁目４－１０,35.684803,140.06871,ガスト,0
2998,"",ガスト 秦野中井インター店（から好し取扱店）,神奈川県秦野市西大竹２８８－１,35.361992,139.2341,ガスト,0
2997,"",ガスト 新田辺店（から好し取扱店）,京都府京田辺市興戸北鉾立４－１,34.813059,135.771243,ガスト,0
2996,"",ガスト 印西店（から好し取扱店）,千葉県印西市大森２４５１－１１,35.834017,140.14736,ガスト,0
2995,"",ガスト 辻堂店（から好し取扱店）,神奈川県藤沢市辻堂神台２丁目４－４６,35.341953,139.448866,ガスト,0
2994,"",ガスト 須玉インター店（から好し取扱店）,山梨県北杜市須玉町若神子１９０８－１,35.785655,138.418521,ガスト,0
2993,"",ガスト 和光インター店（から好し取扱店）,埼玉県和光市広沢２－８,35.782865,139.610213,ガスト,0
2992,"",ガスト 川崎生田店（から好し取扱店）,神奈川県川崎市多摩区生田１丁目２８－３１,35.626479,139.542601,ガスト,0
2991,"",ガスト 栃木店（から好し取扱店）,栃木県栃木市箱森町３７－２９,36.393776,139.724694,ガスト,0
2990,"",ガスト 幕張西店（から好し取扱店）,千葉県千葉市美浜区幕張西２丁目１－７,35.666134,140.039374,ガスト,0
2989,"",ガスト 小田原桑原店（から好し取扱店）,神奈川県小田原市桑原１８３－３,35.300193,139.166589,ガスト,0
2988,"",ガスト 三鷹上連雀店（から好し取扱店）,東京都三鷹市上連雀４丁目１０－１,35.693714,139.559092,ガスト,0
2987,"",ガスト 三田店（から好し取扱店）,兵庫県三田市高次２丁目４－３,34.890974,135.231493,ガスト,0
2986,"",ガスト 柿生店（から好し取扱店）,神奈川県川崎市麻生区上麻生２８,35.578029,139.506152,ガスト,0
2985,"",ガスト 浦安店（から好し取扱店）,千葉県浦安市北栄１丁目１－９,35.664662,139.895586,ガスト,0
2984,"",ガスト 取手戸頭店（から好し取扱店）,茨城県取手市戸頭６３６－４,35.928396,140.015459,ガスト,0
2983,"",ガスト 交野店（から好し取扱店）,大阪府交野市私部西２丁目１５－５,34.783759,135.676225,ガスト,0
2982,"",ガスト 越谷赤山町店（から好し取扱店）,埼玉県越谷市赤山町５丁目７－５２,35.882091,139.783189,ガスト,0
2981,"",ガスト 相模原大沼店（から好し取扱店）,神奈川県相模原市南区東大沼３丁目３２－１,35.537732,139.418702,ガスト,0
2980,"",ガスト 川越霞ケ関店（から好し取扱店）,埼玉県川越市大字的場２２４３－１,35.926179,139.442416,ガスト,0
2979,"",ガスト 戸塚平戸店（から好し取扱店）,神奈川県横浜市戸塚区平戸１丁目１－７,35.430201,139.574609,ガスト,0
2978,"",ガスト 秦野平沢店（から好し取扱店）,神奈川県秦野市平沢５６２－１,35.375085,139.204273,ガスト,0
2977,"",ガスト 橿原神宮前店（から好し取扱店）,奈良県橿原市久米町芝田７１３,34.487464,135.795867,ガスト,0
2976,"",ガスト 平塚店（から好し取扱店）,神奈川県平塚市四之宮５丁目１０－６,35.356505,139.357819,ガスト,0
2975,"",ガスト 昭島店（から好し取扱店）,東京都昭島市松原町１丁目４－１１,35.712146,139.356723,ガスト,0
2974,"",ガスト 鳩ケ谷店（から好し取扱店）,埼玉県川口市三ツ和１丁目１３－１,35.827584,139.739714,ガスト,0
2973,"",ガスト 南本宿店（から好し取扱店）,神奈川県横浜市旭区南本宿町３６－３,35.460436,139.541288,ガスト,0
2972,"",ガスト 新座一丁目店（から好し取扱店）,埼玉県新座市新座１丁目１２,35.818487,139.560537,ガスト,0
2971,"",ガスト 千葉おゆみ野店（から好し取扱店）,千葉県千葉市緑区おゆみ野南５丁目１－３,35.550607,140.171977,ガスト,0
2970,"",ガスト 茅ヶ崎矢畑店（から好し取扱店）,神奈川県茅ヶ崎市矢畑１４２８－１,35.341866,139.399493,ガスト,0
2969,"",ガスト 足立江北店（から好し取扱店）,東京都足立区江北６丁目１－１８,35.779329,139.769836,ガスト,0
2968,"",ガスト 姉ケ崎店（から好し取扱店）,千葉県市原市姉崎居合塚６２５,35.480017,140.048055,ガスト,0
2967,"",ガスト 長良北店（から好し取扱店）,岐阜県岐阜市福光東３丁目１３－１３,35.455916,136.775381,ガスト,0
2966,"",ガスト 保土ケ谷店（から好し取扱店）,神奈川県横浜市保土ケ谷区西谷１丁目１－１３,35.478592,139.566669,ガスト,0
2965,"",ガスト 大和鶴間店（から好し取扱店）,神奈川県大和市西鶴間６丁目１－１,35.485923,139.444774,ガスト,0
2964,"",ガスト 港東通店（から好し取扱店）,愛知県名古屋市南区港東通１丁目２４,35.091708,136.916568,ガスト,0
2963,"",ガスト 厚木愛甲店（から好し取扱店）,神奈川県厚木市愛甲３丁目４－１,35.423012,139.349082,ガスト,0
2962,"",ガスト 北綾瀬店（から好し取扱店）,東京都足立区谷中２丁目２３－１３,35.776911,139.835329,ガスト,0
2961,"",ガスト 古河店（から好し取扱店）,茨城県古河市雷電町１２－４０,36.202116,139.718475,ガスト,0
2960,"",ガスト 伊豆今井浜店（から好し取扱店）,静岡県賀茂郡河津町見高１２５９－１１０,34.756328,139.020151,ガスト,0
2959,"",ガスト 藤沢善行店（から好し取扱店）,神奈川県藤沢市善行２丁目１９－１３,35.364353,139.470419,ガスト,0
2958,"",ガスト 関前店（から好し取扱店）,東京都武蔵野市関前５丁目１１－１１,35.712712,139.541544,ガスト,0
2957,"",ガスト 泉北ニュータウン栂店（から好し取扱店）,大阪府堺市南区栂３５６－１,34.486128,135.499992,ガスト,0
2955,"",ガスト 越谷大袋店（から好し取扱店）,埼玉県越谷市大字上間久里築堤４９－１,35.929951,139.780646,ガスト,0
2954,"",ガスト 長瀞店（から好し取扱店）,埼玉県秩父郡皆野町大字皆野３２３６－１４,36.077425,139.108836,ガスト,0
2953,"",ガスト 岐阜県庁前店（から好し取扱店）,岐阜県岐阜市薮田東２丁目８－８,35.395349,136.722126,ガスト,0
2952,"",ガスト 町田小山店（から好し取扱店）,東京都町田市小山町１１５８－１,35.595268,139.372456,ガスト,0
2951,"",ガスト 山形あこや町店（から好し取扱店）,山形県山形市あこや町２丁目３－２６,38.241157,140.353094,ガスト,0
2950,"",ガスト 山中湖店（から好し取扱店）,山梨県南都留郡山中湖村山中藪木２１２－２８,35.418051,138.855504,ガスト,0
2949,"",ガスト 武生店（から好し取扱店）,福井県越前市横市町２８－２７－１,35.907746,136.191732,ガスト,0
2948,"",ガスト 多摩南野店（から好し取扱店）,東京都多摩市南野２丁目３１－１２,35.608236,139.42688,ガスト,0
2947,"",ガスト 大宮南中野店（から好し取扱店）,埼玉県さいたま市見沼区大字南中野字高木８３８－１,35.90999,139.664724,ガスト,0
2946,"",ガスト 古川店（から好し取扱店）,宮城県大崎市古川駅前大通４丁目３番地１２,38.576121,140.965698,ガスト,0
2945,"",ガスト 上総一宮店（から好し取扱店）,千葉県長生郡一宮町東浪見字太東下７３５９－１,35.330898,140.396142,ガスト,0
2944,"",ガスト 泉南尾崎店（から好し取扱店）,大阪府阪南市下出３９０－１,34.358423,135.249883,ガスト,0
2943,"",ガスト 刈谷店（から好し取扱店）,愛知県刈谷市築地町１丁目２－３,35.009342,137.015915,ガスト,0
2942,"",ガスト 天理店（から好し取扱店）,奈良県天理市二階堂上ノ庄町１６７－１,34.597011,135.797949,ガスト,0
2941,"",ガスト 福井東店（から好し取扱店）,福井県福井市長本町２０２,36.073079,136.239923,ガスト,0
2940,"",ガスト 倉見店（から好し取扱店）,神奈川県高座郡寒川町倉見５２３－１,35.394467,139.379998,ガスト,0
2939,"",ガスト 草加松原店（から好し取扱店）,埼玉県草加市栄町２丁目７－３１,35.842864,139.80419,ガスト,0
2938,"",ガスト 豊田店（から好し取扱店）,愛知県豊田市寿町２丁目４,35.05713,137.137942,ガスト,0
2937,"",ガスト 浜松可美店（から好し取扱店）,静岡県浜松市中央区若林町９５７－１,34.68828,137.704792,ガスト,0
2935,"",ガスト 港北ニュータウン店（から好し取扱店）,神奈川県横浜市都筑区荏田南３丁目１－４３,35.548746,139.555904,ガスト,0
2934,"",ガスト 天童店（から好し取扱店）,山形県天童市鎌田本町２丁目１－１０,38.359658,140.382491,ガスト,0
2933,"",ガスト 伊丹桜台店（から好し取扱店）,兵庫県伊丹市中野北３丁目５－１４,34.790891,135.379562,ガスト,0
2932,"",ガスト 相模原店（から好し取扱店）,神奈川県相模原市中央区相生１丁目５－６,35.566014,139.388172,ガスト,0
2931,"",ガスト 筑波学園店（から好し取扱店）,茨城県つくば市東新井３－１,36.078083,140.109025,ガスト,0
2930,"",ガスト 長野ＳＢＣ通店（から好し取扱店）,長野県長野市三輪１０丁目４番地４,36.67068,138.205322,ガスト,0
2929,"",ガスト 金沢伏見台店（から好し取扱店）,石川県金沢市伏見台３丁目１－１１,36.531471,136.638063,ガスト,0
2928,"",ガスト 武蔵高萩店（から好し取扱店）,埼玉県日高市武蔵高萩４丁目１４番地１１,35.908178,139.37252,ガスト,0
2927,"",ガスト 西綾瀬店（から好し取扱店）,東京都足立区西綾瀬２丁目７－１,35.763249,139.813714,ガスト,0
2925,"",ガスト 相模湖店（から好し取扱店）,神奈川県相模原市緑区与瀬２８０,35.612824,139.193456,ガスト,0
2924,"",ガスト 塩山店（から好し取扱店）,山梨県甲州市塩山西広門田３３０－１,35.694245,138.722871,ガスト,0
2923,"",ガスト 東大和蔵敷店（から好し取扱店）,東京都東大和市蔵敷２丁目４５９－１,35.754219,139.418658,ガスト,0
2922,"",ガスト 南越谷店（から好し取扱店）,埼玉県越谷市蒲生１丁目７－２２,35.858752,139.796754,ガスト,0
2921,"",ガスト 東金店（から好し取扱店）,千葉県東金市東新宿２０－８,35.558793,140.370393,ガスト,0
2920,"",ガスト 川口朝日店（から好し取扱店）,埼玉県川口市朝日６丁目１５－１７,35.805752,139.744867,ガスト,0
2919,"",ガスト 今市店（から好し取扱店）,栃木県日光市瀬川字長久保３１－１,36.7268,139.694349,ガスト,0
2918,"",ガスト 東久留米店（から好し取扱店）,東京都東久留米市柳窪２丁目８,35.744988,139.490609,ガスト,0
2917,"",ガスト 高井戸店（から好し取扱店）,東京都杉並区高井戸西１丁目５－４５,35.680174,139.614338,ガスト,0
2916,"",ガスト 草加松江店（から好し取扱店）,埼玉県草加市松江６丁目１４－２７,35.833091,139.820463,ガスト,0
2915,"",ガスト 一宮インター店（から好し取扱店）,愛知県一宮市三ツ井３丁目１－１８,35.276248,136.829641,ガスト,0
2914,"",ガスト 南加瀬店（から好し取扱店）,神奈川県川崎市幸区南加瀬２丁目７－１８,35.549705,139.65939,ガスト,0
2912,"",ガスト 藤井寺店（から好し取扱店）,大阪府藤井寺市沢田１丁目２９－３,34.573407,135.605216,ガスト,0
2911,"",ガスト 矢板店（から好し取扱店）,栃木県矢板市東町３８０－１３０,36.798714,139.943095,ガスト,0
2910,"",ガスト 安中店（から好し取扱店）,群馬県安中市高別当３５９,36.324832,138.882825,ガスト,0
2909,"",ガスト 千里丘店（から好し取扱店）,大阪府吹田市千里丘上２－２０,34.794624,135.552047,ガスト,0
2908,"",ガスト 真岡店（から好し取扱店）,栃木県真岡市上高間木２－２７－９,36.440066,139.984442,ガスト,0
2907,"",ガスト 稲城駅前店（から好し取扱店）,東京都稲城市百村１６０１－２,35.638826,139.499473,ガスト,0
2906,"",ガスト 東所沢駅前店（から好し取扱店）,埼玉県所沢市大字本郷１０９２－４,35.793363,139.515129,ガスト,0
2905,"",ガスト 東岩槻店（から好し取扱店）,埼玉県さいたま市岩槻区東岩槻２丁目７－１,35.965805,139.710732,ガスト,0
2904,"",ガスト 中野江古田店（から好し取扱店）,東京都中野区江古田２丁目１０－９,35.724013,139.666504,ガスト,0
2903,"",ガスト 松戸五香六実店（から好し取扱店）,千葉県松戸市五香２丁目１６－１,35.794533,139.970524,ガスト,0
2902,"",ガスト 康生通店（から好し取扱店）,愛知県名古屋市西区名西２丁目３６－２２,35.190525,136.877172,ガスト,0
2901,"",ガスト つくし野店（から好し取扱店）,東京都町田市小川１丁目４－１,35.525695,139.475558,ガスト,0
2899,"",ガスト 春日井店（から好し取扱店）,愛知県春日井市六軒屋町２丁目１２,35.260799,136.973262,ガスト,0
2898,"",ガスト 浜名湖店（から好し取扱店）,静岡県湖西市新居町中之郷３８９４,34.706755,137.546937,ガスト,0
2897,"",ガスト 籠原店（から好し取扱店）,埼玉県熊谷市新堀３２１－１,36.175545,139.336942,ガスト,0
2896,"",ガスト 鶴見緑地公園店（から好し取扱店）,大阪府大阪市鶴見区横堤４丁目２６－３４,34.70806,135.569521,ガスト,0
2895,"",ガスト 港北新羽店（から好し取扱店）,神奈川県横浜市港北区新羽町１６７５,35.528426,139.613397,ガスト,0
2894,"",ガスト 下館店（から好し取扱店）,茨城県筑西市甲２２８－１,36.310965,139.975242,ガスト,0
2893,"",ガスト 神栖店（から好し取扱店）,茨城県神栖市神栖１丁目１６－３,35.899108,140.641354,ガスト,0
2892,"",ガスト 藤沢弥勒寺店（から好し取扱店）,神奈川県藤沢市村岡東２丁目１７－１,35.340083,139.504601,ガスト,0
2890,"",ガスト 広島大芝店（から好し取扱店）,広島県広島市西区大芝２丁目１９－１２,34.420268,132.458266,ガスト,0
2889,"",ガスト 小牧店（から好し取扱店）,愛知県小牧市常普請２丁目３００,35.283789,136.92001,ガスト,0
2888,"",ガスト 西寺尾店（から好し取扱店）,神奈川県横浜市神奈川区西寺尾１丁目１５－２,35.501105,139.644516,ガスト,0
2887,"",ガスト 八王子散田店（から好し取扱店）,東京都八王子市散田町５丁目１１－５,35.648931,139.301883,ガスト,0
2886,"",ガスト 上尾柏座店（から好し取扱店）,埼玉県上尾市柏座４丁目６－１７,35.967823,139.579886,ガスト,0
2884,"",ガスト 群馬新町店（から好し取扱店）,群馬県高崎市新町２４３２－１,36.275253,139.10128,ガスト,0
2883,"",ガスト 岩井店（から好し取扱店）,茨城県坂東市岩井２９２５－９,36.05219,139.882287,ガスト,0
2882,"",ガスト 三ツ境店（から好し取扱店）,神奈川県横浜市瀬谷区三ツ境１６４－２,35.458158,139.499381,ガスト,0
2881,"",ガスト 川越駅前店（から好し取扱店）,埼玉県川越市脇田本町２－６,35.905699,139.482563,ガスト,0
2880,"",ガスト 東小松川店（から好し取扱店）,東京都江戸川区大杉１丁目２－１２,35.703111,139.875794,ガスト,0
2879,"",ガスト 鴨川店（から好し取扱店）,千葉県鴨川市広場汐入７９６－１,35.110595,140.108347,ガスト,0
2878,"",ガスト 広島五日市店（から好し取扱店）,広島県広島市佐伯区旭園２－１２,34.365999,132.367475,ガスト,0
2877,"",ガスト 保土ケ谷常盤台店（から好し取扱店）,神奈川県横浜市保土ケ谷区常盤台２１番２８号,35.469946,139.593001,ガスト,0
2876,"",ガスト 町田旭店（から好し取扱店）,東京都町田市旭町１丁目２１－１７,35.556608,139.439954,ガスト,0
2875,"",ガスト 川口青木橋店（から好し取扱店）,埼玉県川口市青木２丁目１２－３５,35.808017,139.728615,ガスト,0
2874,"",ガスト 長浜店（から好し取扱店）,滋賀県長浜市八幡中山町字フケ３５０－１,35.391904,136.277998,ガスト,0
2873,"",ガスト 鹿児島川内店（から好し取扱店）,鹿児島県薩摩川内市御陵下町２８４１－２,31.835092,130.288948,ガスト,0
2872,"",ガスト 観音寺店（から好し取扱店）,香川県観音寺市坂本町１丁目３－１２,34.129626,133.661998,ガスト,0
2871,"",ガスト 彦根店（から好し取扱店）,滋賀県彦根市後三条町字徳楽７１８,35.266008,136.24413,ガスト,0
2870,"",ガスト 清水七ツ新屋店（から好し取扱店）,静岡県静岡市清水区七ツ新屋４４２－１,35.011978,138.450898,ガスト,0
2869,"",ガスト 小田原南店（から好し取扱店）,神奈川県小田原市南町２丁目２－６０,35.246908,139.153878,ガスト,0
2868,"",ガスト 戸田店（から好し取扱店）,埼玉県戸田市大字新曽１８２５－１,35.811929,139.662221,ガスト,0
2867,"",ガスト 館山東店（から好し取扱店）,千葉県館山市安布里１６２－１,34.991595,139.876957,ガスト,0
2866,"",ガスト 仙南大河原店（から好し取扱店）,宮城県柴田郡大河原町字新東２２－８,38.05693,140.734517,ガスト,0
2865,"",ガスト 浜松住吉店（から好し取扱店）,静岡県浜松市中央区住吉１丁目４１番地１５,34.73074,137.721669,ガスト,0
2864,"",ガスト 花巻店（から好し取扱店）,岩手県花巻市上小舟渡４７－２,39.397316,141.123094,ガスト,0
2862,"",ガスト 観音本町店（から好し取扱店）,広島県広島市西区観音本町２丁目１３－７,34.388286,132.434353,ガスト,0
2861,"",ガスト 奈良大安寺店（から好し取扱店）,奈良県奈良市大安寺町字出袋狐塚５５２－２,34.676103,135.800746,ガスト,0
2860,"",ガスト 姫路御国野店（から好し取扱店）,兵庫県姫路市御国野町御着７６８－１,34.819241,134.738357,ガスト,0
2859,"",ガスト 静岡安西店（から好し取扱店）,静岡県静岡市葵区安西１丁目１３,34.979841,138.374238,ガスト,0
2858,"",ガスト 吉川店（から好し取扱店）,埼玉県吉川市栄町８６４,35.886329,139.853873,ガスト,0
2857,"",ガスト 小山犬塚店（から好し取扱店）,栃木県小山市犬塚２丁目６－１,36.310003,139.831327,ガスト,0
2856,"",ガスト 雄琴店（から好し取扱店）,滋賀県大津市雄琴６丁目１３－１６,35.093523,135.900187,ガスト,0
2855,"",ガスト 屋島店（から好し取扱店）,香川県高松市高松町２５５４－２６,34.339332,134.106327,ガスト,0
2854,"",ガスト 堅田店（から好し取扱店）,滋賀県大津市真野２丁目３１－２８,35.127614,135.921823,ガスト,0
2853,"",ガスト 姫路飾西店（から好し取扱店）,兵庫県姫路市飾西３９４－１,34.859804,134.642652,ガスト,0
2852,"",ガスト 西鎌倉店（から好し取扱店）,神奈川県鎌倉市津７０９－１,35.316814,139.503284,ガスト,0
2851,"",ガスト 東久留米南町店（から好し取扱店）,東京都東久留米市南町４丁目９－７,35.74463,139.523178,ガスト,0
2850,"",ガスト 与野上峰店（から好し取扱店）,埼玉県さいたま市中央区上峰２丁目１－１,35.875056,139.618892,ガスト,0
2849,"",ガスト 結城店（から好し取扱店）,茨城県結城市大字結城６３９－１,36.296803,139.878798,ガスト,0
2848,"",ガスト 木更津北店（から好し取扱店）,千葉県木更津市高柳谷原１０５３,35.398124,139.939314,ガスト,0
2847,"",ガスト 京都西京極店（から好し取扱店）,京都府京都市右京区西京極畑田町９－１,34.985812,135.720171,ガスト,0
2845,"",ガスト いわき自由ヶ丘店（から好し取扱店）,福島県いわき市自由ケ丘４６－４,37.026877,140.895592,ガスト,0
2844,"",ガスト 姫路土山店（から好し取扱店）,兵庫県姫路市土山１丁目６－１５,34.831421,134.674948,ガスト,0
2843,"",ガスト 内田橋南店（から好し取扱店）,愛知県名古屋市南区内田橋１丁目２７－７,35.112416,136.907945,ガスト,0
2842,"",ガスト 世田谷代田店（から好し取扱店）,東京都世田谷区代田１丁目８－７,35.651298,139.660625,ガスト,0
2840,"",ガスト 水口店（から好し取扱店）,滋賀県甲賀市水口町北脇５１６,34.980382,136.155083,ガスト,0
2839,"",ガスト 石巻店（から好し取扱店）,宮城県石巻市中里２丁目２－１１,38.441141,141.300931,ガスト,0
2838,"",ガスト 坂出北インター店（から好し取扱店）,香川県坂出市西大浜北１丁目１－５,34.321856,133.847314,ガスト,0
2837,"",ガスト 膳所店（から好し取扱店）,滋賀県大津市秋葉台６－１５,34.991091,135.886274,ガスト,0
2836,"",ガスト 加古川駅南店（から好し取扱店）,兵庫県加古川市加古川町寺家町９４－２,34.763035,134.839931,ガスト,0
2835,"",ガスト 長野古牧店（から好し取扱店）,長野県長野市大字高田４５９－３,36.648169,138.20826,ガスト,0
2834,"",ガスト 弥富通店（から好し取扱店）,愛知県名古屋市瑞穂区彌富通２丁目２５,35.117507,136.94621,ガスト,0
2833,"",ガスト 大宮本郷店（から好し取扱店）,埼玉県さいたま市北区本郷町１３８６,35.941092,139.629196,ガスト,0
2832,"",ガスト 多賀城店（から好し取扱店）,宮城県多賀城市伝上山１丁目１４番地２３号,38.295795,141.012296,ガスト,0
2831,"",ガスト 片江店（から好し取扱店）,福岡県福岡市城南区片江３丁目１２－３６,33.552116,130.374171,ガスト,0
2830,"",ガスト 岡山西大寺店（から好し取扱店）,岡山県岡山市東区富士見町１丁目２８－３９,34.657943,134.013398,ガスト,0
2829,"",ガスト 宇治槇島店（から好し取扱店）,京都府宇治市槇島町三十五４７－４,34.913001,135.782948,ガスト,0
2828,"",ガスト 明石大久保店（から好し取扱店）,兵庫県明石市魚住町金ケ崎大池東６３－２,34.688715,134.930936,ガスト,0
2827,"",ガスト 松任店（から好し取扱店）,石川県白山市幸明町２９０－１,36.517936,136.576798,ガスト,0
2826,"",ガスト 一枝店（から好し取扱店）,福岡県北九州市戸畑区一枝１丁目２－９,33.887787,130.837882,ガスト,0
2825,"",ガスト 押部谷店（から好し取扱店）,兵庫県神戸市西区押部谷町福住５４３－１,34.756334,135.037907,ガスト,0
2824,"",ガスト 東百舌鳥店（から好し取扱店）,大阪府堺市中区新家町５８９－３,34.537632,135.515921,ガスト,0
2823,"",ガスト 三木志染店（から好し取扱店）,兵庫県三木市志染町広野１丁目１０７,34.780721,135.009586,ガスト,0
2822,"",ガスト 上越店（から好し取扱店）,新潟県上越市石橋１丁目９番地,37.160862,138.236898,ガスト,0
2821,"",ガスト 関町店（から好し取扱店）,東京都練馬区関町南３丁目３２－１７,35.722831,139.577086,ガスト,0
2820,"",ガスト 名谷店（から好し取扱店）,兵庫県神戸市垂水区名谷町字横尾１７６９,34.664886,135.073401,ガスト,0
2819,"",ガスト 筑紫通弓田店（から好し取扱店）,福岡県福岡市博多区那珂６丁目２４－８,33.564318,130.443415,ガスト,0
2818,"",ガスト 八尾久宝寺店（から好し取扱店）,大阪府八尾市久宝寺１丁目１番１１号,34.626807,135.593299,ガスト,0
2817,"",ガスト 横浜長者町店（から好し取扱店）,神奈川県横浜市中区長者町２丁目５－１,35.438807,139.635919,ガスト,0
2816,"",ガスト 館林店（から好し取扱店）,群馬県館林市富士原町１０９８－１,36.236363,139.519683,ガスト,0
2815,"",ガスト 仙台木町通店（から好し取扱店）,宮城県仙台市青葉区木町通２丁目２－１０,38.271896,140.86562,ガスト,0
2814,"",ガスト 永犬丸店（から好し取扱店）,福岡県北九州市八幡西区里中１丁目７－１,33.837812,130.735363,ガスト,0
2813,"",ガスト 越水店（から好し取扱店）,兵庫県西宮市越水町３－３,34.744434,135.339648,ガスト,0
2812,"",ガスト 本城店（から好し取扱店）,福岡県北九州市八幡西区力丸町１５－４,33.878399,130.725766,ガスト,0
2810,"",ガスト 衣笠インター店（から好し取扱店）,神奈川県横須賀市衣笠町４０－５,35.241589,139.661795,ガスト,0
2808,"",ガスト 穴川インター店（から好し取扱店）,千葉県千葉市稲毛区園生町４４９－３,35.644184,140.115878,ガスト,0
2807,"",ガスト 伊丹瑞穂店（から好し取扱店）,兵庫県伊丹市瑞穂町６丁目４５,34.791581,135.402353,ガスト,0
2806,"",ガスト 尼崎立花店（から好し取扱店）,兵庫県尼崎市浜田町３丁目７４,34.729111,135.397975,ガスト,0
2805,"",ガスト 堀田通店（から好し取扱店）,愛知県名古屋市瑞穂区二野町４－６,35.132756,136.918709,ガスト,0
2804,"",ガスト 尻手店（から好し取扱店）,神奈川県横浜市鶴見区尻手２丁目１番地１８,35.525239,139.681616,ガスト,0
2803,"",ガスト 甲府朝日店（から好し取扱店）,山梨県甲府市朝日４丁目６－１５,35.673339,138.567941,ガスト,0
2802,"",ガスト 入間川店（から好し取扱店）,埼玉県狭山市入間川４丁目８－５,35.855656,139.401242,ガスト,0
2801,"",ガスト 前橋南店（から好し取扱店）,群馬県前橋市天川原町１－１９－２,36.375761,139.081515,ガスト,0
2800,"",ガスト 市原八幡店（から好し取扱店）,千葉県市原市八幡北町３丁目１－５,35.54715,140.122073,ガスト,0
2799,"",ガスト 松戸古ケ崎店（から好し取扱店）,千葉県松戸市古ケ崎７５０－１,35.793719,139.89782,ガスト,0
2798,"",ガスト 二日市店（から好し取扱店）,福岡県筑紫野市武蔵４丁目５－１２,33.486655,130.515525,ガスト,0
2797,"",ガスト 河内長野片添店（から好し取扱店）,大阪府河内長野市西片添町２－２１,34.434686,135.569248,ガスト,0
2796,"",ガスト 寝屋川店（から好し取扱店）,大阪府寝屋川市葛原１丁目２７－１８,34.772559,135.608494,ガスト,0
2795,"",ガスト 富山空港通店（から好し取扱店）,富山県富山市二口町５丁目１０－４,36.668225,137.202018,ガスト,0
2794,"",ガスト 西六郷店（から好し取扱店）,東京都大田区西六郷３丁目４－８,35.547478,139.707073,ガスト,0
2793,"",ガスト 大泉店（から好し取扱店）,群馬県邑楽郡大泉町中央３－１０－２０,36.256932,139.416273,ガスト,0
2792,"",ガスト 牧落店（から好し取扱店）,大阪府箕面市牧落３丁目１３－１２,34.824772,135.471844,ガスト,0
2791,"",ガスト 足立大谷田店（から好し取扱店）,東京都足立区大谷田２丁目１７－２,35.783241,139.842601,ガスト,0
2790,"",ガスト 富田林店（から好し取扱店）,大阪府富田林市中野町西２丁目２４２－１,34.513563,135.604498,ガスト,0
2789,"",ガスト 十三店（から好し取扱店）,大阪府大阪市淀川区田川北１丁目１０－９,34.723021,135.473619,ガスト,0
2787,"",ガスト 世田谷野沢店（から好し取扱店）,東京都世田谷区野沢４丁目１８－８　武蔵屋ビル２階,35.6338,139.666421,ガスト,0
2786,"",ガスト 西中島店（から好し取扱店）,大阪府大阪市淀川区木川東２丁目１－２,34.724675,135.494189,ガスト,0
2785,"",ガスト 三浦店（から好し取扱店）,神奈川県三浦市三崎町小網代５７－１,35.15716,139.636734,ガスト,0
2784,"",ガスト 小金井前原店（から好し取扱店）,東京都小金井市前原町５丁目７－９,35.689161,139.498609,ガスト,0
2783,"",ガスト 行田店（から好し取扱店）,埼玉県行田市旭町１１－２４,36.140663,139.465676,ガスト,0
2782,"",ガスト 都島本通店（から好し取扱店）,大阪府大阪市都島区都島北通２丁目２－２１,34.708904,135.53278,ガスト,0
2781,"",ガスト 鵠沼店（から好し取扱店）,神奈川県藤沢市本鵠沼５丁目３－１１,35.336678,139.474949,ガスト,0
2779,"",ガスト 志木中宗岡店（から好し取扱店）,埼玉県志木市中宗岡１丁目５－６２,35.837716,139.584751,ガスト,0
2778,"",ガスト 砂川三番店（から好し取扱店）,東京都立川市上砂町２丁目４５－４,35.724973,139.396457,ガスト,0
2777,"",ガスト 平野加美店（から好し取扱店）,大阪府大阪市平野区加美鞍作３丁目１１－５,34.621644,135.565609,ガスト,0
2776,"",ガスト 毛馬店（から好し取扱店）,大阪府大阪市都島区毛馬町１丁目７－１０,34.719416,135.522897,ガスト,0
2775,"",ガスト 高岡四屋店（から好し取扱店）,富山県高岡市四屋６１３－２,36.761093,137.002606,ガスト,0
2774,"",ガスト 八王子横川店（から好し取扱店）,東京都八王子市横川町４８６,35.663663,139.305948,ガスト,0
2773,"",ガスト 瑞穂長岡店（から好し取扱店）,東京都西多摩郡瑞穂町長岡４丁目１－２,35.778911,139.330048,ガスト,0
2772,"",ガスト 足立平野店（から好し取扱店）,東京都足立区平野２丁目１６－７,35.785813,139.803229,ガスト,0
2769,"",ガスト 世田谷上馬店（から好し取扱店）,東京都世田谷区上馬５丁目２６－１４,35.641837,139.656963,ガスト,0
2768,"",ガスト 西川口店（から好し取扱店）,埼玉県川口市宮町１８－５,35.806194,139.698662,ガスト,0
2767,"",ガスト 小平回田店（から好し取扱店）,東京都小平市回田町１７９－１,35.714155,139.493869,ガスト,0
2766,"",魚屋路 川崎柳町店,神奈川県川崎市幸区柳町３－１,35.53141,139.690314,魚屋路,0
2765,"",魚屋路 磯子上中里店,神奈川県横浜市磯子区上中里町６７６－１,35.370818,139.6126,魚屋路,0
2764,"",魚屋路 旗の台店,東京都品川区旗の台６丁目２９－９,35.604624,139.698527,魚屋路,0
2763,"",魚屋路 横浜十日市場店,神奈川県横浜市緑区十日市場町８６６－１,35.525073,139.511785,魚屋路,0
2761,"",魚屋路 湘南ライフタウン店,神奈川県藤沢市大庭５６８２－１,35.370457,139.443747,魚屋路,0
2760,"",魚屋路 富士吉田店,山梨県富士吉田市中曽根１－３－３０,35.483277,138.798789,魚屋路,0
2759,"",魚屋路 小平小川店,東京都小平市小川東町１丁目６－２０,35.733529,139.465132,魚屋路,0
2758,"",魚屋路 相武台店,神奈川県座間市相武台１丁目３２－２２,35.500409,139.409098,魚屋路,0
2757,"",魚屋路 西台駅南店,東京都板橋区蓮根２丁目２８－２０,35.785476,139.674503,魚屋路,0
2756,"",魚屋路 三郷戸ヶ崎店,埼玉県三郷市戸ヶ崎３丁目２－２,35.807246,139.870822,魚屋路,0
2755,"",魚屋路 立川富士見店,東京都立川市富士見町７丁目３８－６,35.691237,139.396768,魚屋路,0
2754,"",魚屋路 碑文谷店,東京都目黒区碑文谷２丁目１－１８,35.624963,139.688435,魚屋路,0
2753,"",魚屋路 秋川店,東京都あきる野市秋川６丁目１６－１,35.730385,139.289799,魚屋路,0
2752,"",魚屋路 鎌倉由比ヶ浜店,神奈川県鎌倉市由比ガ浜２丁目１３－８,35.312779,139.54853,魚屋路,0
2751,"",魚屋路 新所沢店,埼玉県所沢市緑町３丁目８－１５,35.799772,139.449572,魚屋路,0
2750,"",魚屋路 下高井戸店,東京都杉並区下高井戸３丁目４－６,35.66981,139.631483,魚屋路,0
2749,"",魚屋路 花小金井店,東京都小平市花小金井南町１丁目４－３,35.721299,139.509861,魚屋路,0
2748,"",魚屋路 鶴川店,東京都町田市大蔵町１８９,35.584125,139.473076,魚屋路,0
2747,"",魚屋路 川崎神木店,神奈川県川崎市宮前区宮崎６６９－１,35.595883,139.588129,魚屋路,0
2746,"",魚屋路 立川幸町店,東京都立川市幸町５丁目８６－１７,35.728079,139.418398,魚屋路,0
2745,"",魚屋路 福生店,東京都福生市加美平１丁目２７－２,35.751799,139.323388,魚屋路,0
