store_id,pref_id,shop_name,address,lat,lon
14639,北海道,函館柏木店,北海道 函館市 柏木町41-8　1F,41.7914712,140.7703925
14604,北海道,札幌北郷三条店,北海道 札幌市 白石区北郷三条7-1-20　1F,43.0540959,141.4227199
14595,北海道,札幌手稲店,北海道 札幌市 手稲区手稲本町二条2-4-16　恒志堂手稲ビルI　1F,43.1176649,141.2432201
14594,北海道,東札幌三条店,北海道 札幌市 白石区東札幌三条3-1-2　1F,43.0514306,141.3861105
14577,北海道,小樽稲穂店,北海道 小樽市 稲穂2-18-1　高雄ビル　1F,43.1952116,140.9956328
14560,北海道,小樽新光店,北海道 小樽市 新光1-21-3　1F,43.1737903,141.0556408
923,北海道,平岸一条店,北海道 札幌市 豊平区平岸1条3-2-39　エクセレント平岸　1F,43.03979921,141.3631208
924,北海道,新さっぽろ青葉町店,北海道 札幌市 厚別区青葉町2-5-3　青葉町2丁目店舗　1F,43.0353078,141.4743165
1501,北海道,福住三条店,北海道 札幌市 豊平区福住3条1-2-8　F106　1F,43.01805026,141.4075812
1413,北海道,旭川六条通店,北海道 旭川市 6条通16-76-8　ノルテ6条通　1F,43.76762068,142.3747369
1412,北海道,札幌北四条西店,北海道 札幌市 中央区北四条西27-1-26　ドエル円山　1F,43.06180984,141.315385
1375,北海道,函館東山店,北海道 函館市 東山2-5-19　東山小柳ビル　1F,41.80693632,140.7721812
1337,北海道,旭川三条通店,北海道 旭川市 3条通8-1705-31　明治屋店舗　1F,43.76809732,142.3610379
1302,北海道,恵庭恵み野店,北海道 恵庭市 恵み野北3-1-1　恵庭RBパークセンタービル1-S101　1F,42.90702144,141.5857205
1301,北海道,函館本町店,北海道 函館市 本町4-14　本町店舗　1F,41.78860084,140.7512551
1285,北海道,函館美原店,北海道 函館市 美原2-5-1　久保ビル　1F,41.81412488,140.7583229
1231,北海道,旭川八条通店,北海道 旭川市 8条通7-34-18　PREMIUM8.7　1F,43.77348989,142.3619903
1210,北海道,旭川豊岡店,北海道 旭川市 豊岡9条7-2-1　豊岡9-7テナントA　1F,43.76650522,142.4130613
1006,北海道,札幌北三十三条西店,北海道 札幌市 北区北33条西4-2-7　グリーンシャトー33　1F,43.10010786,141.3406314
966,北海道,平岸三条店,北海道 札幌市 豊平区平岸3条13-1-33　ライオンズマンション平岸通　1F,43.02738989,141.3683882
958,北海道,札幌北十五条東店,北海道 札幌市 東区北15条東16-1-5　ダイアパレスターミナル15　1F,43.08251597,141.3748726
956,北海道,清田二条店,北海道 札幌市 清田区清田2条3-1-1　見光ビル　2F,43.00239161,141.4351311
772,北海道,札幌北二条東店,北海道札幌市中央区北2条東1-3-2　ALPHA N BLDG　2F,43.06512547,141.3576947
768,北海道,山の手三条店,北海道 札幌市 西区山の手三条7-4-17　フローレンス山の手　1F/B1F,43.06836339,141.293493
737,北海道,琴似店,北海道札幌市西区琴似2条2-1-10ことにNビル　1F,43.07900848,141.3060697
722,北海道,札幌栄町店,北海道札幌市東区北41条東15-3-18アズブライト　1F,43.11191206,141.3670873
608,北海道,麻生店,北海道札幌市北区北39条西5-1-1　K39ビル　1F,43.10649049,141.3386002
547,北海道,手稲前田店,北海道札幌市手稲区前田5条11-1-1ブランドール前田　1F,43.12441698,141.2515002
505,北海道,中島公園店,北海道札幌市中央区南11条西1-3-17ファミール中島　1F,43.04539014,141.3569051
442,北海道,白石店,北海道札幌市白石区平和通3丁目北5-8　NCウィング白石　1F,43.05441391,141.4131605
429,北海道,手稲山口店,北海道札幌市手稲区手稲山口491-19手稲山口SC内テナント　1F,43.13869192,141.2104268
360,北海道,札幌南三条東店,北海道 札幌市 中央区南三条東3-8　ラフィネタワー札幌南三条　1F,43.05859623,141.3607284
347,北海道,美しが丘三条店,北海道札幌市清田区美しが丘3条5-9-1ステージII　1F,42.98129697,141.4533783
337,北海道,川沿四条店,北海道札幌市南区川沿4条3-3-3川沿4-3テナント　1F,42.99421028,141.331413
1273,青森県,新青森西口店,青森県 青森市 石江4-3-1　1F,40.83089612,140.6923675
1254,青森県,青森勝田店,青森県 青森市 勝田1-16-10　勝田ビル　103　1F,40.81499299,140.7563002
1211,青森県,弘前土手町店,青森県 弘前市 大字土手町90-4　土手町店舗　1F,40.60007551,140.4743944
1411,岩手県,盛岡茶畑店,岩手県 盛岡市 茶畑2-10-8　ササエイビル　1F,39.69244773,141.1660506
1410,岩手県,盛岡月が丘店,岩手県 盛岡市 月が丘1-26-41　2F,39.73360406,141.1128587
1391,岩手県,盛岡肴町店,岩手県 盛岡市 肴町8-12　岡喜ビル　2F,39.69783149,141.1539382
1279,岩手県,盛岡フェザン店,岩手県 盛岡市 盛岡駅前通1-44　盛岡フェザン　フェザンテラス　1F,39.70350685,141.1349789
791,岩手県,盛岡菜園店,岩手県盛岡市菜園1-3-6農林会館　1F,39.70093845,141.1491205
14013,宮城県,仙台旭ヶ丘店,宮城県 仙台市 青葉区旭ヶ丘3-34-10　キャピタル旭ヶ丘　1F,38.2950464,140.8849018
14012,宮城県,仙台柏木店,宮城県 仙台市 青葉区柏木2-1-55　エルミタージュ仙台　1F,38.2708965,140.8570795
1403,宮城県,仙台出花店,宮城県 仙台市 宮城野区出花2-12-5　サンハイツビル　1F,38.27585784,140.9874804
1336,宮城県,長町五丁目店,宮城県 仙台市 太白区長町5-10-20　ラシャテロ　1F,38.22545708,140.882126
1204,宮城県,アクロスプラザ荒井東店,宮城県 仙台市 若林区荒井東1-6-1　アクロスプラザ荒井東　2F,38.24154567,140.9488186
1163,宮城県,仙台栄店,宮城県 仙台市 宮城野区栄4-10-33　郷家ビル　1F,38.28049382,140.983516
1185,宮城県,八木山南店,宮城県 仙台市 太白区八木山南2-1-29　サンパティーク八木山　2F,38.23552522,140.8380007
981,宮城県,仙台岩切店,宮城県 仙台市 宮城野区岩切2-3-1　CaZaDio　1F,38.29370981,140.9324693
881,宮城県,仙台八乙女店,宮城県 仙台市 泉区八乙女中央1-6-15　八乙女スクエアビル　2F,38.31397107,140.8835096
843,宮城県,宮城野通店,宮城県仙台市宮城野区榴岡4-6-26テンザホテル・仙台ステーション　1F,38.25761729,140.8864177
769,宮城県,陸前落合店,宮城県仙台市青葉区落合1-19-5第5ジーオンビル　1F,38.27042674,140.7907641
760,宮城県,長町南店,宮城県仙台市太白区長町南4-12-27　NS泉崎　1F,38.22102482,140.8714296
751,宮城県,仙台中山店,宮城県 仙台市 青葉区中山5-19-17　ヒルズパーク中山　1F,38.29335933,140.8404977
750,宮城県,仙台宮城野一丁目店,宮城県仙台市宮城野区宮城野1-4-25ラピスラズリ榴岡　1F,38.25869899,140.8977133
727,宮城県,東仙台店,宮城県仙台市宮城野区東仙台1-6-35ゆうこく東仙台　1F,38.27723306,140.9203146
660,宮城県,仙台大野田店,宮城県仙台市太白区大野田4-6-3オフィス大野田1階B　1F,38.21244065,140.8770096
577,宮城県,八木山動物公園店,宮城県 仙台市 太白区八木山本町2-4-9　1F,38.24120988,140.8412531
569,宮城県,本塩釜店,宮城県 塩竈市 海岸通10-1　三晴ビル　1F,38.31854738,141.0221652
433,宮城県,上杉二丁目店,宮城県仙台市青葉区上杉2-4-33　ONE HOUSE上杉　1F,38.27469826,140.8692745
369,宮城県,泉中央店,宮城県 仙台市 泉区泉中央4-4-1　仙台泉中央WINビル　1F,38.32308067,140.8832224
316,宮城県,仙台本町店,宮城県仙台市青葉区本町1-12-12　GMビルディング　1F,38.26650269,140.8784981
313,宮城県,仙台河原町店,宮城県仙台市若林区南小泉字八軒小路2-8東北テレメディア開発ビル　1F,38.24022707,140.8920012
311,宮城県,台原入口店,宮城県 仙台市 青葉区堤町1-2-70　シティウィング北仙台　1F,38.28139047,140.8721429
272,宮城県,北四番丁店,宮城県 仙台市 青葉区上杉1-17-20　第6銅谷ビル　1F,38.27212891,140.8697404
269,宮城県,勾当台公園店,宮城県 仙台市 青葉区春日町5-16　シエロ春日町　1F,38.26612603,140.8645445
265,宮城県,仙台西口店,宮城県仙台市青葉区五橋1-1-10　第二河北ビル　1F,38.25538142,140.8814694
262,宮城県,愛宕橋店,宮城県 仙台市 若林区荒町212-1　CINZA荒町　1F,38.24869329,140.8866473
259,宮城県,五橋店,宮城県仙台市青葉区北目町4-3北目町SKビル　2F,38.25473644,140.8758551
256,宮城県,宮町三丁目店,宮城県仙台市青葉区宮町3-5-12宮町3丁目店舗　1F,38.27234157,140.8838997
253,宮城県,大町西公園店,宮城県仙台市青葉区大町2-10-14　TAKAYUパークサイドビル　1F,38.26068537,140.8636162
251,宮城県,陸前原ノ町店,宮城県仙台市宮城野区原町3-1-1　RETINA原町　1F,38.26577484,140.9067226
1472,秋田県,秋田川元山下店,秋田県 秋田市 川元山下町1-11　ライフステージ山王　1F,39.71367037,140.1044406
14003,山形県,鶴岡馬場店,山形県 鶴岡市 馬場町10-27　Mohachiビル　1F/2F,38.7257871,139.8282971
1295,山形県,山形深町店,山形県 山形市 深町1-5-20　1F,38.23468833,140.3150716
14617,福島県,福島駅前通店,福島県 福島市 本町5-1　2F,37.7534945,140.464954
919,福島県,郡山清水台店,福島県 郡山市 清水台2-12-13　清水台ビル　1F/2F,37.40014632,140.3839334
844,福島県,郡山安積店,福島県郡山市安積荒井3-525辰三ビル　1F,37.37207678,140.3656518
835,福島県,郡山ヨークタウン大槻店,福島県郡山市大槻町字土瓜37-3ヨークタウン大槻店　1F,37.40167563,140.3271884
777,福島県,郡山桜木店,福島県郡山市桜木2-21-4桜木テナント　1F,37.40849885,140.3671376
741,福島県,郡山池ノ台店,福島県郡山市池ノ台19-32　1F,37.39336016,140.3697272
14607,茨城県,土浦桜ケ丘店,茨城県 土浦市 桜ケ丘町13-2　1F,36.0613591,140.1976602
14598,茨城県,カスミ笠間店,茨城県 笠間市 石井2096　カスミ笠間　1F,36.3840074,140.2457735
14149,茨城県,牛久東口店,茨城県 牛久市 中央5-18-1　ベルヴェデーレ　2F,35.97621300000001,140.1421083
1335,茨城県,鹿嶋佐田店,茨城県 鹿嶋市 佐田630-1　鹿嶋鉢形複合　1F,35.95809095,140.6434507
13849,茨城県,ひたち野うしく店,茨城県 牛久市 ひたち野東5-34-5　ひたち野うしくSS　1F,36.0027023,140.1626262
1338,茨城県,コモディイイダ古河店,茨城県 古河市 本町1-2-1　コモディイイダ古河　1F,36.19503460000001,139.7082967
987,茨城県,水戸南町店,茨城県 水戸市 南町2-6-18　オカバ水戸ビル　1F,36.37657941,140.4697008
780,茨城県,つくば東新井店,茨城県つくば市東新井19-7メルシービル　1F,36.0773185,140.1131716
640,茨城県,那珂店,茨城県 那珂市 菅谷2431-1　WonderGOO那珂店　1F,36.44572457,140.50232
422,茨城県,取手東口店,茨城県取手市取手2-2-10シンロクビル　2F,35.89468588,140.0631389
333,茨城県,日立田尻店,茨城県 日立市 田尻町5-14-2　WonderGOO 日立田尻店内　1F,36.62598275,140.6827851
314,茨城県,北茨城店,茨城県 北茨城市 中郷町上桜井2268　WonderGOO 北茨城店内　1F,36.78241923,140.7342858
60,茨城県,研究学園店,茨城県 つくば市 研究学園5-13-11　MYU・MYU　1F,36.08299293,140.0836469
15529,栃木県,アピタ足利店,栃木県 足利市 朝倉町245　アピタ足利　1F,36.3199198,139.4503341
14644,栃木県,鹿沼茂呂店,栃木県 鹿沼市 西茂呂3-44-1　1F,36.5467276,139.7676554
1262,栃木県,宇都宮住吉町店,栃木県 宇都宮市 住吉町18-13　シーズンコート住吉　1階東　1F,36.55629704,139.8679441
1240,栃木県,宇都宮鶴田町店,栃木県 宇都宮市 鶴田町1346-1　1F,36.54936799,139.853301
708,栃木県,小山西口店,栃木県小山市中央町3-5-20カーサロブレ　2F,36.31338951,139.804412
694,栃木県,宇都宮西口店,栃木県 宇都宮市 大通り2-1-16　黒川ビル　1F,36.56019223,139.8886587
693,栃木県,宇都宮東口店,栃木県 宇都宮市 東宿郷1-7-7　小堀ビル　1F,36.55928632,139.9034458
14578,群馬県,伊勢崎ほんまち広場店,群馬県 伊勢崎市 本町4-4　ほんまち広場　1F,36.3205447,139.1951809
14469,群馬県,高崎西口店,群馬県 高崎市 八島町58-1　ウエスト・ワンビル　B1F,36.3218989,139.0109517
13984,群馬県,前橋朝日町店,群馬県 前橋市 朝日町3-25-9　朝日町ビル　1F,36.3859188,139.0879683
13983,群馬県,高崎貝沢店,群馬県 高崎市 貝沢町1282-1　ぐんたけ店舗　1F,36.3402739,139.0267103
13981,群馬県,高崎小鳥店,群馬県 高崎市 下小鳥町210-1　松岡店舗　1F,36.3565086,138.9946736
898,群馬県,前橋南町店,群馬県 前橋市 南町4-4-3　1F,36.37872074,139.0691856
1491,群馬県,伊勢崎三和町店,群馬県 伊勢崎市 三和町1422-51　1F,36.35842975,139.2148525
1484,群馬県,前橋岩神店,群馬県 前橋市 岩神町4-12-12　1F,36.40875756,139.0536699
1339,群馬県,太田店,群馬県 太田市 西本町39-3　1F,36.29698532,139.3612497
1473,群馬県,フォレストモール新前橋店,群馬県 前橋市 古市町180-1　フォレストモール新前橋　1F,36.37535187,139.0449606
14634,埼玉県,草加氷川店,埼玉県 草加市 氷川町2131-5　ヒルズコート　1F/2F,35.8287513,139.8008994
14635,埼玉県,本庄若泉店,埼玉県 本庄市 若泉2-5-14　1F,36.249313,139.180392
14618,埼玉県,新座栗原店,埼玉県 新座市 栗原3-11-16　1F,35.7600156,139.5492857
14593,埼玉県,志木本町店,埼玉県 志木市 本町6-18-5　協和商事第二ビル　1F,35.8274738,139.5746605
14535,埼玉県,熊谷駅前店,埼玉県 熊谷市 筑波3-160　1F,36.1398079,139.3923511
14536,埼玉県,鶴瀬東口店,埼玉県 富士見市 鶴瀬東1-1-34　エマージュ　1F,35.8480667,139.5408203
14543,埼玉県,東所沢駅前店,埼玉県 所沢市 東所沢和田2-2-1　1F,35.79540679999999,139.5126033
14544,埼玉県,川口末広店,埼玉県 川口市 末広3-18-15　フロースグレイス　1F,35.8035642,139.7457576
14545,埼玉県,越谷谷中店,埼玉県 越谷市 谷中町2-58　1F,35.88338339999999,139.7737511
14522,埼玉県,吉川駅前店,埼玉県 吉川市 木売1-4-11　2F,35.8769598,139.8431067
14508,埼玉県,北大宮店,埼玉県 さいたま市 大宮区土手町3-285　東武北大宮サンライトマンション　1F,35.9169946,139.6246541
14490,埼玉県,大和田駅前店,埼玉県 さいたま市 ?沼区?和?町1-1357-1　1F,35.9287534,139.6501312
14411,埼玉県,浦和常盤四丁目店,埼玉県 さいたま市 浦和区常盤4-11-2　KLAR　1F,35.8612318,139.6486928
14395,埼玉県,入間鍵山店,埼玉県 入間市 鍵山1-13-17　1F,35.8434595,139.3805215
14169,埼玉県,川口栄町店,埼玉県 川口市 栄町1-16-11　1F,35.8034234,139.7308237
14151,埼玉県,久喜東店,埼玉県 久喜市 久喜東3-1-7　関口第1ビル　1F,36.064777,139.6804296
14062,埼玉県,東大宮東口店,埼玉県 さいたま市 見沼区東大宮5-1-1　東大宮東口扶桑ビル　2F,35.94845089999999,139.6411639
14061,埼玉県,浦和常盤店,埼玉県 さいたま市 浦和区常盤10-15-16　浦和常盤10丁目ビル　1F,35.8731093,139.6401282
14058,埼玉県,東川口戸塚店,埼玉県 川口市 戸塚2-2-4　ワコーラビスタ　1F,35.8738669,139.7449292
14036,埼玉県,大宮大和田店,埼玉県 さいたま市 見沼区南中丸267-3　八幡グランデージ　1F,35.91915170000001,139.6516955
14038,埼玉県,大宮大成店,埼玉県さいたま市大宮区大成町2-277-1　KCビル　1F,35.9144018,139.6147297
14031,埼玉県,浦和上木崎店,埼玉県 さいたま市 浦和区上木崎6-36-9　プチボア館　1F,35.887298,139.6492647
13989,埼玉県,大宮桜木店,埼玉県 さいたま市 大宮区桜木町4-248 ミヤサカビル　1F,35.9044969,139.6180454
13980,埼玉県,所沢美原店,埼玉県 所沢市 美原町3-2943-4 　1F,35.81232809999999,139.4577623
13978,埼玉県,北越谷東口店,埼玉県 越谷市 大沢3-8-32　ステラポラーレ　1F,35.9029004,139.7805805
118,埼玉県,新所沢店,埼玉県所沢市緑町1-2-5フジビルV　1F,35.80502251,139.4556705
111,埼玉県,和光市店,埼玉県 和光市 新倉1-4150-1　和光市駅北口事務所　1F/2F,35.78844984,139.6124931
925,埼玉県,深谷原郷店,埼玉県 深谷市 原郷2123-3　1F,36.19418901,139.2954387
1192,埼玉県,北上尾東口店,埼玉県 上尾市 原新町19-4　Life Bldgビル　2F,35.98633715,139.5775548
1188,埼玉県,春日部中央店,埼玉県 春日部市 中央1-10-11　丸屋店舗　1F,35.98008331,139.7506135
1181,埼玉県,所沢元町店,埼玉県 所沢市 元町28-9　フォーラスタワー所沢　1F,35.79182813,139.4655893
460,埼玉県,せんげん台西口店,埼玉県越谷市千間台西1-4-3イクステンドビル　2F,35.93537912,139.773278
458,埼玉県,武蔵藤沢店,埼玉県入間市下藤沢1-12-2齋藤ビル　2F,35.82088395,139.4116161
13848,埼玉県,狭山富士見店,埼玉県 狭山市 富士見2-3137-1 　1F,35.84698907,139.424846
11457,埼玉県,蕨東口店,埼玉県 蕨市 塚越1-3-1　MT･BLD　6F,35.828106,139.6910749
1502,埼玉県,浦和埼大通店,埼玉県 さいたま市 桜区下大久保726-1　1F,35.86349925,139.6031748
1447,埼玉県,北越谷西口店,埼玉県 越谷市 北越谷2-42-6　ミルトワ越谷　1F,35.9015354,139.778883
1370,埼玉県,本庄南口店,埼玉県 本庄市 駅南2-2-1　埼玉グランドホテル本庄　1F,36.23548823,139.1893356
1229,埼玉県,杉戸高野台店,埼玉県 北葛飾郡杉戸町 高野台東1-7-3　小森ビル　1F,36.05194256,139.7154485
210,埼玉県,蓮田店,埼玉県蓮田市東5-2-9蓮田NKB2　2F,35.98150179,139.6539168
938,埼玉県,イーサイト籠原店,埼玉県 熊谷市 新堀713　イーサイト籠原　1F,36.17499613,139.3300048
931,埼玉県,高坂店,埼玉県 東松山市 元宿2-26-2　1F,36.0022186,139.3942781
877,埼玉県,志木幸町店,埼玉県 志木市 幸町4-3-39　サンライズ谷岡　1F,35.81962822,139.5625957
858,埼玉県,所沢東町店,埼玉県 所沢市 東町12-10　ブランズタワー所沢　1F,35.79016397,139.4704283
849,埼玉県,東行田店,埼玉県 行田市 桜町3-9-34　行田複合施設　1F,36.14543724,139.4695473
840,埼玉県,東松山駅前店,埼玉県東松山市箭弓町1-13-15さくらビル　2F,36.03535316,139.4023047
830,埼玉県,羽生中央五丁目店,埼玉県羽生市中央5-3-27　SBI店舗　1F,36.17108421,139.5429358
823,埼玉県,新河岸店,埼玉県 川越市 砂新田2-11-6-101　ソレイユ11番館　1F,35.88936902,139.4901671
786,埼玉県,鶴ヶ島店,埼玉県川越市鯨井新田7-14えむ・わい・け～館　1F,35.9356043,139.4233976
784,埼玉県,鶴瀬西口店,埼玉県 富士見市 鶴馬2610-2　PACE TSURUSE　1F,35.84465536,139.5374134
783,埼玉県,東飯能店,埼玉県 飯能市 柳町3-13　セカンドウェストビル　1F,35.85224199,139.3246498
767,埼玉県,さいたま本郷町店,埼玉県 さいたま市 北区本郷町1288　県道35号線　ロードサイド　2F,35.94228749,139.6274056
659,埼玉県,獨協大学前東口店,埼玉県 草加市 栄町3-4-6　サンブラザーズビル　1F,35.84392152,139.801395
609,埼玉県,川越南大塚店,埼玉県 川越市 南台2-6-6　シャトーサンワ　1F,35.89054027,139.4531956
581,埼玉県,東鷲宮店,埼玉県 久喜市 桜田3-1-3　東鷲宮駅前ビル　1F,36.08875741,139.6807079
580,埼玉県,上尾西宮下店,埼玉県 上尾市 西宮下3-54　パティオいづみ　1F,35.96256858,139.5957507
579,埼玉県,上尾柏座店,埼玉県 上尾市 柏座3-1-6　グランアクシオン　1F,35.97380132,139.5838731
572,埼玉県,大宮堀の内店,埼玉県 さいたま市 大宮区堀の内町1-405-2　アプローズ大宮　1F,35.91093625,139.6367955
539,埼玉県,狭山中央店,埼玉県 狭山市 中央3-4-2　フォレナ　1F,35.85634096,139.4278943
537,埼玉県,新座大和田店,埼玉県 新座市 大和田2-5-30　東栄商事新座ビル　B1F,35.80757001,139.5502321
532,埼玉県,朝霞幸町一丁目店,埼玉県朝霞市幸町1-13-6朝霞市幸町1丁目テナント　1F,35.79853645,139.5895009
525,埼玉県,八潮中央店,埼玉県八潮市中央3-11-4エムケービル八潮　2F,35.82069215,139.8311885
509,埼玉県,武里店,埼玉県 春日部市 大場1095-3　1F,35.94873546,139.7704511
490,埼玉県,川越西口店,埼玉県 川越市 脇田本町25-2　ホンダ弐番館ビル　1F,35.90866495,139.4812637
487,埼玉県,与野東口店,埼玉県 さいたま市 浦和区上木崎2-3-3　Nビル　1F,35.88649642,139.6393954
484,埼玉県,川口東口店,埼玉県 川口市 栄町3-5-1　高梨ビル　B1F,35.80297622,139.718632
480,埼玉県,北坂戸店,埼玉県 坂戸市 溝端町8-9　第8増尾ビル　1F,35.97188499,139.3939431
475,埼玉県,戸田新曽店,埼玉県戸田市大字新曽1897-3 　1F,35.81694477,139.6613579
462,埼玉県,三郷南口店,埼玉県 三郷市 三郷1-5-9　三増ビル　1F,35.84300427,139.8852171
461,埼玉県,入間市南口店,埼玉県入間市河原町1-3入間市駅前ビル　1F,35.84095568,139.3896095
405,埼玉県,桶川店,埼玉県 桶川市 若宮1-4-52　埼北SSビル　1F,35.99768387,139.5631835
281,埼玉県,北本店,埼玉県 北本市 中央1-63　北本NRビル　1F,36.02981499,139.5347207
274,埼玉県,さいたま上落合店,埼玉県 さいたま市 中央区上落合9-2-5　メルシーペール上落合　1F,35.8990649,139.6254613
268,埼玉県,東川口店,埼玉県 川口市 戸塚3-34-13　レジデンス東川口(旧ハッピー＆アップル東川口)　1F,35.86944893,139.7513729
255,埼玉県,大袋店,埼玉県越谷市袋山2050-1　T's garden 越谷大袋　1F,35.92315024,139.7791865
196,埼玉県,小手指店,埼玉県 所沢市 小手指町1-26-1　サンクレイドル はなみずき通りレジデンス　1F,35.80393857,139.4392485
170,埼玉県,西川口店,埼玉県 川口市 並木2-1-7　フォーバーツ並木　2F,35.816051,139.7056369
142,埼玉県,志木店,埼玉県新座市東北2-35-7ルジュールエヴァン志木　1F/2F,35.8213907,139.5755905
66,埼玉県,狭山市店,埼玉県 狭山市 祇園4-62　公栄ビル　B1F,35.85617077,139.4136919
65,埼玉県,所沢店,埼玉県 所沢市 日吉町2-4　リエート所沢　B1F,35.78738771,139.4727194
78,埼玉県,浦和店,埼玉県 さいたま市 浦和区仲町1-4-12 　Crobis浦和　2F,35.85977905,139.6536406
77,埼玉県,越谷店,埼玉県 越谷市 越ヶ谷1-10-17 　SOPHIA HILLS　1F,35.88788072,139.7894663
76,埼玉県,草加店,埼玉県草加市高砂2-18-16 藤本ビル　1F,35.8286423,139.8053794
73,埼玉県,西所沢店,埼玉県所沢市西所沢1-13-8 第3北斗ビル　2F,35.78900466,139.4571108
72,埼玉県,上福岡店,埼玉県ふじみ野市上福岡内田テナントビル　2F,35.87508287,139.512615
55,埼玉県,春日部店,埼玉県 春日部市 粕壁1-1-2　石井ビル　1F,35.98075703,139.7534465
50,埼玉県,蕨店,埼玉県 川口市 芝新町4-27　トキ壱番館　2F,35.82923126,139.6922329
49,埼玉県,宮原店,埼玉県 さいたま市 北区宮原町2-22-14　AXIS宮原駅前ビル　1F,35.94096829,139.6115397
13,埼玉県,本川越店,埼玉県 川越市 新富町1-18-1　丸昭店舗　1F,35.91487082,139.4831079
14632,千葉県,浦安富士見店,千葉県 浦安市 富士見4-6-32　グランヴィスタ舞浜　1F,35.6484325,139.8898132
14612,千葉県,姉崎東店,千葉県 市原市 姉崎東1-9-4　金木ビル　1F,35.4789341,140.044477
14586,千葉県,新松戸三丁目店,千葉県 松戸市 新松戸3-281　リリーフパートナーズ　1F,35.8240597,139.9146819
14534,千葉県,市川妙典三丁目店,千葉県 市川市 妙典3-20-6　ザ・アークコート市川妙典　1F,35.693206,139.9261794
14523,千葉県,習志野台店,千葉県 船橋市 習志野台2-73-13　十字ビル　1F,35.7243522,140.0501699
14518,千葉県,千葉県庁前店,千葉県 千葉市 中央区市場町4-7　ビレッジハウス市場町　1F,35.60544059999999,140.1248417
14519,千葉県,下総中山南口店,千葉県 船橋市 本中山3-21-17　サムズ下総中山　1F/2F,35.7144962,139.9421348
14481,千葉県,行徳駅前一丁目店,千葉県 市川市 行徳駅前1-3-5　T.Grace　1F,35.6848813,139.9165289
14448,千葉県,UR村上店,千葉県 八千代市 村上1113-1　UR村上団地　1F,35.7299927,140.122203
14428,千葉県,北柏三丁目店,千葉県 柏市 北柏3-13-8　ジュネパレス柏第29　1F,35.8726253,139.9863598
14167,千葉県,千葉真砂店,千葉県 千葉市 美浜区真砂3-1-3　サーフ90　1F,35.6370393,140.0668458
14155,千葉県,我孫子泉店,千葉県 我孫子市 泉17-42　1F,35.87201470000001,140.0295866
14148,千葉県,船橋市場店,千葉県 船橋市 市場4-20-12　エスポアール船橋　1F,35.70398789999999,140.0007588
14033,千葉県,愛宕東口店,千葉県 野田市 野田787-11　大橋ビル　1F,35.9504778,139.8655683
14017,千葉県,八千代台西口店,千葉県 八千代市 八千代台北1-4-9　コネクトパークヒルズ　1F,35.7022302,140.0910646
14019,千葉県,佐倉北口店,千葉県 佐倉市 表町1-6-3　ラフィネタワー佐倉　1F,35.7102143,140.2242216
92,千葉県,北松戸店,千葉県松戸市上本郷901-4アロー北松戸27番館　1F,35.80036893,139.912519
112,千葉県,我孫子店,千葉県我孫子市緑1-1-5我孫子緑1丁目ビル　1F,35.87066463,140.0120405
110,千葉県,行徳店,千葉県 市川市 行徳駅前2-1-1　フィエスタ行徳　1F,35.68416841,139.9133486
97,千葉県,天王台店,千葉県我孫子市天王台1-24-2今井店舗　1F,35.87221652,140.0402353
91,千葉県,北小金店,千葉県 松戸市 小金きよしヶ丘1-1-2　大島レジデンス北小金　1F,35.83356286,139.9326448
913,千葉県,成田土屋店,千葉県 成田市 土屋516-4　青柳第一ビル　1F,35.79165979,140.3228969
1366,千葉県,流山おおたかの森店,千葉県 流山市 おおたかの森東1-11-1　グランデアストーレ　1F,35.87349619,139.9282764
1369,千葉県,佐倉井野店,千葉県 佐倉市 井野1434-1　アメニティハイム21　1F,35.71761731,140.1392206
1394,千葉県,豊四季駅前店,千葉県 柏市 豊四季159-3　1F,35.86662571,139.9398548
1441,千葉県,増尾西口店,千葉県 柏市 加賀3-24-13　1F,35.82886554,139.9766854
1457,千葉県,北柏ショッピングセンター店,千葉県 柏市 松葉町4-10　北柏ショッピングセンター　1F,35.88938724,139.9704226
1390,千葉県,松戸二十世紀が丘店,千葉県 松戸市 二十世紀が丘萩町61　長谷ビル　1F,35.77099436,139.9081761
1488,千葉県,稲毛海岸二丁目店,千葉県 千葉市 美浜区稲毛海岸2-2-30　ライオンズプラザ稲毛海岸　1F,35.63304669,140.0830953
1480,千葉県,千葉都町店,千葉県 千葉市 中央区都町4-5-3　1F/2F,35.61304543,140.1450483
1500,千葉県,東松戸店,千葉県 松戸市 東松戸3-5-1　アーバングレース東松戸　1F,35.77192911,139.942177
1294,千葉県,八街店,千葉県 八街市 八街ほ239-26　シオンビルディングNo1　1F,35.6620489,140.3186934
1275,千葉県,実籾駅前店,千葉県 習志野市 実籾4-1-3　コープリィコート　2F,35.6874184,140.0691947
1227,千葉県,幕張本郷一丁目店,千葉県 千葉市 花見川区幕張本郷1-11-26　リビエール本郷　1F,35.6722518,140.039982
1222,千葉県,新高根一丁目店,千葉県 船橋市 新高根1-9-16　船橋山本ビル　2F,35.72282996,140.0229174
1217,千葉県,浦安当代島店,千葉県 浦安市 当代島1-16-19　大塚ビル　2F,35.66604946,139.8915528
1197,千葉県,湖北店,千葉県 我孫子市 湖北台1-13-22　岡田店舗　1F,35.86657646,140.0762737
215,千葉県,千葉中央店,千葉県千葉市中央区本千葉町13-1パークホームズ千葉　1F,35.60614927,140.1188246
214,千葉県,京成大久保店,千葉県 習志野市 大久保1-24-5　ウェリス習志野大久保　1F,35.68685142,140.0487298
1270,千葉県,千葉村田町店,千葉県 千葉市 中央区村田町893-115　シーツードライブ(C2D)村田町店舗　2F,35.54878692,140.1233199
1207,千葉県,八千代緑が丘南店,千葉県 八千代市 大和田新田59-70　西村ビル　1F,35.72185459,140.0761033
1166,千葉県,蘇我東口店,千葉県 千葉市 中央区南町2-9-8　ヴィーナス蘇我駅前ビル　2F,35.58145852,140.1317132
1001,千葉県,市川一丁目店,千葉県 市川市 市川1-24-7　エフケービル　B1F,35.73022828,139.9097626
991,千葉県,柏六丁目店,千葉県 柏市 柏6-3-23　サンシャイン柏　1F,35.86350856,139.9760107
982,千葉県,富里日吉台店,千葉県 富里市 日吉台2-4-3　成田コリンズ　2F,35.77375826,140.3207292
939,千葉県,船橋夏見台店,千葉県 船橋市 夏見台1-19-10　夏見ショッパーズ　2F,35.72049296,139.9905677
922,千葉県,習志野藤崎二丁目店,千葉県 習志野市 藤崎2-1-30　アルファービル　1F,35.68799355,140.0311228
824,千葉県,我孫子北口店,千葉県 我孫子市 我孫子1-14-28　1F,35.87323556,140.0129285
806,千葉県,相之川四丁目店,千葉県 市川市 相之川4-11-8　ファーストコーポラス15　1F,35.67383323,139.9007978
793,千葉県,京成佐倉南口店,千葉県 佐倉市 栄町12-2　盛陽ビル1-B　1F,35.72462472,140.2307529
764,千葉県,新浦安明海店,千葉県浦安市明海5-7-1パークシティ東京ベイ新浦安Sol　1F,35.63992488,139.9274994
726,千葉県,松戸岩瀬店,千葉県 松戸市 岩瀬149-3　SKビル七番館　1F,35.78463301,139.9090433
718,千葉県,勝田台店,千葉県 八千代市 勝田台1-43-9　古川ビル　1F,35.71256945,140.1238082
704,千葉県,船橋湊町一丁目店,千葉県船橋市湊町1-1-21レジディア船橋III　1F,35.69518425,139.9847927
700,千葉県,公津の杜店,千葉県 成田市 公津の杜3-37-4　フォンテーヌマキ　1F,35.75537593,140.2982284
687,千葉県,ユーカリが丘南口店,千葉県佐倉市南ユーカリが丘14-2ガーデンラベニュー1街区　1F,35.71965918,140.156148
677,千葉県,松飛台店,千葉県 松戸市 串崎南町26　サンモールモリヤ　1F,35.7777648,139.96235
676,千葉県,天台店,千葉県千葉市稲毛区轟町5-4-20吉田ビル　1F,35.63203579,140.1123973
675,千葉県,京成臼井店,千葉県 佐倉市 王子台2-13-16　王子台ミハラ　1F,35.72868158,140.184195
589,千葉県,千葉新宿店,千葉県千葉市中央区新宿1-1-17フォーラム島田　2F,35.60667553,140.1121755
583,千葉県,五井東店,千葉県 市原市 五井東3-6-1　善広第二ビル　1F,35.5159065,140.0981423
575,千葉県,鎌ケ谷東口店,千葉県 鎌ケ谷市 道野辺本町1-3-1　カーラシティ鎌ケ谷　1F,35.76334113,139.9979915
486,千葉県,北初富店,千葉県 鎌ケ谷市 北中沢1-1　SKビル9番館　1F,35.77641879,139.9910109
479,千葉県,四街道北口店,千葉県四街道市鹿渡992-4　ASOビル　1F,35.66351553,140.1658593
463,千葉県,逆井店,千葉県 柏市 逆井2-3-29　ゴールデンハイツ1-A　1F,35.82256606,139.9813913
457,千葉県,西千葉南口店,千葉県 千葉市 中央区春日2-19-11　櫻井ビル　1F,35.62221445,140.1022109
453,千葉県,五香店,千葉県 松戸市 常盤平5-17-10　シャルネ95　1F,35.79668019,139.9634534
441,千葉県,六実店,千葉県 松戸市 六実4-2-7　六実ビル　1F,35.79446222,139.9983627
437,千葉県,新津田沼南口店,千葉県 習志野市 津田沼1-4-34　新津田沼パスタビル　1F,35.68912312,140.0241971
366,千葉県,松戸根本店,千葉県 松戸市 根本8-15　高木ビル　1F,35.78689231,139.8990771
270,千葉県,馬橋店,千葉県 松戸市 馬橋1796-1　ツルオカビル　1F,35.81154174,139.9191149
264,千葉県,西船橋店,千葉県船橋市本郷町454-1エクセレント・ヴィラ　1F,35.70800269,139.9538133
254,千葉県,八千代台店,千葉県八千代市八千代台東1-5-2メゾン八千代台　1F,35.69950394,140.0927394
232,千葉県,千葉市役所前店,千葉県 千葉市 中央区登戸1-26　MAJESTIC千葉みなと　1F,35.6080563,140.1083277
228,千葉県,葭川公園店,千葉県千葉市中央区本町1-5-18東ビル本町　1F,35.61055943,140.1250209
184,千葉県,都賀店,千葉県千葉市若葉区西都賀3-8-8鹿野ビル　1F,35.63667991,140.149051
178,千葉県,松戸店,千葉県松戸市松戸1766岡田ビル　1F,35.78056108,139.8970916
85,千葉県,南行徳店,千葉県 市川市 相之川4-16　メトロセンター南行徳3番街　1F,35.67174762,139.9010184
83,千葉県,南流山店,千葉県 流山市 南流山4-8-24　RESIDENCE RAFFINE 1F,35.84219833,139.9023569
64,千葉県,柏店,千葉県 柏市 中央1-2-1　THE PALMS柏　2F,35.85926696,139.9733722
69,千葉県,稲毛店,千葉県 千葉市 稲毛区小仲台7-1-7　泉総業ビル　1F,35.64090354,140.0913249
59,千葉県,東船橋店,千葉県 船橋市 東船橋2-10-20　メゾンダジュール15番館　2F,35.70066288,140.0044118
56,千葉県,稲毛海岸店,千葉県 千葉市 美浜区高洲1-24-4　ビギ稲毛海岸駅前ビル　1F,35.63020765,140.0745946
44,千葉県,柏の葉キャンパス店,千葉県 柏市 若柴164-4柏の葉キャンパス149-6　柏の葉KADO　1F,35.89367427,139.954524
15531,東京都,西小山店,東京都 品川区 ⼩⼭6-5-10　千代⽥ビル　1F,35.614371,139.6986033
15530,東京都,練馬北町店,東京都 練馬区 北町5-11-17　ファミールハイツ北町　1F,35.76618269999999,139.6556117
14627,東京都,池ノ上駅前店,東京都 世田谷区 代沢2-44-14　高野ビル　1F,35.6604523,139.6726143
14626,東京都,木場店,東京都 江東区 木場1-4-3　MEFULL木場　6F,35.6686357,139.8049637
14625,東京都,浅草橋店,東京都 台東区 浅草橋2-29-2　リードシー浅草橋ビル　1F,35.69903816717182,139.78708424240352
14620,東京都,五反野店,東京都 足立区 弘道1-14-6　原田ビル　1F,35.7683384,139.8098506
14616,東京都,中河原住吉店,東京都 府中市 住吉町2-1-1　1F,35.6595767,139.4582993
14606,東京都,西府駅前店,東京都 府中市 西府町1-60-1　レクセル府中　1F,35.6703768,139.4570075
14587,東京都,青戸三丁目店,東京都 葛飾区 青戸3-32-3　沼野ビル　2F,35.7462004,139.8546166
14585,東京都,今戸二丁目店,東京都 台東区 今戸2-14-5　K2-COURT ASAKUSA　1F,35.7212429,139.8020346
14581,東京都,下北沢店,東京都 世田谷区 代沢5-19-12　WAVIA下北沢　B1F,35.6576077,139.6675908
14569,東京都,多摩川一丁目店,東京都 大田区 多摩川1-7-6　COCOSPACE多摩川　1F,35.5633307,139.699292
14566,東京都,府中晴見店,東京都 府中市 晴見町1-2-1　すみれビル　1F,35.6782028,139.4780758
14539,東京都,金町北口店,東京都 葛飾区 東金町1-37-2　ステーションゲート金町　1F,35.7708429,139.8711663
14533,東京都,日野駅前店,東京都 日野市 新町1-18-1　ウィステリア日野　2F,35.6796744,139.3936304
14514,東京都,沼袋四丁目店,東京都 中野区 沼袋4-29-16　AQUA GARDEN　1F,35.7225544,139.6626474
14512,東京都,有明ガーデン店,東京都 江東区 有明2-1-8　有明ガーデン　2F,35.63811339999999,139.7924937
14506,東京都,本郷一丁目店,東京都 文京区 本郷1-20-5　杉浦ビル　2F,35.70467,139.7550491
14503,東京都,江古田南口店,東京都 練馬区 旭丘1-67-8　クレストコート江古田　1F,35.7366965,139.6738062
14499,東京都,町田駅前通店,東京都 町田市 原町田4-1-10　フジモトビル　1F,35.5412073,139.4478299
14498,東京都,常盤台四丁目店,東京都 板橋区 常盤台4-32-7　泉ビル　2F,35.7638256,139.6774924
14493,東京都,徳丸不動通店,東京都 板橋区 徳丸1-59-11　サンハイム徳丸　1F,35.7748699,139.6643815
14492,東京都,恵比寿南店,東京都 目黒区 三田2-2-2　エスペランサ恵比寿　1F,35.6416952,139.7109284
14491,東京都,池上北口店,東京都 大田区 池上4-30-9　第4朝?ビル　1F,35.5732138,139.7052291
14489,東京都,上中里三丁目店,東京都 北区 上中里3-18-5　ホワイトプラザ加瀬　1F,35.7504692,139.7489373
14488,東京都,南烏山店,東京都 世田谷区 南烏山6-28-2　サンティアラ　1F,35.6696547,139.5988965
14487,東京都,荒川七丁目店,東京都 荒川区 荒川7-42-10　1F,35.74074377968334,139.77927981971433
14486,東京都,矢口一丁目店,東京都 大田区 矢口1-5-16　吉田ハイツ　1F,35.5672527,139.6943953
14483,東京都,立川曙町店,東京都 立川市 曙町2-19-11　アルリーラ立川ビル　1F,35.7003913,139.4171437
14482,東京都,大森南二丁目店,東京都 大田区 大森南2-13-1　1F,35.5624713343839,139.74193496759986
14475,東京都,京成曳舟店,東京都 墨田区 八広1-1-20　藤和曳舟コープ　1F,35.7202878,139.8207646
14474,東京都,渋谷三丁目店,東京都 渋谷区 渋谷3-8-11　渋谷三丁目TRビル　1F,35.6573834,139.7042806
14473,東京都,大森北六丁目店,東京都 大田区 大森北6-26-28　55クリニックビル　1F,35.5785295,139.7322974
14470,東京都,芦花公園駅前店,東京都 世田谷区 南烏山2-36-8　⼄黒第⼀ビル　1F,35.6703281,139.6087653
14467,東京都,北葛西三丁目店,東京都 江戸川区 北葛西3-6-13　メゾンアズマ　1F,35.676355,139.859986
14466,東京都,聖蹟桜ヶ丘店,東京都 多摩市 関戸2-40-23　S.Iビル　1F,35.6504779,139.4483095
14460,東京都,大森東一丁目店,東京都 大田区 ?森東1-2-9　シェーネスハイム?森東　1F,35.5762353,139.7349362
14459,東京都,上板橋二丁目店,東京都 板橋区 上板橋2-31-14　小宮ビル　1F/2F,35.76218117832275,139.67517212033272
14458,東京都,ハッピーロード尾山台店,東京都 世田谷区 尾山台3-9-7　尾山台ビル　1F,35.6040092,139.6522731
14457,東京都,八王子椚田店,東京都 八王子市 椚田町592-17　リッツクヌギダ　1F,35.6381663,139.3076941
14454,東京都,北赤羽店,東京都 北区 浮間3-2-7　プリムヴェーレ　1F,35.78786419999999,139.7037819
14446,東京都,北野駅前店,東京都 八王子市 打越町2001-18　ドリームトピア　1F,35.64452170000001,139.352808
14445,東京都,北小岩六丁目店,東京都 江戸川区 北小岩6-22-1　宍戸ビル　1F,35.7444282,139.8840288
14443,東京都,入船一丁目店,東京都 中央区 入船1-2-8　サンパーク東京銀座　1F,35.6730758,139.7767499
14441,東京都,UR館ヶ丘店,東京都 八王子市 館町1097　UR館ヶ丘団地　1F,35.62760889999999,139.2889044
14439,東京都,板橋東山店,東京都 板橋区 東山町14-12　小俣マンション　1F,35.7542566,139.6871997
14427,東京都,西五反田二丁目店,東京都 品川区 西五反田2-31-6　セブンスターマンション第2五反田　1F,35.6247784,139.7196013
14425,東京都,大山幸町店,東京都 板橋区 幸町1-16　ローヤルハイツ　1F,35.7451093,139.7015281
14410,東京都,東小岩店,東京都 江戸川区 東小岩3-21-6　MAC小岩ステーション　1F,35.7338938,139.8932299
14417,東京都,野方五丁目店,東京都 中野区 野方5-35-6　伊藤マンション　1F,35.7203505,139.6502912
14416,東京都,カレッタ汐留店,東京都 港区 東新橋1-8-2　カレッタ汐留　B1F,35.66445940000001,139.7625223
14415,東京都,新中野店,東京都 中野区 本町4-5-10　プリ・ヴェール新中野　B1F/1F/2F,35.6973578,139.6734001
14412,東京都,和泉多摩川店,東京都 狛江市 東和泉3-12-14　フェニックス狛江　1F,35.6263531,139.5734812
14409,東京都,芝五丁目店,東京都 港区 芝5-11-9　リビオレゾン三田　1F,35.6489459,139.7458633
14402,東京都,豊玉中三丁目店,東京都 練馬区 豊玉中3-25-4　坂下ビル　1F,35.7323034,139.6526358
14403,東京都,千歳船橋北口店,東京都 世田谷区 船橋1-11-12　産興ビル　1F,35.6472689,139.6225075
14324,東京都,喜多見北口店,東京都 狛江市 岩戸北2-20-4　1F,35.6365553,139.5861173
14323,東京都,一橋学園店,東京都 小平市 学園西町2-13-29　一橋学園ガーデニア 103号室　1F,35.7227254,139.4791385
14179,東京都,平井北口店,東京都 江戸川区 平井5-14-10　協和物産平井駅前ビル　2F,35.7063421,139.8415702
14178,東京都,赤塚六丁目店,東京都 板橋区 赤塚6-27-11　ファミール篠崎　1F,35.7785992,139.647162
14177,東京都,八雲五丁目店,東京都 目黒区 八雲5-10-17　マーキュリー八雲　2F,35.6245902,139.6661057
14175,東京都,洗足店,東京都 目黒区 洗足2-25-19　アソルティ洗足　B1F,35.6101817,139.6945875
14173,東京都,西五反田三丁目店,東京都 品川区 西五反田3-6-20　いちご西五反田ビル　1F,35.6278831,139.7192023
14161,東京都,武蔵村山店,東京都 武蔵村山市 三ツ藤3-5-5　こぐまビル　1F,35.7556976,139.3727521
14157,東京都,拝島店,東京都 福生市 熊川1396-2　第一森六ビル　1F,35.72160779999999,139.342462
14156,東京都,成増五丁目店,東京都 板橋区 成増5-17-15　矢部ビル　1F,35.7866526,139.6340714
14152,東京都,千住柳町店,東京都 足立区 千住柳町33-21　CITY CREATION千住柳町　1F,35.7547044,139.7981024
14043,東京都,綾瀬西口店,東京都 足立区 綾瀬1-39-11　2F,35.7616595,139.8237193
14042,東京都,足立栗原店,東京都 足立区 栗原3-10-19　東武大師前サンライトマンション三号館　1F,35.7782229,139.7829788
14035,東京都,西日暮里一丁目店,東京都 荒川区 西日暮里1-15-13　銀龍ビル　1F,35.7369231,139.7755724
13970,東京都,東青梅南口店,東京都 青梅市 東青梅1-7-1　1F,35.78928417633255,139.27247196564457
14020,東京都,用賀東口店,東京都 世田谷区 用賀4-13-3　ハイマートピア用賀　1F,35.6279223,139.6351472
13987,東京都,青梅新町店,東京都 青梅市 新町4-29-3　コトブキビルC　1F,35.78449519999999,139.3088234
13986,東京都,狛江和泉本町店,東京都 狛江市 和泉本町2-34-23　狛江マンション　1F,35.6413782,139.5760456
13982,東京都,上池袋一丁目店,東京都 豊島区 上池袋1-23-3　フラッツ上池袋　1F,35.7362706,139.72014
13969,東京都,中野南台店,東京都 中野区 南台3-6-19　ワイズコート中野南台　2F,35.6860044,139.6685077
13965,東京都,西武柳沢北口店,東京都 西東京市 保谷町3-12-16　保谷園　1F,35.7291171,139.552525
13964,東京都,調布小島店,東京都 調布市 小島町1-34-22　調布銀座ビル　2F,35.6535569,139.5424249
13963,東京都,南長崎四丁目店,東京都 豊島区 南長崎4-29-1　第2江川ビル　1F,35.72537414680893,139.68568920808232
13959,東京都,新宿三丁目店,東京都 新宿区 新宿3-5-6　キュープラザ新宿三丁目　2F,35.6916345,139.7055859
14016,東京都,東尾久三丁目店,東京都 荒川区 東尾久3-8-14　サニーサイドエステイト　1F,35.7458147,139.773335
14015,東京都,深大寺東町店,東京都 調布市 深大寺東町6-38-1　リーゾ・ヴィヴァーチェ　1F,35.6777726,139.5556386
14005,東京都,入谷下谷店,東京都 台東区 下谷1-4-5 瑞橙ビル　1F,35.7185721,139.7822022
14002,東京都,上野三丁目店,東京都 台東区 上野3-23-11　松田ビル　B1F,35.7063493,139.7733151
13979,東京都,東日暮里店,東京都 荒川区 東日暮里3-9-21　ブランシエール日暮里　1F,35.728853,139.782453
13968,東京都,立花五丁目店,東京都 墨田区 立花5-23-15 　1F,35.7112732,139.8302155
13958,東京都,新宿若松店,東京都 新宿区 新宿7-1-4　抜弁天CKビル　1F/2F,35.6980106,139.7134666
89,東京都,神田店,東京都 千代田区 内神田3-20-6　Kanda ex　B1F,35.69293721,139.7710196
88,東京都,千駄ヶ谷店,東京都 渋谷区 千駄ヶ谷1-7-11　姉妹舎ビル　B1F,35.6785384,139.7100898
131,東京都,篠崎店,東京都江戸川区篠崎町7-29-2プラチナKODAヒルズ　2F,35.70636867,139.9030973
130,東京都,新高島平店,東京都 板橋区 高島平7-16-14　ロイジェント新高島平　1F,35.79159499,139.6544038
129,東京都,布田店,東京都 調布市 国領町1-3-25　F-SPACE　1F,35.65030606,139.5511047
127,東京都,西八王子店,東京都八王子市千人町3-2-1　KIビル　2F,35.65706283,139.3117067
126,東京都,田無店,東京都西東京市田無町4-2-16おんべビル1　2F,35.72764122,139.5388341
124,東京都,平井店,東京都江戸川区平井4-7-9渋井ビル　1F,35.70495823,139.8454221
114,東京都,浮間舟渡店,東京都 板橋区 舟渡1ｰ16ｰ23　ドーミー浮間舟渡　1F,35.7931615,139.689836
113,東京都,椎名町店,東京都豊島区長崎1-2-8蕪木ビル　2F,35.72692693,139.6945118
99,東京都,中河原店,東京都 府中市 住吉町5-1-1　中河原高架下店舗　1F,35.65943989,139.4571206
98,東京都,京王堀之内店,東京都 八王子市 堀之内3-32-10　ハイツローネ　1F,35.62689292,139.4033256
96,東京都,多摩センター店,東京都 多摩市 山王下1-12-16　新屋ビル　1F,35.62543792,139.4204526
95,東京都,西武柳沢店,東京都 西東京市 保谷町5-8-13　カーサビアンカ2020　1F,35.73199445,139.5490456
93,東京都,国分寺店,東京都 国分寺市 本多1-5-9　ヴィラ マテリエル　1F,35.70462162,139.4815898
90,東京都,亀有店,東京都 葛飾区 亀有5-28-2　昌本ビル　1F,35.76810503,139.8465806
914,東京都,東大和中央店,東京都 東大和市 中央4-1071-5　リアルプラザ　1F,35.74267399,139.430128
930,東京都,足立谷中二丁目店,東京都 足立区 谷中2-1-8　CASA AYASE　2F,35.77508242,139.8302366
935,東京都,北八王子店,東京都 八王子市 石川町2954-3　北八王子店舗　1F,35.66958394,139.3625978
940,東京都,芝二丁目店,東京都 港区 芝2-3-10　サトービル　1F,35.65186868,139.7536543
957,東京都,入谷二丁目店,東京都 台東区 入谷2-1-8　グレンコート　2F,35.71840221,139.7890453
1233,東京都,荻窪五丁目店,東京都 杉並区 荻窪5-7-9　明泰ビル　B1F,35.70194677,139.6190513
11453,東京都,秋津梅園店,東京都 清瀬市 梅園3-23-21　コリーヌむさし野　1F,35.77357691,139.4976927
11449,東京都,西台西口店,東京都 板橋区 高島平1-81-12　PEACE西台　1F,35.78687594,139.6721966
11437,東京都,江戸川中央店,東京都 江戸川区 中央2-18-19　信和江戸川マンション　1F,35.70787221,139.8736185
1495,東京都,徳丸六丁目店,東京都 板橋区 徳丸6-22-1　アイランドコーポII　1F/2F,35.7786128,139.6647555
1483,東京都,青山一丁目店,東京都 港区 南青山1-10-2　南青山AGTビル　1F/2F,35.67098668,139.7263412
1482,東京都,玉川学園前北口店,東京都 町田市 玉川学園2-11-1　ヴェルデ玉川　1F,35.56237001,139.4620042
1477,東京都,町田成瀬七丁目店,東京都 町田市 成瀬7-1-15　カワタビル2　1F,35.54298347,139.4723777
1474,東京都,神楽坂店,東京都 新宿区 神楽坂5-34　DERAR LIFE神楽坂　2F,35.70171424,139.7389159
1455,東京都,柳沢三丁目店,東京都 西東京市 柳沢3-1-3　メゾン幸月　1F,35.72204541,139.5572709
1452,東京都,ハッピーロード大山店,東京都板橋区大山町4-2コンフォリア大山　B1F,35.74842065,139.7022662
1423,東京都,下連雀店,東京都 三鷹市 下連雀7-14-13　クラスター三鷹　1F,35.69113409,139.561751
1420,東京都,ときわ台北口店,東京都 板橋区 常盤台2-6-3　いづみやビル　B1F,35.75946314,139.6896673
1415,東京都,調布上石原店,東京都 調布市 上石原2-11-3　KDXレジデンス西調布　1F,35.65633263,139.5264068
1401,東京都,百草園店,東京都 日野市 百草203-3　1F,35.6580323,139.4310128
1398,東京都,東長崎南口店,東京都 豊島区 南長崎5-24-11　アソルティ東長崎　2F,35.7300821,139.6823516
1387,東京都,砂町銀座店,東京都 江東区 北砂3-35-21　MTビル　1F,35.67962995,139.8297742
1382,東京都,大山上町店,東京都 板橋区 大谷口上町29-6　ランディエ29　1F,35.74872586,139.6924073
1368,東京都,東陽三丁目店,東京都 江東区 東陽3-15-3　岩瀬ビル　1F,35.67035819,139.8112274
1359,東京都,イオンモール日の出店,東京都 西多摩郡日の出町 大字平井字三吉野桜木237-3　イオンモール日の出　1F,35.73442507,139.2749425
1316,東京都,三鷹新川店,東京都 三鷹市 新川2-1-21　レジデンス欅　1F,35.6815816,139.5777935
1310,東京都,王子神谷店,東京都 北区 豊島7-5-4　荒谷ビル　1F/2F,35.76217909,139.7441645
1308,東京都,新橋店,東京都 港区 新橋1-18-14　新橋MMビル　1F,35.6684433,139.7560237
1306,東京都,上馬二丁目店,東京都 世田谷区 上馬2-25-4　フレックス三軒茶屋　1F,35.63848262,139.6668804
1305,東京都,駒込一丁目店,東京都 北区 中里1-5-5　保坂ビル　B1F,35.73676181,139.7497253
1304,東京都,保谷東町店,東京都 西東京市 東町6-6-5　1F,35.74023279,139.5657466
1288,東京都,福生店,東京都 福生市 福生1078-11　第2栄和ビル　1F,35.74443332,139.3238854
1214,東京都,板橋東口店,東京都 北区 滝野川6-86-5　アヴニール板橋　2F,35.74624813,139.7206887
644,東京都,中野中央店,東京都 中野区 中央4-53-4　ベルプラザ　1F,35.70271208,139.6682024
606,東京都,荻窪一丁目店,東京都杉並区荻窪1-34-8メゾン・ホワイト　1F,35.69460329,139.6191875
372,東京都,竹ノ塚四丁目店,東京都 足立区 竹の塚4-9-10　メゾンリリー　1F,35.79476663,139.7994845
1490,東京都,銀座中央通店,東京都 港区 新橋1-7-11　近鉄銀座中央通りビル2　1F,35.66687971,139.7609887
690,東京都,池袋西口店,東京都 豊島区 池袋2-9-4　池袋MSビル　1F,35.73280078,139.7082754
225,東京都,立川店,東京都立川市錦町2ｰ2ｰ3今井ビル　1F,35.69569294,139.4164022
223,東京都,武蔵野台店,東京都 府中市 白糸台5-24-1　フジビル　2F,35.66215095,139.5116356
220,東京都,大森町店,東京都大田区大森西5-1-26桜プレイス蒲田　1F,35.57238524,139.7246997
216,東京都,東十条店,東京都北区東十条3-16-14　DIPS東十条前レジデンス　1F,35.76520437,139.7279479
213,東京都,王子店,東京都北区王子2-30-7　NEXTONE王子ビル　2F,35.75694961,139.7378931
209,東京都,深沢四丁目店,東京都世田谷区深沢4-36-15　KGR×BLD_Urbs　1F,35.62174738,139.6546688
204,東京都,フォレストモール南大沢店,東京都 八王子市 南大沢2-25　フォレストモール南大沢　1F,35.61299396,139.3816759
202,東京都,糀谷店,東京都大田区西糀谷4-4-4メゾンK 　1F,35.55676207,139.7306139
201,東京都,初台店,東京都 新宿区 西新宿4ｰ41ｰ10　フォレストマンション　1F,35.68473851,139.6856702
199,東京都,京王永山店,東京都 多摩市 馬引沢2-3-22　多摩市馬引沢2丁目ビル　1F,35.63301456,139.4528828
13850,東京都,多摩川二丁目店,東京都 大田区 多摩川2-17-1　多摩川南パークハウス　1F,35.55763391,139.6979784
11451,東京都,砧一丁目店,東京都 世田谷区 砧1-17-2　オーバールコート砧　1F,35.63700727,139.6207646
11450,東京都,東糀谷店,東京都 大田区 東糀谷3-6-11　ヘーベルヒルズハネダ　1F,35.55241395,139.7423498
11448,東京都,岩本町二丁目店,東京都 千代田区 岩本町2-4-5　インスタイルスクエア　1F/2F,35.6941846,139.7755063
11445,東京都,足立関原店,東京都 足立区 関原3-15-1　つくばやビル　1F,35.77175939,139.7909758
11432,東京都,曙橋片町店,東京都 新宿区 片町2-3　菱和ビル　1F,35.69205144,139.7249799
11430,東京都,大山弥生町店,東京都 板橋区 弥生町2-4　エスト大山　1F,35.75065322,139.6949731
11428,東京都,赤塚新町三丁目店,東京都 板橋区 赤塚新町3-17-14　ヴィルヌーブ成増　1F,35.77410676,139.6349214
11427,東京都,常盤台一丁目店,東京都 板橋区 常盤台1-40-8　1F,35.7631025,139.6916747
11421,東京都,徳丸一丁目店,東京都 板橋区 徳丸1-5-10　葭葉ビル　1F,35.76804766,139.6664962
1623,東京都,蒲田一丁目店,東京都 大田区 蒲田1-18-8　ティーガーデンビル　1F,35.56497898,139.7219132
1460,東京都,北品川店,東京都 品川区 北品川1-24-6　サンエイビルディング　1F,35.62166467,139.740195
1388,東京都,足立本木東店,東京都 足立区 本木東町16-6　プロショップ・ナカノ　1F,35.76638984,139.7811411
1374,東京都,千石四丁目店,東京都 文京区 千石4-22-17　宮下パークハイツ　1F,35.73031982,139.7386347
1345,東京都,真砂坂店,東京都 文京区 本郷4-14-10　プライムメゾン本郷　1F,35.70786597,139.7557628
1317,東京都,木場五丁目店,東京都江東区木場5-8-3グリーンサイド　1F,35.67066127,139.8075595
1293,東京都,東大和新堀店,東京都 東大和市 新堀3-20-2　サンハイツ東大和　1F,35.73608614,139.4451219
1267,東京都,荒川一丁目店,東京都 荒川区 荒川1-49-1　荒川第10秦ビル　1F,35.73449049,139.7848787
1261,東京都,赤坂二丁目店,東京都 港区 赤坂2-6-14　変なホテル東京赤坂　2F,35.67212112,139.7391461
1259,東京都,西新宿三丁目店,東京都 新宿区 西新宿3-1-3　MITSUWAビル　1F/2F,35.68734513,139.695199
1257,東京都,江古田栄町店,東京都 練馬区 栄町11-1　メゾンドベル　1F,35.7377862,139.6684739
1256,東京都,六本木店,東京都 港区 六本木7-18-13　シークエル六本木　1F,35.66188901,139.728883
1255,東京都,雑司ヶ谷三丁目店,東京都 豊島区 雑司が谷3-11-4　パレ・ドール目白　102　1F,35.72303216,139.712235
1250,東京都,東中野四丁目店,東京都 中野区 東中野4-27-39　グレースハイツ　1F,35.71023001,139.6884566
1206,東京都,麻布台三丁目店,東京都 港区 麻布台3-4-10　麻布誠工社ビル　1F,35.6606043,139.7388749
1200,東京都,小平南口店,東京都 小平市 美園町1-7-19　メゾンナカマル　2F,35.73655504,139.4872087
995,東京都,田端一丁目店,東京都 北区 田端1-15-12　エスポワールアサガ　1F,35.73497229,139.7594073
986,東京都,馬込山王店,東京都 大田区 山王2-41-2　ウィンド山王　2F,35.5915637,139.7187823
971,東京都,鐘ヶ淵東口店,東京都 墨田区 墨田4-9-1　修和ビル　2F,35.73303745,139.8200307
963,東京都,幡ヶ谷二丁目店,東京都 渋谷区 幡ヶ谷2-21-1　シャトレー幡ヶ谷第一　1F,35.67642552,139.6731493
955,東京都,蒲田西口店,東京都 大田区 西蒲田7-48-11　コトブキヤビルヂング　2F,35.56247243,139.7140838
947,東京都,富士見ヶ丘北口店,東京都 杉並区 高井戸西2-10-9　ノースメイン鈴木ビル　1F,35.68564805,139.6082835
915,東京都,町田木曽町店,東京都 町田市 木曽町122　共輪社　1F,35.55882053,139.4317087
867,東京都,八王子みなみ野店,東京都八王子市みなみ野3-31-22　プラセール　T2号室　1F,35.62964257,139.3226208
866,東京都,西八王子南口店,東京都八王子市台町4-44-11明野ビル　1F,35.65721193,139.3141608
861,東京都,吾妻橋一丁目店,東京都墨田区吾妻橋1-9-8　KDX吾妻橋レジデンス　1F,35.70832811,139.800329
855,東京都,田園調布一丁目店,東京都 大田区 田園調布1-15-14　コンフォール田園調布　1F,35.58912056,139.6742521
853,東京都,足立宮城一丁目店,東京都 足立区 宮城1-28-3　1F,35.75878209,139.7571015
842,東京都,銀座ファイブ店,東京都 中央区 銀座5-1　銀座ファイブ　2F,35.67263157,139.7614928
829,東京都,駒込西ケ原一丁目店,東京都 北区 西ケ原1-55-1　THEPLACEKOMAGOME　1F/2F,35.73945097,139.7463035
828,東京都,鮫洲東口店,東京都品川区東大井1-3-17エクセルスマート東大井　1F,35.60503667,139.7434483
820,東京都,平井六丁目店,東京都江戸川区平井6-8-13ハイツクラマエ　1F,35.70643074,139.8394537
805,東京都,多摩落川店,東京都 多摩市 落川1241　ソシュール・M　1F,35.63962497,139.4371385
770,東京都,南篠崎町店,東京都 江戸川区 南篠崎町1-20-7　ソフィアマンション　1F,35.69652502,139.9048842
762,東京都,大島七丁目店,東京都 江東区 大島7-22-15　バロンハイツ大島　1F,35.69043535,139.8400961
761,東京都,六町店,東京都 足立区 六町3-6-33　サンリット六町III　1F,35.78560177,139.8205371
759,東京都,豊玉中二丁目店,東京都練馬区豊玉中2-11-19豊玉中二丁目店舗　1F,35.73230646,139.658874
756,東京都,練馬早宮店,東京都 練馬区 早宮2-17-28　カーサプリモ　2F,35.7573427,139.6520778
752,東京都,庚申塚駅前店,東京都 豊島区 西巣鴨3-1-1　ルミエールK　1F,35.73933845,139.7302268
744,東京都,錦糸町江東橋店,東京都 墨田区 江東橋4-15-4　第9大澤ビル　1F,35.69477701,139.8175936
740,東京都,巣鴨五丁目店,東京都 豊島区 巣鴨5-15-8　レヂオンス巣鴨　1F,35.74011756,139.7323275
720,東京都,羽村店,東京都 羽村市 五ノ神1-8-16　白瀬ビル　1F,35.75786596,139.3166687
719,東京都,清瀬元町店,東京都 清瀬市 元町1-4-41　レーベン清瀬ザ・タワー　1F,35.77323726,139.5210331
714,東京都,志村三丁目店,東京都板橋区志村3-27-2メトロード志村三丁目II　2F,35.7778482,139.6874879
710,東京都,葛西南口店,東京都 江戸川区 東葛西6-2-11　エステートヨシダ　1F,35.66262611,139.8736846
705,東京都,成増三丁目店,東京都 板橋区 成増3-3-1　グレースコート　1F,35.77761759,139.6349328
701,東京都,亀戸五の橋店,東京都 江東区 亀戸1-29-7　SANYU GARDEN KAMEIDO　1F,35.69424962,139.8252486
699,東京都,西葛西南口店,東京都江戸川区西葛西6-18-3　KIRAKU II A棟　1F,35.66356148,139.860945
697,東京都,水天宮前店,東京都中央区日本橋蛎殻町1-39-5水天宮北辰ビル　1F,35.68339037,139.7843562
686,東京都,代々木四丁目店,東京都渋谷区代々木4-32-1トーシンビルミレニアム　2F,35.68237134,139.6886576
683,東京都,調布菊野台店,東京都調布市菊野台1-11-1三ツ木菊野台ビル　2F,35.65464634,139.5651243
681,東京都,不動前店,東京都品川区西五反田4-1-10アーバンハイム不動前　1F,35.62804656,139.7122125
669,東京都,駒沢一丁目店,東京都世田谷区駒沢1-20-4グランドメゾン駒沢パーク　2F,35.63080028,139.6568201
667,東京都,鵜の木店,東京都 大田区 鵜の木2-14-13　栗原ビル　1F,35.5747408,139.680286
662,東京都,東上野店,東京都 台東区 東上野2-5-9　東上野三和ビル　1F,35.70927573,139.7808929
661,東京都,高円寺北三丁目店,東京都 杉並区 高円寺北3-24-12　J.T.純情ビル　2F,35.70705278,139.6496076
650,東京都,狛江駅前通店,東京都 狛江市 東和泉1-28-15　グランドソレイユVI　1F,35.63070005,139.578791
646,東京都,東久留米前沢店,東京都 東久留米市 前沢3-10-29　グッディ　1F,35.74135959,139.5136899
643,東京都,中野新井一丁目店,東京都 中野区 新井1-6-5　エサレス中野　1F,35.71016114,139.6675312
642,東京都,久米川南口店,東京都 東村山市 栄町2-5-10　クレール久米川　1F,35.74801435,139.4742253
637,東京都,高島平店,東京都 板橋区 高島平8-4-2　プラザ・タカシマ　B1F,35.78933929,139.6613312
636,東京都,本郷三丁目店,東京都 文京区 本郷3-16-15　本郷三丁目ビル　1F,35.70506675,139.7613944
634,東京都,日野店,東京都 日野市 日野本町3-11-5　IMビル　2F,35.67906603,139.3943795
632,東京都,荏原中延店,東京都 品川区 東中延2-1-21　ラクラス中延　1F,35.60924891,139.7120387
631,東京都,国領店,東京都 調布市 国領町4-9-4　九曜国領駅前ビル　4F,35.64908093,139.5578228
630,東京都,花小金井店,東京都 小平市 花小金井1-10-11　875ビル　1F,35.72598178,139.5143621
629,東京都,つつじヶ丘店,東京都 調布市 西つつじヶ丘3-30-2　つつじヶ丘M&M　1F,35.65903683,139.5736504
628,東京都,亀戸店,東京都 江東区 亀戸1-38-4　朝日生命江東ビル　1F,35.69629024,139.8241545
626,東京都,田園調布店,東京都 大田区 田園調布2-51-4　フランス屋ビル　1F,35.59730461,139.6687623
625,東京都,祖師ヶ谷大蔵店,東京都 世田谷区 祖師谷3-36-27　クレールゼルコバ　1F,35.64552573,139.6084739
624,東京都,大森店,東京都 大田区 大森北1-17-13　ACN大森駅前ビル　3F,35.58706818,139.7302011
623,東京都,飯田橋店,東京都 新宿区 揚場町2-18　ブリエ飯田橋　1F,35.70268936,139.7428137
622,東京都,蒲田店,東京都 大田区 蒲田5-24-4　No.R 蒲田　11F,35.56254848,139.7196308
621,東京都,経堂店,東京都 世田谷区 宮坂3-4-3　マガザン経堂　B1F,35.65210837,139.6380627
620,東京都,東小金井店,東京都小金井市梶野町5-9-5　Forensic Square Tokyo Bldg　1F,35.70325608,139.5253564
619,東京都,三鷹店,東京都 武蔵野市 中町2-5-3　幸楽ビル　1F,35.70786559,139.5614691
618,東京都,荻窪店,東京都杉並区上荻1-10-5荻窪SGビル　1F,35.70465527,139.6174982
617,東京都,阿佐ヶ谷店,東京都杉並区阿佐谷南1-48-11　MSA第二ビル　2F,35.70409542,139.6368553
616,東京都,西荻窪店,東京都杉並区西荻北3-32-11ベルエアー西荻　2F,35.70625073,139.6010042
615,東京都,笹塚店,東京都 渋谷区 笹塚1-58-7　PARK HILLS TOWER　2F,35.67379869,139.6661164
614,東京都,新宿御苑店,東京都 新宿区 新宿2-1-14　エレメンツ新宿ビル　2F,35.68861102,139.7095863
603,東京都,プロムナードお花茶屋店,東京都 葛飾区 お花茶屋1-14-10　レジェンドコートお花茶屋　1F,35.7492108,139.8396893
599,東京都,西早稲田三丁目店,東京都新宿区西早稲田3-30-20高田馬場ダイヤモンドマンション　1F,35.71393642,139.7117087
598,東京都,東伊興店,東京都足立区東伊興3-14-14オテイエ竹ノ塚　1F,35.80257573,139.7912562
597,東京都,両国四丁目店,東京都墨田区両国4-28-3エクセレント両国　2F,35.69427527,139.7957917
588,東京都,小岩北口店,東京都 江戸川区 北小岩2-32-10　シュロス飯田　1F,35.73709887,139.8872624
573,東京都,給田四丁目店,東京都世田谷区給田4-30-1フラワーマンション　1F,35.67072035,139.5887749
556,東京都,豊玉南店,東京都 練馬区 豊玉南1-3-1　シティアイランド　1F,35.72777037,139.6621565
541,東京都,南麻布一丁目店,東京都 港区 南麻布1-4-5　グランパレス南麻布仙台坂　2F,35.65218226,139.7339642
536,東京都,田無芝久保町店,東京都 西東京市 芝久保町1-5-8　ハイネス田無弐番館　1F,35.72444064,139.5298852
515,東京都,武蔵境北口店,東京都 武蔵野市 境1-17-6　興栄マンションむさしの　1F,35.70385104,139.5464735
510,東京都,葛西西口店,東京都 江戸川区 中葛西5-32-18　モダンネクスト　1F,35.66207906,139.870764
506,東京都,西蒲田七丁目店,東京都 大田区 西蒲田7-54-5　ルナハイツ蒲田　1F,35.5623132,139.7092522
503,東京都,目白三丁目店,東京都 豊島区 目白3-5-13　シティハウス目白　1F/2F,35.72226868,139.7049595
498,東京都,亀戸二丁目店,東京都 江東区 亀戸2-44-5　TOWAイマス亀戸ビル　1F/2F,35.70152924,139.8244355
492,東京都,九段南三丁目店,東京都 千代田区 九段南3-7-10　アーバンキューブ九段南　2F,35.69312069,139.743522
488,東京都,野方一丁目店,東京都 中野区 野方1-5-3　ヴァンクレールOOKI　102　1F,35.70997424,139.6593752
485,東京都,北葛西店,東京都江戸川区北葛西4-13-23　Arise Kitakasai　1F,35.66948341,139.8628195
483,東京都,浜田山三丁目店,東京都杉並区浜田山3-7-20　Garbo hamadayama　1F,35.68110956,139.6336698
471,東京都,瑞江店,東京都江戸川区瑞江4-42-14ハーモニーヒルズ瑞江　1F,35.69180299,139.8950726
470,東京都,東京スカイツリー駅前店,東京都 墨田区 向島3-45-15　スプリングハイツ　1F,35.71135064,139.8086691
467,東京都,江古田北口店,東京都 練馬区 栄町31-7　コートザイナス　1F,35.73845871,139.6714574
464,東京都,本蓮沼店,東京都板橋区泉町50-13ティファニーIZUMI　1F,35.76865056,139.7002071
455,東京都,八丁堀店,東京都 中央区 八丁堀4-2-2　UUR京橋イーストビル　1F,35.67443662,139.7732909
454,東京都,等々力三丁目店,東京都 世田谷区 等々力3-19-14　エルフォルク等々力　1F,35.61055629,139.6475439
451,東京都,綾瀬二丁目店,東京都足立区綾瀬2-27-4　D1-AYASE　1F,35.76202933,139.8277566
449,東京都,岩本町店,東京都千代田区東神田1-6-4ロイジェント東神田　1F,35.69459007,139.7789332
446,東京都,千鳥町店,東京都 大田区 千鳥3-14-3　ウェルマン千鳥　2F,35.57248459,139.6894892
445,東京都,雷門一丁目店,東京都 台東区 雷門1-11-12　日興パレス雷門　1F,35.71028146,139.7936873
438,東京都,新富町店,東京都 中央区 入船3-2-9　築地ハイツ　1F/2F,35.67022903,139.7756451
434,東京都,日本橋小網町店,東京都 中央区 日本橋小網町11-10　岩尾大和ビル　1F,35.68266671,139.780995
431,東京都,柴又店,東京都葛飾区柴又1-14-4アーバンガーデン柴又　2F,35.75491745,139.871299
428,東京都,大師前店,東京都 足立区 西新井1-5-1　中田ビル　1F,35.77848892,139.780943
425,東京都,飯田橋一丁目店,東京都 千代田区 飯田橋1-6-7　九段NIビル　1F,35.69889455,139.7488496
414,東京都,蒲田五丁目店,東京都大田区蒲田5-49-2フレンシア蒲田　1F,35.55926424,139.7174665
411,東京都,東中神店,東京都昭島市玉川町1-1-12エルビル　1F,35.70595597,139.3846274
408,東京都,東大和市店,東京都 東大和市 南街5-66-4　第一加賀ビル　1F,35.73575958,139.4340231
404,東京都,小作店,東京都 羽村市 小作台1-15-2　ベルベデールシモダ　2F,35.77625638,139.3028408
400,東京都,北野店,東京都 八王子市 打越町347-1　シャルム北野　1F,35.64497914,139.3558866
399,東京都,昭島店,東京都 昭島市 昭和町2-1-14　松葉家ビル　B1F,35.71328292,139.3612661
398,東京都,下高井戸店,東京都 世田谷区 松原3-40-7　パインフィールド　1F,35.66737422,139.642538
397,東京都,雑色店,東京都大田区西六郷1-12-5エスポワール蒲田　1F,35.55353325,139.7089005
395,東京都,江東千田店,東京都 江東区 千田5-7　BELL WOOD WEST　2F,35.68050197,139.8158815
386,東京都,学芸大学店,東京都 目黒区 中町1-26-11　コスモリード学芸大学　1F,35.62919708,139.6967089
385,東京都,東向島店,東京都 墨田区 東向島3-17-10　エスペランサ24　1F,35.72499955,139.8156423
381,東京都,太平三丁目店,東京都 墨田区 太平3-11-1　ブランズ錦糸町　1F,35.70146088,139.8133835
375,東京都,御成門店,東京都港区新橋6-20-2　LOFworkspace　B1F,35.66111769,139.7546978
358,東京都,平和島店,東京都大田区大森本町2-4-7　Blume大森　1F,35.57984854,139.7365804
355,東京都,外神田二丁目店,東京都 千代田区 外神田2-9-8　青朋ビル　1F,35.70121213,139.7690705
336,東京都,四ツ木店,東京都葛飾区四つ木1-32-12ウェルコート四つ木　1F,35.73527576,139.8359102
331,東京都,住吉一丁目店,東京都 江東区 住吉1-17-18　アルページュ　1F,35.68900966,139.8122867
325,東京都,桜台店,東京都練馬区桜台1-44-8シャンテカザマ　1F,35.74002335,139.6613362
322,東京都,大井町店,東京都 品川区 東大井6-2-12　ヴィラトーコー　1F,35.60387947,139.7351729
319,東京都,赤塚新町店,東京都 板橋区 赤塚新町2-14-2　ストーク新町　1F,35.77338757,139.6364449
312,東京都,舎人店,東京都 足立区 入谷1-9　入谷ロードサイド　2F,35.8019488,139.7698457
290,東京都,亀有三丁目店,東京都 葛飾区 亀有3-3-14　FIL S01　1F,35.76428419,139.8469268
278,東京都,泉岳寺店,東京都 港区 三田3-7-15　第3御田八幡ビル　1F,35.64296023,139.7420241
277,東京都,南葛西店,東京都江戸川区南葛西4-21-3カスタム南葛西　1F,35.6476885,139.8741257
261,東京都,西調布店,東京都 調布市 上石原1ｰ25ｰ10　アイティエーガーデン　2F,35.65728337,139.5300125
240,東京都,大鳥居店,東京都大田区萩中3-6-2旭ビル21　1F,35.55215425,139.7390564
236,東京都,鷹の台店,東京都小平市たかの台44-7　TK臼井ビル　1F,35.72311346,139.4606425
194,東京都,国立店,東京都国分寺市光町1-40-5ルース国立Ｉ　1F,35.70124747,139.4466602
189,東京都,梅ヶ丘店,東京都 世田谷区 梅ヶ丘1-26-5　第一小山ビル　1F,35.65589304,139.6548239
174,東京都,方南町店,東京都杉並区方南2-13-10方南町喜多ビル　2F,35.68359512,139.6586677
172,東京都,めじろ台店,東京都八王子市めじろ台2-1京王めじろ台マンション　1F,35.64318309,139.3076701
166,東京都,梅屋敷店,東京都 大田区 大森中2-1-17　メゾン・ムラセ　1F,35.56775497,139.7299561
165,東京都,茗荷谷店,東京都文京区大塚3-5-4茗荷谷ハイツ　1F,35.71969932,139.7341846
157,東京都,京成立石店,東京都葛飾区東立石1-3-6リヴィエール　レジョン　1F,35.73077778,139.8459788
153,東京都,仙川店,東京都 調布市 仙川町3-2-1　ドエル仙川　1F,35.6633948,139.5839484
148,東京都,桜新町店,東京都 世田谷区 弦巻4-19　La Blancheur 桜新町　1F,35.63584771,139.6442426
139,東京都,尾山台店,東京都 世田谷区 等々力5-5-10　フィラーレ尾山台　1F,35.60758511,139.6536088
136,東京都,永福町店,東京都杉並区永福2-51-14永福駅前ビル　1F,35.67545321,139.6433547
133,東京都,八王子店,東京都八王子市横山町19-8　Flat八王子　1/2F,35.66005984,139.3357582
84,東京都,上町店,東京都世田谷区桜3-16-7ドウェルフジビル　2F,35.63962501,139.6346653
67,東京都,菊川店,東京都 墨田区 菊川2-2-10　リーフス　2F,35.68700736,139.8059574
80,東京都,葛西店,東京都江戸川区東葛西5-3-3 グラウンドツリー　2F,35.66585194,139.8735518
74,東京都,西新宿店,東京都 新宿区 西新宿6-26-11　成子坂ハイツ　1F,35.695472,139.6886686
71,東京都,ひばりヶ丘店,東京都西東京市ひばりが丘北3-3-16コンフォートひばりが丘　2F,35.75224323,139.5448238
70,東京都,稲城長沼店,東京都 稲城市 東長沼558　シティフォレスト稲城　1F,35.64413968,139.5035113
58,東京都,北千住店,東京都 足立区 千住龍田町3-15　ブランシェル北千住　1F,35.75070785,139.7965065
53,東京都,小岩店,東京都 江戸川区 西小岩5-14-13　S･FIRST西小岩　1F,35.73955619,139.8831434
41,東京都,竹ノ塚店,東京都 足立区 竹の塚6-11-1　T-キューブ　2F,35.79436574,139.7943798
57,東京都,浅草店,東京都 台東区 浅草3-16-1　ディアハイム浅草　1F,35.7174928,139.7941658
54,東京都,馬喰横山店,東京都 中央区 日本橋横山町6-1　NBアネックス　1F,35.69245198,139.7826397
52,東京都,上井草店,東京都 杉並区 上井草3-31-21　山本ビル　1F,35.72477269,139.6039236
48,東京都,中村橋店,東京都 練馬区 中村3-14-6　レジディア中村橋　1F,35.73350464,139.6390322
47,東京都,武蔵関店,東京都 練馬区 関町北4-4-2　シェモア武蔵　1F,35.72808559,139.5777968
46,東京都,二子玉川店,東京都 世田谷区 玉川3-23-18　ザ・シティ二子玉川　2F,35.61555806,139.625019
45,東京都,北池袋店,東京都 豊島区 上池袋3-19-7　グランメゾン　1F,35.7406202,139.7188821
43,東京都,錦糸町店,東京都 墨田区 亀沢4-11-8　JU TOWER FRONT 北斎St.　1F,35.6972224,139.8057413
40,東京都,大久保店,東京都 新宿区 北新宿1-2-17　アーバネックス西新宿II　1F,35.6979876,139.6966114
22,東京都,虎ノ門店,東京都 港区 虎ノ門1-1-23　ウンピン虎ノ門　B1F,35.67036266,139.7502351
21,東京都,西永福店,東京都 杉並区 永福3-54-5　エバーグリーン松永ビル　B1F,35.67928068,139.6367021
19,東京都,東村山店,東京都 東村山市 本町2-16-1　2F,35.76136507,139.4676159
17,東京都,狛江店,東京都 狛江市 東和泉1-20-1　第三登戸ビル　3F,35.63170549,139.5776041
16,東京都,綾瀬店,東京都 足立区 綾瀬4-17-13　リヴェールタワー綾瀬　1F,35.76503579,139.8237042
10,東京都,神保町店,東京都 千代田区 神田神保町1-37-3　B-WALL神保町　2F,35.69480145,139.7597376
9,東京都,麹町店,東京都 千代田区 麹町4-2-1　MK麹町ビル　B1F,35.68416848,139.7374447
8,東京都,成増店,東京都 板橋区 成増2-26-3　静山館　B1F,35.77803703,139.6291687
7,東京都,板橋区役所前店,東京都 板橋区 氷川町1-13　キュクロス　2F,35.75186714,139.7081962
6,東京都,板橋本町店,東京都 板橋区 本町35-18　コルムコート　1F,35.76080133,139.7070832
5,東京都,清瀬店,東京都 清瀬市 松山1-11-12　清瀬駅前ビル　B1F,35.77150566,139.5192217
4,東京都,東久留米店,東京都 東久留米市 東本町5-1　ジンドービル一番館　1F,35.76142837,139.5337073
3,東京都,中板橋店,東京都 板橋区 中板橋29-10　contel中板橋　1F,35.75625499,139.6949181
15,東京都,御徒町店,東京都 台東区 上野5-23-14　A-RISE御徒町　B1F,35.70601956,139.7757252
14,東京都,四谷三丁目店,東京都 新宿区 四谷4-3-1　ワールド四谷ビル　B1F,35.68801773,139.7176192
12,東京都,千石店,東京都 文京区 千石4-1-18　グランカーサ文京千石　1F,35.72681288,139.7416512
11,東京都,早稲田店,東京都 新宿区 早稲田南町54　ピークサイドレジデンス早稲田　2F,35.7056135,139.7216495
2,東京都,東高円寺店,東京都 杉並区 高円寺南1-6-6　東高円寺m.yビル　3F,35.69814622,139.6583758
1,東京都,南阿佐ヶ谷店,東京都 杉並区 成田東5-39-10　藤本ビル　1/2F,35.69987216,139.6340354
14641,神奈川県,三ツ境南口店,神奈川県 横浜市 瀬谷区三ツ境14-8　ヴィラ三ツ境　2F,35.46682560000001,139.5027489
14588,神奈川県,県立大学前店,神奈川県 横須賀市 安浦町2-27　グランブルー　1F,35.27005909493793,139.67728010778012
14583,神奈川県,都筑ふれあいの丘店,神奈川県 横浜市 都筑区葛が谷15-30　フォーレストプラザ　1F,35.5363433,139.5619559
14584,神奈川県,小机店,神奈川県 横浜市 港北区小机町2543　第1泉屋ビル　1F/2F,35.5079095,139.6002924
14582,神奈川県,南太田店,神奈川県 横浜市 南区南太田1-4-22　サンプレイス　2F/3F,35.4372991,139.6153372
14557,神奈川県,らびすた新杉田店,神奈川県 横浜市 磯子区杉田1-1-1　らびすた新杉田　2F,35.38577799999999,139.6191523
14559,神奈川県,小田原新宿店,神奈川県 小田原市 浜町4-1-4　クイーンシティ小田原　1F,35.2528076,139.1656086
14532,神奈川県,横浜黄金町店,神奈川県 横浜市 中区??町2-8-6　YARDビル　1F,35.4399945,139.6236329
14549,神奈川県,若草台一丁目店,神奈川県 横浜市 青葉区若草台1-1　トーシンコーポ若草台　1F,35.5507689,139.5075218
14552,神奈川県,南万騎が原店,神奈川県 横浜市 旭区柏町96-6　中村ビル　1F,35.4507284,139.5229099
14480,神奈川県,向ヶ丘遊園北口店,神奈川県 川崎市 多摩区登戸1874-3　プロポンス登戸　1F,35.6182679,139.5632927
14451,神奈川県,UR西ひかりが丘店,神奈川県 横浜市 旭区上白根町891　UR西ひかりが丘団地　1F,35.499013050600965,139.52997026950567
14435,神奈川県,反町店,神奈川県 横浜市 神奈川区松本町3-21-7　メゾン・シャングリラ　1F,35.4756018,139.6214418
14426,神奈川県,東門前店,神奈川県 川崎市 川崎区東?前3-1-19　アイ・シュライン川崎?師東　1F,35.5342748,139.7356359
14420,神奈川県,藤が丘東口店,神奈川県 横浜市 青葉区藤が丘2-1-7　横山ビル　1F,35.5451305,139.5269534
14408,神奈川県,新子安店,神奈川県 横浜市 神奈川区新子安1-22-2　1F,35.4887029,139.6536894
14407,神奈川県,稲田堤南口店,神奈川県 川崎市 多摩区菅2-3-1　平山ビル　1F/2F,35.6329946,139.5344233
14396,神奈川県,東白楽店,神奈川県 横浜市 神奈川区西神奈川3-4-1　レジデンツア東白楽　2F,35.4853446,139.626767
14319,神奈川県,湘南アイパーク（施設内従業員限定店舗）店,神奈川県 藤沢市 村岡東2-26-1　湘南ヘルスイノベーションパーク　1F,35.342071,139.5117322
14174,神奈川県,さがみ野店,神奈川県 海老名市 東柏ケ谷6-24-13　N-stage sagamino　1F,35.4712494,139.4332056
14164,神奈川県,橋本三丁目店,神奈川県 相模原市 緑区橋本3-19-17　プリムローズハウス　1F,35.5960114,139.3479255
14163,神奈川県,緑園都市東口店,神奈川県 横浜市 泉区緑園4-1-2　相鉄ライフ緑園都市　2F,35.4397932,139.5229883
14067,神奈川県,横浜富士見町店,神奈川県 横浜市 中区富士見町1-1　富士見町ビルディング　1F,35.4396183,139.6332944
14059,神奈川県,登戸南店,神奈川県 川崎市 多摩区登戸3378　クラース　1F,35.61964269999999,139.5690632
14028,神奈川県,横浜梅が丘店,神奈川県 横浜市 青葉区梅が丘7-1　アムール青葉　1F,35.5381375889358,139.52556064109393
14027,神奈川県,横浜妙蓮寺店,神奈川県 横浜市 港北区仲手原2-22-25　ボヌール妙蓮寺　1F,35.4956078,139.6325175
13999,神奈川県,川崎南加瀬店,神奈川県 川崎市 幸区南加瀬1-10-39　キャピタル新川崎　1F,35.5454119,139.6669329
13992,神奈川県,尻手駅前店,神奈川県 川崎市 幸区南幸町3-105-2　ハイラーク川崎　1F,35.53062072072691,139.6850860338052
14021,神奈川県,大和桜ヶ丘店,神奈川県 大和市 福田3-16-1 桜ヶ丘クリニックビル　1F,35.4479228,139.4649307
13988,神奈川県,川崎大島三丁目店,神奈川県 川崎市 川崎区大島3-16-9 大倉ビル　1F,35.5190325,139.7175962
94,神奈川県,センター南店,神奈川県 横浜市 都筑区茅ヶ崎中央9-1　ラフィーネ港北　1F,35.5427208,139.5751397
937,神奈川県,相模原清新店,神奈川県 相模原市 中央区清新8-14-5　高倉店舗　1F,35.57437846,139.3596619
1333,神奈川県,上永谷店,神奈川県 横浜市 港南区丸山台3-30-7　東陶ビル　1F,35.39749376,139.5667148
980,神奈川県,市が尾西口店,神奈川県 横浜市 青葉区市ケ尾町1156-1　エトモ市が尾　2F,35.55137484,139.5409559
1340,神奈川県,横浜峰岡町店,神奈川県 横浜市 保土ヶ谷区峰岡町2-326-2　プルミエーヌ　1F,35.46215715,139.5950678
1349,神奈川県,新百合ヶ丘北口店,神奈川県 川崎市 麻生区古沢43　コザワビル　2F,35.60218489,139.5012246
1395,神奈川県,横浜久保町店,神奈川県 横浜市 西区久保町6-25　ライオンズマンション西横浜第2　1F,35.452211,139.6086308
1422,神奈川県,京急久里浜東店,神奈川県 横須賀市 久里浜4-5-2　久里浜ロンタンビル　2F,35.23035555,139.702367
1444,神奈川県,戸塚西口店,神奈川県 横浜市 戸塚区戸塚町4668-10　1F,35.40176165,139.5258853
1446,神奈川県,藤沢遊行通店,神奈川県 藤沢市 藤沢218　スクエア藤沢　2F,35.34312939999999,139.4877766
1448,神奈川県,横浜東希望が丘店,神奈川県 横浜市 旭区横浜市旭区東希望が丘43-17　1F,35.46144923,139.5178935
11438,神奈川県,横浜中山店,神奈川県 横浜市 緑区中山1-5-18　山響楽器店ビル　1F,35.5144242,139.5421
11439,神奈川県,本藤沢店,神奈川県 藤沢市 本藤沢6-13-11　1F,35.3598804,139.4716504
1453,神奈川県,吉野町店,神奈川県 横浜市 南区吉野町5-27　T・K527　1F,35.43460511,139.6163766
1475,神奈川県,横浜戸部店,神奈川県 横浜市 西区戸部町6-213　1F,35.45711221,139.6230836
1487,神奈川県,片倉町店,神奈川県 横浜市 神奈川区片倉2-21-1　サニークレスト片倉　1F,35.4872599,139.604223
1421,神奈川県,西横浜南口店,神奈川県 横浜市 西区浜松町14-16　西横浜コーポ　1F,35.45309748,139.6091418
1414,神奈川県,仲町台店,神奈川県 横浜市 都筑区仲町台1-18-18　ランドワールド仲町台　1F,35.53396081,139.5917229
1402,神奈川県,川崎今井南店,神奈川県 川崎市 中原区今井南町19-32　DL edition　1F,35.57223738,139.6548752
1364,神奈川県,相模原南台六丁目店,神奈川県 相模原市 南区南台6-8-15　メディカルビル　1F,35.51984494,139.4130018
1290,神奈川県,相模大野五丁目店,神奈川県 相模原市 南区相模大野5-25-9　相模大野5丁目建物　1F,35.53156881,139.4306339
1260,神奈川県,辻堂新町店,神奈川県 藤沢市 辻堂新町3-8-22　住園深沢　1F,35.34128863,139.4592112
1241,神奈川県,横浜日野南店,神奈川県 横浜市 港南区日野南4-30-8　ナカマチビル000A　1F,35.37908438,139.5698396
1239,神奈川県,湘南台二丁目店,神奈川県 藤沢市 湘南台2-1-10　地下AB号室　アリーナ湘南　B1F,35.3971783,139.4655356
1226,神奈川県,東林間西口店,神奈川県 相模原市 南区東林間5-1-9　誠第一ビル　1F,35.51984738,139.4390366
1219,神奈川県,高座渋谷西口店,神奈川県 大和市 渋谷5-37-6　ディアコートIII　1F,35.43293652,139.4622891
1198,神奈川県,南林間東口店,神奈川県 大和市 林間1ｰ5ｰ7　APビル　1F,35.49640545,139.4485979
1017,神奈川県,川崎中島店,神奈川県 川崎市 川崎区中島1-1-1　ピアハウス　1F/2F,35.52977503,139.7143869
1005,神奈川県,川崎馬絹三丁目店,神奈川県 川崎市 宮前区馬絹3-8-3　トラストステージ宮崎台　1F,35.57976453,139.5918509
996,神奈川県,川崎小川町店,神奈川県 川崎市 川崎区小川町8-7　アルス川崎　1F,35.52658192,139.6958147
576,神奈川県,東海大学前店,神奈川県 秦野市 南矢名1-15-1　MIKOビル　1F/2F,35.37210975,139.2722821
226,神奈川県,追浜店,神奈川県 横浜市 金沢区六浦東1-9-5　六浦太平ビル　1F,35.32163055,139.620764
221,神奈川県,日ノ出町店,神奈川県横浜市中区日ノ出町1-2スカイコート横浜日ノ出町 　202,35.4459601,139.6272183
205,神奈川県,青葉台店,神奈川県横浜市青葉区しらとり台1-7ヴァンテアン　1F,35.53950789,139.5165789
1456,神奈川県,横浜天王町店,神奈川県 横浜市 保土ケ谷区天王町1-18-9　東栄ビル　1F,35.45634206,139.6020949
1311,神奈川県,横浜磯子三丁目店,神奈川県 横浜市 磯子区磯子3-12-12　磯子プリンスハイツ ・イーストコート　1F,35.40176873,139.6168869
1309,神奈川県,荏田南店,神奈川県 横浜市 都筑区荏田南3-1-4　グランデホームズ　1F,35.54713276,139.555635
1242,神奈川県,相模原矢部三丁目店,神奈川県 相模原市 中央区矢部3-9-13　いろはビル　1F,35.56878853,139.3835866
1237,神奈川県,鎌倉腰越店,神奈川県 鎌倉市 腰越2-8-6　こゆるぎR/T　1F,35.30655399,139.4943016
990,神奈川県,秦野松原町店,神奈川県 秦野市 松原町3-7　松原町店舗　1F,35.37628962,139.1843588
961,神奈川県,三崎口店,神奈川県 三浦市 三崎町諸磯25-1　三浦店舗　1F,35.15242459,139.629889
945,神奈川県,山手駅前店,神奈川県 横浜市 中区大和町2-37-5　パウロニアバレーテイク11山手駅前　2F,35.42777408,139.6455728
943,神奈川県,川崎大師前一丁目店,神奈川県 川崎市 川崎区大師駅前1-1-2　メイホービル　1F,35.53368364,139.7251135
936,神奈川県,横浜大口通店,神奈川県 横浜市 神奈川区大口通33　田村ビル　1F,35.4895679,139.6453875
920,神奈川県,秦野南矢名店,神奈川県 秦野市 南矢名240-1　クローバー壱番館　1F,35.36576852,139.2712718
917,神奈川県,横浜初音町店,神奈川県 横浜市 中区初音町3-59-1　フェニックスヨコハマスクエア　1F,35.44077402,139.6240572
912,神奈川県,戸塚柏尾町店,神奈川県 横浜市 戸塚区柏尾町150-20　LOC'S KASHIOCHOU　1F,35.41142908,139.5412166
893,神奈川県,厚木田村町店,神奈川県 厚木市 田村町5-22　ラドデルリオ厚木　1F,35.43713298,139.3575415
882,神奈川県,相模原氷川町店,神奈川県 相模原市 中央区氷川町17-7　THE PRESTIGE GRAN　1F,35.58247631,139.3622378
878,神奈川県,藤沢本町店,神奈川県 藤沢市 藤沢3-1-17　近藤ビル　1F,35.34786693,139.4767317
870,神奈川県,新杉田店,神奈川県 横浜市 磯子区中原1-1-5　新杉田ビル　1F,35.38893981,139.6175936
860,神奈川県,厚木妻田北店,神奈川県 厚木市 妻田北1-13-14　厚木マイプラザ　1F,35.46383759,139.3568567
852,神奈川県,開成店,神奈川県足柄上郡開成町吉田島4357-9　fine開成　1F,35.32686542,139.1336843
836,神奈川県,愛甲石田店,神奈川県 厚木市 愛甲東1-13-2　重田建物　1F,35.4177291,139.3473575
804,神奈川県,横浜滝頭三丁目店,神奈川県 横浜市 磯子区滝頭3-2-1　滝頭三丁目建物　1F,35.41900799,139.6255846
798,神奈川県,海老名泉二丁目店,神奈川県 海老名市 泉2-11-6　リバティハイム　1F,35.46047814,139.3872461
775,神奈川県,橋本二丁目店,神奈川県 相模原市 緑区橋本2-8-16　和光ビル　1F,35.59547837,139.3410417
774,神奈川県,矢向六丁目店,神奈川県 横浜市 鶴見区矢向6-6-32　矢向駅前店舗　1F,35.53890436,139.6799915
766,神奈川県,横浜本牧原店,神奈川県 横浜市 中区本牧原18-4　ランドシティ横浜本牧ロイヤルスクエア　1F,35.42401659,139.6664718
757,神奈川県,湘南台六丁目店,神奈川県藤沢市湘南台6-1-5　57田中ビル　1F,35.39872544,139.4700923
735,神奈川県,小田原城山店,神奈川県 小田原市 城山2-3-1　城山コーポラス　1F,35.25815843,139.1520172
728,神奈川県,たまプラーザ北口店,神奈川県 横浜市 青葉区美しが丘1-11-10　ポリニア　1F,35.57853708,139.5544773
702,神奈川県,北山田店,神奈川県 横浜市 都筑区北山田5-1-53　エクセレント北山田　1F,35.56266581,139.5879815
695,神奈川県,相模原上溝店,神奈川県 相模原市 中央区上溝737-1　1F,35.5433892,139.3679434
689,神奈川県,横浜上野町店,神奈川県横浜市中区上野町3-114-10クレセンスビル山手　1F,35.43412439,139.6513072
688,神奈川県,青葉台二丁目店,神奈川県横浜市青葉区青葉台2-27-7ゼファ青葉台テラス　1F,35.54819825,139.5165006
672,神奈川県,衣笠店,神奈川県横須賀市公郷町2-10-4公郷町貸店舗　1F,35.25569988,139.6661022
671,神奈川県,横浜不老町三丁目店,神奈川県 横浜市 中区不老町3-12-9　加瀬ビル201　1F,35.44094577,139.6350156
670,神奈川県,馬堀海岸店,神奈川県横須賀市馬堀町2-13-1チェリーポート　1F,35.25878735,139.7061119
652,神奈川県,横浜十日市場店,神奈川県横浜市緑区十日市場町1481-3ドレッセ横浜十日市場　1F,35.52177962,139.5145151
647,神奈川県,川崎榎町店,神奈川県川崎市川崎区榎町2-14コスモビル　1F,35.52973194,139.705909
635,神奈川県,綱島店,神奈川県 横浜市 港北区綱島東1-2-6　第10吉田ビル　2F,35.53627077,139.6346839
633,神奈川県,新丸子店,神奈川県川崎市中原区新丸子町741　H-moll　2F,35.5803351,139.6613506
627,神奈川県,元住吉店,神奈川県 川崎市 中原区木月1-33-3　S・FLATII　1F,35.56505443,139.6531715
591,神奈川県,石川町本牧通店,神奈川県横浜市中区山手町27-5ベイステージ元町　1F,35.43743055,139.6456314
590,神奈川県,生田南口店,神奈川県 川崎市 多摩区生田7-2-7　ニューアイワビル　1F,35.61464589,139.5420692
564,神奈川県,橋本六丁目店,神奈川県 相模原市 緑区橋本6-30-15　ハイメゾン橋本6　1F,35.5997798,139.3422442
546,神奈川県,大和東一丁目店,神奈川県 大和市 大和東1-7-20　上野店舗　1F,35.47021608,139.4635024
508,神奈川県,小杉御殿町二丁目店,神奈川県 川崎市 中原区小杉御殿町2-67　Sakura Lient 武蔵小杉　1F,35.57847765,139.6528063
507,神奈川県,川崎池田二丁目店,神奈川県 川崎市 川崎区池田2-5-3　八丁畷店舗　1F,35.52126876,139.6929925
502,神奈川県,横浜久木町店,神奈川県 横浜市 磯子区久木町17-7　桑名ビル　1F,35.41338618,139.6245576
491,神奈川県,平塚店,神奈川県平塚市紅谷町2-24ステーションフロント平塚　2F,35.32927932,139.3500876
474,神奈川県,鎌倉小町通店,神奈川県 鎌倉市 小町2-8-6　鎌倉高喜屋小町店　2F,35.32151648,139.5524453
473,神奈川県,茅ヶ崎若松町店,神奈川県 茅ケ崎市 若松町2-17　フレンディ茅ケ崎　1F,35.33230796,139.4150924
472,神奈川県,秦野ショッピングセンター店,神奈川県 秦野市 曽屋4784　秦野ショッピングセンター　1F,35.37012446,139.2355152
456,神奈川県,中川店,神奈川県 横浜市 都筑区中川1ｰ10ｰ2　中川センタービル　1F,35.56310605,139.5700602
450,神奈川県,マルイファミリー溝口店,神奈川県 川崎市 高津区溝口1-4-1　マルイファミリー溝口　6F,35.59902796,139.6128513
420,神奈川県,横須賀三春町店,神奈川県 横須賀市 三春町2-11　三春MSビル　1F,35.26729165,139.6847952
418,神奈川県,寒川店,神奈川県 高座郡寒川町 岡田1-11-1　グリーンノア　1F,35.36850493,139.3880245
417,神奈川県,宮元町店,神奈川県横浜市南区宮元町1-17-5宮元町店舗　1F/2F,35.43312511,139.6146208
402,神奈川県,伊勢原店,神奈川県伊勢原市伊勢原2-9-33横山店舗　1F,35.39822495,139.3065832
396,神奈川県,三ツ沢上町店,神奈川県横浜市神奈川区三ツ沢西町4-13川本ビル　1F,35.47244826,139.6007487
367,神奈川県,鶴間店,神奈川県 大和市 西鶴間1-8-18　シルクハイツ　1F,35.49234324,139.4483589
353,神奈川県,小田急相模原店,神奈川県 座間市 相模が丘1-25-3　METRO PLAZA・7　2F,35.5142481,139.4214148
343,神奈川県,町田南口店,神奈川県相模原市南区上鶴間本町3-18-29　Ani-mo 　2F,35.54107916,139.4435756
338,神奈川県,川崎新町店,神奈川県 川崎市 川崎区京町1-18-2　京町プラザ　1F,35.51754692,139.6949716
306,神奈川県,睦町店,神奈川県 横浜市 南区睦町2-186-2　マルトク　1F,35.42946287,139.6208445
303,神奈川県,港南台店,神奈川県横浜市港南区港南台4-17-28シャトーマーシャン　1F,35.37569617,139.5757877
283,神奈川県,瀬谷店,神奈川県横浜市瀬谷区瀬谷4-24-1ベレオ白鳳　1F,35.46961485,139.4815669
279,神奈川県,センター北店,神奈川県 横浜市 都筑区中川中央1-38-5　第2中西ビル　1/2F,35.55541446,139.5805044
275,神奈川県,相模大野店,神奈川県相模原市南区相模大野3-12-6　VIA　6F,35.5319115,139.4361754
271,神奈川県,平間店,神奈川県 川崎市 中原区北谷町54　北谷町店舗　1F,35.56231197,139.6705955
267,神奈川県,鴨宮店,神奈川県 小田原市 鴨宮622-1　剣持ビル　1F,35.28004429,139.1758997
258,神奈川県,渋沢店,神奈川県秦野市曲松2-7-6パストラル渋沢　1F,35.37220947,139.1857238
248,神奈川県,相模原店,神奈川県 相模原市 中央区相模原1-2-17　クリスタルサガミハラ　B1F,35.58102813,139.3702126
233,神奈川県,北久里浜店,神奈川県 横須賀市 根岸町1ｰ7ｰ11　ライフシティーTAKAGI　1F,35.25252051,139.6856589
190,神奈川県,相模原南台店,神奈川県 相模原市 南区南台2-1-45　シャトー南台　1F,35.52461036,139.4261488
187,神奈川県,本厚木店,神奈川県 厚木市 旭町1ｰ27ｰ5　MSビル　1F,35.43885478,139.3656996
186,神奈川県,戸塚店,神奈川県 横浜市 戸塚区吉田町118-1　戸塚OCビル　B1F,35.40011505,139.536645
163,神奈川県,横浜元町店,神奈川県 横浜市 中区山下町112-4　ポートヴィラ元町　1F,35.44136957,139.6480387
152,神奈川県,杉田店,神奈川県 横浜市 磯子区杉田1-14-7　杉田switch　1F,35.38374714,139.6172209
134,神奈川県,神奈川店,神奈川県 横浜市 神奈川区栄町10-35　ポートサイドダイヤビル　1F,35.46864855,139.6303235
87,神奈川県,希望ヶ丘店,神奈川県 横浜市 旭区中希望が丘102-30　はまゆう一番館　1F,35.45935072,139.5149271
86,神奈川県,伊勢佐木長者町店,神奈川県 横浜市 中区弥生町1-2　サンクレスト伊勢佐木　1F,35.44103147,139.6310388
68,神奈川県,汐入店,神奈川県 横須賀市 汐入町2-3　柏木第5ビル　2F,35.28103709,139.6613372
63,神奈川県,金沢文庫店,神奈川県 横浜市 金沢区釜利谷東2-11-5 　阪谷ビル　1F,35.34370274,139.6171348
61,神奈川県,能見台店,神奈川県 横浜市 金沢区能見台通33-24　ベルハウス能見台　1F,35.36092101,139.6227996
82,神奈川県,新横浜店,神奈川県 横浜市 港北区新横浜2-4-19　富士火災横浜ビル　B1F,35.50867727,139.6162501
81,神奈川県,二俣川店,神奈川県横浜市旭区二俣川2-56-1アルジャンテ森　1F,35.46006565,139.5331243
79,神奈川県,横須賀中央店,神奈川県 横須賀市 大滝町1-26　清水ビル　2F,35.2818277,139.6683182
62,神奈川県,金沢八景店,神奈川県 横浜市 金沢区六浦1-1-12　野尻ビル　1F,35.32832415,139.6203299
51,神奈川県,阪東橋店,神奈川県 横浜市 中区曙町4-56　Liberty大通り公園　1F,35.43851655,139.6257901
42,神奈川県,市が尾店,神奈川県 横浜市 青葉区市ヶ尾町1158-1　ワンステップビル　B1F,35.55255718,139.5429961
20,神奈川県,東神奈川店,神奈川県 横浜市 神奈川区西神奈川1-8-1　レガーレフォルム　4F,35.47882727,139.6318746
18,神奈川県,鶴見店,神奈川県 横浜市 鶴見区鶴見中央1-4-1　坂口屋ビル　B1F,35.50807196,139.6780167
1445,山梨県,アクロスプラザ国母店,山梨県甲府市大里町5011アクロスプラザ国母　1F,35.62579997,138.5509766
1287,山梨県,大月店,山梨県 大月市 大月1-9-10　宮阪ビル　1F,35.61248444,138.9433301
1286,山梨県,甲府ウェルネスゾーン店,山梨県 甲府市 徳行甲府市徳行2-10-17　ウェルネスゾーン　1F,35.65076624,138.5478171
14643,長野県,MEGAドン・キホーテ長野店,長野県 長野市 高田1758　MEGAドン・キホーテ長野　1F,36.6424346,138.215856
14558,長野県,ホテル信濃路店,長野県 長野市 中御所岡田町131-4　ホテル信濃路　1F,36.6425634,138.1810851
1481,長野県,松本中央店,長野県 松本市 中央2-5-15　クリヴィーレ増田　2F,36.233596,137.9703453
1389,長野県,西松本店,長野県 松本市 中条2-20　ロワールモモセヤマンション　1F,36.22765766,137.9625246
1291,長野県,上田原店,長野県 上田市 上田原796-3　クリーネ七曜館　1F,36.39120596,138.2226553
14540,新潟県,新潟善道町店,新潟県 新潟市 秋葉区善道町2-11-29　1F,37.8039711,139.1256264
14011,新潟県,上越国府店,新潟県 上越市 国府3-17-57 　1F,37.159894,138.2272003
14004,新潟県,新潟上近江店,新潟県 新潟市 中央区上近江2-19-11 　1F,37.8977063,139.0370256
13994,新潟県,新潟東出来島店,新潟県 新潟市 中央区東出来島24-10　エクセンスビル伏見　1F,37.8996091,139.0284856
1478,新潟県,新潟亀田店,新潟県 新潟市 江南区亀田緑町3-1-47　1F,37.87351502,139.0993175
1224,新潟県,新潟新松崎店,新潟県 新潟市 東区新松崎2-2-7　MKビル　2F,37.93178555,139.117001
1213,新潟県,長岡大島本町店,新潟県 長岡市 大島本町3-12-19　1F,37.44411721,138.8228496
969,新潟県,新潟下木戸店,新潟県 新潟市 東区下木戸3-236-1　1F,37.93249134,139.0908637
994,新潟県,五泉吉沢店,新潟県 五泉市 吉沢1-1-3-1　嶺山館　1F,37.73747526,139.1779216
992,新潟県,新潟白根店,新潟県 新潟市 南区親和町1-10　小山ビル　1F,37.76690349,139.0174905
989,新潟県,長岡大手通店,新潟県 長岡市 大手通2-3-9　プレミスト大手通6号室　1F,37.44841562,138.8481762
968,新潟県,新潟東大通店,新潟県 新潟市 中央区東大通1-8-15　帯三京新潟事務所兼店舗　1F,37.91582552,139.0635004
729,新潟県,新発田本町店,新潟県 新発田市 本町1-1-1　新発田市HSビル　1F,37.94490241,139.3344677
595,新潟県,新潟船場町店,新潟県新潟市中央区船場町1-2437船場町テナント　1F,37.9258967,139.0534977
565,新潟県,西堀通四番町店,新潟県 新潟市 中央区西堀通4番町816　神野開発ビル　1F,37.92054654,139.0431249
412,新潟県,白山学校町通店,新潟県 新潟市 中央区学校町通2-598-40　KTビル　1F,37.91662581,139.0358524
350,新潟県,万代四丁目店,新潟県 新潟市 中央区万代4-7-10　万代四丁目店舗　1F,37.91975805,139.0581014
14542,富山県,高岡駅前店,富山県 高岡市 下関町391-2　レーベン高岡駅前THE TOWER　1F,36.7423579,137.0165635
14529,富山県,富山山室店,富山県 富山市 山室340-2　サザンロードビル　1F,36.6763068,137.2373123
14029,富山県,牛島パークWEST店,富山県 富山市 明輪町1-30　牛島パークWEST　1F,36.70330832002806,137.20986069573544
11456,富山県,富山西町店,富山県 富山市 総曲輪3-4-26　WAKURU SOGAWA　1F/2F,36.68994162,137.215523
1326,富山県,富山今泉店,富山県 富山市 今泉西部町2-6　ベルヴィー・カワカミ　1F,36.67368581,137.210317
1325,富山県,高岡木町店,富山県 高岡市 木町5-22　1F,36.76177761109911,137.01154482229774
1324,富山県,高岡野村店,富山県 高岡市 野村1536-17　アーバンビル　1F,36.7582818,137.0415824
13844,富山県,富山五福店,富山県 富山市 五福3512　ヴィル五福　1F,36.70187238,137.1888902
14610,石川県,白山マッキーモール店,石川県 白山市 北安田西1-50　白山マッキーモール　1F,36.5247745,136.5452781
14541,石川県,金沢入江店,石川県 金沢市 入江2-54　中村ビル　1F,36.56460939999999,136.6266671
14485,石川県,金沢三口店,石川県 金沢市 三口町火330　1F,36.6072799,136.6430062
13996,石川県,金沢天神店,石川県 金沢市 天神町1-14-11 　1F,36.558469,136.6787638
13997,石川県,もりの里店,石川県 金沢市 もりの里3-237　ワーディ店舗　1F,36.558977919733586,136.68267058171722
1409,石川県,金沢西念店,石川県 金沢市 西念1-17-13　カーサウエストT　1F,36.58463748,136.643274
1443,石川県,金沢駅通店,石川県 金沢市 武蔵町16-37　1F/2F,36.57316346,136.6545189
1496,石川県,金沢八日市店,石川県 金沢市 八日市5-423　ユタカビル　1F,36.54916603,136.6088779
1283,石川県,田上の里店,石川県 金沢市 田上の里2-9　PARIS　1F,36.54556897,136.6905566
1274,石川県,金沢鞍月店,石川県 金沢市 戸水1-439　1F,36.60129583,136.6212975
14510,福井県,福井学園店,福井県 福井市 菅谷1-1-10　1F,36.0709972,136.1971557
14509,福井県,福井和田東店,福井県 福井市 和田東2-104　1F,36.0516539,136.2465038
14000,福井県,越前芝原店,福井県 越前市 芝原5-4-16　ONODANIビル　1F,35.9215537,136.1585977
1506,福井県,坂井丸岡店,福井県 坂井市 丸岡町一本田3-16-1　1F,36.15145709,136.2644949
1342,福井県,福井駅前店,福井県 福井市 中央1-3-1　加藤ビル　1F,36.06224734,136.2217227
13846,福井県,越前武生店,福井県 越前市 高瀬1-3-34　1F,35.89762483,136.1601358
13845,福井県,越前横市店,福井県 越前市 横市町5-11　横市町スクエア　1F,35.91149835,136.1913226
14605,岐阜県,大垣島里店,岐阜県 大垣市 島里1-33-5　1F,35.3229926,136.6195468
14455,岐阜県,本巣北方店,岐阜県 本巣郡北方町 高屋伊勢田2-83　1F,35.4120289,136.6911326
14406,岐阜県,岐阜東鶉店,岐阜県 岐阜市 東鶉3-54-1　1F,35.382569,136.7412381
1175,岐阜県,名鉄岐阜店,岐阜県 岐阜市 住ノ江町1-14-3　プログレッソ岐阜駅前　1F,35.41114091,136.7605333
11446,岐阜県,可児広見店,岐阜県 可児市 広見1-34-1　可児三洋堂ビル　1F,35.42493067,137.0626609
1393,岐阜県,各務原六軒駅前店,岐阜県 各務原市 蘇原六軒町3-37　丹羽ビル　1F,35.4009437,136.8623592
1331,岐阜県,大垣林町店,岐阜県 大垣市 林町10-1308-1　1F,35.3764282,136.618297
1247,岐阜県,羽島竹鼻町店,岐阜県 羽島市 竹鼻町丸の内2-27-2　竹本ビル　1F,35.32486354,136.6971741
1246,岐阜県,福光東店,岐阜県 岐阜市 福光東2-7-17　サンライズ88　1F,35.45328989,136.7721981
998,岐阜県,岐阜栄新町店,岐阜県 岐阜市 栄新町2-49　服部ビル　1F,35.43771912,136.7601634
879,岐阜県,多治見駅前店,岐阜県 多治見市 本町2-35-3　ラコー13　1F,35.33450343,137.1218592
436,岐阜県,大垣店,岐阜県大垣市東外側町1-1-7吉田ビル　1F,35.36382348,136.6176059
377,岐阜県,岐阜店,岐阜県 岐阜市 神田町6-8　ABCビル　1F,35.41642765,136.7601881
14631,静岡県,三島幸原店,静岡県 三島市 幸原町1-1-10　1F,35.135036,138.9129274
14572,静岡県,足柄SA（下り）店,静岡県 駿東郡小山町 桑木603-18　足柄SA (下り)　2F,35.313403,138.9672201
14069,静岡県,日本平PA（上り）店,静岡県 静岡市 駿河区池田字寺之久保坪218-3　日本平PA（上り）　2F,34.9836087,138.4336444
13990,静岡県,マックスバリュ富士宮朝日町店,静岡県 富士宮市 朝日町6-29　マックスバリュー富士宮朝日町　1F,35.234186,138.6079612
1492,静岡県,マークイズ静岡店,静岡県 静岡市 葵区柚木1026　MARK IS静岡　2F,34.98409013,138.409716
13843,静岡県,静岡駒形通店,静岡県 静岡市 葵区駒形通1-2-11　ラ・メゾン・コマ　1F,34.97018557,138.378525
1505,静岡県,静岡清水駅前店,静岡県 静岡市 清水区辻1-3-1　田中屋ビル　1F,35.0244764,138.4878901
1442,静岡県,浜松入野店,静岡県 浜松市 中央区入野町9443-1　1F,34.69756579,137.6851755
1430,静岡県,磐田駅前店,静岡県 磐田市 中泉633-1　アスティ磐田　1F,34.71020667,137.8518752
1379,静岡県,富士川成島店,静岡県 富士市 川成島48-1　1F,35.14171516,138.6743883
1202,静岡県,三島南口店,静岡県 三島市 一番町15-32　芹澤ビル　1F,35.12521211,138.9109264
1012,静岡県,富士瓜島町店,静岡県 富士市 瓜島町47　1F,35.16630737,138.6735228
1011,静岡県,沼津大岡店,静岡県 沼津市 大岡1719-1　大岡シティプラザ　1F,35.10429019,138.8731477
1378,静岡県,富士水戸島店,静岡県 富士市 水戸島299-1　1F,35.14496457,138.646619
1248,静岡県,浜松宮竹町店,静岡県 浜松市 東区宮竹町395-1　宮竹町店舗　1F,34.72346521,137.7669734
869,静岡県,富士吉原店,静岡県富士市吉原2-10-12ラクロス吉原　1F,35.1621008,138.6893688
810,静岡県,佐鳴台店,静岡県 浜松市 中区佐鳴台2-5-21　1F,34.7020875,137.695502
763,静岡県,静岡寺田店,静岡県 静岡市 駿河区寺田10-1　1F,34.9428666,138.3590458
673,静岡県,愛野店,静岡県袋井市愛野東2-5-6　STATION FRONT　1F,34.75333453,137.9607797
656,静岡県,御殿場川島田店,静岡県御殿場市川島田928グリーンプラザC　1F,35.29941334,138.9219716
654,静岡県,静岡浅間通店,静岡県静岡市葵区宮ケ崎町91神谷ビル　1F,34.98040923,138.3766271
570,静岡県,浜松鹿谷町店,静岡県 浜松市 中区鹿谷町21-9　名残プラザビル　1F,34.71635939,137.7211933
511,静岡県,藤枝店,静岡県 藤枝市 前島1-7-3　BEビル　1F,34.84799228,138.2532321
419,静岡県,曳馬店,静岡県 浜松市 東区中田町124-1　1F,34.73450747,137.7552179
407,静岡県,静岡伝馬町店,静岡県静岡市葵区御幸町5-17マサモリビル　1F,34.97464262,138.386307
406,静岡県,浜松中央三丁目店,静岡県浜松市中区中央3ｰ7-13セレーノ新町　1F,34.70799681,137.7390584
401,静岡県,草薙店,静岡県 静岡市 清水区草薙1-8-16　草薙アザリー　1F,35.00232697,138.4428428
376,静岡県,沼津店,静岡県 沼津市 大手町5-3-22　三交イン沼津ビル　1F,35.1010281,138.8587751
368,静岡県,浜松鍛冶町店,静岡県 浜松市 中区鍛冶町319-25　伊達ビル　1F,34.70581587,137.7297845
293,静岡県,日吉町店,静岡県静岡市葵区鷹匠3-3-10小野田ビル　1F,34.98153518,138.3897142
14637,愛知県,葵二丁目店,愛知県 名古屋市 東区葵2-3-1　CH桜通ビル　1F/2F,35.173758,136.9255019
14630,愛知県,則武店,愛知県 名古屋市 中村区則武2-14-11　名駅富士ビル　1F,35.1701898,136.8763355
14615,愛知県,春日井白山店,愛知県 春日井市 白山町5-14-5　メゾン春日井　1F,35.2716525,137.0306681
14603,愛知県,猪子石原店,愛知県 名古屋市 名東区猪子石原3-201　リアライズ猪子石　1F,35.1917602,136.9933028
14575,愛知県,名古屋徳川店,愛知県 名古屋市 東区山口町29　COZY徳川園　1F,35.1831233,136.9248517
14562,愛知県,高岳泉一丁目店,愛知県 名古屋市 東区泉1-20-26　早川ビル　1F/2F,35.1744126,136.9131181
14548,愛知県,茶屋ヶ坂店,愛知県 名古屋市 千種区茶屋が坂1-21-20　エステート茶屋が坂　1F,35.1849146,136.9620346
14547,愛知県,半田青山店,愛知県 半田市 宮本町3-217-24　セントラル2　1F,34.8819244,136.9138115
14546,愛知県,ヨシヅヤ太平通店,愛知県 名古屋市 中川区宮脇町2-11　ヨシヅヤ太平通り　1F,35.1350122,136.8680922
14537,愛知県,春日井八田店,愛知県 春日井市 八田町2-44-21　1F,35.2555595,136.9690686
14507,愛知県,知多にしの台店,愛知県 知多市 にしの台2-301　1F/2F,34.9790793,136.8752213
14497,愛知県,名古屋山王店,愛知県 名古屋市 中川区松重町3-48　H・Iビル　1F,35.1563526,136.8925684
14476,愛知県,コノミヤ城西店,愛知県 名古屋市 西区城西町16-1　コノミヤ城西店　2F,35.2280782,136.8623417
14471,愛知県,名古屋納屋橋店,愛知県 名古屋市 中村区名駅5-25-17　納屋橋ビル　B1F/1F,35.1681478,136.8915286
14463,愛知県,中川春田店,愛知県 名古屋市 中川区東春田2-45　メゾン八勝　1F,35.1419818,136.8177351
14450,愛知県,大府共和店,愛知県 大府市 共和町2-17-1　グランシャリオObu　1F,35.0349933,136.9530794
14436,愛知県,杉村店,愛知県 名古屋市 北区杉村1-26-8　杉ビル　1F,35.1904337,136.9236895
14422,愛知県,浄心天神山店,愛知県 名古屋市 西区天神山町7-24　神田ビル　1F,35.190835,136.8867845
14421,愛知県,平安通一丁目店,愛知県 名古屋市 北区平安通1-19　大善ビル　1F,35.19645879999999,136.9295051
14414,愛知県,津島古川店,愛知県 津島市 古川町1-87-1　1F,35.1757825,136.7425957
14405,愛知県,岡崎庄司店,愛知県 岡崎市 庄司田1-12-12　アンジェリーク　1F,34.9215233,137.1672501
14325,愛知県,本陣鳥居通店,愛知県 名古屋市 中村区鳥居通2-14　1F,35.1754235,136.8656849
14320,愛知県,ヨシヅヤ清洲店,愛知県 清須市 西市場5-5-3　ヨシヅヤ清洲店　1F,35.2188651,136.8286637
14170,愛知県,西尾山下店,愛知県 西尾市 山下町泡原17-2　御幸NYモール　1F,34.8631097,137.0443789
14068,愛知県,豊橋上野店,愛知県 豊橋市 上野町上野2-1　1F,34.7249024,137.3866494
14054,愛知県,豊川八幡店,愛知県 豊川市 八幡町上宿63-1　1F,34.8382549,137.3314503
14053,愛知県,太閤四丁目店,愛知県 名古屋市 中村区太閤4-11-14　ラ・ミューズ1101　1F,35.1673413,136.8758452
14018,愛知県,栄生駅前店,愛知県 名古屋市 西区栄生1-35-24　松本ビル　1F,35.1840113,136.8744416
14001,愛知県,勢子坊店,愛知県 名古屋市 名東区勢子坊2-407-1　高針ビル　1F,35.1640947,137.017663
105,愛知県,名駅南店,愛知県 名古屋市 中村区名駅南1-11-2　中駒名駅南マンション　1F,35.16672413,136.8895619
116,愛知県,安城店,愛知県 安城市 御幸本町2-5　御幸本町ビル　1F,34.95929688,137.087938
115,愛知県,星ヶ丘店,愛知県名古屋市千種区星が丘元町14-7セントラル星が丘ビル　2F,35.16150423,136.9835025
108,愛知県,新瑞橋店,愛知県名古屋市瑞穂区瑞穂通8-17-2プロシード新瑞橋　2F,35.11751297,136.9369844
107,愛知県,荒子店,愛知県 名古屋市 中川区荒子1-196　さくらHills ARAKO　1F,35.14071785,136.8602296
106,愛知県,千種店,愛知県 名古屋市 東区葵3-25-15　シティファミール千種　1F,35.169975,136.9295599
104,愛知県,桜本町店,愛知県 名古屋市 南区寺崎町14-12　メゾン桜本町　1F,35.10797459,136.9362356
103,愛知県,金山店,愛知県名古屋市中区金山4-5-16パークフラッツ金山　1F,35.14331499,136.9040591
883,愛知県,久屋大通店,愛知県 名古屋市 東区泉1-14-6　パークサイト泉　1F,35.17553625,136.9092566
891,愛知県,豊田美里店,愛知県 豊田市 美里6-8-9　1F,35.07596293,137.1787953
156,愛知県,豊田店,愛知県 豊田市 若宮町2-31　カーニープレイス豊田　1F,35.08860291,137.1558424
11444,愛知県,豊田司町店,愛知県 豊田市 司町1-10　GRACE・K　1F,35.07176485,137.1522587
1507,愛知県,瑞穂運動場西店,愛知県 名古屋市 瑞穂区豊岡通3-38　若山ビル　1F,35.12300977,136.9388462
1451,愛知県,豊橋前田店,愛知県 豊橋市 前田南町1-1-1　タワーレジデンスHADA　1F,34.75877337,137.3920188
1440,愛知県,日進岩崎店,愛知県 日進市 岩崎町新ラ田125-10　1F,35.14399989,137.0332764
1392,愛知県,半田星崎町店,愛知県 半田市 星崎町3-16-4　竹内ビル　1F,34.89965963,136.9243164
1367,愛知県,富木島店,愛知県 東海市 富木島町伏見4-15-13　エピキュリアン東海ue 　1F,35.0131015,136.9104736
1357,愛知県,刈谷相生店,愛知県 刈谷市 相生町1-28　THE TERRACE　2F,34.99225684,137.0113635
1356,愛知県,名駅南一丁目店,愛知県 名古屋市 中村区名駅南1-12-9　グランスクエア名駅南　1F,35.16603599,136.8888596
1332,愛知県,瑞穂白砂店,愛知県 名古屋市 瑞穂区白砂町1-47　嶋崎ビル　1F,35.11907047,136.9577939
1298,愛知県,西春駅前店,愛知県 北名古屋市 九之坪東町4-5　TMビル　1F,35.24439078,136.8720258
1284,愛知県,古出来店,愛知県 名古屋市 千種区古出来3-6-15　メゾン野菊　1F,35.18056163,136.9407581
1282,愛知県,刈谷神明町店,愛知県 刈谷市 神明町6-408　ACT41塚本刈谷神明　1F,34.99697709,137.0049774
1281,愛知県,豊山町店,愛知県 西春日井郡豊山町 青山東栄164-1　WING青山　1F,35.25495027,136.9096465
1232,愛知県,岩塚駅前店,愛知県 名古屋市 中村区畑江通9-27-1　メゾン中川　2F,35.15743854,136.8546896
1228,愛知県,日比野店,愛知県 名古屋市 熱田区大宝1-14　白鳥パークハイツ日比野東3号棟　1F,35.13295743,136.8959731
1223,愛知県,MEGAドン・キホーテUNY小牧店,愛知県 小牧市 堀の内3-15　MEGAドン・キホーテUNY小牧　1F,35.28964645,136.9126911
212,愛知県,覚王山店,愛知県 名古屋市 千種区末盛通1-9-3　CASA NK　1F,35.16684842,136.9535081
200,愛知県,庄内通店,愛知県 名古屋市 西区庄内通3-36-1　サントピア庄内通　2F,35.2039028,136.8908441
198,愛知県,六番町店,愛知県 名古屋市 熱田区六番3-2-3　サンダイビル　1F,35.12353157,136.8873665
13842,愛知県,一宮栄店,愛知県 一宮市 栄2-11-9　磯村ビル　2F,35.30466243,136.7975186
11454,愛知県,豊橋飯村店,愛知県 豊橋市 飯村北2-30-3　auショップ跡　1F,34.74515971,137.4234093
11447,愛知県,清須西田中店,愛知県 清須市 西田中長堀60　浅野ビル　1F,35.215549,136.8480496
11435,愛知県,元八事店,愛知県 名古屋市 天白区元八事5-194　メゾン古橋　1F,35.13117299,136.9791013
11426,愛知県,名西通店,愛知県 名古屋市 中村区名西通2-21　ハートイン名西　1F,35.16109412,136.8648984
11420,愛知県,古出来一丁目店,愛知県 名古屋市 東区古出来1-1-2　シンエイビル　1F,35.18150064,136.9389103
1479,愛知県,御器所石仏店,愛知県 名古屋市 昭和区石仏町1-10　第二千代田ビル　2F,35.14780045,136.9368861
1323,愛知県,中川野田店,愛知県 名古屋市 中川区野田1-455　1F,35.14307533,136.8478
1252,愛知県,岡崎康生通店,愛知県 岡崎市 康生通南1-22　康生通南店舗　1F,34.95786385,137.1642503
1209,愛知県,佐古前町店,愛知県 名古屋市 中村区佐古前町22-13　森ビル　1F,35.1777305,136.8726428
1201,愛知県,瀬戸市役所前店,愛知県 瀬戸市 共栄通1-6　ツカモトビル　102　1F,35.22230996,137.0846442
1184,愛知県,瀬戸共栄通店,愛知県 瀬戸市 共栄通5-35　瀬戸市共栄通店舗　1F,35.21944438,137.0736523
1177,愛知県,港当知店,愛知県 名古屋市 港区入場1-3009　アーバンハイツ　1F,35.11363741,136.8520502
1173,愛知県,江南古知野町店,愛知県 江南市 古知野町桃源50　1F,35.34126377,136.8689496
1013,愛知県,志賀公園店,愛知県 名古屋市 北区八代町2-5　北区八代町店舗　1F,35.20181064,136.9099334
997,愛知県,豊田土橋店,愛知県 豊田市 曙町2-49　うぃん　1F,35.05743172,137.1320682
975,愛知県,豊橋新栄町店,愛知県 豊橋市 新栄町字東小向70-2　BASE23　1F,34.7676078,137.3688553
974,愛知県,梅坪駅店,愛知県 豊田市 梅坪町7　梅坪駅舎　1F,35.10039276,137.16266267
948,愛知県,名古屋大曽根店,愛知県 名古屋市 北区大曽根4-19-25　セルフィーユ　1F,35.19258007,136.9335247
921,愛知県,一社駅前店,愛知県 名古屋市 名東区高社1-252　一社ビル　2F,35.16829942,136.9946786
896,愛知県,中京競馬場前店,愛知県 名古屋市 緑区大将ケ根2-744　ZIPTOWN　1F,35.06252103,136.9827133
845,愛知県,秩父通店,愛知県 名古屋市 西区秩父通1-58　丸安ビル　1F,35.19742038,136.8965465
826,愛知県,太閤通五丁目店,愛知県 名古屋市 中村区太閤通5-5　カガ屋ビル　1F,35.16800766,136.8687517
814,愛知県,尾頭橋店,愛知県 名古屋市 中川区尾頭橋1-1-35　シティコーポ尾頭橋2号館　1F,35.14362529,136.8935468
807,愛知県,八事日赤店,愛知県 名古屋市 昭和区山手通3-16-5　ロムーア山手通り　1F,35.1453613,136.9647433
801,愛知県,豊橋東脇店,愛知県 豊橋市 東脇3-20-21　福信ハイツ　1F,34.7517104,137.3666704
785,愛知県,刈谷市店,愛知県 刈谷市 大正町3-123　フォンターナ刈谷　1F,34.98411755,136.9945117
773,愛知県,大府店,愛知県大府市江端町3-10花井ビル南　1F,35.01025081,136.9548773
758,愛知県,今池北店,愛知県 名古屋市 千種区内山1-4-13　内山一丁目店舗　1F,35.17391427,136.9381824
746,愛知県,江南店,愛知県江南市赤童子町御宿61-1赤童子町御宿店舗　2F,35.33024576,136.8689324
717,愛知県,天白原店,愛知県名古屋市天白区原2-2509メゾンドアージュ　1F,35.1216743,136.9891155
709,愛知県,牛田通店,愛知県 名古屋市 中村区牛田通1-17　牛田通店舗　1F,35.15800545,136.8650493
682,愛知県,浄水店,愛知県豊田市浄水町伊保原611-1メロン宇佐美　1F,35.12506658,137.131618
679,愛知県,平針店,愛知県名古屋市天白区平針3-115メッセ平針　2F,35.12292735,137.0077855
668,愛知県,徳重店,愛知県 名古屋市 緑区鶴が沢1-1320　徳重駅前東部アネックスビル　2F,35.09377804,137.0009071
665,愛知県,一宮妙興寺店,愛知県 一宮市 花池3-11-10　花池3丁目店舗　1F,35.28761931,136.7952827
664,愛知県,豊田元町店,愛知県豊田市東新町2-75-1　CASA ELEVATOII　1F,35.07931322,137.1258466
657,愛知県,春岡通店,愛知県名古屋市千種区春岡通7-3　nextage.fukiage　2F,35.15790383,136.9391544
612,愛知県,あま木田店,愛知県 あま市 木田東新赤坪43-1　AMAテラス　1F,35.19444196,136.786836
563,愛知県,新木曽川店,愛知県一宮市木曽川町黒田字下市場南128-1アマビーレ新木曽川　1F,35.34286553,136.7788543
550,愛知県,天白大根店,愛知県 名古屋市 天白区大根町46　天白ハイツ　1F,35.11095603,136.9897011
542,愛知県,鳴海店,愛知県名古屋市緑区鳴海町宿地37シャルル鳴海　1F,35.08142068,136.9606688
530,愛知県,大須観音駅前店,愛知県 名古屋市 中区大須1-21-20　ファンシー岩間　1F,35.16054395,136.8979025
529,愛知県,勝川南口店,愛知県 春日井市 勝川町8-13　勝川駅南口ビル　1F,35.229446,136.9566029
523,愛知県,よもぎ台店,愛知県名古屋市名東区よもぎ台2-917パルナスよもぎ台　1F,35.17523306,136.9907332
500,愛知県,中村公園駅前店,愛知県 名古屋市 中村区太閤通9-7　第86プロスパービル　1F,35.16855311,136.8561321
482,愛知県,桜山店,愛知県 名古屋市 昭和区藤成通1-2　ForestK3　1F,35.14086707,136.9368805
468,愛知県,名古屋藤が丘店,愛知県名古屋市名東区藤が丘137セレス藤が丘駅前ビル　1F,35.18357433,137.0209794
452,愛知県,浄心店,愛知県名古屋市西区花の木3-15-10-2　YgK浄心　1F,35.19203315,136.8902157
435,愛知県,上前津店,愛知県 名古屋市 中区上前津1-14-11　サンコート上前津　1F,35.1554779,136.9052544
379,愛知県,志賀本通店,愛知県名古屋市北区志賀本通1-38アンビックス志賀ストリートタワー　1F,35.19672904,136.9178403
344,愛知県,東海通店,愛知県 名古屋市 港区七番町2-11-1　モール9番街　1F,35.11696025,136.8861652
308,愛知県,平安通店,愛知県 名古屋市 北区彩紅橋通1-1-5　ネオハイツ平安　1F,35.19306556,136.929561
305,愛知県,八事店,愛知県 名古屋市 天白区八事山439　ヴィラ八事　1F,35.13520391,136.9701212
301,愛知県,亀島店,愛知県名古屋市西区菊井2-2015ガーデンフロント菊井　1F,35.17900695,136.8819724
300,愛知県,春日井店,愛知県 春日井市 上条町1-18-1　リベロ カスガイ ステイション　1F,35.24257164,136.9850178
260,愛知県,国府宮店,愛知県稲沢市高御堂1-1-15マンタイビル　1F,35.25242698,136.8024902
249,愛知県,本郷店,愛知県 名古屋市 名東区上社2-203　本郷ビル　2F,35.17458904,137.0116044
246,愛知県,半田店,愛知県半田市昭和町1-35半田名鉄南館　1F,34.89286104,136.9253901
242,愛知県,上飯田店,愛知県 名古屋市 北区辻本通4-27-2　サンライフハイツ　1F,35.20563188,136.9259218
231,愛知県,川名店,愛知県 名古屋市 昭和区広路通7-10　セントラル川名　1F,35.14856575,136.9478598
230,愛知県,尾張旭店,愛知県 尾張旭市 三郷町栄 3-1　プレミール三郷　1F,35.2153716,137.0515738
229,愛知県,鶴舞店,愛知県 名古屋市 中区千代田3-11-2　シャトー鶴舞ビル　1F,35.15589011,136.9147758
191,愛知県,堀田店,愛知県 名古屋市 瑞穂区苗代町24-17　フラーリッシュ宗塚　1F,35.11747692,136.9220356
188,愛知県,浅間町店,愛知県名古屋市西区新道1-4-8竹豊ビル　1F,35.18197453,136.8897828
177,愛知県,知立店,愛知県知立市栄2-10　CHIRYU CROSS GATE　1F,35.00655565,137.0397444
175,愛知県,東刈谷店,愛知県 刈谷市 松栄町3-8-3　松栄町三丁目店舗　1F,34.97624156,137.035393
164,愛知県,豊橋店,愛知県豊橋市広小路2-9-1コンチェルトタワー豊橋　2F,34.76428595,137.3869506
159,愛知県,池下店,愛知県名古屋市千種区池下1-11-20ルーエ池下　1F,35.16765634,136.9447685
140,愛知県,黒川店,愛知県 名古屋市 北区黒川本通1-25-2　Opus 黒川　1F,35.19626674,136.9125457
14400,三重県,木曽岬店,三重県 桑名郡木曽岬町 大字和泉303-3　木曽岬町さくら作業場　1F,35.0786083,136.7384024
1176,三重県,津港町店,三重県 津市 港町17-22　港町利平治テナントA号室　1F,34.71422358,136.5204233
1431,三重県,桑名東口店,三重県 桑名市 末広町22　ヤマハウィングビル　1F,35.06761941,136.6884036
1385,三重県,鈴鹿算所店,三重県 鈴鹿市 算所5-8-27　1F,34.87489882,136.5505446
876,三重県,鈴鹿白子店,三重県 鈴鹿市 南江島町17-38　1F,34.83990487,136.5921131
831,三重県,津藤方店,三重県 津市 藤方1024-1　1F,34.68660451,136.516905
658,三重県,津西口店,三重県 津市 広明町345-2　ミエライスビル　1F,34.73205383,136.5094807
562,三重県,四日市新正店,三重県四日市市新正4-1-1　Antina　2F,34.95681343,136.6164519
346,三重県,中川原店,三重県 四日市市 久保田1-1-21　ファクタービル　1F,34.97330766,136.6104838
327,三重県,桑名店,三重県 桑名市 本願寺193-2　1F,35.06389318,136.679846
14049,滋賀県,彦根高宮店,滋賀県 彦根市 高宮町1423-3　1F,35.2434892,136.254134
14048,滋賀県,草津野村店,滋賀県 草津市 野村6-1-17　サイトビル　1F,35.0267496,135.9541852
13977,滋賀県,大津京駅前店,滋賀県 大津市 皇子が丘2-10-27 西大津ISビル　1F,35.0244747,135.8578303
942,滋賀県,米原駅前店,滋賀県 米原市 米原西29　スカイビル　1F,35.31450789,136.2883936
999,滋賀県,甲賀甲南店,滋賀県 甲賀市 甲南町新治2037-1　甲南町新治ビル　1F,34.92741798,136.1612788
1334,滋賀県,長浜八幡中山店,滋賀県 長浜市 八幡中山町88-4　1F,35.39214963,136.2820606
365,滋賀県,南草津店,滋賀県草津市野路1-11-2エンゼルプラザeastII　1F,35.00285664,135.9506993
789,滋賀県,八日市駅店,滋賀県東近江市八日市浜野町487-1八日市駅店舗　1F,35.11490245,136.1950057
711,滋賀県,南草津二丁目店,滋賀県草津市南草津2-3-9コミュニティ南草津ビルIII　1F,35.00449647,135.9434103
674,滋賀県,びわ湖浜大津駅前店,滋賀県大津市浜大津2ｰ1ｰ27　GRAND LAKE COURT浜大津駅前　1F,35.01146399,135.8630523
655,滋賀県,石山駅前店,滋賀県 大津市 粟津町10-2　クインビル　1F,34.97914009,135.9001089
392,滋賀県,南彦根店,滋賀県 彦根市 西今町958-3　N-terrace　1F,35.25565632,136.2351075
359,滋賀県,長浜店,滋賀県長浜市大宮町8-15アベリア　2F,35.38140377,136.2719237
354,滋賀県,草津店,滋賀県草津市草津町1540-1グラシィオ草津　1F,35.01881298,135.9506525
14622,京都府,洛西新林本通店,京都府 京都市 西京区大枝西新林町5-8-2　1F,34.9677053,135.666902
14567,京都府,三条京阪店,京都府 京都市 東山区三条通大橋東二町目51　バインオークリスビ　B1F,35.0092265,135.7752604
14525,京都府,烏丸蒔絵屋店,京都府 京都市 中京区烏丸通蒔絵屋町257-2　中通区烏丸二条ビル　1F/2F,35.0138352,135.7592083
14472,京都府,川島有栖川店,京都府 京都市 西京区川島有栖川町96-2　サクラビル　1F,34.9780609,135.7022976
14434,京都府,墨染駅前店,京都府 京都市 伏見区墨染町689　TMS駅ビル　1F,34.94778,135.7691262
14397,京都府,丹波橋北口店,京都府 京都市 伏見区両替町11-259-2　1F,34.9399531,135.7638972
14024,京都府,上桂駅前店,京都府 京都市 西京区上桂宮ノ後町34-5 　1F,34.9904686,135.6961774
890,京都府,宇治妙楽店,京都府 宇治市 宇治妙楽155-7　宇治油勘ビル　1F,34.89028878,135.8026289
918,京都府,狛田駅前店,京都府 相楽郡精華町 狛田1-13-16　スーパーサンフレッシュ狛田駅前モール　1F,34.77968626,135.7905155
193,京都府,四条大宮店,京都府 京都市 中京区壬生馬場町37-4　シェルクレア壬生　1F,35.00632193,135.746009
439,京都府,京都府庁前店,京都府京都市中京区横鍛冶町109パレファミール府庁前　1F,35.0175052,135.7544402
1419,京都府,京都浄土寺店,京都府 京都市 左京区浄土寺上馬場町119　セラヴィー119　1F,35.02423884,135.7918386
1406,京都府,福知山駅店,京都府 福知山市 駅前町447　ビエラ福知山　1F,35.29653504,135.1183227
1313,京都府,下京寺町通店,京都府 京都市 下京区中之町583-3　カーサ寺町　1F,35.00151085,135.7670342
1199,京都府,神宮丸太町駅前店,京都府 京都市 左京区川端丸太町下る下堤町82　恵美須ビル　1F,35.01704944,135.772693
1154,京都府,桂駅前店,京都府 京都市 西京区桂南巽町127-1　Kotani homeビル　2F,34.98009462,135.7021702
1018,京都府,京田辺興戸店,京都府 京田辺市 興戸犬伏17-8　アデストビルLife SPACE　2F,34.81281068,135.771971
973,京都府,京都中久世店,京都府 京都市 南区久世中久世町5-310　グランレブリー桂川グレイスレジデンス　1F,34.95871123,135.709747
732,京都府,岡崎天王町店,京都府京都市左京区岡崎天王町13ポケットプラザ　2F,35.01697889,135.7864885
227,京都府,北山店,京都府 京都市 左京区下鴨前萩町5-10　北山テラス　1F,35.05126345,135.7679914
203,京都府,四条店,京都府 京都市 下京区童侍者町167　AYA四条烏丸ビル　1F,35.00234573,135.759131
1428,京都府,田辺中央店,京都府 京田辺市 田辺中央1-7-2　ベルバール新田辺　2F,34.82007899,135.7709435
1407,京都府,北大路大宮店,京都府 京都市 北区紫野下門前町50　新大宮ハイツ　1F,35.04236086,135.7484562
985,京都府,京阪淀駅前店,京都府 京都市 伏見区淀本町174-71　1F,34.90511214,135.7190385
979,京都府,元田中店,京都府 京都市 左京区田中大久保町13　コーポ澤村　1F,35.03577633,135.7814224
864,京都府,太秦店,京都府京都市右京区太秦帷子ケ辻町26-3　HERSED'OR　1F,35.01569996,135.7001264
838,京都府,宝ヶ池店,京都府京都市左京区上高野上荒蒔町5-6正和フラット宝ヶ池　1F,35.05836699,135.7920957
822,京都府,今熊野店,京都府京都市東山区今熊野椥ノ森町11ｰ39パークス京都東山　1F,34.98421033,135.7738238
821,京都府,西大路三条店,京都府京都市右京区西院東今田町31ウエストグランアベニュー六角　2F,35.00705747,135.7321615
802,京都府,五条堀川店,京都府京都市下京区柿本町579五条堀川ビル　1F,34.99595227,135.7519109
771,京都府,寺町二条店,京都府京都市中京区榎木町451-1　Riviere Gauche　1F,35.01312416,135.7676873
747,京都府,久御山店,京都府久世郡久御山町林北畑92-1クレス久御山　2F,34.88064675,135.7543074
731,京都府,伏見横大路店,京都府京都市伏見区横大路天王後38-2横大路天王店舗　1F,34.92801705,135.739807
723,京都府,桂店,京都府京都市西京区川島滑樋町53-1　Condminio531　1F,34.97376709,135.7026959
610,京都府,城陽平川店,京都府城陽市平川浜道裏41-1　1F,34.86700975,135.7625022
574,京都府,亀岡駅前店,京都府 亀岡市 亀岡駅北1-7-11　ローレルコート亀岡駅前　1F,35.01716596,135.5833972
567,京都府,宇治広野町店,京都府宇治市広野町東裏66-2　Celeste大久保新田　1F,34.87535831,135.7805937
549,京都府,伏見桃山店,京都府 京都市 伏見区両替町3-323　川口ビル　1F,34.93155493,135.7636049
497,京都府,帷子ノ辻店,京都府 京都市 右京区太秦多薮町19-6　太秦多薮町店舗　1F,35.01399523,135.7023789
443,京都府,山科椥辻店,京都府 京都市 山科区椥辻中在家町17　プラザ椥ノ辻　1F,34.97423986,135.8155178
432,京都府,西院店,京都府 京都市 右京区西院巽町2ｰ1　オヴェスト西院II　3F,35.00340972,135.7307915
410,京都府,山科音羽店,京都府 京都市 山科区音羽役出町1ｰ25　ヴィオス山科音羽　2F,34.98519696,135.8173417
383,京都府,わら天神前店,京都府京都市北区平野宮西町67カーザ・ラペルラ　1F,35.03387687,135.7315134
373,京都府,松井山手店,京都府 京田辺市 山手中央1-2　松井山手駅前ビル　1F,34.83354293,135.7279586
340,京都府,今出川大宮店,京都府京都市上京区薬師町225サンヴェール京都西陣　1F,35.02958072,135.7490442
302,京都府,九条店,京都府京都市南区東九条宇賀辺町17サンライツ河原町　1F,34.97886407,135.7642053
284,京都府,城陽店,京都府 城陽市 寺田北山田26-11　リゴレット　1F,34.85671181,135.7811164
280,京都府,茶山店,京都府 京都市 左京区一乗寺築田町91　ポエム・ハーミット　1F,35.03967122,135.7914652
192,京都府,藤森店,京都府京都市伏見区深草西浦町5-17モコビル　1F,34.9589549,135.7681123
182,京都府,五条店,京都府 京都市 下京区塩竈町384-1　ルネ河原町　1F,34.9963683,135.764215
14638,大阪府,内本町二丁目店,大阪府 大阪市 中央区内本町2-2-7　EXEO X-Base　1F,34.6831559,135.5136291
14633,大阪府,吹田垂水三丁目店,大阪府 吹田市 垂水町3-19-25　1F,34.761195,135.5023396
14629,大阪府,吹田寿店,大阪府 吹田市 寿町2-32-10　1F,34.753355,135.5218162
14599,大阪府,吹田上山手店,大阪府 吹田市 上山手町15-25　1F,34.7758501,135.5180121
14591,大阪府,京阪御殿山店,大阪府 枚方市 渚西1-1-8　SAM御殿山　1F,34.8273744,135.6518212
14590,大阪府,我孫子三丁目店,大阪府 大阪市 住吉区我孫子3-2-18　1F,34.601106,135.5096417
14589,大阪府,放出東三丁目店,大阪府 大阪市 鶴見区放出東3-6-8　W.O.B.HANATEN　1F,34.6886618,135.5602295
14579,大阪府,靱本町一丁目店,大阪府 大阪市 西区靱本町1-57-1　ビクトリーポイント　1F,34.6842018,135.4931085
14576,大阪府,藤井寺南口店,大阪府 藤井寺市 春日丘1-8-5　藤井寺駅前ビル　1F,34.5711687,135.5934094
14574,大阪府,夕凪二丁目店,大阪府 大阪市 港区夕凪2-11-11　BENTENII　1F,34.6616946,135.4502742
14573,大阪府,クボタ グローバル技術研究所（施設内従業員限定店舗）店,大阪府 堺市 堺区匠町1-11　クボタ グローバル技術研究所　2F,34.5925769,135.4282911
14564,大阪府,池田石橋二丁目店,大阪府 池田市 石橋2-1-1　石橋リヴァーサイドビル　1F,34.8098753,135.4448114
14563,大阪府,浪速幸町二丁目店,大阪府 大阪市 浪速区幸町2-2-13　ミライト・ワン桜川　1F,34.6686063,135.491381
14561,大阪府,長居公園前店,大阪府 大阪市 住吉区長居東4-2-6　フォーゼ長居公園　1F,34.6111238,135.513691
14556,大阪府,市岡一丁目店,大阪府 大阪市 港区市岡1-5-29　藤岡ビル　1F/2F,34.6644514,135.4618922
14531,大阪府,深江南一丁目店,大阪府 大阪市 東成区深江南1-12-22　サニーサイド深江　1F,34.66917284761494,135.55680562339722
14528,大阪府,淀川宮原四丁目店,大阪府 大阪市 淀川区宮原4-4-2　新大阪グランドハイツ　1F,34.7374579,135.4972804
14524,大阪府,東大阪川田店,大阪府 東大阪市 川田1-15-6　プレアール川田　1F,34.6914745,135.6175533
14511,大阪府,泉佐野中庄店,大阪府 泉佐野市 中庄12-1　1F,34.4052243,135.3382119
14505,大阪府,高槻庄所店,大阪府 高槻市 庄所町1-5　井上グリーンハイツ　1F,34.84016800000001,135.6171408
14504,大阪府,本町一丁目店,大阪府 大阪市 中央区本町1-4-13　SSI本町　2F,34.6837184,135.5086288
14501,大阪府,住吉苅田三丁目店,大阪府 大阪市 住吉区苅田3-10-10　ふぁみーゆあびこX　1F,34.6019519,135.5153675
14500,大阪府,茨木中津店,大阪府 茨木市 中津町16-30　角倉ビル　1F,34.8166956,135.5793316
14496,大阪府,北巽西店,大阪府 大阪市 生野区巽中1-25-12　ナティーノース　1F,34.6529479,135.5547149
14495,大阪府,若江岩田北口店,大阪府 東大阪市 岩田町4-3-46　希来里　1F,34.66356179999999,135.6090124
14494,大阪府,長堀橋東店,大阪府 大阪市 中央区島之内1-17-12　長堀橋第25松屋　1F,34.6748634,135.5075354
14468,大阪府,恵美須西二丁目店,大阪府 大阪市 浪速区恵美須西2-7-4　AprecIous Nanba South　1F,34.6537806,135.5045603
14465,大阪府,東中島一丁目店,大阪府 大阪市 東淀川区東中島1-21-24　グランルクレ新大阪　1F,34.7338517,135.5044608
14462,大阪府,勝山三丁目店,大阪府 大阪市 天王寺区勝山3-1-21　ダイワビル　1F,34.6547433,135.5248944
14461,大阪府,中新開二丁目店,大阪府 東大阪市 中新開2-13-35　モア・ライフ　1F,34.6840591,135.6241803
14456,大阪府,大国三丁目店,大阪府 大阪市 浪速区大国3-9-20　st.bld大国　1F,34.6545595203391,135.49327969551086
14452,大阪府,長原東三丁目店,大阪府 大阪市 平野区長吉長原東3-1-4　レシオ　1F,34.6017103,135.5746099
14449,大阪府,中津一丁目店,大阪府 大阪市 北区中津1-15-26　Ruelle うめきた　1F,34.7118364,135.4962309
14442,大阪府,徳井二丁目店,大阪府 大阪市 中央区徳井町2-4-14　宇野ビルディング　1F,34.6843288,135.5120466
14440,大阪府,大阪瓦町店,大阪府 大阪市 中央区瓦町2-4-5　瓦町MTビル　1F,34.6861603,135.5054448
14437,大阪府,東淀川豊里店,大阪府 大阪市 東淀川区豊里3-16-31　西野ビル　1F,34.7409965,135.5471193
14433,大阪府,星田駅前店,大阪府 交野市 星田5-13-2　富尾ビル　1F,34.7670079,135.6641196
14432,大阪府,豊中曽根西店,大阪府 豊中市 曽根西町1-2-2　ケイアンドエフ豊中ビル　1F,34.7718934,135.4662524
14431,大阪府,北野田西口店,大阪府 堺市 東区北野田1077　アミナス北野田　1F,34.52341310000001,135.5424437
14430,大阪府,日本橋三丁目店,大阪府 大阪市 浪速区日本橋3-4-20　AFFLUENCE難波EASTビル　1F,34.6616071,135.5064802
14398,大阪府,森ノ宮西店,大阪府 大阪市 中央区森ノ宮中央1-16-19　GARE森ノ宮ビル　2F,34.6812185,135.5321138
14321,大阪府,西田辺東店,大阪府 大阪市 阿倍野区西田辺町1-2-1　1F,34.62130899999999,135.5159198
14318,大阪府,守口西店,大阪府 守口市 京阪本通2-16-8　MAISON RECTO　1F,34.7386439,135.5642315
14165,大阪府,南海我孫子前西店,大阪府 大阪市 住吉区遠里小野4-9-10　カルムIII　1F,34.6009195,135.4965992
14166,大阪府,東大阪稲田店,大阪府 東大阪市 稲田本町2-1ｰ60　1F,34.6825872,135.5816554
14162,大阪府,東加賀屋一丁目店,大阪府 大阪市 住之江区東加賀屋1-11-21　シュテルン パラエスト鈴栄　1F,34.6217185,135.4827387
14160,大阪府,北久宝寺二丁目店,大阪府 大阪市 中央区北久宝寺2-5-2　セレニテ本町リアン　1F,34.6802159,135.5043612
14159,大阪府,喜連瓜破店,大阪府 大阪市 平野区瓜破2-1-17　withビル　2F,34.6088809,135.5521005
14158,大阪府,茨木駅前通店,大阪府 茨木市 駅前4-2-29　GALLERIA VILLA中央通り2　1F,34.8170278,135.5668295
14154,大阪府,吹田垂水店,大阪府 吹田市 垂水町3-3-40　谷口ビル　1F,34.7639705,135.5037865
14150,大阪府,野江一丁目店,大阪府 大阪市 城東区野江1-1-1　角屋京橋ビル　1F,34.699696,135.536657
14147,大阪府,守口市西口店,大阪府 守口市 桜町9-7　フロンテージ守口　2F,34.73585,135.5652509
14146,大阪府,中百舌鳥二丁目店,大阪府 堺市 北区中百舌鳥町2-49　ハイネス・センターコート　1F,34.5577915,135.5053845
14145,大阪府,谷町六丁目店,大阪府 大阪市 中央区谷町6-1-14　谷町大治ビル　1F,34.6757886,135.5173516
14144,大阪府,阿倍野阪南店,大阪府 大阪市 阿倍野区阪南町2-7-28　レクシア阪南町　1F,34.6330154,135.514018
14046,大阪府,河内小阪南口店,大阪府 東大阪市 小阪本町1-3-2　湖月堂ビル　1F,34.6633357,135.5808957
14045,大阪府,西山台店,大阪府 大阪狭山市 西山台3-5-19　ラ・モアレ1ビル　1F,34.4854744,135.5437373
14044,大阪府,茨木元町一丁目店,大阪府 茨木市 宮元町1-10　池上ハイツ　1F,34.81957679999999,135.5749729
14030,大阪府,大東栄和店,大阪府 大東市 栄和町13-11　サンビュー　1F,34.7023866,135.6270285
14026,大阪府,東住吉中野店,大阪府 大阪市 東住吉区中野4-1-16　サラオリエンテ　1F,34.6213197,135.5386474
14025,大阪府,三国南口店,大阪府 大阪市 淀川区三国本町3-36-8　PAGURO MIKUNI　1F,34.73664949999999,135.4834933
14014,大阪府,杭全一丁目店,大阪府 大阪市 東住吉区杭全1-18-15 　1F,34.63906610000001,135.5355585
14009,大阪府,東三国四丁目店,大阪府 大阪市 淀川区東三国4-11-13　林ビル　1F,34.7413723,135.4952463
13993,大阪府,東小橋店,大阪府 大阪市 東成区東小橋2-10-33　CasaVerde東小橋　1F,34.6694886,135.5318394
13960,大阪府,緑橋店,大阪府 大阪市 東成区東中本1-15-3　緑橋マンション　1F,34.6809791,135.5464645
13991,大阪府,堺南島店,大阪府 堺市 堺区南島町2-123-1 　(株)山下組ビル　1F/2F,34.5964043,135.4770889
13976,大阪府,大日三丁目店,大阪府 守口市 大日町3-1-9　大日フクダビル　1F,34.7512993,135.5800863
13967,大阪府,枚方東中振店,大阪府 枚方市 東中振1-19-48　グリーンヒルショッピングセンター　1F,34.7969,135.6399614
13962,大阪府,大阪ビジネスパーク店,大阪府 大阪市 中央区城見2-1-61　ツイン21　2F,34.69272209999999,135.5314529
120,大阪府,四ツ橋店,大阪府 大阪市 西区立売堀1-3-7　L-PLACE本町　1F,34.67949075,135.4973526
128,大阪府,寺田町店,大阪府 大阪市 天王寺区大道4-1-1　HOPETREE OSAKA GRAND 1F,34.65006858,135.5219555
125,大阪府,住之江公園店,大阪府大阪市住之江区南加賀屋2-2-29サワー・ドゥ住之江公園　1F,34.60873002,135.4739704
123,大阪府,恵美須町店,大阪府大阪市浪速区恵美須東1-11-4ウルバーノイリス　1F,34.65393495,135.507173
122,大阪府,南森町店,大阪府大阪市北区東天満2-9-1若杉センタービル　1F,34.69766115,135.5143658
121,大阪府,西中島南方店,大阪府大阪市淀川区西中島4-2-22三津富新御堂筋ビル　B1F,34.7268006,135.4982038
119,大阪府,昭和町店,大阪府大阪市阿倍野区昭和町1-8-26パレロイヤルビル　2F,34.63425768,135.5173225
117,大阪府,本町店,大阪府 大阪市 中央区久太郎町3-4-10　コンフォートレジデンス御堂筋本町　1F,34.68090916,135.5023232
109,大阪府,堺筋本町店,大阪府大阪市中央区博労町1-9-9コンフォリア・リブ堺筋本町Q　2F,34.67853718,135.5068205
102,大阪府,都島店,大阪府大阪市都島区都島本通3-28-5与門ビル　1F,34.70865071,135.5291879
101,大阪府,千林大宮店,大阪府 大阪市 旭区今市1-1-5　千林ロイヤルハイツ　1F,34.72616447,135.5501954
100,大阪府,平野店,大阪府大阪市平野区平野西5-3-2アイエムタワー　1F,34.62022092,135.5485867
916,大阪府,枚方公園西口店,大阪府 枚方市 堤町3-28　ドミール枚方公園　1F,34.8116716,135.6391517
899,大阪府,大阪狭山店,大阪府 大阪狭山市 池尻中1-36-29　狭山駅前中嶋店舗　1F,34.51534185,135.5475935
932,大阪府,河内国分東口店,大阪府 柏原市 国分本町1-2-25　谷口ビル　1F,34.56829865,135.6353947
953,大阪府,柏原国分本町店,大阪府 柏原市 国分本町2-6-11　ハイグレード国分　1F,34.56540547,135.6370094
934,大阪府,柏原駅前店,大阪府 柏原市 清州1-3-5　柏原駅前店舗　1F,34.58763847,135.623373
1189,大阪府,京町堀店,大阪府 大阪市 西区京町堀3-4-12　TURUHARA京町堀　1F,34.68391909,135.4874119
1171,大阪府,関目店,大阪府 大阪市 城東区関目5-3-21　グランシャリオ　1F,34.7132184,135.5470069
416,大阪府,香里園店,大阪府 寝屋川市 香里南之町35-6　Sapphire Fairy Court South Avenue　1F,34.78348068,135.6282888
415,大阪府,河内天美店,大阪府 松原市 天美東7-10-20　ロイヤルパレ天美　1F,34.58780552,135.535425
378,大阪府,天満橋一丁目店,大阪府大阪市北区天満橋1-6-8ヴィルブーケ天満橋　2F,34.70008149,135.5184342
11455,大阪府,千里丘東店,大阪府 摂津市 千里丘東3-10-10　プレミアムコート千里丘　1F,34.78968217,135.55081
1508,大阪府,藤井寺インター西店,大阪府 藤井寺市 小山9-2-20　新栄プロパティー小山I　1F,34.57457412,135.6015996
1494,大阪府,和泉中央店,大阪府 和泉市 いぶき野5-1-2　pivo和泉中央　1F,34.46077661,135.457367
1486,大阪府,豊中夕日丘店,大阪府 豊中市 夕日丘2-17-1　ホワイトボックス　1F,34.78307729,135.4783614
1485,大阪府,淡路駅前店,大阪府 大阪市 東淀川区東淡路4-21-16　東淡路豊源ビル　1F,34.73861497,135.5187243
1476,大阪府,大東三住店,大阪府 大東市 三住町1-35　石田ビル　1F,34.7103378,135.6226108
1468,大阪府,茨木元町店,大阪府 茨木市 元町7-1-2　キャトルセゾン　1F,34.81788083,135.572766
1449,大阪府,甲田二丁目店,大阪府 富田林市 甲田2-20-14　1F,34.49303213,135.5917258
1429,大阪府,蒲生四丁目店,大阪府大阪市城東区蒲生3-15-1グランビルド蒲生　1F,34.69997606,135.5424828
1418,大阪府,都島友渕店,大阪府大阪市都島区友渕町2-9-27スパジオ友渕　1F,34.71364652,135.5290874
1400,大阪府,八尾相生店,大阪府 八尾市 相生町2-3-14　リラスクエア相生　1F,34.61113042,135.6008691
1399,大阪府,春木旭店,大阪府 岸和田市 春木旭町11-18　明治ビル　1F,34.47562921,135.394205
1397,大阪府,玉津一丁目店,大阪府 大阪市 東成区玉津1-1-31　サンタバーバラ　1F,34.67354117,135.536472
1377,大阪府,浅香山店,大阪府堺市堺区浅香山町3-12-10ハナタニビル　2F,34.58385465,135.5010447
1365,大阪府,高槻店,大阪府高槻市高槻町13-25サンコア高槻　2F,34.85007718,135.6193974
1343,大阪府,徳庵店,大阪府大阪市鶴見区今津北5-5-6シャトーエトランボート　1F,34.69562411,135.5822191
1329,大阪府,帝塚山中一丁目店,大阪府 大阪市 住吉区帝塚山中1-4-36　リアライズ帝塚山　1F,34.62437765,135.5000468
1327,大阪府,守口西郷通店,大阪府 守口市 西郷通1-4-14　扇商事ビル　1F,34.7339003,135.5722748
1320,大阪府,阿倍野丸山通店,大阪府 大阪市 阿倍野区丸山通1-5-1　グレイスあべの　1F,34.63753522,135.5102206
1315,大阪府,西長堀店,大阪府大阪市西区北堀江3-12-31ウエストリヴィエール　1F,34.67343475,135.4878538
1312,大阪府,長居西口店,大阪府 大阪市 住吉区長居3-2-9　マリーベル長居公園　1F,34.61136759,135.5122684
1272,大阪府,守口菊水通店,大阪府 守口市 菊水通3-7-14　菊水通店舗　1F,34.7282011,135.5770464
1271,大阪府,東淡路三丁目店,大阪府 大阪市 東淀川区東淡路3-6-22　柚木マンション　1F,34.73577976,135.5224027
1220,大阪府,喜志店,大阪府 富田林市 喜志町3-6-21　武田ビル　1F/2F,34.52361388,135.6083033
1203,大阪府,八尾小阪合町店,大阪府 八尾市 小阪合町3-1-16　ヤスクニビル　1F,34.62586867,135.6163069
1196,大阪府,茨木中穂積店,大阪府 茨木市 中穂積1-1-59　茨木中穂積ビル　1F,34.81470389,135.5581073
1164,大阪府,吹田豊津町店,大阪府 吹田市 豊津町17-10　ROYAL QUEEN'S PARK江坂　1F,34.75772963,135.4925405
1158,大阪府,今福鶴見駅前店,大阪府 大阪市 鶴見区鶴見4-1-2　ソーレ・ブリアンテ今福鶴見ビル　2F,34.70235825,135.5603908
1016,大阪府,堺南向陽町店,大阪府 堺市 堺区南向陽町2-3-10　エスタイル堺東　1F,34.5790997,135.4854716
1015,大阪府,吹田昭和町店,大阪府 吹田市 昭和町16-23　グランクレスト　1F,34.76313998,135.528013
1009,大阪府,鴻池新田店,大阪府 東大阪市 西鴻池町1-2-22　奥田第1ビル　1F,34.69922046,135.5972111
1004,大阪府,豊津駅前店,大阪府 吹田市 泉町5-14-23　SEIKOビル　1F,34.76388598,135.5109143
1000,大阪府,堺学園町店,大阪府 堺市 中区学園町2ｰ20　D's学園町ビル　1F,34.54260126,135.5100396
357,大阪府,福島七丁目店,大阪府 大阪市 福島区福島7-4-9　プレステル福島　1F,34.6968176,135.4845054
286,大阪府,平野北店,大阪府 大阪市 平野区平野北1-10-40　細川ビル　1F,34.63092319,135.5522632
238,大阪府,南巽店,大阪府 大阪市 生野区巽中4-11-6　フルラーレ　1F,34.64286684,135.5510033
218,大阪府,太子橋今市店,大阪府 大阪市 旭区太子橋1-1-1　ロン ポトー　2F,34.72976231,135.5507976
151,大阪府,針中野店,大阪府 大阪市 東住吉区駒川5-6-3　グランエクラ　1F,34.61846166,135.5322226
217,大阪府,石橋阪大前店,大阪府池田市石橋2-2-12マスイビル　1F,34.80864241,135.4461453
211,大阪府,近鉄八尾店,大阪府八尾市北本町1ｰ1ｰ34　MAISIN北本町ビル　2F,34.63084507,135.601135
208,大阪府,河内花園店,大阪府東大阪市花園本町1-1-5シャーメゾンプレスタ　1F,34.66274214,135.6169883
207,大阪府,阪急池田店,大阪府池田市室町1-8阪急池田駅前ビル　1F/B1F,34.8212142,135.4242453
206,大阪府,服部天神店,大阪府 豊中市 服部西町1-1-23　レスポワール正喜　1F,34.76337778,135.4747885
11424,大阪府,泉尾四丁目店,大阪府 大阪市 大正区泉尾4-14-27　松本第二マンション　1F,34.65571238,135.4713288
1467,大阪府,堺竜神橋店,大阪府 堺市 堺区竜神橋町1-3-6　エムズ堺ビル　1F,34.57979959,135.4674501
1466,大阪府,桃谷東口店,大阪府 大阪市 生野区勝山北1-2-2　ZIPANGビル　1F,34.65754688,135.5282837
1450,大阪府,南住吉二丁目店,大阪府 大阪市 住吉区南住吉2-23-7　小林店舗　1F,34.60698934,135.5023595
1307,大阪府,池田栄本町店,大阪府 池田市 栄本町8-2　日の出総本店ビル　1F,34.82553654,135.4259159
1303,大阪府,忍ヶ丘駅前店,大阪府 四條畷市 岡山東1-10-8　忍ヶ丘駅ビル　1F,34.74528449,135.6449181
1253,大阪府,住吉山之内店,大阪府 大阪市 住吉区山之内元町1-24　我孫子町駅高架下店舗　1F,34.5981196,135.5040868
1249,大阪府,古市東店,大阪府 羽曳野市 古市4-3-3　新栄プロパティ古市駅東　1F,34.55289571,135.610285
1236,大阪府,豊中服部南店,大阪府 豊中市 服部南町1-3-9　アドバンスコート服部　2F,34.76243779,135.4766844
1234,大阪府,鴫野店,大阪府 大阪市 城東区鴫野東1-12-15　鷲見ビル　1F,34.69291498,135.5459843
1221,大阪府,岸和田駅前店,大阪府 岸和田市 宮本町16-15　三泉岸和田ビル　1F,34.46054256,135.3773312
1162,大阪府,森小路西口店,大阪府 大阪市 旭区森小路1ｰ6-9　森小路ビル　1F,34.72008557,135.5508444
984,大阪府,松原上田店,大阪府 松原市 上田2-13-6　セイワコート松原　1F,34.57677454,135.5591317
978,大阪府,北久宝寺町一丁目店,大阪府 大阪市 中央区北久宝寺町1-3-1　セリーニ オルニス　1F,34.67969671,135.5096596
976,大阪府,吹田日の出町店,大阪府 吹田市 日の出町27-14　パークソレイユ　1F,34.76199058,135.5340157
960,大阪府,十三本町店,大阪府 大阪市 淀川区十三本町1-20-8　エレガントレジデンスyodogawa　1F,34.71894586,135.4788775
959,大阪府,柏原本郷店,大阪府 柏原市 本郷5-8-29　松本店舗　1F,34.59241631,135.6126704
951,大阪府,京阪本通一丁目店,大阪府 守口市 京阪本通1-1-6　バイリンクビル守口　2F,34.73330245,135.5579631
950,大阪府,十三東店,大阪府 大阪市 淀川区十三東1-17-19　ファルコンビル　1F,34.71973362,135.4850649
927,大阪府,天神橋筋六丁目店,大阪府大阪市北区浮田1-3-11梅田プレミアムコート　1F,34.70955448,135.5092083
926,大阪府,鶴原店,大阪府 泉佐野市 鶴原1-2-20　ふたつ星ビル　1F,34.42729245,135.3379458
874,大阪府,門真南店,大阪府大阪市鶴見区茨田大宮2-7-75宮浦ビル　1F,34.7129525,135.5919665
872,大阪府,松原阿保店,大阪府松原市阿保3-5-20　1F,34.57730264,135.5555841
851,大阪府,大阪南住吉店,大阪府 大阪市 南住吉1-4-15　サコダビル　1F,34.60954353,135.5054071
833,大阪府,北浜店,大阪府大阪市中央区北浜2-2-22北浜中央ビル　1F,34.69147133,135.5062924
817,大阪府,東淀川菅原店,大阪府大阪市東淀川区菅原7-5-36菅原運輸倉庫　2F,34.74125401,135.524665
809,大阪府,関大前店,大阪府吹田市千里山東1-14-5吉本マンション　1F,34.77365856,135.5075445
808,大阪府,大阪桜川一丁目店,大阪府大阪市浪速区桜川1-6-25アーバネックス難波WEST　1F,34.66642822,135.4919589
799,大阪府,門真岸和田店,大阪府 門真市 四宮5-11-23　門真モール　1F,34.73168432,135.6167402
790,大阪府,帝塚山四丁目店,大阪府大阪市住吉区帝塚山東3-8-13レインボー帝塚山　1F,34.6181182,135.4994056
765,大阪府,巽東二丁目店,大阪府 大阪市 生野区巽東2-8-32　萩田4丁目ビル　1F,34.64663005,135.5541263
753,大阪府,豊新三丁目店,大阪府 大阪市 東淀川区豊新3-18-12　ロイヤルクイーンズパーク上新庄　1F,34.74420614,135.5335981
749,大阪府,新石切駅前店,大阪府東大阪市東山町5-8龍野ビル　1F,34.67939638,135.6430509
742,大阪府,岸里千本中店,大阪府 大阪市 西成区千本中1-3-25　クリム岸里　1F,34.63376579,135.4930662
713,大阪府,百舌鳥赤畑町店,大阪府 堺市 北区百舌鳥赤畑町2-84-5　トキヤビル　1F,34.56083422,135.4910918
666,大阪府,堺宿院店,大阪府堺市堺区大町東2-1-1川崎屋堺店舗　1F,34.57557346,135.4728245
645,大阪府,都島北通店,大阪府大阪市都島区都島北通1-1-4都島駅前店舗　1F,34.70946511,135.5266827
638,大阪府,和泉府中東口店,大阪府和泉市府中町1-6-19伸光ビル　2F,34.4884725,135.425109
613,大阪府,藤井寺古室店,大阪府藤井寺市古室3-17-21古室3丁目店舗　1F,34.56631825,135.6055676
605,大阪府,泉大津東豊中店,大阪府 泉大津市 東豊中町2-1-2　ハーモニービル　1F,34.49259928,135.4240003
593,大阪府,大阪工大前店,大阪府大阪市旭区大宮4-5-9　Live工大前　1F,34.72862645,135.5446642
592,大阪府,布忍駅前店,大阪府松原市東新町4-16-18寺田ビル　1F,34.57677094,135.5396319
578,大阪府,京阪大和田駅前店,大阪府門真市野里町6-19ネオサンローレル森川　1F,34.74241159,135.6033976
555,大阪府,四條畷店,大阪府四條畷市楠公1-9-12四條畷楠公1丁目ビル　1F,34.73290028,135.639222
553,大阪府,豊中稲津店,大阪府豊中市稲津町1-3-5第17千里ハイツ　1F,34.7567906,135.4764096
533,大阪府,谷町九丁目店,大阪府大阪市中央区谷町9-2-17　PARK HILLS 上本町壱番館　1F,34.66737486,135.5161813
531,大阪府,三国本町店,大阪府 大阪市 淀川区三国本町2-13-22　フルーブシャトー　1F,34.7332261,135.4845962
518,大阪府,赤井店,大阪府大東市赤井2-1-3富士ハイツ　1F,34.70978678,135.6181111
517,大阪府,泉佐野駅前店,大阪府泉佐野市上町3-9-26スカイビル　1F,34.40998166,135.3168842
516,大阪府,古川橋北口店,大阪府門真市幸福町11-10　Esperanza古川橋　1F,34.74119198,135.5905234
514,大阪府,加島駅前店,大阪府 大阪市 淀川区加島3丁目中2-17　Laure'a Kashima　1F,34.72856868,135.4538437
513,大阪府,今川二丁目店,大阪府 大阪市 東住吉区今川2-10-15　シャトー今川　1F,34.6304641,135.5385875
504,大阪府,東花園店,大阪府東大阪市吉田6ｰ2ｰ55サンハイツユカミ　1F,34.66335624,135.6257846
493,大阪府,豊新五丁目店,大阪府 大阪市 東淀川区豊新5-1-1　マンションセレーネ　1F,34.74507879,135.537936
477,大阪府,摂津富田店,大阪府高槻市大畑町3-9ジョイフルとんだ　2F,34.83821295,135.5924118
465,大阪府,泉尾店,大阪府 大阪市 大正区泉尾4-17-12　東洋プラザ泉尾　1F,34.65684858,135.4711927
448,大阪府,岸里店,大阪府 大阪市 西成区岸里3-1-21　岸里3丁目店舗　1F,34.63145409,135.4930804
440,大阪府,瓢箪山駅前店,大阪府東大阪市神田町9-18サンフラット　1F,34.66173206,135.6378346
424,大阪府,高石綾園店,大阪府高石市綾園1-6-3　ISE伊勢住宅綾園6502　1F,34.52053493,135.4353494
413,大阪府,河内松原店,大阪府松原市田井城1-5-20エルベコート松原　1F,34.57817761,135.5504298
403,大阪府,深江南店,大阪府大阪市東成区深江南3-22-13藤井産業布施口ビル　1F,34.66883937,135.5617221
388,大阪府,芦原橋店,大阪府大阪市浪速区塩草3ｰ10-23有恒ビル　1F,34.66023734,135.4884847
382,大阪府,千代田駅西口店,大阪府河内長野市楠町東1605-1千代田六甲ビル　1F,34.46797419,135.5652586
364,大阪府,豊中少路店,大阪府豊中市桜の町6-8-23ランドマーク桜の町　1F,34.80188087,135.4700582
334,大阪府,箕面店,大阪府箕面市西小路3-16-3　ST箕面ビル　1F,34.82971658,135.4705936
332,大阪府,中百舌鳥店,大阪府 堺市 北区中百舌鳥町5-22　カサレスなかもず　1F,34.55549025,135.5046676
323,大阪府,布施荒川店,大阪府 東大阪市 荒川1-14-34　メゾンビッグファイブ　1F,34.66125236,135.5665589
309,大阪府,千船店,大阪府 大阪市 西淀川区大和田3-3-9　大和田ローズマンション　1F,34.70672645,135.4475439
282,大阪府,平野宮町店,大阪府 大阪市 平野区平野宮町1-1-32　48番館　1F,34.62978737,135.5517511
276,大阪府,志紀店,大阪府 八尾市 志紀町1-10-10　ジョイフルオオイシ1号館　1F,34.60128267,135.6132772
273,大阪府,七道店,大阪府 堺市 堺区三宝町1-20　辻ビル七道駅前プラザビル　1F,34.59184192,135.4804747
263,大阪府,長堀橋店,大阪府大阪市中央区東心斎橋1-11-13心斎橋グランドビル　1F,34.67485287,135.5036316
257,大阪府,岸和田店,大阪府 岸和田市 五軒屋町2-3　伸光ビル五軒屋町　1F,34.46283678,135.3758947
252,大阪府,古市店,大阪府 羽曳野市 栄町4-3　グレース栄　1F,34.55292323,135.6078151
247,大阪府,今里店,大阪府大阪市東成区大今里南1-22-5エクセルコート今里　1F,34.66580178,135.5428664
244,大阪府,千鳥橋店,大阪府 大阪市 此花区伝法2-3-30　蒲田ビル　1F,34.68828897,135.4581586
235,大阪府,鳳店,大阪府堺市西区鳳中町1-3-1メゾン千種Ｉ　1F,34.53368466,135.4600142
197,大阪府,岡町店,大阪府豊中市岡町北1-2-17太陽生命保険豊中ビル　1F,34.77981676,135.4643091
195,大阪府,泉大津店,大阪府泉大津市東雲町1-28　Feliz泉大津　1F,34.5042679,135.4087191
176,大阪府,堺東店,大阪府堺市堺区中瓦町2-3-12きくやビル　2F,34.57519996,135.4835265
173,大阪府,天下茶屋店,大阪府 大阪市 西成区天下茶屋3-14-17　コーポスマイル　1F,34.63503515,135.498397
171,大阪府,大日店,大阪府門真市堂山町25-39ビックセブン堂山　１F,34.74432018,135.5806587
162,大阪府,東部市場前店,大阪府 大阪市 東住吉区今林2-1-1　Ulysis en famille　1F,34.6399427,135.5389344
161,大阪府,茨木店,大阪府 茨木市 駅前1-4-10　マーブルローズ　1F,34.81682641,135.5650014
160,大阪府,阿波座店,大阪府大阪市西区西本町3-16-1アーバネックス阿波座駅前　1F,34.68173937,135.4875179
155,大阪府,八尾南店,大阪府 八尾市 若林町1-87　クロスティ八尾南壱番館　1F,34.59619712,135.5812237
149,大阪府,日本橋店,大阪府 大阪市 中央区日本橋2-3-8　オーアール日本橋ビル　1F,34.66476226,135.5068175
146,大阪府,近鉄長瀬店,大阪府東大阪市菱屋西1-17-8メゾンキコー長瀬　2F,34.65090385,135.5782213
144,大阪府,瓢箪山店,大阪府 東大阪市 本町6-16　川畑ビル　1F,34.66450586,135.6402762
143,大阪府,天王寺店,大阪府 大阪市 天王寺区悲田院町7-3　大京天王寺ビル　1F,34.64852509,135.5165213
141,大阪府,豊津店,大阪府吹田市出口町22-4パーラム豊津　1F,34.7636572,135.5129867
138,大阪府,新森古市店,大阪府大阪市城東区古市3-14-5伊藤ビル　1F,34.71508177,135.5560999
135,大阪府,梅田店,大阪府 大阪市 北区茶屋町5-8　MEFULL茶屋町　6/7F,34.70659003,135.4997745
14619,兵庫県,大開通五丁目店,兵庫県 神戸市 兵庫区大開通5-2-27　エクセルウィンD　1F,34.67300220000001,135.1657515
14608,兵庫県,甲南山手南口店,兵庫県 神戸市 東灘区森南町1-12-5　LEGALAND甲南山手　1F,34.7297647,135.2920722
14592,兵庫県,西宮今津店,兵庫県 西宮市 今津水波町1-21　プレジオ西宮今津　1F,34.7299365,135.3508823
14580,兵庫県,カインズ神戸西神南店,兵庫県 神戸市 西区井吹台西町1-1　カインズ神戸西神南　1F,34.698628,135.028014
14526,兵庫県,高砂中島店,兵庫県 高砂市 中島1-1-34　高砂市中島店舗　1F,34.77060289999999,134.8015571
14521,兵庫県,尼崎立花二丁目店,兵庫県 尼崎市 立花2-1-7　第2八幡屋ビル　1F,34.7410132,135.3988789
14520,兵庫県,神戸御幸通店,兵庫県 神戸市 中央区御幸通2-1-23　ライオンズマンション三宮第2　1F,34.6947316,135.2021013
14502,兵庫県,神戸学園都市店,兵庫県 神戸市 西区学園西町1-1-2　神戸学園都市ビル　1F,34.6806013,135.0581422
14484,兵庫県,尼崎大島店,兵庫県 尼崎市 大島3-33-5　レジデンス大島　1F,34.7271589,135.3879074
14479,兵庫県,宝塚湯本店,兵庫県 宝塚市 湯本町4-8　グランディア ミ・アモーレ宝塚南口　1F,34.8055397,135.3434488
14447,兵庫県,南武庫之荘店,兵庫県 尼崎市 南武庫之荘1-12-17　メゾンエトワール　1F,34.7494614,135.3935493
14413,兵庫県,御影中町店,兵庫県 神戸市 東灘区御影中町7-8-11　ホワイトメゾン御影　1F,34.716149,135.2517102
14404,兵庫県,灘鹿ノ下通店,兵庫県 神戸市 灘区鹿ノ下通1-3-16　やまだビル　1F,34.7099778,135.2344803
14394,兵庫県,加古川平岡店,兵庫県 加古川市 平岡町新在家499　太陽本店ビル　1F,34.7469158,134.8621258
14322,兵庫県,宝殿店,兵庫県 加古川市 米田町平津478-2　宝殿ビル　1F,34.7833036,134.8108069
14153,兵庫県,神戸浜崎通店,兵庫県 神戸市 兵庫区浜崎通1-40　ラセーヌ兵庫　1F,34.6682201,135.1681294
14047,兵庫県,新長田南店,兵庫県 神戸市 長田区大橋町4-4-9　アスタピア新長田ステーションフラッツ　1F,34.6557846,135.1463178
14022,兵庫県,宝塚小浜店,兵庫県 宝塚市 小浜1-1-6　MASAKIビル小浜　1F/2F,34.8026256,135.3629877
14010,兵庫県,尼崎下坂部店,兵庫県 尼崎市 下坂部4-7-29 　1F,34.7440878,135.4312533
14008,兵庫県,西宮室川店,兵庫県 西宮市 室川町6-10　関西スーパー広田店　1F,34.746765,135.3430375
14006,兵庫県,加古川南口店,兵庫県 加古川市 加古川町篠原町19　再会ビル　1F,34.7668583,134.838574
13973,兵庫県,川西多田二丁目店,兵庫県 川西市 多田桜木2-10-37　来田ビル　1F,34.861290878812966,135.41537100287778
13966,兵庫県,飾磨駅前店,兵庫県 姫路市 飾磨区清水70-1　ル・グランツ飾磨駅前　1F,34.8005421,134.674311
13961,兵庫県,西宮山口店,兵庫県 西宮市 山口町上山口2-7-6　ソリッソ西宮山口　1F,34.828932,135.2449757
13985,兵庫県,尼崎昭和通店,兵庫県 尼崎市 昭和通1-17-2　CRASIS昭和通　1F,34.719789,135.4259868
132,兵庫県,三ノ宮店,兵庫県 神戸市 中央区雲井通４-2-14　アスコビル2号館東館　2F,34.69605593,135.1981386
880,兵庫県,川西中央店,兵庫県 川西市 中央町15-5　山之内ビル　1F/2F,34.83130062,135.4144301
1190,兵庫県,甲東園店,兵庫県 西宮市 甲東園1-5-35　幸大ビル　1F,34.76701806,135.3604086
1187,兵庫県,龍野富永店,兵庫県 たつの市 龍野町富永532-3　アゴラオーキッド富永　1F,34.85254714,134.5490927
1174,兵庫県,伊丹西台店,兵庫県 伊丹市 西台1-7-3　西台YHビル　1F,34.780133,135.4119536
1165,兵庫県,額田店,兵庫県 尼崎市 額田町17-1　シャトー福　1F,34.74334739,135.4501616
426,兵庫県,西新町店,兵庫県 明石市 西新町1-19-19　1F,34.65184641,134.98264
168,兵庫県,御影店,兵庫県 神戸市 東灘区御影中町1-16-21　プラントパイン御影　1F,34.71733948,135.2571481
1622,兵庫県,板宿東口店,兵庫県 神戸市 長田区庄山町1-4-21　ドルフィンズマンション板宿　1F,34.66158305,135.1360775
1471,兵庫県,伊丹瑞穂店,兵庫県 伊丹市 瑞穂町3-7　瑞穂山大ハイツ　1F,34.79101139,135.4035592
1470,兵庫県,宝塚栄町店,兵庫県 宝塚市 栄町1-9-43　ONLY ONE宝塚駅前　2F,34.80910821,135.3472631
1425,兵庫県,阪急園田駅店,兵庫県 尼崎市 東園田町9-48-1　sononそのだ　1F,34.75242248,135.447176
1417,兵庫県,阪急小林駅前店,兵庫県 宝塚市 小林2-11-16　カサ小林　1F,34.78870274,135.3528769
1408,兵庫県,武庫元町店,兵庫県尼崎市武庫元町2-17-4ライズ2番館　1F,34.75806002,135.3813287
1404,兵庫県,灘水道筋店,兵庫県 神戸市 灘区水道筋3-5-12　シティライフ王子公園　1F,34.71214344,135.2236917
1381,兵庫県,尼崎立花店,兵庫県尼崎市立花町1-19-40ケイズコート　1F,34.73950504,135.4019602
1371,兵庫県,東園田町店,兵庫県尼崎市東園田町4-101-7ナイトービル　2F,34.75358911,135.4456073
1328,兵庫県,塚口三丁目店,兵庫県尼崎市塚口町3-38-59奄美富士ビル　2F,34.75553881,135.4115481
1319,兵庫県,神戸将軍通店,兵庫県 神戸市 灘区神ノ木通3-6-24　グランサイト六甲　2F,34.71442243,135.2302204
1266,兵庫県,尼崎神田南通店,兵庫県 尼崎市 神田南通3-73　ドミトリー神田　1F,34.72100179,135.4068988
1264,兵庫県,姫路南条店,兵庫県 姫路市 南条511　NANA'S BLD　1F,34.81258816,134.6919412
1263,兵庫県,加古川河原店,兵庫県 加古川市 加古川町河原209-4　加古川河原店舗　1F,34.77131322,134.8417148
1235,兵庫県,神戸新港町店,兵庫県 神戸市 中央区新港町17ｰ5　ONELIGHT海岸通　1F,34.68574939,135.1948313
1230,兵庫県,伊丹宮ノ前店,兵庫県 伊丹市 宮ノ前1-4-9　伊丹みやのまち3号館　1F,34.78200947,135.4157943
1218,兵庫県,芦屋精道町店,兵庫県 芦屋市 精道町5-1　ドムス芦屋　1F,34.72845019,135.3057317
1159,兵庫県,長田長楽町店,兵庫県 神戸市 長田区長楽町5-4-5　エスポワール　1F,34.64864304,135.1379728
1021,兵庫県,尼崎大西町店,兵庫県 尼崎市 大西町3-17-18　プラマーV　1F,34.74410751,135.4099521
363,兵庫県,東垂水店,兵庫県神戸市垂水区泉が丘4-2-28アンジュヒルズ　1F,34.63294381,135.0673453
351,兵庫県,西元町駅前店,兵庫県 神戸市 中央区相生町1-1-15　相生町1丁目店舗　1F,34.68253493,135.1798599
335,兵庫県,王子公園店,兵庫県 神戸市 灘区城内通2-5-14　STELLA王子公園　1F,34.70919415,135.2183065
447,兵庫県,明石土山店,兵庫県 明石市 魚住町清水2425-21　高橋店舗　1F,34.72262551,134.8989659
224,兵庫県,逆瀬川店,兵庫県 宝塚市 中州1-2-24　緑樹・逆瀬川アーバンライフ　1F,34.79879067,135.3499148
222,兵庫県,東灘甲南町店,兵庫県 神戸市 東灘区甲南町4-16-8　六甲ブランドニュー　1F,34.72097149,135.2693541
219,兵庫県,武庫之荘店,兵庫県尼崎市南武庫之荘1-8-21ブルームII　2F,34.7506497,135.3942598
11433,兵庫県,尼崎塚口店,兵庫県 尼崎市 塚口町3-38-1　ヴィアリッツ塚口　1F,34.75522041,135.4116411
11429,兵庫県,湊川公園店,兵庫県 神戸市 兵庫区下沢通1-1-18　丸山ビル　1F,34.67799261,135.1672473
11423,兵庫県,南塚口店,兵庫県 尼崎市 南塚口町6-4-12　メゾン南塚口　1F,34.74740713,135.4136776
1458,兵庫県,西宮里中店,兵庫県 西宮市 里中町3-3-5　ロイヤルハイム里中　1F,34.7219101,135.372294
928,兵庫県,上筒井六丁目店,兵庫県 神戸市 中央区上筒井通6-1-1　ベルメゾン上筒井　1F,34.70739293,135.2063544
889,兵庫県,三田駅前店,兵庫県 三田市 中央町4-24　坊音ビル　B1F,34.88881704,135.2267588
859,兵庫県,神戸加納町店,兵庫県神戸市中央区加納町2-4-15サワダビル　1F,34.69943539,135.1937647
856,兵庫県,白浜の宮駅前店,兵庫県姫路市白浜町甲330-10白浜駅西マンション　1F,34.78713327,134.7064709
813,兵庫県,昆陽四丁目店,兵庫県 伊丹市 昆陽4-129-1　伊丹・新昆陽ビル　1F,34.78215787,135.3971502
812,兵庫県,昆陽南店,兵庫県 伊丹市 昆陽南1-10-1　アビタ・コアI　1F,34.77784578,135.3958745
788,兵庫県,大池店,兵庫県神戸市北区西大池1-3-26大池金物ビル　1F,34.78023404,135.1984256
745,兵庫県,西宮平木町店,兵庫県西宮市平木町9-11ホワイトハウス西宮北口　1F,34.7472008,135.3516243
730,兵庫県,三田寺村店,兵庫県 三田市 寺村町4442-1　Casa La Pace　1F,34.88033497,135.2301311
724,兵庫県,西宮上田中町店,兵庫県西宮市上田中町16-27ドルミ武庫川　1F,34.70839845,135.3714867
707,兵庫県,東難波店,兵庫県 尼崎市 東難波町5-7-20　フロントリバー東難波　1F,34.72263806,135.4113332
698,兵庫県,西鈴蘭台駅前店,兵庫県 神戸市 北区南五葉1-2-23五葉ビル　1F,34.72533233,135.1345601
680,兵庫県,西宮戸崎町店,兵庫県西宮市戸崎町6-15ミュゼ甲子園　1F,34.73316415,135.375142
653,兵庫県,やぶYタウン店,兵庫県 養父市 上箇153-1　やぶYタウン　1F,35.38239581,134.7818529
600,兵庫県,キセラ川西店,兵庫県川西市火打1-14-13　CHAINONキセラ川西　1F,34.83506486,135.4196919
594,兵庫県,川西多田店,兵庫県 川西市 多田桜木1-8-27　GROOVE川西多田　1F,34.85915767,135.4171412
586,兵庫県,山陽高砂駅店,兵庫県高砂市高砂町浜田町2-1-1山陽高砂駅ビル　2F,34.75181516,134.803016
585,兵庫県,神戸神若通店,兵庫県神戸市中央区旗塚通7-1-5　Villa Yua 114　1F,34.7027657,135.1989351
560,兵庫県,甲南店,兵庫県神戸市東灘区甲南町2-2-10アイテラス甲南　1F,34.7210786,135.2760316
559,兵庫県,摂津本山南店,兵庫県神戸市東灘区本山中町4-2-8サンヴィラ本山パートI　1F,34.72456322,135.280157
552,兵庫県,上沢東口店,兵庫県 神戸市 兵庫区上沢通7-1-3　KOBEニューコーワビル　1F,34.67450077,135.1597606
544,兵庫県,園田北口店,兵庫県 尼崎市 東園田町6-121-7　三鷹第一ビル　1F,34.75032416,135.451158
538,兵庫県,神戸北野坂店,兵庫県 神戸市 中央区山本通2-1-22　北野坂中央ビル　2F,34.69817555,135.1911665
535,兵庫県,板宿新町通店,兵庫県 神戸市 須磨区飛松町1-1-10　飛松町池野ビル　1F,34.66141123,135.1346453
527,兵庫県,加古川溝之口店,兵庫県 加古川市 加古川町溝之口96-3　加古川町溝之口店舗　1F,34.76332399,134.8453404
522,兵庫県,西明石東口店,兵庫県明石市西明石南町1-6-16文星堂ビル　1F,34.66420085,134.9609207
512,兵庫県,和田岬店,兵庫県神戸市兵庫区御崎本町2-10-15御崎本町ビル　1F,34.66039566,135.1706261
499,兵庫県,熊内町店,兵庫県神戸市中央区熊内町7-4-4中央コア　1F,34.70694243,135.1980192
495,兵庫県,小久保三丁目店,兵庫県明石市小久保3-7-1クレドール西明石　1F,34.66939744,134.9585958
489,兵庫県,岩屋店,兵庫県 神戸市 灘区岩屋中町3-1-2　エクセル岩屋　1F,34.70331957,135.2207023
481,兵庫県,網干駅前店,兵庫県姫路市網干区垣内中町12-5山陽網干ビル　1F,34.78698783,134.5877592
469,兵庫県,王塚台店,兵庫県 神戸市 西区枝吉3-82　ヤマビル　1F,34.66931394,134.9731838
466,兵庫県,岡場店,兵庫県 神戸市 北区藤原台北町1-1-1　永遠ビル　1F,34.82245767,135.2223014
459,兵庫県,長田北町店,兵庫県神戸市長田区北町2-1山陽長田ビル　2F,34.6673458,135.1511365
310,兵庫県,鈴蘭台店,兵庫県神戸市北区鈴蘭台北町1-9-1ベルスト鈴蘭台　1F,34.72396964,135.1460967
298,兵庫県,神戸駅前店,兵庫県神戸市中央区相生町2-3-4神戸フロントプラザ　3F,34.6805002,135.1777097
292,兵庫県,神戸トアロード店,兵庫県 神戸市 中央区下山手通3-1-18　ラムールトアビル　1F,34.69249867,135.1890284
289,兵庫県,アミング潮江店,兵庫県 尼崎市 潮江1-16-1　アミング潮江ウエスト2番館　3F,34.7346338,135.4329537
169,兵庫県,阪神西宮店,兵庫県西宮市戸田町6-26ペアレンツ西宮　1F,34.7358125,135.3399111
154,兵庫県,阪神芦屋店,兵庫県芦屋市公光町11-8宝盛館ビル　2F,34.72822144,135.3036892
137,兵庫県,杭瀬店,兵庫県尼崎市杭瀬本町1-9-1シャンブル杭瀬　1F,34.71913034,135.4389431
14642,奈良県,生駒駅前店,奈良県 生駒市 北新町10-40　プレミエメゾン　1F,34.6946883,135.6971949
14429,奈良県,奈良四条大路店,奈良県 奈良市 四条大路3-4-61　1F,34.6815896,135.7953006
14063,奈良県,橿原中曽司店,奈良県 橿原市 中曽司町72-1　1F,34.5240429,135.7718154
14023,奈良県,西大寺本町店,奈良県 奈良市 西大寺本町5-13　アブニールなかじま　1F,34.6962445,135.7812987
929,奈良県,田原本町店,奈良県 磯城郡田原本町 三笠18-1　アルファプレイス　1F,34.54988203,135.7915015
1454,奈良県,南紀寺店,奈良県 奈良市 南紀寺町5-53-5　南紀寺町5丁目ビル　1F,34.66607782,135.8331317
1426,奈良県,大和小泉店,奈良県 大和郡山市 小泉町541-1　1F,34.62360299,135.7624827
1278,奈良県,南生駒店,奈良県 生駒市 小平尾町93　サンコウタウン　1F,34.66133423,135.7070928
1493,奈良県,奈良北之庄店,奈良県 奈良市 北之庄町8-2　1F,34.65366228,135.8196316
1469,奈良県,富雄駅前店,奈良県 奈良市 富雄北1-1-5　福島興産ビル　1F,34.69455155,135.7339082
1160,奈良県,東生駒店,奈良県 生駒市 小明町1031　新生駒いそかわ店舗　1F,34.70360703,135.7077825
983,奈良県,香芝今泉店,奈良県 香芝市 今泉439-1　今泉事務所　1F,34.56441047,135.6980725
970,奈良県,大和郡山筒井店,奈良県 大和郡山市 筒井町531-1　タウン筒井　1F,34.61951716,135.7765067
967,奈良県,奈良上牧店,奈良県 北葛城郡上牧町 片岡台1-1-8　辰巳店舗　1F,34.5810741,135.7165987
832,奈良県,奈良大宮店,奈良県奈良市大宮町7-2-23三和佐保川ビル　1F,34.6857683,135.8062833
811,奈良県,高田駅前店,奈良県大和高田市幸町7-34モリモトビル　1F,34.51689916,135.7461692
743,奈良県,大安寺町店,奈良県 奈良市 大安寺町514-1　PAKETテラス　2F,34.67431979,135.8014791
725,奈良県,真美ヶ丘店,奈良県 香芝市 真美ケ丘2-13-6　真美ヶ丘店舗　1F,34.54049395,135.7186945
715,奈良県,奈良鶴舞店,奈良県奈良市鶴舞東町2-12　KM学園前ビル　1F,34.70804302,135.7504934
692,奈良県,法隆寺店,奈良県 生駒郡斑鳩町 興留5-1-30　サンメゾン法隆寺　1F,34.60550021,135.7377001
691,奈良県,橿原神宮前店,奈良県 橿原市 久米町661　大和開発ビル　1F,34.48336072,135.7954309
649,奈良県,富雄中町店,奈良県奈良市中町4842-1中町店舗　1F,34.6718769,135.7554287
611,奈良県,宝来四丁目店,奈良県奈良市宝来4-2-10クレイノ蓬莱　1F,34.68413814,135.7733466
545,奈良県,桜井東新堂店,奈良県 桜井市 大字東新堂485-1　1F,34.52246557,135.8305502
371,奈良県,大和八木店,奈良県 橿原市 内膳町1-4-8　K&Kビル　2F,34.51278345,135.791584
330,奈良県,高田市店,奈良県 大和高田市 礒野東町1-10　上田ビル　1F,34.508567,135.7418227
291,奈良県,桜井店,奈良県桜井市大字川合251-4ル・ヴァン桜井　1F,34.51361396,135.8458845
287,奈良県,王寺店,奈良県 北葛城郡王寺町 王寺2-10-1　OSビル　1F,34.59619551,135.70392
285,奈良県,天理店,奈良県天理市川原城町759-2天理川原城テナント　1F,34.597515,135.8326038
234,奈良県,近鉄学園前店,奈良県 奈良市 学園北1-11-4　エル・アベニュー学園前　1F,34.6987947,135.7502289
185,奈良県,新大宮店,奈良県奈良市大宮町3-5-31大宮町貸店舗　1F,34.68413141,135.8123863
183,奈良県,奈良店,奈良県奈良市三条町472木のうたビル　2F,34.68175869,135.8228106
180,奈良県,近鉄奈良店,奈良県奈良市角振町26いせやビル　2F,34.68240961,135.8273426
14401,和歌山県,和歌山加納店,和歌山県 和歌山市 加納町12　ロイヤルコーポ湊I　1F,34.2254821,135.1596188
14399,和歌山県,和歌山海南店,和歌山県 海南市 日方1271-99　クレンツ海南　1F,34.1559265,135.209129
11431,和歌山県,和歌山福島店,和歌山県 和歌山市 福島688-2　福島店舗　1F,34.24581705,135.1601349
1384,和歌山県,和歌山六番丁店,和歌山県和歌山市六番丁43ハピネス六番丁BLD　1F,34.22956181,135.1765841
13974,鳥取県,シャミネ鳥取店,鳥取県 鳥取市 東品治町111-1　シャミネ鳥取　1F,35.4943354,134.2249443
14055,島根県,アクロスガーデン松江乃白店,島根県 松江市 乃白町2015　アクロスガーデン松江乃白　1F,35.43637029999999,133.0522076
13975,島根県,出雲荻杼店,島根県 出雲市 荻杼町504-6 　1F,35.3840443,132.7673959
13847,島根県,松江学園通店,島根県 松江市 学園2-33-1　S学園店舗　1F,35.4825792,133.0694332
14623,岡山県,岡山奉還店,岡山県 岡山市 北区奉還町4-21-22　カーサ・ディオス　1F,34.6706037,133.9112321
14614,岡山県,岡山南方店,岡山県 岡山市 北区南方2ｰ8ｰ23　ロイヤルミッテ　1F,34.6734965,133.9261328
14613,岡山県,岡山奥田店,岡山県 岡山市 北区奥田本町16-28　1F,34.6453392,133.9209098
954,岡山県,倉敷北浜町店,岡山県 倉敷市 北浜町8-75　1F,34.6086842,133.7614435
11452,岡山県,岡山津高店,岡山県 岡山市 北区津高659-1　フレーズ津高　1F,34.69741042,133.9024979
1435,岡山県,岡山今店,岡山県 岡山市 北区今1-13-26　CRASSO IMA 　1F,34.65086516,133.892496
1427,岡山県,倉敷老松町店,岡山県 倉敷市 老松町3-10-30　ジュネス天領II　1F,34.5958654,133.7601112
1358,岡山県,岡山表町店,岡山県 岡山市 北区表町1-3-50　岡山県薬業会館ビル　1F,34.66444308,133.9291092
1268,岡山県,岡山大元店,岡山県 岡山市 北区西古松16-2　大元テナント　1F,34.65115645,133.910599
1023,岡山県,岡山中山下店,岡山県 岡山市 北区中山下1-2-12　桃太郎大通りビル　1F,34.66536427,133.9279754
1007,岡山県,総社店,岡山県 総社市 駅前2-5-5　新世紀観光第二ビル　1F,34.67297412,133.7403527
329,岡山県,弓之町店,岡山県 岡山市 北区弓之町17-1　弓之町店舗　1F,34.66949613,133.9305739
795,岡山県,津島南店,岡山県 岡山市 北区津島南1-1-21　松原電業社第2ビル　1F,34.68165935,133.9121495
794,岡山県,倉敷平田店,岡山県倉敷市平田278-1平田テナント　1F,34.61673156,133.7781485
582,岡山県,伊島町店,岡山県岡山市北区伊島町2-13-24塩田商事ビル　1F,34.68067851,133.9075417
566,岡山県,浜三丁目店,岡山県岡山市中区浜604-3トラストビル　1F,34.671464,133.9438779
558,岡山県,中納言店,岡山県 岡山市 中区中納言町3-10　1F,34.65945415,133.9397493
557,岡山県,桃太郎大通店,岡山県 岡山市 北区野田屋町1-6-20　瀬戸内ビル　1F,34.66591584,133.924281
444,岡山県,岡山本町プラザ店,岡山県岡山市北区本町8-15本町プラザ　2F,34.66446066,133.9224093
389,岡山県,西大寺町店,岡山県岡山市北区京橋町7-11アンブシュール京橋　2F,34.65842707,133.9318083
342,岡山県,倉敷幸町店,岡山県 倉敷市 昭和2-4-10　プラザ・ドゥ・オデッサ　1F,34.60437232,133.7720528
14538,広島県,さんすて福山店,広島県 福山市 三之丸町30-1　さんすて福山　2F,34.4895876,133.3635868
14527,広島県,舟入南店,広島県 広島市 中区舟入南1-3-15　1F,34.3801355,132.4397073
14453,広島県,広島東平塚店,広島県 広島市 中区東平塚町4-12　ブルーシャトービル　1F,34.3874529,132.4667994
14060,広島県,呉阿賀中央店,広島県 呉市 阿賀中央8-5-1　第2阿賀中央ハイツ　1F,34.2382611,132.5969297
14037,広島県,呉焼山店,広島県 呉市 焼山北1-4-31　ユニオンビル焼山　1F,34.2994249,132.556916
13972,広島県,三次店,広島県 三次市 南畑敷町478-1　APORITO三次　1F,34.80439820000001,132.8782906
1191,広島県,福山神辺店,広島県 福山市 神辺町字十九軒屋119-1　道上店舗　1F,34.54634317,133.3624744
1182,広島県,福山松永店,広島県 福山市 松永町5-7-2　パティオ神島T　1F,34.44546089,133.2594475
496,広島県,広島八木店,広島県 広島市 安佐南区川内6-8-3　上村テナント　2F,34.47277829,132.4901486
1462,広島県,楽々園店,広島県 広島市 佐伯区楽々園2-1-32　White楽々園　1F,34.36418471,132.3528697
1386,広島県,出汐店,広島県 広島市 南区出汐2-3-28　ハイタウン出汐　1F,34.37737065,132.4757643
1373,広島県,広中央店,広島県 呉市 広古新開1-4-19　木原ビル　1F,34.23290393,132.6179293
1322,広島県,海田西浜店,広島県安芸郡海田町西浜4-2メゾンド101　1F,34.36990412,132.5454538
1321,広島県,広島並木通店,広島県広島市中区三川町6-15　DICE bldg 並木通りII　1F,34.38973465,132.4609898
1318,広島県,上天満町店,広島県 広島市 西区上天満町8-2　1F,34.39866934,132.4397241
1297,広島県,広島上安店,広島県 広島市 安佐南区上安2-10-38　上安店舗　2F/3F,34.47368932,132.443238
1296,広島県,三原城町店,広島県 三原市 城町1-12-22　サーブビル　1F/2F,34.39853196,133.083574
1269,広島県,西十日市店,広島県 広島市 中区西十日市町10-13　さわやビル　1F,34.39808953,132.4445132
1205,広島県,西条駅前店,広島県 東広島市 西条本町12-3　JR西条駅店舗　1F,34.43101795,132.7432063
1022,広島県,黒瀬店,広島県 東広島市 黒瀬町上保田77-1　ルービデンスボーダ　1F,34.3214046,132.6679946
1008,広島県,庚午北店,広島県 広島市 西区庚午北3-1-2　水野ビル　1F,34.38811458,132.4187639
1383,広島県,広島大手町店,広島県 広島市 中区大手町5-6-6　ソシオ大手町　1F,34.38372348,132.4532991
11436,広島県,南竹屋店,広島県 広島市 中区南竹屋町8-12　1F,34.38054557,132.4607986
972,広島県,福山大門店,広島県 福山市 大門町4-15-47　大門町店舗　1F,34.49089512,133.4397976
962,広島県,東雲本町店,広島県 広島市 南区東雲本町3-2-26　カーサ東雲　1F,34.37919868,132.4877972
949,広島県,宇品西店,広島県 広島市 南区宇品西2-6-11　長松ビル　1F,34.36611065,132.4591894
944,広島県,広島祇園三丁目店,広島県 広島市 安佐南区祇園3-25-23　ドゥエリングビル　1F,34.44011831,132.4573365
941,広島県,安芸矢野南店,広島県 広島市 安芸区矢野南5-24-1　アブニール矢野　1F,34.33848219,132.5359136
892,広島県,広島富士見町店,広島県 広島市 中区富士見町16-32　ラフィーネパレ　1F,34.38514137,132.4595235
875,広島県,広島馬木店,広島県広島市東区馬木7-2029-1ハウディ宮崎　2F,34.44176579,132.5338245
857,広島県,尾道高須店,広島県尾道市高須町4755-3東尾道テナント　1F,34.4376742,133.2366379
850,広島県,横川駅前店,広島県 広島市 西区横川町3-12-18　横川駅前ビル　1F,34.40898991,132.4506149
848,広島県,宮内串戸駅前店,広島県廿日市市串戸4-13-1エコービル　1F,34.3476669,132.3230129
834,広島県,伴東店,広島県広島市安佐南区伴東7-37-2サンコーポ松ケ峯　1F,34.46490852,132.4161025
827,広島県,東白島店,広島県 広島市 中区東白島町19-83　ルミネ東白島　1F,34.40458436,132.4637793
816,広島県,福山元町店,広島県福山市元町15-23荻野ビル　1F,34.48753498,133.3664047
800,広島県,矢野寺屋敷店,広島県 広島市 安芸区矢野町745-8　寺屋敷店舗　1F,34.3158134,132.5531532
797,広島県,安芸矢野東店,広島県 広島市 安芸区矢野東5-7-5　ピースヴィラ畠山　1F,34.35389523,132.5379385
796,広島県,横川町三丁目店,広島県 広島市 西区横川町3-9-31　川本ビル　1F,34.40911823,132.4538504
755,広島県,広島本通店,広島県 広島市 中区大手町2-1-9　渡邉ビル　2F,34.39265966,132.4563629
733,広島県,広島稲荷町店,広島県 広島市 南区稲荷町2-14　和光稲荷町ビル　1F,34.39299227,132.4708053
721,広島県,城山二丁目店,広島県広島市佐伯区城山2-1-3田中ビル　1F,34.38902982,132.3553374
696,広島県,安芸中野店,広島県広島市安芸区中野3-18-6安芸中野店舗　1F,34.39625928,132.5685564
641,広島県,高陽ニュータウン店,広島県 広島市 安佐北区亀崎1-3-1　レーヴィンス亀崎　1F,34.48130463,132.5244288
639,広島県,大町東店,広島県広島市安佐南区大町東2-14-6カサグランデV　1F,34.45813567,132.4685174
604,広島県,己斐上四丁目店,広島県広島市西区己斐上4-16-1ベルコートYテナント　1F,34.4108407,132.4213902
602,広島県,広島福田店,広島県 広島市 東区福田4-2060-3　福田4丁目テナント　1F,34.45457999,132.5464154
584,広島県,三滝店,広島県広島市西区三滝本町2-7-16　DHハウス三滝　1F,34.41673183,132.4460185
571,広島県,呉中央店,広島県 呉市 中央2-5-10　エムサードビル　1F,34.24674106,132.5618157
568,広島県,西条中央店,広島県東広島市西条中央6-32-6友和中央ビル　2F,34.41603636,132.7378505
548,広島県,佐伯区役所前店,広島県広島市佐伯区海老園2-4-8双葉ヒルズ海老園　1F,34.36504018,132.3608412
528,広島県,海田市駅前店,広島県安芸郡海田町窪町7-22さんらいず　3F,34.37102334,132.5307077
524,広島県,宇品海岸通店,広島県広島市南区宇品海岸3-8-44　P-CUBE広島ビル　1F,34.35520878,132.4632625
520,広島県,縮景園前店,広島県 広島市 中区上八丁堀3-4　エステート上八丁堀　2F,34.40093577,132.4654733
501,広島県,中電前店,広島県広島市中区小町2-28　Arista広島平和大通り　1F,34.38871714,132.4575856
427,広島県,戸坂くるめ木店,広島県広島市東区戸坂くるめ木2-1-5戸坂くるめ木2丁目テナント　1F,34.43410144,132.4815196
421,広島県,立町店,広島県広島市中区立町4-4　DOLCE立町　2F,34.3935438,132.4607619
387,広島県,土橋店,広島県広島市中区土橋町4-21メゾン・ド・ピュア　1F,34.39310959,132.4464539
370,広島県,五日市五丁目店,広島県 広島市 佐伯区五日市5-10-31　センチュリー相原　1F,34.372683,132.3578622
362,広島県,西広島駅前店,広島県 広島市 西区己斐本町1-19-11　清水ビルII　1F,34.39646521,132.4281069
361,広島県,己斐本町店,広島県 広島市 西区己斐本町2-13-15　アルパ・ウエストヴィラII　1F,34.39270958,132.4251216
349,広島県,宝町南店,広島県広島市中区宝町5-10ウイング宝町サード　1F,34.38545808,132.4621541
348,広島県,天神川店,広島県 広島市 南区大州5-3-36　春山テナント　1F,34.38687101,132.4950501
324,広島県,猿猴橋町店,広島県 広島市 南区東荒神町4-18　宏和72ビル　1F,34.39366189,132.4785473
320,広島県,広電五日市駅前店,広島県 広島市 佐伯区旭園4-33　アイビスプラザ　2F,34.36574796,132.3679186
317,広島県,牛田旭店,広島県広島市東区牛田旭2-6-13古屋第二ビル　1F,34.4125678,132.4731534
315,広島県,高取北店,広島県広島市安佐南区高取北1-4-30サンビル　1F,34.47536334,132.4376066
14555,山口県,宇部琴芝店,山口県 宇部市 西梶返2-22-20　1F,33.9546864,131.2580991
14530,山口県,ミスターマックス宇部店,山口県 宇部市 大字東岐波1569-1　MrMax宇部　1F,33.9997779,131.3487114
14513,山口県,ミスターマックス山口店,山口県 山口市 黒川82-1　MrMax山口　1F,34.1365259,131.4333061
1186,山口県,岩国麻里布店,山口県 岩国市 麻里布町3-16-22　和光麻里布レジデンス参番館　1F,34.17196146,132.2216363
1180,山口県,防府寿町店,山口県 防府市 寿町1-16　防府寿町店舗　1F,34.05236335,131.5632485
1179,山口県,防府八王子店,山口県 防府市 八王子1-27-9　八王子店舗　1F,34.05656602,131.5646949
1178,山口県,防府東仁井令店,山口県 防府市 東仁井令町575-1　東仁井令町店舗　1F,34.04565374,131.5560467
1405,山口県,防府石が口店,山口県 防府市 石が口2-10-2　光來店舗　1F,34.04279795,131.5643433
1341,山口県,下関彦島店,山口県 下関市 彦島本村町6-2-6　ラメール彦島　1F,33.93858162,130.914527
1289,山口県,山口米屋町店,山口県 山口市 米屋町2-13　グランドパレス米屋町プライムマークス　1F,34.17727966,131.4779342
1195,山口県,岐山通店,山口県 周南市 岐山通り3-2　シャトー岐山館　1F,34.0583842,131.8084746
1020,山口県,下関一の宮店,山口県 下関市 一の宮町2-6-10　藤マンション　1F,34.00462529,130.9499694
1183,徳島県,鳴門撫養店,徳島県 鳴門市 撫養町斉田字西発46-1　鳴門撫養町店舗　1F,34.17023528,134.6034333
1172,徳島県,徳島沖浜東店,徳島県 徳島市 沖浜東3-65-3　1F,34.04955771,134.5531827
1238,徳島県,徳島東大工町店,徳島県 徳島市 東大工町3-16　徳島三木ビル　1F,34.06746459,134.5470593
1208,徳島県,徳島松茂町店,徳島県 板野郡松茂町 広島宇中ハリ2-1　CLASKA　1F,34.13343933,134.5778784
1167,徳島県,徳島蔵本町店,徳島県 徳島市 蔵本町2-30-1　パティオくらもと　1F,34.07798306,134.5184796
14640,香川県,栗林駅前店,香川県 高松市 藤塚町3-19-43　オレンジコート栗林　1F,34.3320937,134.0531009
14621,香川県,坂出加茂店,香川県 坂出市 加茂町甲62-6　1F,34.3107536,133.9070316
14418,香川県,宇多津駅前店,香川県 綾歌郡宇多津町 浜五番町50-14　1F,34.3081535,133.8138136
14066,香川県,高松伏石店,香川県 高松市 伏石町2137-2　1F,34.3094948,134.0537545
14034,香川県,丸亀駅前店,香川県 丸亀市 浜町22-3　丸亀駅前ビル　2F,34.2917042,133.7940405
14007,香川県,高松仏生山店,香川県 高松市 仏生山町甲59-1 クック・チャム　1F,34.286465,134.0400366
13995,香川県,高松三条店,香川県 高松市 三条町309　ロゼ三条　1F,34.3150412,134.0461308
1459,香川県,高松川東下店,香川県 高松市 香川町川東下241-1　1F,34.2422268,134.0279399
1437,香川県,高松屋島店,香川県 高松市 春日町1623-1　南海塗料ビル　1F,34.33910554,134.088736
1424,香川県,高松屋島西町店,香川県 高松市 屋島西町1885-2　1F,34.33952403,134.098167
1376,香川県,高松香西本町店,香川県 高松市 香西本町106-3　小島テナント　1F,34.35003365,134.0016263
1300,香川県,高松香川町店,香川県 高松市 香川町大野52-1　しまむらビル　1F,34.26387681,134.0342474
1168,香川県,高松片原町店,香川県 高松市 片原町1-16　ジュエルビル　1F/2F/3F,34.34600416,134.0516895
1292,香川県,高松春日店,香川県 高松市 春日町1592-1　春日町店舗　1F,34.33450262,134.0875471
1225,香川県,高松勅使町店,香川県 高松市 勅使町高松市勅使町73-1　勅使町店舗　1F,34.30650521,134.008508
952,香川県,郷東町店,香川県 高松市 郷東町489-1　磯村店舗　1F,34.34812847,134.0126753
871,香川県,高松鬼無店,香川県 高松市 鬼無町是竹174-6　植原店舗　1F,34.33811939,133.9964062
846,香川県,メルカドール丸亀店,香川県 丸亀市 飯山町川原114-1　メルカドール丸亀　1F,34.26497014,133.8511428
841,香川県,高松今里店,香川県 高松市 今里町1-16-1　今里一丁目店舗　1F/2F,34.32658569,134.0594189
815,香川県,十川西町店,香川県高松市十川西町395-5十川西町店舗　1F,34.27822522,134.1025014
781,香川県,高松国際ホテル前店,香川県 高松市 木太町2173-3　高松国際ホテル前ビル　1F,34.33426381,134.0727386
754,香川県,松縄町店,香川県高松市松縄町1117-5シブヤビル　1F,34.31679311,134.0601743
748,香川県,高松一宮店,香川県高松市一宮町261-1大塚店舗　1F,34.28772561,134.028363
706,香川県,高松田町店,香川県高松市田町12-7ダブルス和田　1F,34.33769483,134.0490869
1461,愛媛県,松山千舟町店,愛媛県 松山市 千舟町4-5-4　松山千舟454ビル　1F,33.83704721,132.7663958
1314,愛媛県,松山市駅前店,愛媛県 松山市 花園町3-18　コンフォートホテル松山　1F,33.83791947,132.761388
1258,愛媛県,松山勝山町店,愛媛県 松山市 勝山町1-10-2　第二えびすビル　1F,33.8394088,132.7750702
803,愛媛県,松山鷹子店,愛媛県松山市鷹子町520-1　Falco bambino　1F,33.81323876,132.8150117
787,愛媛県,松山朝生田店,愛媛県 松山市 朝生田町4-1-2　朝生田町4丁目店舗　1F,33.82192824,132.7652892
779,愛媛県,萱町六丁目店,愛媛県松山市萱町6-98-1萱町6丁目店舗　2F,33.85336087,132.756285
14464,高知県,高知はりまや店,高知県 高知市 はりまや町2-4-7　宮地ビル　1F,33.561533,133.5434364
13998,高知県,高知南久万店,高知県 高知市 南久万196-1 　1F,33.5706205,133.5200785
1396,高知県,高知枡形店,高知県 高知市 升形6-1　2F,33.5572098,133.5276242
1380,高知県,高知瀬戸南店,高知県 高知市 瀬戸南1-3-5　1F,33.50927482,133.5435878
1489,高知県,高知大津店,高知県 高知市 大津乙1241-1　プルメリアハウス　1F,33.57480881,133.6059505
1216,高知県,高知大橋通店,高知県 高知市 本町3-1-1　アイランドビル　2F,33.55913158,133.536127
1215,高知県,高知伊勢崎店,高知県 高知市 伊勢崎町12-14　伊勢崎ビル　2F,33.5702791,133.5292809
1212,高知県,高知桟橋通店,高知県 高知市 桟橋通1-13-1　リバープール桟一　1F,33.55193365,133.5447072
75,高知県,高知店,高知県 高知市 堺町3-13　SUEHIRO-BLD　1F,33.55925262,133.5401915
14624,福岡県,久留米野中店,福岡県 久留米市 野中町420-1　リーベンハォス野中　1F,33.3108918,130.5372122
14611,福岡県,福岡七隈店,福岡県 福岡市 城南区七隈7-5-28　レジデンシャルジェム七隈　1F,33.552544,130.3604155
14597,福岡県,久留米東合川店,福岡県 久留米市 東合川2-6-15　1F,33.3200203,130.5480993
14596,福岡県,福岡飯倉店,福岡県 福岡市 早良区飯倉6-22-27　エトワール津田　1F,33.5593057,130.3526586
14571,福岡県,ミスターマックス本城店,福岡県 北九州市 八幡西区本城5-1-1　ミスターマックス本城　1F,33.8804018,130.7366241
14565,福岡県,筑紫野塔原東店,福岡県 筑紫野市 塔原東5-8-24　コラソン　1F,33.4973794,130.5050847
14551,福岡県,ショッピングパーク千代店,福岡県 北九州市 八幡西区千代3-1-6　ショッピングパーク千代　1F,33.8102285,130.7446599
14550,福岡県,八幡引野店,福岡県 北九州市 八幡西区割子川1-2-36　サンハイツ引野口　1F,33.8404887,130.7598317
14517,福岡県,西鉄久留米駅前店,福岡県 久留米市 東町39-12　江頭ビル　2F,33.3125217,130.520166
14516,福岡県,福岡古賀店,福岡県 古賀市 美明3-3-14　1F,33.7198553,130.4634408
14515,福岡県,博多中呉服町店,福岡県 福岡市 博多区中呉服町7-3　リファレンス呉服町　1F,33.6001514,130.4097022
14478,福岡県,トライアル遠賀店,福岡県 遠賀郡遠賀町 尾崎字上ノ越1607-1　トライアル遠賀　1F,33.8509246,130.6509
14444,福岡県,シュロアモール筑紫野店,福岡県 筑紫野市 大字原田836-4　シュロアモール筑紫野　1F,33.443491,130.5381844
14176,福岡県,飯塚徳前店,福岡県 飯塚市 徳前18-4　1F,33.6309564,130.6823795
14172,福岡県,千代県庁口店,福岡県 福岡市 博多区千代1-16-12　WALL　1F/2F/3F,33.6018778,130.4146279
14065,福岡県,志免南里店,福岡県 糟屋郡志免町 南里7-6-26　K2YT-R68　1F,33.6001389,130.4658306
14064,福岡県,足原一丁目店,福岡県 北九州市 小倉北区足原1-5-9　メゾン妙見　1F,33.8704638,130.897328
14057,福岡県,福岡篠栗店,福岡県 糟屋郡篠栗町 大字乙犬974-2　1F,33.6208481,130.5040274
14040,福岡県,福岡小笹店,福岡県 福岡市 中央区小笹3-6-2　三洋ビル　1F,33.5650588,130.3898707
14039,福岡県,糸島前原西店,福岡県 糸島市 前原西4-14-34　1F,33.5617328,130.1959239
14041,福岡県,福津花見が丘店,福岡県 福津市 花見が丘1-4-5　フラワーヒルズIII　1F,33.7623156,130.4806505
897,福岡県,奈多店,福岡県 福岡市 東区奈多1-11-10　東海マンション奈多　T04 　1F,33.6887999,130.4164666
1170,福岡県,門司柳町店,福岡県 北九州市 門司区柳町2-1-28　山田ビル　1F,33.90461227,130.9347631
167,福岡県,原店,福岡県 福岡市 早良区飯倉3-40-3　アバンセ原　101,33.56750177,130.3476446
179,福岡県,塩原店,福岡県福岡市南区塩原3-2-15ペルフェクタ塩原　2F,33.56417742,130.4300518
11443,福岡県,福岡柳川店,福岡県 柳川市 三橋町下百町6-6　アドバイスビル　1F,33.16626507,130.417305
11442,福岡県,徳力店,福岡県 北九州市 小倉南区守恒本町2-5-16　中野ビル　1F,33.83564833,130.8722997
1498,福岡県,六本松店,福岡県 福岡市 中央区草香江2-1-4　プラムビレッジHIRO　1F,33.57712346,130.3756082
1497,福岡県,博多東店,福岡県 福岡市 博多区博多駅東2-8-33　TERASOIII　1F,33.5867787,130.4249937
1438,福岡県,若松小敷店,福岡県 北九州市 若松区小敷ひびきの1-16-5　KIYONAKA WALK　1F,33.89557112,130.7031308
1434,福岡県,八幡千代ケ崎店,福岡県 北九州市 八幡西区千代ケ崎2-1-11　1F,33.87572895,130.7154779
1433,福岡県,福岡宮若店,福岡県 宮若市 本城1084-1　K-BLD.No06　1F,33.73145908,130.6809018
1416,福岡県,福岡志免店,福岡県 糟屋郡志免町 大字別府4-4-20　ザ・グレンリベット　1F,33.60700632,130.4594981
1347,福岡県,飯塚吉原店,福岡県 飯塚市 吉原町3-1　大和興業ビル　1F,33.64147945,130.6852523
1346,福岡県,宗像光岡店,福岡県宗像市光岡85-1旭ビル　1F,33.78715395,130.5620348
1330,福岡県,小倉田町店,福岡県 北九州市 小倉北区田町18-15　1F,33.88130369,130.8667831
1280,福岡県,守恒店,福岡県 北九州市 小倉南区守恒2-1-26　守恒ビル　1F,33.83605506,130.8744982
1276,福岡県,松香台店,福岡県 福岡市 東区松香台1-7-37　神野ビル　1F,33.66801549,130.4464204
1251,福岡県,折尾四丁目店,福岡県 北九州市 八幡西区折尾4-9-9　柴田ビル　1F,33.86605297,130.7106553
1245,福岡県,福岡壱岐店,福岡県 福岡市 西区壱岐団地105-2　壱岐店舗　1F/2F,33.55862939,130.3161797
1244,福岡県,宗像自由ヶ丘店,福岡県 宗像市 自由ヶ丘西町1-3　石松店舗　1F,33.80152406,130.5706931
1194,福岡県,三ヶ森店,福岡県 北九州市 八幡西区三ヶ森3-4-3　三ヶ森店舗　2F,33.83246287,130.737336
1161,福岡県,久留米櫛原店,福岡県 久留米市 東櫛原町1106-1　立石店舗　1F,33.32285174,130.5157944
1157,福岡県,小倉中井店,福岡県 北九州市 小倉北区中井5-14-12　ロイヤルハイツ明石　103　1F,33.88648981,130.8457788
1156,福岡県,久留米中央町店,福岡県 久留米市 中央町36-12　三本松店舗　1F,33.31693869,130.5089961
1155,福岡県,下到津店,福岡県 北九州市 小倉北区下到津4-6-5　ベリーズクリニック　2F,33.87716671,130.8574158
1014,福岡県,八幡星ヶ丘店,福岡県 北九州市 八幡西区星ヶ丘1-1-1　星ヶ丘1丁目店舗　1F,33.77668283,130.7496455
825,福岡県,コスパ相生店,福岡県北九州市八幡西区鉄竜1-4-14コスパ相生　1F/2F,33.85144989,130.7524166
11434,福岡県,八幡折尾店,福岡県 北九州市 八幡西区折尾4-17-6　杣ビル　1F,33.86785917,130.7098705
11425,福岡県,小倉足原店,福岡県 北九州市 小倉北区足原1-5-7　1F,33.87053089,130.8970289
1465,福岡県,下大利東口店,福岡県 大野城市 東大利2-3-1　サンアトラスV　1F,33.5231343,130.4890489
1436,福岡県,黒崎三丁目店,福岡県 北九州市 八幡西区黒崎3-9-18　ECS第25ビル　1F,33.86570382,130.7630245
1372,福岡県,若松塩屋店,福岡県 北九州市 若松区塩屋4-1-4　LEGEND111　1F,33.89762034,130.7143207
1344,福岡県,小倉紺屋町店,福岡県 北九州市 小倉北区紺屋町5-5　小倉パークビル　6F,33.88115202,130.8828526
1010,福岡県,中津口店,福岡県 北九州市 小倉北区中津口1-10-27　大下ビル　1F,33.87771397,130.8877233
993,福岡県,都府楼南店,福岡県 太宰府市 都府楼南5-4-25　松田店舗A　1F,33.502874,130.5131004
988,福岡県,キャナルシティ博多店,福岡県 福岡市 博多区住吉1-2　キャナルシティ博多　ノースビル　1F,33.58979476,130.4111036
965,福岡県,小郡店,福岡県 小郡市 祇園2-4-7　立石ビル　2F,33.39593937,130.5497266
946,福岡県,門司店,福岡県 北九州市 門司区大里本町3-7-37　門司ポロニア弐番館　1F,33.90454706,130.9304056
933,福岡県,西鉄二日市駅前店,福岡県太宰府市朱雀2-29-12二日市店舗　1F,33.50337143,130.5173801
894,福岡県,長尾一丁目店,福岡県 福岡市 城南区長尾1-16-20　長尾ビル　1F,33.55858313,130.3792123
885,福岡県,八幡駅前店,福岡県 北九州市 八幡東区西本町2-2-1　さわらびガーデンモール八幡　三番街　3-102　1F,33.86748206,130.795419
884,福岡県,徳吉東店,福岡県 北九州市 小倉南区徳吉東5-1-8　徳吉東五丁目店舗　1F,33.81353594,130.8589145
868,福岡県,今宿三丁目店,福岡県福岡市西区今宿3-4-43今宿店舗　1F,33.58186892,130.2683121
865,福岡県,福岡大名店,福岡県 福岡市 中央区大名1-2-16　セシオパーク大名　2F,33.58550191,130.3937863
862,福岡県,陣原店,福岡県 北九州市 八幡西区陣原3-2-23　サージュ陣原　1F,33.86712779,130.7417112
819,福岡県,白木原西口店,福岡県大野城市白木原2-10-7クレアベル　1F,33.52691838,130.4822007
818,福岡県,北九州若松店,福岡県 北九州市 若松区白山1-9-4　第8竹ビル　1F,33.90247828,130.8057258
778,福岡県,小倉南口店,福岡県北九州市小倉北区魚町1-6-15小倉駅前ビル　2F/3F,33.88498438,130.8813875
776,福岡県,八幡桃園店,福岡県 北九州市 八幡東区桃園2-1-20　桃園2丁目店舗　1F,33.86784684,130.7833106
739,福岡県,福岡曙店,福岡県福岡市早良区曙1-6-26城西ビル　1F,33.57797433,130.3610913
736,福岡県,みなと公園店,福岡県福岡市東区香椎浜ふ頭3-1-14香椎パークコート　2F,33.65231892,130.4150872
716,福岡県,北原田尻店,福岡県福岡市西区田尻2-14-31　2F,33.58211271,130.2515665
712,福岡県,八幡中央店,福岡県 北九州市 八幡東区中央1-4-1　中央1丁目店舗　1F,33.86409131,130.8138143
684,福岡県,福岡春日店,福岡県 春日市 光町3-2-3　光町3丁目店舗　1F/2F,33.53240435,130.4606027
663,福岡県,野芥店,福岡県福岡市早良区野芥3-30-11　(仮)野芥三丁目店舗　1F,33.538928,130.3440482
651,福岡県,和布刈公園店,福岡県 北九州市 門司区浜町6-28　マリンアベニュー和布刈　1F,33.95173494,130.9670408
607,福岡県,城南別府店,福岡県福岡市城南区別府3-2-3緒方ビル　1F,33.57424809,130.3695185
596,福岡県,博多駅東三丁目店,福岡県 福岡市 博多区博多駅東3-5-16　神山ビル　1F,33.58781294,130.4273708
561,福岡県,筑前前原店,福岡県 糸島市 前原駅南1-1-24　キエラサーリ　1F,33.55619406,130.1969617
534,福岡県,小倉到津店,福岡県 北九州市 小倉北区上到津2-3-9　フローラルホクザイ　1F,33.87420141,130.8516704
526,福岡県,福岡千早店,福岡県福岡市東区千早5-21-2サンビル　1F,33.65689269,130.4400525
521,福岡県,周船寺店,福岡県 福岡市 西区周船寺2-9-12　サンユービル　1F,33.57337137,130.2462178
494,福岡県,高宮店,福岡県 福岡市 南区高宮1-3-29　高宮第二オークマンション　103,33.57142311,130.4087594
478,福岡県,上古賀店,福岡県筑紫野市上古賀3-7-8上古賀3丁目店舗　1F,33.48279023,130.5211625
476,福岡県,安部山公園店,福岡県 北九州市 小倉南区湯川5-5-7　ル・ヴァンベール安部山　1F,33.84545789,130.9034643
430,福岡県,笹原店,福岡県 福岡市 博多区板付7-10-27　第15博多南IR BLD.　1F,33.55495993,130.4542849
345,福岡県,西小倉店,福岡県北九州市小倉北区大門2-1-4グレイスハピサ西小倉　1F,33.88741097,130.8727236
339,福岡県,和白店,福岡県 福岡市 東区和白2-4-6　安河内店舗　1F,33.68554773,130.4344805
321,福岡県,呉服町店,福岡県 福岡市 博多区綱場町7-1　リアンプレミアム呉服町ステーション　1F,33.59808604,130.4086537
318,福岡県,香椎宮前店,福岡県福岡市東区千早5-11-18エムビルデベロップコアV　1F,33.65491832,130.4423514
307,福岡県,中洲川端店,福岡県福岡市博多区中洲5-2-5サフィール許斐　2F,33.59380213,130.4046646
304,福岡県,福重店,福岡県 福岡市 西区福重3-34-40　アネシス福重　1F,33.56862392,130.3184896
299,福岡県,井尻店,福岡県福岡市南区井尻3-25-31　YMビルII　2F,33.55094686,130.4458633
297,福岡県,企救丘店,福岡県 北九州市 小倉南区企救丘2-3-12　企救丘2丁目店舗　1F,33.82104332,130.8751151
296,福岡県,黒崎店,福岡県 北九州市 八幡西区黒崎2-4-1　谷岡店舗　1F,33.86498563,130.7666196
295,福岡県,香春口三萩野店,福岡県 北九州市 小倉北区香春口2-6-1　デザイナー・プリンセス・KY　1F,33.8745142,130.8810822
294,福岡県,戸畑店,福岡県 北九州市 戸畑区旭町6-19　Bay Ridge　1F,33.89838841,130.8236204
288,福岡県,六ツ門店,福岡県 久留米市 六ツ門町10-16　トリアンビル　2F,33.31336671,130.5143615
266,福岡県,赤坂けやき通り店,福岡県 福岡市 中央区赤坂2-1-18　荒木ビル　1F,33.58426557,130.3883773
245,福岡県,吉塚店,福岡県福岡市博多区吉塚2-3-44第16川崎ビル　1F,33.6047503,130.4261433
243,福岡県,旦過店,福岡県 北九州市 小倉北区古船場町8-1　7ウィルステージ古船場　1F,33.87912742,130.8840589
241,福岡県,姪浜店,福岡県 福岡市 西区姪の浜4-10-19　エヌ・エイ・エムビル　1F,33.58498945,130.3255905
239,福岡県,新宮中央店,福岡県 糟屋郡新宮町 中央駅前1-5-2　ライフガーデン新宮中央　1F,33.71261898,130.4507677
181,福岡県,唐人町店,福岡県福岡市中央区唐人町1-5-1モンデンビル　2F,33.59046604,130.3705492
158,福岡県,片江店,福岡県 福岡市 城南区片江1-24-28　てんぐ屋片江ビル　1F,33.55236793,130.3771155
150,福岡県,西新店,福岡県 福岡市 早良区西新5-1-12　西新ニレ店舗　1F,33.58238498,130.3573976
147,福岡県,渡辺通店,福岡県福岡市中央区清川1-14-18　KIYOKAWA PLACE　1F,33.58092165,130.4077363
145,福岡県,大濠公園店,福岡県 福岡市 中央区荒戸1-5-22　テングッド荒戸　1F,33.59233424,130.3789502
14609,佐賀県,鳥栖蔵上店,佐賀県 鳥栖市 蔵上3-150　1F,33.3740286,130.4925069
886,佐賀県,唐津新興町店,佐賀県 唐津市 新興町17　スカイタワーマンション　1F,33.44636495,129.9657133
854,佐賀県,唐津町田店,佐賀県 唐津市 町田2-5-32　唐津市町田2丁目店舗　1F,33.43988776,129.9651943
14052,長崎県,長崎めがね橋店,長崎県 長崎市 栄町5-5　エフエム長崎ビル　1F,32.746949,129.8788446
14051,長崎県,長崎勝山店,長崎県 長崎市 勝山町26-8　サクセスカバーヒルズ　1F,32.75047509999999,129.8795243
888,長崎県,長崎中町通店,長崎県 長崎市 中町5-33　MAKI　2F,32.75299108,129.8730296
11441,長崎県,長崎西山店,長崎県 長崎市 西山2-7-5　ハイツ西山　1F,32.76188798,129.8886683
1499,長崎県,長崎銅座店,長崎県 長崎市 銅座町4-21　M2銅座ビルII番館　1F,32.74366779,129.8763095
1019,長崎県,若葉町店,長崎県 長崎市 若葉町5-10　若葉ビル　1F,32.78901975,129.8610093
14636,熊本県,阿蘇くまもと空港店,熊本県 上益城郡益城町 大字小谷1802-2　阿蘇くまもと空港　1F,32.835011426684346,130.85896968841553
14601,熊本県,熊本植木店,熊本県 熊本市 北区植木町植木184-1　1F,32.8955109,130.6920897
14600,熊本県,熊本田井島店,熊本県 熊本市 南区田井島2-3-34　1F,32.7656443,130.7198815
14570,熊本県,熊本大窪店,熊本県 熊本市 北区大窪2-8-20　大窪2丁目ビル　1F,32.8523427,130.7095004
14554,熊本県,熊本小峯店,熊本県 熊本市 東区月出5-3-10　1F,32.8037489,130.7740583
14553,熊本県,熊本砂原店,熊本県 熊本市 南区砂原町471-1　1F,32.7634722,130.6587763
14477,熊本県,熊本健軍店,熊本県 熊本市 東区健軍3-52-15　サクラビル　2F,32.7786216,130.7612107
14424,熊本県,熊本江越店,熊本県 熊本市 南区江越1-9-10　mon reve平成　1F,32.776747,130.7014977
14419,熊本県,熊本桜木店,熊本県 熊本市 東区桜木2-6-11　1F,32.7823188,130.7778842
14056,熊本県,熊本島崎店,熊本県 熊本市 西区島崎2-16-37　クレストビル島崎　1F,32.8098272,130.6890621
895,熊本県,八代古閑中店,熊本県 八代市 古閑中町2417-3　VIORA　1F,32.5317584,130.6022193
1193,熊本県,熊本シャワー通店,熊本県 熊本市 中央区下通2-7-30　サン下通ビル　1F,32.79757989,130.7072009
1169,熊本県,水前寺二丁目店,熊本県 熊本市 中央区水前寺2-17-7　スカイガーデン水前寺　1F,32.7961539,130.7340362
11440,熊本県,九品寺四丁目店,熊本県 熊本市 中央区九品寺4-3-2　河野ビル　1F,32.79598272,130.7155816
1503,熊本県,熊本出水店,熊本県 熊本市 中央区出水1-7-68　MSA出水　1F,32.78702146,130.7327869
1463,熊本県,八代松江店,熊本県 八代市 松江町342-1　1F,32.51373218,130.5990373
1243,熊本県,荒尾原万田店,熊本県 荒尾市 原万田702-1　荒尾原万田店舗　1F,33.00211443,130.4384826
1464,熊本県,熊本人吉店,熊本県 人吉市 九日町83　九日町ビル　1F,32.2140867,130.7601403
11422,熊本県,熊本薬園町店,熊本県 熊本市 中央区薬園町8-4　MARLE薬園町　1F,32.8134159,130.7179556
964,熊本県,益城惣領店,熊本県 上益城郡益城町 大字惣領1441-11　益城K BLD9　2F,32.78534477,130.803811
847,熊本県,横手一丁目店,熊本県 熊本市 中央区横手1-2-93　クレストビル横手　1F,32.80213949,130.6911149
792,熊本県,熊本東野店,熊本県 熊本市 東区東野1-3-122　トレアゾハイツ東野　1F,32.77634729,130.7653338
782,熊本県,水前寺五丁目店,熊本県 熊本市 中央区水前寺5-19-2　水前寺店舗　1F,32.79643622,130.7394942
738,熊本県,三里木店,熊本県菊池郡菊陽町大字津久礼2343-2冨永ビル　1F,32.86106725,130.7959765
734,熊本県,上通店,熊本県熊本市中央区草葉町2-32ウェルブライト上通り　2F,32.80575838,130.7130485
685,熊本県,楠二丁目店,熊本県 熊本市 北区楠2-1-40　シティライフ楠まち通り　1F,32.84501415,130.7604748
601,熊本県,熊本九品寺店,熊本県熊本市中央区九品寺1-1-5ライズEXE　2F,32.80087283,130.7156351
587,熊本県,南熊本店,熊本県 熊本市 中央区南熊本1-9-34　MH南熊本　1F/2F,32.79065055,130.7106865
554,熊本県,神水店,熊本県熊本市東区健軍1-12-2ライズ尾の上　1F,32.78781179,130.749928
543,熊本県,熊本森都心プラザ店,熊本県熊本市西区春日1-14-2春日ヒルズ　1F,32.78992494,130.6914532
409,熊本県,水前寺六丁目店,熊本県熊本市中央区神水1-24-6建神ビル　1F,32.78765619,130.7440076
394,熊本県,辛島町店,熊本県 熊本市 中央区辛島町7-11　LAMONTEIII　1F,32.7992227,130.7008978
393,熊本県,けやき通店,熊本県熊本市南区出仲間1-3-1ウッディマンションけやき通り　1F,32.77299424,130.7113995
391,熊本県,藤崎宮前店,熊本県 熊本市 中央区坪井2-1-42　SDK熊本ビル　1F,32.80885443,130.7123132
390,熊本県,下通筋店,熊本県 熊本市 中央区中央街6-1　Ginza331BLD　2F,32.80014683,130.7096573
14168,大分県,大分下徳丸店,大分県 大分市 下徳丸83-5　1F,33.2090837,131.6896739
1439,大分県,大分金池店,大分県 大分市 金池町2-7-21　パークサイド大分駅前　1F,33.23373333,131.609492
1432,大分県,大分中央町店,大分県 大分市 中央町2-9-27　Grand JADE中央町　1F,33.23869049,131.6060602
1348,大分県,宇佐法鏡寺店,大分県 宇佐市 大字法鏡寺297　ハンズパークA号　1F,33.52539302,131.3458383
977,大分県,田室町店,大分県 大分市 田室町7-11　アトラーレ田室　1F,33.23496041,131.596818
873,大分県,府内町店,大分県大分市府内町1-4-10笑門堂ビル　1F,33.23611061,131.6095552
839,大分県,中央町三丁目店,大分県 大分市 中央町3-2-26　マイフ若草　1F,33.23692461,131.6048361
837,大分県,賀来南店,大分県 大分市 賀来南1-1-83　賀来南店舗　1F,33.21245149,131.5713327
13971,宮崎県,宮崎南花ヶ島店,宮崎県 宮崎市 南花ケ島町269-1 　1F,31.942627,131.4309007
14438,鹿児島県,霧島国分店,鹿児島県 霧島市 国分中央5-18-29-1　1F,31.733626,130.7640142
14423,鹿児島県,鹿児島下竜尾店,鹿児島県 鹿児島市 下竜尾町10-18　ヒルズ表参道　1F,31.60516329999999,130.5606053
14171,鹿児島県,鹿児島真砂店,鹿児島県 鹿児島市 真砂本町38-7　1F,31.5582141,130.5534988
14050,鹿児島県,鹿児島天保山店,鹿児島県 鹿児島市 天保山町7-1　JオートビルI　1F,31.572919229227395,130.5602702083483
887,鹿児島県,鹿児島星ヶ峯店,鹿児島県 鹿児島市 星ヶ峯1-14-8　広木店舗　1F,31.57403194,130.5023083
380,鹿児島県,天文館店,鹿児島県鹿児島市中町1-11新中町ビル　2F,31.59139476,130.5561995
356,鹿児島県,騎射場店,鹿児島県鹿児島市荒田2-76-15川商ビル　1F,31.56869521,130.5512744
863,鹿児島県,二中通店,鹿児島県鹿児島市下荒田1-5-5　PRENDRE華　2F,31.57752047,130.5543137
703,鹿児島県,田上天神店,鹿児島県鹿児島市田上3-4-10ニューセンタービル 101　1F,31.57516378,130.529898
678,鹿児島県,宇宿三丁目店,鹿児島県鹿児島市宇宿3-11-11大田ビル　1F,31.54307757,130.5395521
648,鹿児島県,高見馬場店,鹿児島県 鹿児島市 西千石町11-24　フコク生命高見馬場ビル　1F,31.58874429,130.550404
551,鹿児島県,鴨池ニュータウン店,鹿児島県 鹿児島市 鴨池新町5-1　鴨池ACアネックス　1F,31.55551041,130.5571767
540,鹿児島県,荒田一丁目店,鹿児島県鹿児島市荒田1-51-1コスモガーデンみずほ　1F,31.57447858,130.5477091
519,鹿児島県,鹿児島中央東店,鹿児島県 鹿児島市 中央町24-26　第2新福ビル　1F/2F,31.5814644,130.5424939
423,鹿児島県,加治屋町店,鹿児島県 鹿児島市 西千石町10-3　S-FORT鹿児島中央　1F,31.58770096,130.5479288
384,鹿児島県,西田店,鹿児島県鹿児島市西田2-7-16第2榎田ビル　1F,31.5883701,130.5414899
352,鹿児島県,伊敷店,鹿児島県 鹿児島市 伊敷台5-9-11　WMテナント　1F,31.62816473,130.5380694
341,鹿児島県,荒田店,鹿児島県 鹿児島市 荒田1-17-5　松元ビル荒田　1F,31.57559907,130.5531732
328,鹿児島県,谷山店,鹿児島県 鹿児島市 東谷山2-7-8　The stars mansion higashitaniyama 0101　1F,31.53002294,130.5235648
326,鹿児島県,ナポリ通店,鹿児島県 鹿児島市 上之園町4-1　リッツコートII　1F,31.58339751,130.54748
14628,沖縄県,沖縄県庁前店,沖縄県 那覇市 久茂地2-3-10　RBC・QABメディアセンタービル　1F,26.2162827,127.6795242
14602,沖縄県,首里石嶺店,沖縄県 那覇市 首里石嶺町2-265-14　アメニティ首里　2F,26.221384099747485,127.7305329777308
14032,沖縄県,沖縄名護店,沖縄県 名護市 宮里1396　1F/2F,26.6047641,127.9758603
1504,沖縄県,那覇新都心店,沖縄県 那覇市 銘苅1-6-15　LaTour新都心　1F,26.22870536,127.7001288
1299,沖縄県,那覇古島店,沖縄県 那覇市 古島2-23-1　いずみハウス　1F,26.22868592,127.7057229
1277,沖縄県,宜野湾大山店,沖縄県 宜野湾市 大山5-2-1　大山店舗　1F,26.27963438,127.7480759
1265,沖縄県,那覇西一丁目店,沖縄県 那覇市 西1-5-8　西沖商マンション　1F,26.21238347,127.6717919
