store_id,pref_id,shop_name,address,lat,lon
ysn_041316,"",大森店,東京都大田区大森北１丁目７－６,35.583686,139.730218
ysn_041317,"",目黒駅前店,東京都品川区上大崎２丁目２７－２,35.63111,139.718219
ysn_041318,"",蒲田東口店,東京都大田区蒲田５丁目２４－３,35.559443,139.722416
ysn_041319,"",浜町店,東京都中央区日本橋浜町１丁目２－４,35.686526,139.788626
ysn_041322,"",有楽町店,東京都千代田区有楽町２丁目９－１８,35.671601,139.766484
ysn_041323,"",新宿一丁目店,東京都新宿区新宿１丁目３３－１０グランカーサ新宿御苑,35.688026,139.714719
ysn_041327,"",初台店,東京都渋谷区代々木４丁目３２－３,35.679173,139.691919
ysn_041331,"",王子東店,東京都北区王子１丁目６－７,35.75143,139.74293
ysn_041333,"",田端店,東京都北区田端新町２丁目８－８トワイズ田端,35.736002,139.771528
ysn_041345,"",錦糸町南口店,東京都墨田区江東橋３丁目１４－１３サンライズビル,35.692976,139.81653
ysn_041357,"",新小岩駅前店,東京都葛飾区新小岩１丁目４３－３,35.712726,139.861633
ysn_041362,"",西大島店,東京都江東区大島１丁目３０－９,35.685882,139.829419
ysn_041388,"",平井店,東京都江戸川区平井５丁目１５－７,35.703575,139.844937
ysn_041391,"",豊洲店,東京都江東区豊洲４丁目１－１,35.651417,139.800227
ysn_041393,"",中野北口店,東京都中野区中野５丁目６６－３,35.704421,139.668618
ysn_041394,"",王子神谷店,東京都北区王子５丁目１０－１,35.761733,139.739216
ysn_041397,"",原宿竹下口店,東京都渋谷区神宮前１丁目１７－１,35.66828,139.706359
ysn_041398,"",川越街道成増店,東京都板橋区成増１丁目２８－１４,35.772865,139.635018
ysn_041399,"",上野駅前店,東京都台東区上野７丁目３－２ＧＥ上野駅前ビル,35.709206,139.781026
ysn_041401,"",青山一丁目店,東京都港区北青山１丁目３－３,35.669403,139.726182
ysn_041402,"",恵比寿駅前店,東京都渋谷区恵比寿西１丁目９－６,35.643665,139.711516
ysn_041408,"",府中中河原店,東京都府中市住吉町１丁目２０－１,35.659013,139.461629
ysn_041416,"",新大橋通り八丁堀店,東京都中央区八丁堀１丁目１１－５,35.674012,139.781426
ysn_041417,"",江古田南口店,東京都練馬区豊玉上１丁目１０－１０,35.733214,139.674418
ysn_041418,"",新橋烏森口店,東京都港区新橋３丁目１６－３新橋烏森ビル,35.662611,139.760455
ysn_041420,"",新木場駅前店,東京都江東区新木場１丁目１－１,35.642724,139.828543
ysn_041423,"",上北沢店,東京都世田谷区上北沢５丁目２－４,35.667686,139.625339
ysn_041426,"",浅草通り稲荷町店,東京都台東区東上野３丁目３３－８,35.708027,139.785332
ysn_041434,"",お茶の水店,東京都千代田区神田駿河台２丁目４－１４,35.696226,139.767126
ysn_041436,"",調布駅前店,東京都調布市布田１丁目３７－１６清水ビル内,35.649691,139.547376
ysn_041440,"",瑞江駅前店（テイクアウト・デリバリー専門店）,東京都江戸川区東瑞江１丁目２７－４福田ビル,35.689189,139.901446
ysn_041441,"",中目黒駅前店,東京都目黒区上目黒３丁目３－５,35.641093,139.701818
ysn_041442,"",吉祥寺北店,東京都武蔵野市吉祥寺本町１丁目８－３ダイヤガイビル１Ｆ,35.70098,139.582406
ysn_041446,"",高島平大門店,東京都板橋区高島平３丁目３－２,35.78155,139.656076
ysn_041447,"",町田根岸店,東京都町田市根岸町１０１９－８,35.575043,139.413647
ysn_041448,"",池袋北口店,東京都豊島区西池袋１丁目２４－１,35.728538,139.713794
ysn_041456,"",国立府中インター店,東京都国立市谷保６２０－１,35.672902,139.448285
ysn_041457,"",荻窪北口店,東京都杉並区上荻１丁目１５－２,35.701832,139.621714
ysn_041458,"",東銀座店,東京都中央区銀座３丁目１１－１１,35.667225,139.771526
ysn_041461,"",篠崎駅前店,東京都江戸川区篠崎町７丁目２７－１,35.703073,139.907214
ysn_041462,"",ＪＲ神田駅店,東京都千代田区鍛冶町２丁目１３－２６,35.688386,139.774426
ysn_041466,"",錦糸町北口店,東京都墨田区錦糸２丁目４－１０ライオンズマンション錦糸町第３,35.694687,139.816568
ysn_041467,"",高田馬場駅前店,東京都新宿区高田馬場１丁目２６－１２高田馬場ビル１０７号,35.709753,139.708564
ysn_041472,"",祖師ケ谷大蔵駅前店,東京都世田谷区砧６丁目３９－６,35.639539,139.612053
ysn_041475,"",浜松町店,東京都港区浜松町２丁目７－１,35.651333,139.757922
ysn_041477,"",茅場町店,東京都中央区日本橋茅場町１丁目４－６,35.677002,139.783179
ysn_041478,"",神谷町店,東京都港区虎ノ門５丁目１１－１５,35.659064,139.747923
ysn_041479,"",五日市街道並木町店,東京都国分寺市並木町２丁目２３－７,35.713546,139.454772
ysn_041480,"",１６号線八王子宇津木店,東京都八王子市宇津木町７０９,35.679077,139.353764
ysn_041482,"",東中野駅前店,東京都中野区東中野４丁目５－１４,35.704069,139.68671
ysn_041483,"",西荻窪駅前店,東京都杉並区西荻北３丁目１９－３,35.700986,139.602961
ysn_041485,"",尾久橋通り舎人店,東京都足立区舎人２丁目１９－２,35.809502,139.773854
ysn_041487,"",下石神井千川通り店,東京都練馬区下石神井２丁目３－１,35.725302,139.612334
ysn_041488,"",品川駅港南口店,東京都港区港南２丁目２－１５,35.625809,139.745308
ysn_041489,"",川崎街道矢野口店,東京都稲城市矢野口８６８,35.638708,139.517268
ysn_041490,"",１６号線昭島緑町店,東京都昭島市緑町３丁目５－１４,35.703595,139.351734
ysn_041491,"",環状７号線豊玉南店,東京都練馬区豊玉南２丁目１６－１５,35.726061,139.659118
ysn_041492,"",秋葉原店,東京都千代田区神田松永町１０－１,35.696317,139.777927
ysn_041496,"",小田急町田駅南口店,東京都町田市原町田６丁目１１－７,35.540994,139.448974
ysn_041497,"",東新小岩店,東京都葛飾区東新小岩３丁目１３－３,35.720438,139.866156
ysn_041498,"",五反田駅前店,東京都品川区東五反田１丁目１３－７,35.623047,139.727834
ysn_041499,"",葛西駅前店,東京都江戸川区中葛西５丁目４３－１,35.660501,139.875078
ysn_041500,"",大崎ニューシティ店,東京都品川区大崎１丁目６－５大崎ニューシティ５号館２Ｆ　２－２区画,35.61698,139.732239
ysn_041501,"",小田急鶴川駅店,東京都町田市能ヶ谷１丁目６－２,35.579819,139.483791
ysn_041502,"",昭島モリタウン店（テイクアウト・デリバリー専門店）,東京都昭島市田中町５６２－１モリタウン１Ｆ,35.710813,139.36464
ysn_041836,"",南池袋店,東京都豊島区南池袋２丁目２６－４,35.724525,139.716215
ysn_041895,"",八王子大和田店,東京都八王子市大和田５丁目３－３,35.659294,139.354188
ysn_041903,"",石川パーキングエリア店,東京都八王子市石川町９５６－２,35.676943,139.377567
ysn_041906,"",青梅新町店,東京都青梅市新町５丁目３－１４,35.783757,139.308673
ysn_041907,"",羽田空港第３ターミナル店,東京都大田区羽田空港２丁目６－５東京国際空港国際線旅客ターミナルビル内,35.542874,139.771617
ysn_041908,"",ボートレース平和島店,東京都大田区平和島１丁目１－１ ボートレース平和島１階場内飲食区画,35.583377,139.742646
ysn_042311,"",芝田町店,大阪府大阪市北区芝田町２丁目１－２１,34.702179,135.499619
ysn_042316,"",大手前店,大阪府大阪市中央区谷町２丁目７－６,34.682989,135.519819
ysn_042317,"",船場中央店,大阪府大阪市中央区南本町２丁目６－８,34.679029,135.50692
ysn_042324,"",天下茶屋店,大阪府大阪市西成区岸里１丁目２－９,34.634214,135.497818
ysn_042326,"",大正店,大阪府大阪市大正区三軒家東１丁目１９－９,34.660932,135.480926
ysn_042327,"",新神戸駅前店,兵庫県神戸市中央区生田町１丁目１－２２,34.700884,135.199451
ysn_042329,"",フレンテ西宮店,兵庫県西宮市池田町１１－１,34.734668,135.350704
ysn_042330,"",野里店,大阪府大阪市西淀川区花川２丁目２１－１３,34.703463,135.465408
ysn_042331,"",阿波座店,大阪府大阪市西区阿波座１丁目１３－１１,34.677969,135.496119
ysn_042332,"",大阪京橋店,大阪府大阪市都島区東野田町５丁目２－２８,34.69567,135.536519
ysn_042337,"",肥後橋店,大阪府大阪市西区京町堀１丁目７－４,34.684537,135.499482
ysn_042338,"",九条店,大阪府大阪市西区千代崎２丁目１０－１,34.670277,135.479858
ysn_042339,"",長居店,大阪府大阪市住吉区長居東４丁目２－３,34.608086,135.516534
ysn_042343,"",守口駅前店,大阪府守口市京阪本通２丁目１５－１３,34.734743,135.566226
ysn_042345,"",太子堂店,大阪府八尾市南太子堂２丁目１－５９,34.609561,135.592698
ysn_042346,"",１７１号線高槻市役所前店,大阪府高槻市城西町４－４６,34.841062,135.618871
ysn_042347,"",平野店,大阪府大阪市平野区平野元町７－１３,34.624919,135.554221
ysn_042348,"",円町店,京都府京都市中京区西ノ京円町６－１,35.015231,135.734352
ysn_042350,"",東大阪八戸ノ里店,大阪府東大阪市御厨南２丁目４－３,34.663155,135.591827
ysn_042355,"",寺田町駅前店,大阪府大阪市天王寺区大道４丁目１０－９第２中村ビル,34.6454,135.526474
ysn_042357,"",２６号線泉大津店,大阪府泉大津市北豊中町３丁目１－３,34.491445,135.428853
ysn_042358,"",２６号線泉佐野店,大阪府泉佐野市高松東２丁目６５２９,34.400937,135.319893
ysn_042360,"",１７１号線伊丹店,兵庫県伊丹市広畑２丁目３４－１,34.782843,135.404187
ysn_042362,"",１７０号線野崎店,大阪府大東市南津の辺町２１－３８,34.716919,135.638097
ysn_042363,"",１７０号線藤井寺店,大阪府藤井寺市野中２丁目１－１,34.557541,135.603879
ysn_042364,"",２５０号線西明石店,兵庫県明石市西明石西町１丁目１０－１２,34.662203,134.959269
ysn_042365,"",１号線枚方店,大阪府枚方市宮之阪４丁目２８－３９,34.807836,135.665333
ysn_042367,"",姫路今宿店,兵庫県姫路市東今宿３－１２２５－１,34.836583,134.666457
ysn_042368,"",２号線姫路市川橋店,兵庫県姫路市花田町一本松４３７－３,34.82372,134.722075
ysn_042369,"",ザビエル公園店,大阪府堺市堺区戎之町東１－１,34.577094,135.47882
ysn_042370,"",大和高田東室店,奈良県大和高田市曽大根１丁目１－５,34.495645,135.737968
ysn_042371,"",２５０号線播磨町店,兵庫県加古郡播磨町北古田１丁目１９－２,34.720496,134.871777
ysn_042372,"",２５０号線加古川備後店,兵庫県加古川市加古川町南備後１３－１,34.755113,134.822563
ysn_042374,"",枚方東香里店,大阪府枚方市東香里南町５２－３０,34.772391,135.658387
ysn_042375,"",姫路中地店,兵庫県姫路市飾磨区構４－９４,34.80733,134.666291
ysn_042376,"",２５号線斑鳩店,奈良県生駒郡斑鳩町幸前２丁目３０９－３,34.612128,135.749953
ysn_042378,"",中百舌鳥店,大阪府堺市北区百舌鳥梅町２丁３－３,34.54682,135.500017
ysn_042379,"",西宮山口町店,兵庫県西宮市山口町名来２丁目１９,34.838878,135.240837
ysn_042380,"",１号線草津店,滋賀県草津市南笠東１丁目２－２３,34.992287,135.945397
ysn_042381,"",８号線彦根店,滋賀県彦根市東沼波町１３８－１,35.249653,136.267541
ysn_042383,"",２６号線堺浜寺店,大阪府堺市西区浜寺船尾町東１丁１１２,34.547214,135.462912
ysn_042386,"",１７１号線箕面店,大阪府箕面市萱野４丁目２－１７,34.826145,135.489737
ysn_042387,"",中環松原丹南店,大阪府松原市丹南４丁目１－４,34.556566,135.560874
ysn_042388,"",１７１号線久世店,京都府京都市南区久世殿城町４３３,34.954492,135.719914
ysn_042389,"",和歌山向店,和歌山県和歌山市向２０３－１,34.253326,135.147533
ysn_042390,"",尼崎尾浜店,兵庫県尼崎市尾浜町１丁目２９－１,34.735009,135.414936
ysn_042391,"",４２号線和歌山紀三井寺店,和歌山県和歌山市紀三井寺５４１－１,34.175018,135.189326
ysn_042395,"",住之江公園店,大阪府大阪市住之江区南加賀屋２丁目８－２６,34.604091,135.476115
ysn_042397,"",１７１号線茨木インター店,大阪府茨木市郡４丁目１８－３５,34.832375,135.55853
ysn_042399,"",１７０号線八尾店,大阪府八尾市大竹１丁目６２,34.634633,135.637318
ysn_042400,"",お初天神店,大阪府大阪市北区曾根崎２丁目５－２０,34.696059,135.503643
ysn_042401,"",２４号線奈良北店,奈良県奈良市法蓮町４３９－１,34.688563,135.814906
ysn_042402,"",３０９号線三宅店,大阪府松原市三宅中１丁目２６９－２,34.583071,135.553454
ysn_042403,"",ぐみの木店,大阪府大阪狭山市茱萸木６丁目９２１－１,34.481449,135.55678
ysn_042405,"",東灘御影店,兵庫県神戸市東灘区御影中町２丁目２－１４,34.714437,135.259199
ysn_042408,"",大国町店,大阪府大阪市浪速区敷津東２丁目５－１１,34.653052,135.500908
ysn_042409,"",豊中市役所前店,大阪府豊中市中桜塚３丁目１０－３０,34.776758,135.472996
ysn_042412,"",北花田店,大阪府堺市北区北花田町３丁３２－６,34.582306,135.519201
ysn_042413,"",上本町店,大阪府大阪市天王寺区上本町６丁目６－２３,34.661086,135.521921
ysn_042414,"",８号線栗東店,滋賀県栗東市出庭５４２,35.032342,136.008659
ysn_042415,"",十三店,大阪府大阪市淀川区十三本町１丁目８－１７,34.715992,135.484318
ysn_042417,"",１７１号線西宮若山町店,兵庫県西宮市若山町１１－１２,34.757579,135.367922
ysn_042418,"",摂津鳥飼店,大阪府摂津市鳥飼上４丁目１－３８,34.786158,135.599231
ysn_042422,"",３０８号線吉田店,大阪府東大阪市角田１丁目５－５０,34.676176,135.61833
ysn_042423,"",南港通り平野店,大阪府大阪市平野区平野西１丁目１－６,34.617529,135.544172
ysn_042425,"",北巽店,大阪府大阪市生野区巽北３丁目１５－２４豊都ビル１０３号,34.650225,135.557556
ysn_042427,"",今里店,大阪府大阪市東成区大今里西１丁目３０－１０シャリテ今里,34.666295,135.545679
ysn_042431,"",大阪空港前店,大阪府豊中市蛍池西町２丁目１４１－６,34.790912,135.446219
ysn_042436,"",大津膳所店,滋賀県大津市におの浜３丁目１－５７,35.000317,135.885523
ysn_042439,"",布施駅前店,大阪府東大阪市長堂１丁目１－３３,34.661088,135.566242
ysn_042440,"",淀川通塚本店,大阪府大阪市淀川区塚本２丁目１３－２０,34.711614,135.474191
ysn_042442,"",１７６号線三田店,兵庫県三田市三輪４丁目６－６,34.892212,135.225176
ysn_042444,"",京都九条店,京都府京都市南区西九条東島町６１,34.975996,135.757433
ysn_042446,"",長浜店,滋賀県長浜市八幡東町１３－１,35.383513,136.286692
ysn_042447,"",１７１号線大山崎店,京都府乙訓郡大山崎町大山崎鏡田４５－３０,34.893997,135.690792
ysn_042448,"",２４号線岩出店,和歌山県岩出市西野２０－６,34.255665,135.308243
ysn_042450,"",摂津別府店,大阪府摂津市東別府３丁目６－１２,34.761446,135.563012
ysn_042453,"",近鉄八尾駅前店,大阪府八尾市光町２丁目１８０－１ペントモール５番街,34.626112,135.607519
ysn_042454,"",中央大通深江橋店,大阪府大阪市東成区東今里２丁目２－６,34.676309,135.554079
ysn_042458,"",高槻若松町店,大阪府高槻市若松町３－６,34.83302,135.633266
ysn_042460,"",中環学園町店,大阪府摂津市学園町１丁目７－４４,34.783308,135.56554
ysn_042462,"",西中島南方駅前店,大阪府大阪市淀川区西中島３丁目２０－９,34.723804,135.501925
ysn_042465,"",天神橋六丁目店,大阪府大阪市北区天神橋６丁目６－１９,34.706133,135.513802
ysn_042468,"",１６８号線香芝店,奈良県香芝市上中７４５－１,34.553777,135.703127
ysn_042469,"",２号線加古川平野店,兵庫県加古川市加古川町平野４８２,34.756641,134.84787
ysn_042471,"",御堂筋難波店,大阪府大阪市中央区道頓堀２丁目１－１,34.665563,135.502885
ysn_042472,"",堺石津川店,大阪府堺市西区浜寺石津町西２丁３２２－１,34.557475,135.455473
ysn_042473,"",和歌山築地橋店,和歌山県和歌山市舟津町１丁目１０,34.220683,135.162112
ysn_042474,"",姫路保城店,兵庫県姫路市保城９４３－１,34.854818,134.725094
ysn_042476,"",東三国駅前店,大阪府大阪市淀川区東三国４丁目３－１４ホルス２４０　１階,34.738233,135.500522
ysn_042477,"",臨海二色の浜店,大阪府貝塚市澤８７７－１,34.433168,135.341895
ysn_042478,"",豊中庄内店,大阪府豊中市庄内栄町４丁目２１－３６,34.742084,135.467329
ysn_042480,"",１７８号線豊岡店,兵庫県豊岡市下陰５３５－１,35.551209,134.80681
ysn_042481,"",新長田店,兵庫県神戸市長田区大橋町４丁目３－５,34.652264,135.149388
ysn_042484,"",なんばＣＩＴＹ南館店,大阪府大阪市中央区難波５丁目１－６０なんばＣＩＴＹ南館4151,34.659479,135.505787
ysn_042485,"",１７６号線宝塚店,兵庫県宝塚市安倉北２丁目１９－２,34.801743,135.377895
ysn_042487,"",２４号線橋本高野口店,和歌山県橋本市高野口町伏原９３３－１,34.304921,135.577588
ysn_042489,"",都島駅前店,大阪府大阪市都島区善源寺町１丁目５－５３,34.706134,135.528855
ysn_042490,"",玉江橋線塚口店,兵庫県尼崎市塚口本町３丁目３８０－９,34.756042,135.423123
ysn_042491,"",四条東洞院店,京都府京都市下京区立売西町５９－２,35.000336,135.764001
ysn_042492,"",阪急茨木市駅前店,大阪府茨木市別院町３－１井上旭ビル,34.813659,135.577515
ysn_042493,"",神戸伊川谷店,兵庫県神戸市西区伊川谷町潤和１１５５－１,34.662454,135.003473
ysn_042494,"",三宮駅東店,兵庫県神戸市中央区旭通５丁目３－１５,34.692337,135.199394
ysn_042495,"",阪南鳥取店,大阪府阪南市黒田７０５－１,34.348637,135.240704
ysn_042496,"",阪急西院店,京都府京都市右京区西院高山寺町１２－１,34.99993,135.734551
ysn_042497,"",滝野社インター店,兵庫県加東市北野６４７－１,34.935474,134.967887
ysn_042499,"",恵美須町店,大阪府大阪市浪速区日本橋５丁目１３－９,34.652366,135.508215
ysn_042501,"",湖南夏見店,滋賀県湖南市夏見４２５－１,34.992848,136.098869
ysn_042502,"",伏見南店,京都府京都市伏見区横大路下三栖辻堂町３８－１,34.925194,135.753186
ysn_042503,"",８号線野洲店,滋賀県野洲市小篠原４８１－１,35.064057,136.036982
ysn_042504,"",河内小阪駅前店,大阪府東大阪市小阪本町１丁目３－２,34.660314,135.583643
ysn_042505,"",２４号線竹田久保町店,京都府京都市伏見区竹田久保町６８,34.958557,135.764265
ysn_042507,"",２号線明石硯町店,兵庫県明石市硯町３丁目４２７－１,34.650297,134.978012
ysn_042508,"",大津堅田店,滋賀県大津市本堅田５丁目２２－９,35.11738,135.919989
ysn_042510,"",緑一丁目店,大阪府大阪市鶴見区緑１丁目１９－２,34.711439,135.563522
ysn_042511,"",桜橋店,大阪府大阪市北区曽根崎新地２丁目１－２１,34.694611,135.49812
ysn_042512,"",臨海岸和田店,大阪府岸和田市下野町３丁目１０－３９,34.468751,135.378945
ysn_042515,"",１号線山科店,京都府京都市山科区大塚森町１１－３,34.977795,135.825601
ysn_042518,"",朝潮橋店,大阪府大阪市港区八幡屋１丁目１－１５,34.655345,135.450085
ysn_042519,"",茨田店,大阪府大阪市鶴見区浜３丁目７－１０７,34.70229,135.588931
ysn_042523,"",１７０号線東大阪布市店,大阪府東大阪市布市町４丁目３３２－１,34.694234,135.641073
ysn_042524,"",４２号線田辺店,和歌山県田辺市稲成町２３２－７,33.736887,135.377191
ysn_042525,"",９号線福知山店,京都府福知山市駅南町３丁目６１－１,35.291058,135.118707
ysn_042526,"",２７号線西舞鶴店,京都府舞鶴市円満寺１３７－３,35.440039,135.331531
ysn_042528,"",岸和田和泉インター店,大阪府岸和田市三田町４００－２１,34.45085,135.436392
ysn_042529,"",１７３号線川西多田店,兵庫県川西市平野２丁目５－６,34.861269,135.417756
ysn_042532,"",臨海緑町店,大阪府堺市堺区緑町１丁１４－１,34.593164,135.472398
ysn_042533,"",寝屋川市駅前店,大阪府寝屋川市早子町２３－２アドバンスねやがわ２号館１０５,34.760306,135.624366
ysn_042535,"",プリコ三宮店,兵庫県神戸市中央区加納町４丁目１－１,34.690283,135.196657
ysn_042536,"",３０９号線美原店,大阪府堺市美原区太井８１－１,34.54656,135.556389
ysn_042537,"",１６３号線生駒店,奈良県生駒市北田原町２４７６－１８,34.728452,135.715589
ysn_042538,"",玉出店,大阪府大阪市住之江区粉浜西１丁目１－２３,34.619813,135.49269
ysn_042544,"",２号線明石大久保店,兵庫県明石市大久保町駅前１丁目１７－１７,34.680662,134.942171
ysn_042545,"",１７５号線玉津店,兵庫県神戸市西区平野町福中２１９－１,34.696483,134.985876
ysn_042548,"",京都洛北店,京都府京都市左京区下鴨本町１２－３洛北ビル,35.041066,135.774023
ysn_042549,"",１６８号線東生駒店,奈良県生駒市辻町２４９－１,34.693598,135.7121
ysn_042550,"",フェニックスプラザ摩耶店,兵庫県神戸市灘区味泥町６－１フェニックスプラザ摩耶１Ｆ,34.70079,135.230891
ysn_042557,"",河合町店,奈良県北葛城郡河合町池部２丁目４－１７,34.57647,135.744063
ysn_042558,"",米子市役所前店,鳥取県米子市加茂町１丁目１００,35.425162,133.332844
ysn_042559,"",羽曳野店,大阪府羽曳野市向野３丁目７４－１,34.555924,135.581121
ysn_042562,"",加古川駅北口店,兵庫県加古川市加古川町篠原町３０－１０,34.764631,134.842764
ysn_042566,"",明石魚住町店,兵庫県明石市魚住町清水２３６０－５,34.722003,134.903506
ysn_042568,"",福島駅前店,大阪府大阪市福島区福島５丁目１４－１２,34.693821,135.489719
ysn_042569,"",新開地店,兵庫県神戸市兵庫区新開地２丁目１－９,34.67413,135.173195
ysn_042570,"",２号線鷹取店,兵庫県神戸市須磨区鷹取町２丁目１－８,34.644561,135.137378
ysn_042571,"",八日市インター店,滋賀県東近江市妙法寺町７０８,35.09512,136.228226
ysn_042573,"",千日前店,大阪府大阪市中央区難波千日前１２－４１,34.662047,135.505918
ysn_042574,"",１６９号線桜井店,奈良県桜井市川合２６３－１,34.511262,135.846743
ysn_042578,"",外環状線醍醐店,京都府京都市伏見区醍醐大構町１５－５,34.94559,135.813161
ysn_042579,"",高陽店,広島県広島市安佐北区口田南７丁目８－２３,34.459246,132.501863
ysn_042583,"",王寺駅前店,奈良県北葛城郡王寺町久度２丁目３５３８－１,34.59438,135.706081
ysn_042587,"",大和田駅前店,大阪府門真市野里町１－３２,34.739452,135.605556
ysn_042588,"",２４号線葛城店,奈良県葛城市忍海４８８－１,34.470792,135.735326
ysn_042589,"",鶴橋駅前店,大阪府大阪市東成区東小橋３丁目１６－２,34.662746,135.534022
ysn_042590,"",枚方渚内野店,大阪府枚方市渚内野１丁目２－５,34.83153,135.658947
ysn_042593,"",長田五番町店,兵庫県神戸市長田区五番町６丁目５－１,34.666192,135.154719
ysn_042596,"",ＪＲ西九条駅店,大阪府大阪市此花区西九条３丁目１６,34.679048,135.468917
ysn_042597,"",西田辺店,大阪府大阪市阿倍野区西田辺町１丁目１７－１,34.618059,135.517619
ysn_042624,"",２号線東雲店,広島県広島市南区西霞町１－２９,34.375111,132.484763
ysn_042625,"",２号線五日市店,広島県広島市佐伯区海老園２丁目２－１９,34.362028,132.364485
ysn_042628,"",尼宝線労災病院前店,兵庫県尼崎市稲葉元町３丁目２１－３,34.731611,135.389754
ysn_042632,"",３１号線海田店,広島県広島市安芸区矢野東１丁目２－７,34.355334,132.536851
ysn_042636,"",下関幡生店,山口県下関市生野町２丁目２８－４,33.981312,130.935369
ysn_042638,"",２号線己斐店,広島県広島市西区己斐本町２丁目２０－１３,34.388015,132.426779
ysn_042642,"",４３１号線米子店,鳥取県米子市皆生４丁目１１－５,35.446846,133.365597
ysn_042647,"",５４号線可部店,広島県広島市安佐北区可部南４丁目５－６,34.507006,132.513148
ysn_042650,"",大日店,大阪府守口市大日町３丁目１－１３,34.747954,135.582829
ysn_042657,"",１８３号線古市橋店,広島県広島市安佐南区古市１丁目２６－２,34.447059,132.47263
ysn_042659,"",新梅田食道街店,大阪府大阪市北区角田町９－１７,34.700051,135.500716
ysn_042673,"",吹田山田店,大阪府吹田市山田西２丁目７－１４,34.792723,135.530022
ysn_042674,"",１７１号線箕面小野原店,大阪府箕面市粟生新家４丁目１－２,34.832812,135.519141
ysn_042675,"",内環状線江坂店,大阪府吹田市穂波町６－２０,34.753937,135.512339
ysn_042704,"",沖浜南店,徳島県徳島市八万町大野１７８－３,34.038648,134.555036
ysn_042705,"",大街道店,愛媛県松山市大街道２丁目６－２,33.836111,132.772851
ysn_042707,"",２号線徳山東インター店,山口県下松市末武中１４－３,34.030723,131.856279
ysn_042713,"",高知インター店,高知県高知市高そね１４－６,33.568737,133.558425
ysn_042717,"",土佐バイパス店,高知県高知市鴨部３丁目２４－２５,33.542101,133.503793
ysn_042718,"",９号線出雲店,島根県出雲市渡橋町７４０－６,35.361921,132.743451
ysn_042720,"",１９６号線今治店,愛媛県今治市中寺２４２－４,34.03142,133.002623
ysn_042800,"",伊予松前店,愛媛県伊予郡松前町北黒田２４０－１,33.77735,132.713706
ysn_042801,"",１９６号線平田店,愛媛県松山市平田町２３６－１,33.881652,132.7547
ysn_042802,"",４３７号線三津浜店,愛媛県松山市祓川１丁目２－１０,33.854224,132.722799
ysn_042803,"",松山枝松店,愛媛県松山市枝松１丁目９－８,33.83343,132.789659
ysn_042804,"",１１号線松山久米店,愛媛県松山市北久米町９７３－５,33.811575,132.797467
ysn_042805,"",環状線和泉店,愛媛県松山市土居田町９４－１,33.818397,132.755298
ysn_042806,"",藍住町店,徳島県板野郡藍住町東中富朏傍示２８－１,34.124065,134.479167
ysn_042807,"",新居浜神郷店,愛媛県新居浜市神郷１丁目４１,33.965731,133.321435
ysn_042808,"",伊予西条店,愛媛県西条市朔日市２８２－１,33.925748,133.189527
ysn_042809,"",新居浜店,愛媛県新居浜市松木町４－１４,33.937803,133.296313
ysn_042810,"",１１号線川内店,徳島県徳島市川内町鶴島１０７－１,34.094517,134.576594
ysn_042811,"",１９２号線佐古店,徳島県徳島市佐古七番町７－２,34.075046,134.526566
ysn_042812,"",３２号線高知高須東店,高知県高知市高須東町１－３,33.554991,133.591716
ysn_042813,"",１９３号線高松仏生山店,香川県高松市仏生山町甲１３１９－１,34.270721,134.035991
ysn_042814,"",高松中央インター店,香川県高松市木太町５８１－４,34.306681,134.076341
ysn_042815,"",高松瓦町店,香川県高松市南新町８－１,34.336438,134.051981
ysn_042816,"",坂出店,香川県坂出市元町３丁目５－２,34.315068,133.856634
ysn_042817,"",浜街道宇多津店,香川県綾歌郡宇多津町浜二番丁２０－１７,34.306191,133.814707
ysn_042818,"",１１号線国分寺店,香川県高松市国分寺町新居１３５４－３,34.295248,133.964811
ysn_042820,"",１１号線丸亀店,香川県丸亀市山北町４５－１,34.263818,133.802745
ysn_043428,"",関店（テイクアウト専門店）,岐阜県関市緑ヶ丘２丁目５－４０,35.489368,136.902487
ysn_043429,"",津乙部店,三重県津市乙部２０２９,34.718138,136.519873
ysn_043430,"",浄心店（テイクアウト・デリバリー専門店）,愛知県名古屋市西区上名古屋２丁目２１－２,35.189186,136.894073
ysn_043431,"",ルビットタウン中津川店（テイクアウト専門店）,岐阜県中津川市淀川町３－８ルビットタウン中津川商業施設内,35.494602,137.510386
ysn_043433,"",辻本通店,愛知県名古屋市北区辻本通３丁目２６,35.200882,136.926813
ysn_043605,"",１号線岡崎東店,愛知県岡崎市大平町杉本７－１,34.937001,137.196538
ysn_043606,"",１号線安城店,愛知県安城市東栄町３丁目８１６－６,34.982001,137.094626
ysn_043607,"",岐阜則武店,岐阜県岐阜市則武中２丁目３５－７,35.438494,136.741909
ysn_043608,"",１号線豊明店,愛知県豊明市前後町ほら貝１３８９－１,35.055253,136.992526
ysn_043610,"",豊田インタ－通り店,愛知県豊田市深田町１丁目７４－１,35.064339,137.126761
ysn_043613,"",１５５号線刈谷店,愛知県刈谷市新富町３丁目４１１,35.002797,137.006438
ysn_043614,"",２４７号線名和店,愛知県東海市名和町三番割中３１－６,35.060061,136.914249
ysn_043618,"",２４８号線豊田店,愛知県豊田市錦町２丁目４４,35.070343,137.162896
ysn_043619,"",２５８号線大垣店,岐阜県大垣市築捨町４丁目１０－１,35.333013,136.624507
ysn_043620,"",１９号線春日井西店,愛知県春日井市浅山町１３１１－４,35.253921,136.984379
ysn_043633,"",西尾店,愛知県西尾市下町神明下５９,34.864946,137.046928
ysn_043636,"",１９号線恵那店,岐阜県恵那市長島町正家２丁目７－２,35.445459,137.420281
ysn_043638,"",江南店,愛知県江南市高屋町西里５－２,35.350348,136.877141
ysn_043641,"",１５３号線和合店,愛知県愛知郡東郷町和合牛廻間１６６－１,35.103571,137.045345
ysn_043643,"",２４８号線可児店,岐阜県可児市下恵土４１３１－１,35.4216,137.045922
ysn_043645,"",瑞穂店,岐阜県瑞穂市馬場小城町１丁目２３,35.406018,136.691941
ysn_043648,"",名岐岐南町店,岐阜県羽島郡岐南町伏屋６丁目１７９,35.38007,136.787874
ysn_043649,"",岐阜六条店,岐阜県岐阜市六条江東３丁目５－１,35.385508,136.746524
ysn_043800,"",８号線加賀店,石川県加賀市中代町二６０－４,36.301693,136.351512
ysn_043801,"",小松店,石川県小松市今江町４丁目１５７,36.379043,136.449727
ysn_043802,"",２１号線垂井店,岐阜県不破郡垂井町綾戸 東１０３－１,35.364483,136.562558
ysn_043803,"",岐阜羽島店,岐阜県羽島市竹鼻町丸の内１丁目１,35.320579,136.697863
ysn_043804,"",岐阜市橋店,岐阜県岐阜市市橋２丁目８－２,35.398177,136.729741
ysn_043805,"",２１号線大垣北店,岐阜県大垣市八島町８３,35.375044,136.618174
ysn_043806,"",２１号線鵜沼店,岐阜県各務原市鵜沼西町１丁目６４８,35.399909,136.938794
ysn_043808,"",犬山店,愛知県犬山市犬山東古券３１６－１,35.377014,136.946471
ysn_043809,"",美濃加茂店,岐阜県美濃加茂市山手町３丁目１２６,35.446679,137.013205
ysn_043810,"",２１号線各務原店,岐阜県各務原市鵜沼三ツ池町２丁目１５１,35.399286,136.887923
ysn_043811,"",１５６号線芥見店,岐阜県岐阜市芥見長山２丁目１１８－１,35.451918,136.851699
ysn_043813,"",４１号線高山店,岐阜県高山市上岡本町３丁目７８,36.136423,137.246826
ysn_043816,"",１９号線多治見店,岐阜県多治見市小田町４丁目３０－１,35.337313,137.133719
ysn_043817,"",１９号線瑞浪店,岐阜県瑞浪市上平町４丁目８６,35.354161,137.25713
ysn_043818,"",１４１号線佐久平店,長野県佐久市佐久平駅南１９－１,36.270878,138.468918
ysn_043819,"",塩尻店,長野県塩尻市広丘高出１７８３－１,36.124471,137.95978
ysn_043820,"",篠ノ井バイパス店,長野県長野市合戦場３丁目３８,36.574556,138.161221
ysn_043821,"",１９号線松本高宮店,長野県松本市高宮北５－３,36.212412,137.963291
ysn_043822,"",１８号線上田国分店,長野県上田市国分１丁目９６２－１,36.380776,138.270491
ysn_043823,"",島田店,静岡県島田市中河町８９６４－１,34.834416,138.184001
ysn_043824,"",１５５号線常滑店,愛知県常滑市虹の丘７丁目９８,34.895651,136.842833
ysn_043825,"",甚目寺店,愛知県あま市下萱津五反田５７,35.180927,136.840927
ysn_043826,"",１６５号線名張店,三重県名張市夏見坊垣３２２２－２,34.617496,136.107098
ysn_043827,"",西大須店,愛知県名古屋市中区大須２丁目２７－４０新日本ビル,35.155048,136.902159
ysn_043828,"",上前津店,愛知県名古屋市中区大須４丁目１１－４４チサンマンション上前津,35.154398,136.909155
ysn_043829,"",千種駅前店,愛知県名古屋市千種区今池１丁目１－１,35.166322,136.933859
ysn_043830,"",国際センター店,愛知県名古屋市中村区那古野１丁目４６－１２,35.170209,136.893059
ysn_043831,"",栄生店,愛知県名古屋市西区栄生１丁目３２－１６,35.183444,136.878362
ysn_043832,"",大津通栄店,愛知県名古屋市中区栄３丁目２７－７,35.161899,136.910058
ysn_043833,"",庄内緑地公園店,愛知県名古屋市西区南川町１５,35.214819,136.885879
ysn_043834,"",名駅西店,愛知県名古屋市中村区椿町１－３,35.169947,136.882382
ysn_043835,"",丸田町店,愛知県名古屋市中区栄５丁目２５－２８,35.158861,136.916499
ysn_043836,"",名駅サンロード店,愛知県名古屋市中村区名駅４丁目７－２５,35.167011,136.887458
ysn_043837,"",古出来町店,愛知県名古屋市千種区北千種１丁目１－１梶川ビル,35.178145,136.945356
ysn_043838,"",尾頭橋店,愛知県名古屋市中川区尾頭橋１丁目８－９,35.140084,136.896355
ysn_043839,"",名駅太閤通口店,愛知県名古屋市中村区椿町７－４,35.16645,136.882958
ysn_043840,"",久屋大通錦店,愛知県名古屋市中区錦３丁目６－１５,35.168979,136.910649
ysn_043841,"",名鉄名古屋駅店,愛知県名古屋市中村区名駅１丁目２－１,35.166519,136.887054
ysn_043843,"",杁中店,愛知県名古屋市昭和区隼人町６－１９,35.139804,136.95837
ysn_043844,"",名四要町店,愛知県名古屋市南区丹後通４丁目６－１,35.074362,136.927545
ysn_043845,"",平針店,愛知県名古屋市天白区平針５丁目１０２,35.120775,137.003504
ysn_043846,"",塩釜口店,愛知県名古屋市天白区塩釜口１丁目８３２,35.129483,136.980321
ysn_043847,"",市大病院前店,愛知県名古屋市瑞穂区瑞穂通１丁目２,35.134769,136.936297
ysn_043848,"",伝馬町店,愛知県名古屋市熱田区神宮２丁目６－１２,35.118025,136.913353
ysn_043850,"",２４７号線半田店,愛知県半田市星崎町３丁目２２－４,34.896068,136.926952
ysn_043851,"",平手店,愛知県名古屋市緑区平手南１丁目２０１,35.080303,136.990832
ysn_043853,"",第２環状線笹原店,愛知県名古屋市天白区福池２丁目４１９,35.106298,136.963885
ysn_043854,"",高浜沢渡町店,愛知県高浜市沢渡町５丁目５－１０,34.925561,136.995107
ysn_043855,"",名鉄堀田駅前店,愛知県名古屋市瑞穂区塩入町４－１５,35.116371,136.92386
ysn_043856,"",名四四日市店,三重県四日市市北納屋町１－２１,34.962174,136.637893
ysn_043857,"",２５８号線桑名店,三重県桑名市江場６７６－１,35.043492,136.688408
ysn_043858,"",２３号線白子店,三重県鈴鹿市白子駅前６－３９,34.835271,136.591219
ysn_043860,"",鈴鹿西条店,三重県鈴鹿市西条９丁目４,34.871988,136.565697
ysn_043861,"",亀山店,三重県亀山市東御幸町穴淵２２４－２,34.848311,136.460792
ysn_043862,"",１号線富洲原店,三重県三重郡川越町豊田３１８－１,35.012437,136.66537
ysn_043863,"",２３号線伊勢店,三重県伊勢市御薗町長屋２１２７,34.504618,136.716244
ysn_043864,"",名四長島店,三重県桑名市長島町福吉５１７－１,35.0551,136.724906
ysn_043865,"",２３号線津南店,三重県津市高茶屋小森町４４１－７,34.671594,136.521093
ysn_043866,"",松阪朝日町店,三重県松阪市朝日町一区１０－１５,34.57642,136.540702
ysn_043867,"",津駅チャム店,三重県津市羽所町１１９１－１ＪＲ津駅構内,34.730541,136.51361
ysn_043868,"",１号線知立店,愛知県知立市中町花山５１－１,35.007699,137.048666
ysn_043869,"",１号線御油店,愛知県豊川市御油町八面横４０,34.840243,137.32599
ysn_043870,"",１５１号線豊川店,愛知県豊川市東豊町５丁目２,34.822848,137.409378
ysn_043871,"",岡崎南店,愛知県岡崎市若松東１丁目３－５,34.913201,137.170129
ysn_043872,"",岡崎北店,愛知県岡崎市井ノ口新町１－３,34.985726,137.167664
ysn_043873,"",２３号線花田町店,愛知県豊橋市花田町荒木２４－１,34.764494,137.374486
ysn_043874,"",赤塚パーキングエリア店,愛知県豊川市市田町北山７－２０,34.848146,137.364242
ysn_043875,"",市役所通り蒲郡店,愛知県蒲郡市竹谷町松本２２－１,34.824771,137.212328
ysn_043877,"",豊橋平川店,愛知県豊橋市平川町３４－１,34.759488,137.425307
ysn_043878,"",打越店,愛知県名古屋市千種区星ヶ丘２丁目８０,35.163421,136.99488
ysn_043879,"",上社店,愛知県名古屋市名東区上社２丁目２４１,35.171039,137.012097
ysn_043880,"",春日井店,愛知県春日井市鳥居松町１丁目１５－２９７,35.239803,136.968839
ysn_043881,"",４１号線豊場南店,愛知県名古屋市北区丸新町３－１,35.232184,136.912836
ysn_043882,"",４１号線小牧店,愛知県小牧市小木東１丁目１４０,35.277427,136.909163
ysn_043883,"",守山店,愛知県名古屋市守山区大谷町１－４３,35.19537,136.98814
ysn_043885,"",尾張旭三郷店,愛知県尾張旭市井田町１丁目８５,35.206811,137.056835
ysn_043886,"",春日井出川町店,愛知県春日井市出川町８丁目１０－６,35.262782,137.01931
ysn_043887,"",尾張旭印場店,愛知県尾張旭市白鳳町２丁目３２,35.207909,137.01753
ysn_043888,"",名岐一宮店,愛知県一宮市富士３丁目３－６,35.298655,136.824771
ysn_043889,"",尾西店,愛知県一宮市三条道東４５－１,35.306961,136.75968
ysn_043890,"",稲沢下津店,愛知県稲沢市下津下町西１丁目６２－１,35.245916,136.830154
ysn_043892,"",稲沢市役所前店,愛知県稲沢市船橋町花ノ木１１９１－１,35.246358,136.78244
ysn_043893,"",岩倉店,愛知県岩倉市大地新町３丁目１０－１,35.272339,136.867691
ysn_043894,"",一宮妙興寺店,愛知県一宮市妙興寺１丁目２－１０,35.284033,136.805588
ysn_043895,"",名四宝神町店,愛知県名古屋市港区神宮寺１丁目５１１,35.091073,136.850074
ysn_043896,"",松葉公園店,愛知県名古屋市中川区太平通１丁目１３,35.139429,136.874408
ysn_043897,"",中村公園店,愛知県名古屋市中村区太閤通９丁目１５－２,35.164874,136.858016
ysn_043898,"",千音寺店,愛知県名古屋市中川区吉津１丁目１８０８,35.1541,136.824442
ysn_043900,"",１号線十番町店,愛知県名古屋市中川区十番町２丁目９,35.120551,136.885617
ysn_043902,"",長野中御所店,長野県長野市中御所４丁目８－１５,36.629918,138.185344
ysn_043903,"",浜松西インター店,静岡県浜松市中央区湖東町３０５３,34.757713,137.684306
ysn_043904,"",１号線浜松石原町店,静岡県浜松市中央区石原町６９３,34.686233,137.772298
ysn_043905,"",浜松駅店,静岡県浜松市中央区砂山町３２２－４,34.699976,137.737263
ysn_043906,"",浜松志都呂店,静岡県浜松市中央区志都呂１丁目３２－１０,34.695099,137.66041
ysn_043907,"",北名古屋店,愛知県北名古屋市井瀬木郷前９－１,35.238585,136.888817
ysn_043908,"",津島金柳店,愛知県津島市金柳町観音堂２０,35.148707,136.780687
ysn_043909,"",静岡インター通り店,静岡県静岡市駿河区西中原１丁目９４９－１,34.953995,138.384158
ysn_043910,"",富山豊田町店,富山県富山市豊田町２－１２３－１,36.720331,137.238326
ysn_043911,"",８号線福久町店,石川県金沢市福久町ホ１５－１,36.612485,136.684061
ysn_043912,"",富山本郷新店,富山県富山市本郷新１４－５,36.664881,137.23235
ysn_043916,"",富山駅前店,富山県富山市桜町１丁目４－５,36.696248,137.216444
ysn_043917,"",１５６号線砺波店,富山県砺波市太郎丸３丁目９４,36.624464,136.961187
ysn_043918,"",富山呉羽店,富山県富山市呉羽町７２７５－２,36.706818,137.175643
ysn_043919,"",野々市店,石川県野々市市粟田６丁目３８６,36.507081,136.611794
ysn_043920,"",魚津店,富山県魚津市上村木８４８－２,36.817014,137.415109
ysn_043923,"",高岡宝町店,富山県高岡市宝町２－１８,36.754942,137.029216
ysn_043924,"",４１号線富山城南公園前店,富山県富山市花園町３丁目８－１０,36.676425,137.213729
ysn_043925,"",金沢畝田店,石川県金沢市畝田西１丁目１０３,36.590807,136.610153
ysn_043927,"",静岡ＳＢＳ通り店,静岡県静岡市駿河区中田４丁目７－２１,34.953727,138.401851
ysn_043928,"",名四飛島店,愛知県海部郡飛島村竹之郷２丁目２－１８,35.073553,136.789008
ysn_043929,"",１５５号線新舞子店,愛知県知多市新舞子大口２０６－７,34.946598,136.835486
ysn_043930,"",１５５号線大府店,愛知県大府市吉田町半ノ木８９－３,35.002325,136.939586
ysn_043932,"",ＪＲ静岡駅店,静岡県静岡市葵区黒金町４７,34.96777,138.390179
ysn_043933,"",長久手南店,愛知県長久手市市が洞３丁目１８０２,35.156194,137.031741
ysn_043934,"",静岡呉服町通り店,静岡県静岡市葵区紺屋町６－１２,34.969791,138.38888
ysn_043935,"",４１４号線沼津南店,静岡県沼津市上香貫１３７４,35.082093,138.871304
ysn_043936,"",１号線西沢田店,静岡県沼津市西沢田２７９－１,35.11453,138.847415
ysn_043937,"",掛川店,静岡県掛川市城西２丁目１３－５,34.773176,138.010131
ysn_043938,"",清水大坪店,静岡県静岡市清水区大坪１丁目９－１１,35.007613,138.470071
ysn_043939,"",金沢新神田店,石川県金沢市新神田２丁目１３－１０,36.560274,136.632733
ysn_043941,"",伏見通錦店,愛知県名古屋市中区錦２丁目９－２３,35.167031,136.900659
ysn_043942,"",袋井店,静岡県袋井市川井杉の木９９０－５,34.742107,137.914925
ysn_043943,"",１３６号線伊豆長岡店,静岡県伊豆の国市南條２１１－４,35.033518,138.951174
ysn_043944,"",長泉店,静岡県駿東郡長泉町納米里１９９－１,35.141431,138.900541
ysn_043945,"",１３５号線伊東店,静岡県伊東市静海町１１－８,34.9673,139.106581
ysn_043946,"",アスティ岐阜駅店,岐阜県岐阜市橋本町１丁目１０－１,35.406381,136.760356
ysn_043947,"",伊賀上野店,三重県伊賀市小田町２５１,34.771796,136.12858
ysn_043948,"",小牧岩崎店,愛知県小牧市岩崎５丁目１９５,35.307839,136.932784
ysn_043949,"",守山松川橋店,愛知県名古屋市守山区白沢町１,35.211003,136.972567
ysn_043950,"",福井大手店,福井県福井市大手１丁目２－１８,36.063579,136.229011
ysn_043951,"",美合パーキングエリア下り店,愛知県岡崎市市場町御成箇３－４１東名美合ＰＡ内,34.91669,137.237388
ysn_043952,"",尾張一宮パーキングエリア上り店,愛知県一宮市丹陽町三ツ井 東金浦２７０９名神尾張一宮ＰＡ内,35.275122,136.849176
ysn_043953,"",飯田大門町店,長野県飯田市大門町８５－１,35.519944,137.832301
ysn_043954,"",８号線鯖江店,福井県鯖江市東鯖江１丁目３－２,35.943006,136.197563
ysn_043955,"",金沢もりの里店,石川県金沢市もりの里１丁目６０,36.547068,136.692935
ysn_043956,"",小割通店,愛知県名古屋市港区小割通３丁目１,35.111971,136.873001
ysn_043957,"",浜松ディーラー通り店,静岡県浜松市中央区和田町７７９－１,34.718582,137.769794
ysn_043958,"",４１号線富山田中町店,富山県富山市田中町５丁目４－１３,36.692875,137.247674
ysn_043959,"",郡上八幡店,岐阜県郡上市八幡町城南町２２１－１,35.741241,136.950941
ysn_043960,"",浜松若林店,静岡県浜松市中央区若林町２７４４－４,34.691583,137.702476
ysn_043961,"",近鉄四日市店,三重県四日市市安島１丁目１－２０,34.964885,136.620718
ysn_043962,"",ＪＲ清水駅店,静岡県静岡市清水区真砂町１－１,35.020034,138.491791
ysn_043963,"",磐田二之宮店,静岡県磐田市二之宮東１３－３,34.709571,137.861921
ysn_043964,"",諏訪インター店,長野県茅野市宮川１３４５－１,35.997463,138.137698
ysn_043965,"",四軒家店,愛知県名古屋市守山区白山２丁目８０８,35.192458,137.032521
ysn_043966,"",そば処吉野家 屏風山パーキングエリア上り店,岐阜県瑞浪市土岐町３２８２－５,35.39387,137.278359
ysn_043968,"",そば処吉野家 掛川パーキングエリア上り店,静岡県掛川市倉真藪ノ上７５０７－１－１,34.838338,138.045166
ysn_043970,"",松阪久保町店,三重県松阪市久保町１８４３－６,34.54648,136.543087
ysn_043971,"",高岡上北島店,富山県高岡市上北島４０－１,36.736969,136.983769
ysn_043973,"",藤枝小石川店,静岡県藤枝市小石川町１丁目６－１９,34.850539,138.261192
ysn_043974,"",静岡瀬名川店,静岡県静岡市葵区瀬名川２丁目４－１０,35.002695,138.430231
ysn_043975,"",１５０号線焼津店,静岡県焼津市八楠４丁目３－１１,34.874317,138.307284
ysn_043976,"",１号線弥富店,愛知県弥富市鯏浦町中六１３０－１,35.108671,136.728886
ysn_043977,"",富士宮店,静岡県富士宮市淀師１１１１－２,35.239089,138.612846
ysn_043978,"",金沢三馬店,石川県金沢市三馬３－３4５,36.524133,136.632813
ysn_043979,"",豊橋曙町店,愛知県豊橋市曙町南松原８－１,34.726777,137.403731
ysn_043980,"",四日市日永店,三重県四日市市日永西２丁目３８４７－１,34.949036,136.59899
ysn_044323,"",３５号線佐世保大塔店,長崎県佐世保市大塔町１８－１１,33.146969,129.782775
ysn_044605,"",大橋店,福岡県福岡市南区大橋１丁目１９－２２,33.554917,130.427433
ysn_044606,"",２０２号線バイパス原店,福岡県福岡市早良区原４丁目２５－１５,33.564017,130.342713
ysn_044607,"",大池通り長丘店,福岡県福岡市南区長丘５丁目１５－１,33.550095,130.392692
ysn_044608,"",早良街道西新店,福岡県福岡市早良区曙１丁目１３－２５,33.573734,130.361288
ysn_044609,"",１０号線片野店,福岡県北九州市小倉北区片野２丁目２１－３０,33.862541,130.885081
ysn_044610,"",３号線箱崎店,福岡県福岡市東区箱崎２丁目４２－６,33.617004,130.421234
ysn_044612,"",１０号線別府店,大分県別府市汐見町７－３６,33.299631,131.50427
ysn_044613,"",長崎駅前店,長崎県長崎市大黒町９－３１アンガスビル１Ｆ,32.748717,129.874892
ysn_044616,"",３４号線佐賀店,佐賀県佐賀市卸本町５－３４,33.26952,130.278546
ysn_044618,"",久留米市役所前店,福岡県久留米市中央町２３－２,33.315757,130.509562
ysn_044619,"",大分府内大橋店,大分県大分市畑中１丁目２－２９,33.202944,131.605081
ysn_044621,"",長崎滑石店,長崎県長崎市滑石２丁目１－４０,32.805064,129.848117
ysn_044625,"",東光寺店,福岡県福岡市博多区東光寺町１丁目５－２,33.572121,130.438787
ysn_044626,"",築港本町店,福岡県福岡市博多区神屋町９－１４,33.598482,130.405332
ysn_044627,"",南バイパス太宰府店,福岡県太宰府市梅香苑１丁目１－４１,33.498522,130.533877
ysn_044628,"",３４号線長崎大村店,長崎県大村市松並１丁目３７０－１,32.914378,129.952344
ysn_044629,"",鹿児島住吉店,鹿児島県鹿児島市住吉町１０－１６,31.586604,130.564271
ysn_044630,"",春吉店,福岡県福岡市中央区春吉３丁目２１－２１,33.586041,130.406932
ysn_044632,"",東合川店,福岡県久留米市東合川２丁目３－２１,33.317883,130.55253
ysn_044635,"",那の川店,福岡県福岡市中央区白金２丁目１１－１６,33.572109,130.410932
ysn_044640,"",５７号線長崎諫早店,長崎県諫早市小川町１－１,32.829597,130.064139
ysn_044642,"",春日宝町店,福岡県春日市宝町４丁目２４－６,33.529894,130.462016
ysn_044646,"",２０２号線今宿店,福岡県福岡市西区横浜３丁目３４－２,33.578718,130.264628
ysn_044652,"",佐賀環状東通り店,佐賀県佐賀市巨勢町牛島４１５－４,33.250637,130.323313
ysn_044653,"",鹿児島中山店,鹿児島県鹿児島市中山２丁目１－２,31.540373,130.515503
ysn_044702,"",浜線八王寺店,熊本県熊本市中央区八王寺町３１－１３,32.777279,130.717089
ysn_044703,"",大野城店,福岡県大野城市瓦田４丁目１２－４０,33.529904,130.486186
ysn_044705,"",宮崎南店,宮崎県宮崎市中村西３丁目３－６１,31.893715,131.419833
ysn_044709,"",１０号線都城店,宮崎県都城市平江町５－６,31.73009,131.07066
ysn_044711,"",鹿児島伊敷店,鹿児島県鹿児島市伊敷１丁目３－１５,31.612955,130.530666
ysn_044712,"",大分竹町店,大分県大分市中央町１丁目５－１,33.234886,131.609531
ysn_044715,"",１９７号線大分萩原店,大分県大分市牧２丁目１－７,33.238513,131.641828
ysn_044718,"",玉名パーキングエリア店,熊本県玉名郡南関町下坂下１５５９－３,33.011024,130.585569
ysn_044720,"",２２５号線鹿児島宇宿店,鹿児島県鹿児島市新栄町１－２３,31.546893,130.546052
ysn_044721,"",２０１号線篠栗店,福岡県糟屋郡篠栗町和田１丁目６－７,33.628996,130.50294
ysn_044722,"",熊本光の森店,熊本県菊池郡菊陽町光の森６丁目２－２,32.860467,130.785368
ysn_044723,"",天神サザン通り店,福岡県福岡市中央区天神２丁目６－３２天神パルスビル,33.586353,130.399286
ysn_044800,"",５３号線国体町店,岡山県岡山市北区南方５丁目１－２,34.671973,133.923445
ysn_044801,"",岡山桃太郎通り店,岡山県岡山市北区本町２－９,34.662075,133.923831
ysn_044802,"",岡山大安寺店,岡山県岡山市北区大安寺南町１丁目６－１,34.656538,133.89593
ysn_044803,"",岡山平井店,岡山県岡山市中区平井４丁目２４－３２,34.632611,133.950659
ysn_044805,"",東岡山店,岡山県岡山市中区神下１０４－１,34.673313,133.981655
ysn_044806,"",１７９号線津山店,岡山県津山市二宮１９２１－４,35.057582,133.974384
ysn_044807,"",岡山松浜店,岡山県岡山市南区松浜町１５－２８,34.609368,133.942553
ysn_044808,"",岡山裁判所前店,岡山県岡山市北区富田町１丁目４－８,34.667771,133.926021
ysn_044809,"",５３号線鳥取吉成店,鳥取県鳥取市吉成７７９－２,35.478261,134.222135
ysn_044811,"",４３０号線水島店,岡山県倉敷市東塚１丁目３１１－１,34.519711,133.762742
ysn_044812,"",２号線早島店,岡山県都窪郡早島町早島３４５８－１,34.607659,133.829914
ysn_044813,"",徳山駅前店,山口県周南市有楽町２,34.048932,131.805457
ysn_044815,"",総社店,岡山県総社市中央５丁目１０－１０２,34.666533,133.756931
ysn_044817,"",連島店,岡山県倉敷市連島３丁目８－３５,34.548889,133.745256
ysn_044818,"",佐波川サービスエリア上り店,山口県防府市佐野１４３１,34.050071,131.513232
ysn_044820,"",松江学園通り店,島根県松江市学園１丁目１７－２０,35.477136,133.071172
ysn_044821,"",３号線小倉清水店,福岡県北九州市小倉北区清水３丁目１０－８,33.869629,130.861844
ysn_044822,"",小倉京町店,福岡県北九州市小倉北区京町２丁目６－１８,33.882271,130.883411
ysn_044824,"",２１３号線中津店,大分県中津市中殿町３丁目２６－８,33.591677,131.194799
ysn_044825,"",２号線下関長府店,山口県下関市長府才川１丁目４２－４１,34.021448,131.009046
ysn_044827,"",３号線宗像店,福岡県宗像市光岡３００－１,33.782758,130.557451
ysn_044829,"",久留米上津店,福岡県久留米市上津町１４１７－１４,33.286261,130.53271
ysn_044831,"",３号線近見店,熊本県熊本市南区近見２丁目１－５,32.761897,130.692855
ysn_044832,"",熊本日赤通り店,熊本県熊本市中央区帯山６丁目３－３２,32.801126,130.75977
ysn_044835,"",３号線高平店,熊本県熊本市北区高平３丁目１４－３５,32.83621,130.720306
ysn_044836,"",熊本東バイパス店,熊本県熊本市東区上南部２丁目１－１０８,32.823643,130.768462
ysn_044839,"",１０号線延岡店,宮崎県延岡市別府町３７２３－１,32.562533,131.685322
ysn_044841,"",９号線松江店,島根県松江市西津田２丁目６-２３,35.456015,133.078017
ysn_044842,"",博多祇園店,福岡県福岡市博多区祇園町６－４５,33.589027,130.413726
ysn_044843,"",３８５号線那珂川店,福岡県那珂川市片縄東１丁目２０－３,33.523647,130.427373
ysn_044844,"",３号線黒崎西店,福岡県北九州市八幡西区萩原１丁目２－３３,33.86057,130.751539
ysn_044845,"",小倉中井店,福岡県北九州市小倉北区中井２丁目７－２１,33.8896,130.852026
ysn_044846,"",２００号線飯塚店,福岡県飯塚市小正４０－３,33.621688,130.671743
ysn_044847,"",粕屋仲原店,福岡県糟屋郡粕屋町仲原２５３６－４,33.607227,130.458931
ysn_044848,"",宮崎瀬頭店,宮崎県宮崎市瀬頭２丁目１－４,31.90489,131.431287
ysn_044849,"",４９５号線和白丘店,福岡県福岡市東区和白丘１丁目１５－４,33.694126,130.438862
ysn_044851,"",千早東店,福岡県福岡市東区若宮５丁目２５－１９,33.642856,130.444317
ysn_044852,"",倉敷市役所前店,岡山県倉敷市白楽町４１８－５,34.582994,133.773647
ysn_044853,"",宮崎祇園店,宮崎県宮崎市霧島４丁目４４－１,31.93039,131.414851
ysn_044856,"",鹿屋店,鹿児島県鹿屋市寿２丁目８－７,31.383119,130.864096
ysn_044857,"",福岡原田店,福岡県福岡市東区原田３丁目３－２６,33.618468,130.438989
ysn_044858,"",東広島西条店,広島県東広島市西条土与丸５丁目３－２２,34.426839,132.757987
ysn_044859,"",１８３号線広島三篠町店,広島県広島市西区三篠町３丁目２１－１７,34.411294,132.456931
ysn_044862,"",佐波川サービスエリア下り店,山口県防府市佐野峠下４５２－２,34.051194,131.513714
ysn_044865,"",×はなまるうどん 福岡空港国内線ターミナルビル店,福岡県福岡市博多区大字下臼井７７８－１　福岡空港国内線ターミナルビル　１Ｆ,33.594455,130.449975
ysn_044866,"",熊本健軍店,熊本県熊本市東区東野２丁目１－３,32.774154,130.772439
ysn_044867,"",八幡折尾店,福岡県北九州市八幡西区丸尾町６－９,33.865678,130.721768
ysn_044868,"",霧島店,鹿児島県霧島市国分野口町４－２６,31.734903,130.752749
ysn_044869,"",熊本下通店,熊本県熊本市中央区下通１丁目３－１ＮＡＤＥＬビル１Ｆ,32.799279,130.711471
ysn_044870,"",博多バスターミナル店,福岡県福岡市博多区博多駅中央街２－１博多バスターミナル１Ｆ,33.588072,130.421776
ysn_044871,"",八代店,熊本県八代市松江町２４１－１,32.510271,130.60086
ysn_044872,"",八幡下上津役店,福岡県北九州市八幡西区下上津役４丁目２４－１,33.821874,130.746365
ysn_044873,"",鳥栖本町店,佐賀県鳥栖市本町３丁目１５０２,33.375512,130.509623
ysn_044874,"",２０４号線唐津店,佐賀県唐津市千代田町２１０９－９０,33.445932,129.975889
ysn_044875,"",チャチャタウン小倉店,福岡県北九州市小倉北区砂津３丁目１－１,33.879659,130.891148
ysn_044876,"",×はなまるうどん ミーナ天神店,福岡県福岡市中央区天神４丁目３－８地下１Ｆ,33.58966,130.400667
ysn_044877,"",井尻駅前店（テイクアウト・デリバリー専門店）,福岡県福岡市南区井尻４丁目１－３７,33.548149,130.44583
ysn_044878,"",高宮駅前店（テイクアウト・デリバリー専門店）,福岡県福岡市南区高宮５丁目１－１,33.563478,130.416939
ysn_044880,"",福岡空港国際ターミナルビル店,福岡県福岡市博多区青木７３９,33.580858,130.446531
ysn_044881,"",柳川三橋店,福岡県柳川市三橋町蒲船津１４００－８,33.163025,130.425015
ysn_044882,"",アミュプラザ鹿児島店,鹿児島県鹿児島市中央町１－１アミュプラザ鹿児島本館　地下１階,31.580699,130.545042
ysn_044883,"",２０８号線佐賀大学前店,佐賀県佐賀市本庄町本庄５７７－１,33.236307,130.289903
ysn_044884,"",六本松店（テイクアウト・デリバリー専門店）,福岡県福岡市中央区六本松２丁目６－６HILLTOP BUILDING　１Ｆ,33.574971,130.379816
ysn_044886,"",もちだんご村ＭＡＬＬ店,福岡県直方市下境９２０－２,33.734826,130.747587
ysn_044887,"",吉塚店,福岡県福岡市東区馬出１丁目２４－４４,33.606537,130.425586
ysn_044888,"",甘木店,福岡県朝倉市甘木３２－１,33.416011,130.665194
ysn_044889,"",上熊本店,熊本県熊本市西区上熊本３丁目１６－１３,32.821182,130.701014
ysn_044890,"",福岡春日原店（テイクアウト・デリバリー専門店）,福岡県大野城市錦町４丁目１－２,33.534453,130.477379
ysn_044892,"",佐世保下京店,長崎県佐世保市下京町１－１,33.16426,129.726093
ysn_045360,"",そば処吉野家 足柄サービスエリア下り店,静岡県駿東郡小山町桑木字南の原５９９東名高速道路足柄ＳＡ内,35.309565,138.9704
ysn_045509,"",御経塚店,石川県野々市市御経塚２丁目１６,36.546606,136.602543
ysn_045601,"",１３６号線函南店,静岡県田方郡函南町塚本１４２－１,35.075845,138.939362
ysn_045608,"",本市場店,静岡県富士市本市場４２４－２,35.152726,138.663957
ysn_045610,"",１３９号富士伝法店,静岡県富士市伝法２３７９－１,35.168818,138.679213
ysn_045703,"",福井二の宮店,福井県福井市幾代２丁目１５０１,36.084783,136.228838
ysn_045710,"",２７号線敦賀店,福井県敦賀市古田刈１２－１－１,35.629342,136.070156
ysn_045711,"",福井花堂店,福井県福井市花堂北２丁目１２１２,36.036473,136.21684
ysn_045714,"",武生店,福井県越前市新保町３０－５０－２,35.904117,136.15695
ysn_045715,"",８号線成和店,福井県福井市成和１丁目９１４,36.055233,136.24504
ysn_045718,"",金沢百番街店,石川県金沢市木ノ新保町１－１金沢百番街　あんと西1階,36.575338,136.650175
ysn_046502,"",札幌駅ＡＰＩＡ店,北海道札幌市中央区北５条西４丁目,43.064411,141.353733
ysn_046503,"",手稲前田店,北海道札幌市手稲区前田５条６丁目３－１８,43.118304,141.265567
ysn_046504,"",新千歳空港店,北海道千歳市美々 新千歳空港ターミナルビル１階,42.786444,141.684335
ysn_046507,"",札幌狸小路店,北海道札幌市中央区南３条西４丁目１２－１,43.054502,141.356431
ysn_046611,"",仙台駅東口店,宮城県仙台市宮城野区榴岡２丁目１－２０ＨＰビル,38.258132,140.887779
ysn_046621,"",仙台中山店,宮城県仙台市泉区南中山１丁目４１－１,38.293811,140.831356
ysn_046625,"",仙台高砂店,宮城県仙台市宮城野区福室４丁目１８－２２,38.272681,140.977948
ysn_046626,"",４号線岩沼店,宮城県岩沼市末広１丁目２４１－１,38.105354,140.877586
ysn_046627,"",仙台駅西口店,宮城県仙台市青葉区中央１丁目７－１,38.259425,140.883927
ysn_046630,"",４５号線八戸類家店,青森県八戸市類家４丁目１－２,40.506179,141.509689
ysn_046631,"",石巻バイパス店,宮城県石巻市南中里４丁目７－１９,38.437436,141.298769
ysn_046632,"",４号線名取店,宮城県名取市上余田干刈田５６９－１,38.182409,140.894131
ysn_046633,"",４号線新白河店,福島県西白河郡西郷村豊作西１８－１,37.121507,140.186068
ysn_046712,"",羊ヶ丘通清田店,北海道札幌市清田区清田２条３丁目３－５３,42.998376,141.4372
ysn_046721,"",環状通美園店,北海道札幌市豊平区美園４条６丁目３－１０,43.036953,141.392311
ysn_046724,"",３６号線苫小牧店,北海道苫小牧市若草町３丁目２－２,42.632773,141.60853
ysn_046727,"",３８号線帯広店,北海道帯広市西１条南１丁目１－２,42.929244,143.205694
ysn_046729,"",南郷通６丁目店,北海道札幌市白石区南郷通６丁目北３－３６,43.039009,141.412976
ysn_046730,"",千歳店,北海道千歳市北栄２丁目３－２,42.828264,141.651478
ysn_046733,"",大通西１０丁目店,北海道札幌市中央区大通西１０丁目４－１７３,43.055774,141.34527
ysn_046743,"",苫小牧新開町店,北海道苫小牧市新開町２丁目２－２,42.660362,141.659558
ysn_046800,"",１０２号線弘前高田店,青森県弘前市高田５丁目２－４,40.593781,140.509546
ysn_046802,"",３３９号線五所川原店,青森県五所川原市烏森５０２,40.801877,140.454547
ysn_046803,"",青森駅前店,青森県青森市新町１丁目１－１２,40.825428,140.739201
ysn_046805,"",７号線青森西店,青森県青森市石江高間３９－１,40.830354,140.700585
ysn_046806,"",三沢松園町店,青森県三沢市松園町３丁目１－３２,40.674447,141.368738
ysn_046807,"",１３号線秋田川尻若葉町店,秋田県秋田市川尻若葉町５－２０,39.705627,140.096641
ysn_046809,"",７号線鶴岡店,山形県鶴岡市美咲町２１－８,38.736516,139.804057
ysn_046810,"",７号線能代店,秋田県能代市東大瀬２－２,40.188091,140.039171
ysn_046811,"",１３号線横手店,秋田県横手市駅西２丁目８－２３,39.30429,140.561341
ysn_046812,"",秋田広面店,秋田県秋田市広面樋ノ沖８２－２,39.715524,140.15213
ysn_046813,"",由利本荘店,秋田県由利本荘市一番堰１５５－１,39.37604,140.061704
ysn_046814,"",気仙沼店,宮城県気仙沼市田中前２丁目１－５,38.889602,141.568754
ysn_046815,"",宮城佐沼店,宮城県登米市迫町佐沼萩洗２丁目１－３,38.684102,141.190597
ysn_046817,"",４号線水沢店,岩手県奥州市水沢区佐倉河前田８０－１,39.144066,141.153353
ysn_046818,"",４号線一関店,岩手県一関市山目十二神１９－１,38.927596,141.121055
ysn_046822,"",４号線古川店,宮城県大崎市古川若葉町２丁目１２－３７,38.58702,140.959293
ysn_046823,"",４号線富谷店,宮城県富谷市ひより台１丁目４３－５,38.40445,140.889688
ysn_046824,"",４５号線塩竃店,宮城県塩竈市杉の入４丁目３３,38.329689,141.041786
ysn_046825,"",仙台藤松店,宮城県仙台市青葉区藤松２丁目１０,38.293451,140.877555
ysn_046826,"",４号線仙台山の寺店,宮城県仙台市泉区山の寺１丁目１－３,38.323599,140.897821
ysn_046827,"",仙台加茂店,宮城県仙台市泉区加茂２丁目１－１,38.312321,140.870737
ysn_046832,"",仙台河原町店,宮城県仙台市若林区河原町１丁目１－２７,38.237073,140.891798
ysn_046833,"",仙台長町南店,宮城県仙台市太白区長町８丁目２１－６,38.225557,140.880027
ysn_046834,"",４号線松森店,宮城県仙台市泉区松森斉兵衛２－８,38.302113,140.911317
ysn_046835,"",４５号線仙台日の出町店,宮城県仙台市宮城野区日の出町２丁目１－１６,38.266105,140.937562
ysn_046836,"",利府店,宮城県宮城郡利府町神谷沢館の内７３－１,38.309092,140.958631
ysn_046837,"",仙台岡田店,宮城県仙台市宮城野区岡田北高屋敷３０－１,38.25118,140.964582
ysn_046838,"",仙台宮千代店,宮城県仙台市宮城野区宮千代２丁目２－８,38.249097,140.915821
ysn_046839,"",４号線大河原店,宮城県柴田郡大河原町新東２０－５,38.056762,140.740394
ysn_046840,"",４号線白石店,宮城県白石市福岡蔵本西町７８,37.997021,140.615057
ysn_046841,"",２８６号線西多賀店,宮城県仙台市太白区鈎取１丁目１－８,38.217985,140.851496
ysn_046842,"",柳生店,宮城県名取市田高神明１８６－１,38.183441,140.877556
ysn_046843,"",４号線福島黒岩店,福島県福島市黒岩榎平５８－２,37.721545,140.469928
ysn_046844,"",４号線伊達店,福島県伊達市坂ノ上８－１,37.814681,140.50623
ysn_046845,"",１３号線福島北中央店,福島県福島市北中央１丁目１－１,37.758921,140.438318
ysn_046846,"",４号線福島入江町店,福島県福島市入江町１４－９,37.765921,140.484442
ysn_046847,"",相馬店,福島県相馬市塚ノ町１丁目１４－７,37.800461,140.931355
ysn_046848,"",２８６号線山形南店,山形県山形市南原町２丁目８－３,38.232093,140.343976
ysn_046849,"",１２１号線米沢店,山形県米沢市徳町１６４－５,37.920601,140.10118
ysn_046850,"",４９号線郡山桑野店,福島県郡山市桑野町４丁目４７－１,37.404282,140.354084
ysn_046851,"",４９号線会津若松店,福島県会津若松市一箕町大字亀賀郷之原１７４－１,37.516438,139.945564
ysn_046852,"",４号線本宮店,福島県本宮市本宮栄田６８－１,37.508054,140.398373
ysn_046853,"",４号線須賀川店,福島県須賀川市大黒町１３５－１,37.283247,140.371984
ysn_046854,"",４９号線郡山安積店,福島県郡山市安積町日出山２丁目１５４－１,37.3693,140.385076
ysn_046855,"",１１８号線会津若松南店,福島県会津若松市西栄町５－２１,37.490937,139.930816
ysn_046856,"",新潟本町通店,新潟県新潟市中央区本町通６番町１１４０－１,37.918401,139.050158
ysn_046857,"",新潟海老ケ瀬インター店,新潟県新潟市東区大形本町５丁目１６－６,37.919417,139.127135
ysn_046858,"",燕三条店,新潟県三条市上須頃３２３,37.6341,138.94331
ysn_046859,"",８号線長岡寺島店,新潟県長岡市寺島町３０７－１,37.460314,138.826889
ysn_046860,"",８号線黒埼店,新潟県新潟市西区山田６６２,37.859501,139.020963
ysn_046861,"",上越高田店,新潟県上越市木田３丁目５－１７,37.13611,138.243889
ysn_046864,"",高崎上大類町店,群馬県高崎市上大類町１０１８－１,36.332859,139.033733
ysn_046865,"",天川大島店,群馬県前橋市天川大島町１丁目３３－４,36.3764,139.101119
ysn_046866,"",高崎環状線上豊岡店,群馬県高崎市上豊岡町８３３－１,36.340211,138.969081
ysn_046867,"",渋川インター店,群馬県渋川市半田２４７９－１,36.472143,139.025166
ysn_046868,"",１７号線下之城店,群馬県高崎市下之城町１７８,36.30824,139.032174
ysn_046870,"",玉村上飯島店,群馬県佐波郡玉村町上飯島２６９－１,36.299129,139.129107
ysn_046873,"",太田丸山店,群馬県太田市丸山町１２７７,36.340633,139.386246
ysn_046874,"",４０７号線太田店,群馬県太田市飯塚町１４３９－１,36.278478,139.380548
ysn_046875,"",大泉中央店,群馬県邑楽郡大泉町中央２丁目１４３６,36.253538,139.420808
ysn_046876,"",アクロスプラザ足利店,栃木県足利市田中町９５－１,36.320827,139.453078
ysn_046877,"",佐野大橋店,栃木県佐野市大橋町２０６５－５,36.311143,139.568823
ysn_046880,"",宇都宮南店,栃木県宇都宮市西川田町９３６－６,36.525291,139.857657
ysn_046881,"",４号線矢板店,栃木県矢板市中９３０－１,36.793386,139.947467
ysn_046882,"",宇都宮大曽店,栃木県宇都宮市上大曽町３６１－１,36.571918,139.892434
ysn_046883,"",１２５号線古河店,茨城県古河市西牛谷１０１７－５,36.199155,139.73861
ysn_046884,"",３５４号線館林店,群馬県館林市富士原町９４３－１,36.232492,139.524067
ysn_046885,"",１２１号線鹿沼店,栃木県鹿沼市茂呂１０５９－６,36.548514,139.785891
ysn_046886,"",新４号線上三川店,栃木県河内郡上三川町しらさぎ１丁目６－８,36.43724,139.909848
ysn_046889,"",つくばみらい店,茨城県つくばみらい市小絹７２６－２,35.978862,139.984662
ysn_046890,"",２９４号線下館店,茨城県筑西市西谷貝３３０,36.307113,139.970795
ysn_046891,"",ＴＸ守谷駅店,茨城県守谷市中央３丁目２,35.94724,139.996086
ysn_046892,"",守谷美園店,茨城県守谷市美園４丁目１－６,35.92098,140.003601
ysn_046893,"",カインズ結城店,茨城県結城市結城９７８４－３,36.288998,139.861493
ysn_046894,"",４号線小山本郷店,栃木県小山市本郷町１丁目３－２０,36.315096,139.805553
ysn_046895,"",土浦真鍋店,茨城県土浦市真鍋２丁目１－２８,36.087301,140.202461
ysn_046896,"",荒川沖店,茨城県稲敷郡阿見町住吉２丁目２４－６,36.032947,140.18325
ysn_046897,"",つくば台町店,茨城県つくば市台町２丁目３－１４,36.035199,140.087538
ysn_046899,"",６号線石岡店,茨城県石岡市石岡３９１８－２,36.190418,140.299682
ysn_046900,"",つくば大境店,茨城県つくば市西大橋５９３－１０,36.069244,140.087254
ysn_046901,"",水戸城南店,茨城県水戸市城南３丁目７－９,36.362647,140.485977
ysn_046902,"",水戸駅店,茨城県水戸市宮町１丁目１－１,36.367431,140.479514
ysn_046903,"",いわき平谷川瀬店,福島県いわき市平谷川瀬２丁目１２－１,37.045016,140.899254
ysn_046904,"",いわき湯本店,福島県いわき市常磐下船尾町古内２８９－８,36.984195,140.873091
ysn_046906,"",６号線常陸多賀店,茨城県日立市桜川町２丁目２－３,36.555723,140.634529
ysn_046907,"",１２４号線神栖店,茨城県神栖市大野原１丁目６－３,35.890336,140.65652
ysn_046908,"",１２４号線鹿嶋店,茨城県鹿嶋市宮中１９７０－１,35.960259,140.64516
ysn_046909,"",日立川尻店,茨城県日立市川尻町４丁目２９－２３,36.652081,140.701363
ysn_046910,"",６号線日立神峰店,茨城県日立市神峰町１丁目８－１５,36.594967,140.655416
ysn_046911,"",大館清水店,秋田県大館市清水２丁目１－１,40.280915,140.557801
ysn_046912,"",ＶＡＬ小山エキナカ店,栃木県小山市城山町３丁目３－２２ＪＲ小山駅構内,36.309813,139.809708
ysn_046913,"",１７号線前橋関根町店,群馬県前橋市関根町２丁目９－４５,36.431056,139.054119
ysn_046915,"",ひたちなか店,茨城県ひたちなか市中根３１６９－２,36.391944,140.542098
ysn_046916,"",１２３号線茨城大学前店,茨城県水戸市堀町１０６６－１,36.397446,140.442179
ysn_046917,"",４号線北上常盤台店,岩手県北上市常盤台４丁目１０－４４,39.308207,141.11602
ysn_046918,"",高崎飯塚町店,群馬県高崎市飯塚町４７５－１,36.339073,139.011993
ysn_046919,"",７号線酒田東町店,山形県酒田市東町２丁目１－２,38.904613,139.860847
ysn_046920,"",カインズ宇都宮テクノ店,栃木県宇都宮市ゆいの杜５丁目２６－５,36.564236,140.003372
ysn_046921,"",仙台イービーンズ店,宮城県仙台市青葉区中央４丁目１－１,38.255761,140.883172
ysn_046922,"",フレスポ新発田店,新潟県新発田市富塚町３丁目２８１－１,37.946543,139.299419
ysn_046923,"",前橋小相木店,群馬県前橋市小相木２７９－１,36.369701,139.056603
ysn_046924,"",大田原美原店,栃木県大田原市美原１丁目７－２５,36.856644,140.015294
ysn_046926,"",石巻大街道店,宮城県石巻市大街道西１丁目２－１０,38.427307,141.280709
ysn_046930,"",女池上山店,新潟県新潟市中央区女池上山２丁目１７－６,37.888911,139.034294
ysn_046931,"",八戸石堂店,青森県八戸市石堂２丁目２１－８,40.523248,141.474321
ysn_046932,"",笠間友部店,茨城県笠間市東平３丁目１－１４,36.346501,140.318398
ysn_046933,"",５０号線水戸河和田店,茨城県水戸市河和田２丁目２２２９－２,36.37249,140.406812
ysn_046934,"",水戸笠原店,茨城県水戸市笠原町１１９４－２,36.344231,140.456423
ysn_046935,"",３４９号線那珂菅谷店,茨城県那珂市竹ノ内１－５－１６,36.448688,140.504711
ysn_046936,"",牛久南店,茨城県牛久市南６丁目４－５,35.959628,140.15375
ysn_046937,"",佐渡佐和田店,新潟県佐渡市長木７６７－１,38.003246,138.338952
ysn_046938,"",秋田駅ビルトピコ店,秋田県秋田市中通７丁目１－２秋田駅ビルトピコ,39.71427,140.132538
ysn_046939,"",７号線秋田土崎店,秋田県秋田市土崎港相染町家ノ下４４,39.762787,140.071381
ysn_046940,"",宇都宮細谷町店,栃木県宇都宮市細谷町３２６－４,36.584776,139.858198
ysn_046941,"",長岡リップス川崎店,新潟県長岡市川崎町１３７４－５,37.454488,138.878441
ysn_046942,"",２３０号線藻岩店,北海道札幌市南区南３５条西１０丁目１３,43.007819,141.34916
ysn_046943,"",環状通東店,北海道札幌市東区北１５条東１７丁目１,43.079792,141.379562
ysn_046944,"",１２号線厚別東店,北海道札幌市厚別区厚別東４条３丁目２４－７１,43.045637,141.484344
ysn_046945,"",２３１号線篠路店,北海道札幌市北区篠路２条１丁目２－８,43.142139,141.35382
ysn_046946,"",１２号線岩見沢店,北海道岩見沢市日の出町８－２０,43.200727,141.785327
ysn_046947,"",新琴似４番通店,北海道札幌市北区新琴似８条１７－７６５－３,43.124138,141.310829
ysn_046949,"",札幌西町店,北海道札幌市西区西町南１１丁目１－３８,43.078849,141.288555
ysn_046950,"",宇都宮城東店,栃木県宇都宮市城東１丁目１０－２６,36.545156,139.905434
ysn_046951,"",４５号線多賀城八幡店,宮城県多賀城市八幡４丁目２－１１,38.286506,141.012485
ysn_046953,"",旭川４条通店,北海道旭川市４条通２丁目９２４－２,43.768361,142.356886
ysn_046954,"",つくば天久保店,茨城県つくば市天久保２丁目１５－１,36.095963,140.113346
ysn_046955,"",みどり大間々店,群馬県みどり市大間々町大間々３８２－１,36.412747,139.285696
ysn_046956,"",札幌伏古店,北海道札幌市東区伏古１１条４丁目１－５,43.093252,141.403779
ysn_046958,"",郡山さくら通り店,福島県郡山市虎丸町９－１５,37.396203,140.375902
ysn_046959,"",４号線古川栄町店,宮城県大崎市古川栄町６－２５,38.564298,140.951479
ysn_046962,"",山形西バイパス店,山形県山形市西田２丁目２４－１,38.2608,140.314892
ysn_046964,"",花巻中央店,岩手県花巻市里川口町２－２,39.387179,141.127995
ysn_046965,"",弘前中央通り店,青森県弘前市北瓦ヶ町７－１,40.5984,140.480618
ysn_046966,"",栃木大町店,栃木県栃木市大町１８－１２,36.391231,139.739189
ysn_046968,"",宇都宮今泉店,栃木県宇都宮市中今泉５丁目３７－４,36.566003,139.91935
ysn_046969,"",宇都宮宮の内店,栃木県宇都宮市宮の内３丁目１７７－１,36.502753,139.878816
ysn_046972,"",札幌麻生店,北海道札幌市北区北４０条西５丁目３３１－１,43.107115,141.34056
ysn_046974,"",二本松安達店,福島県二本松市油井福岡４４０,37.610348,140.464825
ysn_046975,"",佐野高萩町店,栃木県佐野市高萩町４６３－１,36.29815,139.59471
ysn_046976,"",ひたちなか西光地店,茨城県ひたちなか市西光地３丁目１－１,36.41553,140.535762
ysn_046977,"",函館神山店,北海道函館市神山２丁目７－１,41.809139,140.770223
ysn_046978,"",旭川豊岡店,北海道旭川市豊岡１条４丁目３４０－４３,43.753083,142.405835
ysn_046979,"",盛岡月が丘店,岩手県盛岡市月が丘２丁目８－５,39.72727,141.109453
ysn_046982,"",ＪＲ古河駅店,茨城県古河市本町１丁目１－１５,36.191474,139.713049
ysn_046983,"",２２８号線北斗七重浜店,北海道北斗市七重浜７丁目１４－１８,41.817696,140.698332
ysn_046984,"",釧路鳥取大通店,北海道釧路市鳥取大通７丁目６－１,43.014512,144.342013
ysn_046985,"",旭川永山店,北海道旭川市永山三条８丁目１－５,43.793326,142.414678
ysn_046986,"",盛岡インター店,岩手県盛岡市稲荷町１－３０,39.706309,141.117454
ysn_046987,"",盛岡フェザン店,岩手県盛岡市盛岡駅前通１－４４盛岡駅ビルフェザン本館Ｂ１Ｆ,39.69977,141.139188
ysn_046988,"",室蘭中島店,北海道室蘭市中島町３丁目３５－１５,42.348198,141.028218
ysn_046989,"",イオン札幌桑園店,北海道札幌市中央区北８条西１４丁目２８イオン札幌桑園１Ｆ　フードコート,43.067036,141.336115
ysn_046990,"",上江別店,北海道江別市上江別４２７－２７,43.096954,141.553207
ysn_046991,"",ＣｏＣｏＬｏ新潟店,新潟県新潟市中央区花園１丁目１－１,37.908822,139.063659
ysn_046992,"",盛岡南仙北店,岩手県盛岡市南仙北２丁目２７－６,39.670616,141.158766
ysn_047202,"",甲府バイパス竜王店,山梨県甲斐市富竹新田１２８０,35.658575,138.523866
ysn_047203,"",甲府バイパス向町店,山梨県甲府市向町５０３－１１,35.642896,138.616958
ysn_047205,"",南アルプス桃園店,山梨県南アルプス市桃園１４５４－６,35.616773,138.467646
ysn_047359,"",尻手店,神奈川県横浜市鶴見区尻手２－５－１,35.523335,139.686703
ysn_047363,"",厚木関口店,神奈川県厚木市関口２３６－５,35.482969,139.367946
ysn_047365,"",１６号線上鶴間店,神奈川県相模原市南区上鶴間本町９丁目２－４０,35.521682,139.452219
ysn_047394,"",２４６号線座間店,神奈川県座間市西栗原２丁目７－８,35.470258,139.41579
ysn_047399,"",１３４号線江ノ島店,神奈川県鎌倉市腰越３丁目４－３,35.304981,139.494887
ysn_047400,"",横須賀三春町店,神奈川県横須賀市三春町４丁目２８－１,35.260829,139.695403
ysn_047401,"",八王子南口店,東京都八王子市子安町１丁目３－１１ＳＤビル,35.650456,139.34209
ysn_047402,"",１６号線西谷店,神奈川県横浜市保土ヶ谷区西谷町１０９７－１,35.475259,139.567721
ysn_047403,"",日吉駅前店,神奈川県横浜市港北区日吉本町１丁目２２－１０,35.549885,139.649437
ysn_047405,"",そば処吉野家 長津田店,神奈川県横浜市緑区長津田６丁目１１－２４,35.524789,139.501719
ysn_047406,"",１６号線金沢文庫店,神奈川県横浜市金沢区谷津町１５１,35.338597,139.626894
ysn_047407,"",港南台店,神奈川県横浜市港南区港南台２丁目２４－１,35.375625,139.583178
ysn_047408,"",溝の口店,神奈川県川崎市高津区溝口１丁目１１－２３タイムワンビル１Ｆ,35.59714,139.614909
ysn_047409,"",横浜駅西口店,神奈川県横浜市西区南幸２丁目７－１５横川ビル,35.461109,139.621657
ysn_047410,"",そば処吉野家 ４１２号線厚木林店,神奈川県厚木市林４丁目２０－３０,35.45621,139.353037
ysn_047412,"",小田原駅前店,神奈川県小田原市栄町１丁目１４－３,35.251432,139.160957
ysn_047413,"",立場店,神奈川県横浜市泉区中田北１丁目２６－６,35.410552,139.506908
ysn_047414,"",平塚天沼店,神奈川県平塚市天沼１－４２,35.329957,139.357276
ysn_047415,"",１６号線追浜店,神奈川県横須賀市追浜町１丁目３８－１,35.306893,139.627338
ysn_047416,"",イオン相模原店,神奈川県相模原市南区古淵２丁目１０－１,35.549949,139.420346
ysn_047417,"",中原街道上白根店,神奈川県横浜市旭区上白根町７２９－７,35.496951,139.543626
ysn_047420,"",１号線三ッ沢中町店,神奈川県横浜市神奈川区三ッ沢中町９－７,35.473407,139.613195
ysn_047425,"",武蔵小杉南口店,神奈川県川崎市中原区小杉町３丁目４４１－２６,35.570856,139.661812
ysn_047426,"",藤沢石川店,神奈川県藤沢市石川１丁目１－１８,35.373206,139.455886
ysn_047427,"",湘南新道辻堂店,神奈川県藤沢市辻堂太平台２丁目１－１４,35.329343,139.465319
ysn_047428,"",川崎駅前店,神奈川県川崎市川崎区駅前本町２－１,35.526233,139.701791
ysn_047429,"",２４６号線厚木妻田店,神奈川県厚木市妻田東３丁目１－１,35.45535,139.362738
ysn_047433,"",綾瀬市役所南通り店,神奈川県綾瀬市深谷中４丁目６－１４,35.436008,139.436093
ysn_047436,"",京急川崎店,神奈川県川崎市川崎区砂子１丁目１－８,35.52824,139.704114
ysn_047437,"",環状４号線霧が丘店,神奈川県横浜市緑区霧が丘２丁目２－３,35.516908,139.509491
ysn_047440,"",２４６号線秦野店,神奈川県秦野市曽屋１３３６,35.375326,139.216624
ysn_047443,"",新横浜駅北口店,神奈川県横浜市港北区篠原町２９３７,35.505347,139.622214
ysn_047446,"",１６号線磯子丸山店,神奈川県横浜市磯子区丸山２丁目１－３,35.420251,139.627119
ysn_047448,"",川崎西口店,神奈川県川崎市幸区中幸町４丁目５１,35.528469,139.695667
ysn_047451,"",鶴見駅西口店,神奈川県横浜市鶴見区豊岡町１４－２８,35.506606,139.677811
ysn_047452,"",１号線国府津インター店,神奈川県小田原市国府津１丁目５－４,35.275194,139.2078
ysn_047455,"",武蔵小杉北口店,神奈川県川崎市中原区新丸子東２丁目９２４－８,35.573915,139.664148
ysn_047456,"",本厚木店,神奈川県厚木市中町２丁目１－２２柳ビル,35.437026,139.368603
ysn_047458,"",下鶴間店,神奈川県大和市鶴間１丁目２７－８,35.485928,139.45921
ysn_047459,"",新百合ヶ丘津久井道店,神奈川県川崎市麻生区片平１丁目７－５,35.596485,139.503467
ysn_047460,"",寒川一之宮店,神奈川県高座郡寒川町一之宮２丁目１２－１５,35.364955,139.387538
ysn_047462,"",元住吉駅前店,神奈川県川崎市中原区木月２丁目３－１,35.561666,139.6578
ysn_047463,"",港北ニュータウン店,神奈川県横浜市都筑区茅ケ崎南２丁目１１－１０,35.532781,139.584387
ysn_047464,"",川崎追分店,神奈川県川崎市川崎区追分町２－２ウィステリアヒルズ,35.517571,139.716797
ysn_047465,"",相模大野駅前店,神奈川県相模原市南区相模大野３丁目１０－８,35.529377,139.440087
ysn_047467,"",小田急登戸駅店,神奈川県川崎市多摩区登戸３４３７－２,35.617464,139.572506
ysn_047469,"",瀬谷駅前店,神奈川県横浜市瀬谷区中央１－４,35.467422,139.48741
ysn_047471,"",向ヶ丘駅前店,神奈川県川崎市多摩区登戸２７３７－５,35.613274,139.567286
ysn_047472,"",厚木街道東希望が丘店,神奈川県横浜市旭区東希望が丘４２,35.458367,139.522421
ysn_047473,"",戸塚駅西口店,神奈川県横浜市戸塚区戸塚町１６－１Ｂ２０４,35.397615,139.535573
ysn_047474,"",小田急海老名駅店,神奈川県海老名市めぐみ町１－１,35.449277,139.394083
ysn_047475,"",藤沢南口店,神奈川県藤沢市南藤沢２０－５,35.334164,139.491788
ysn_047476,"",４６７号線六会店,神奈川県藤沢市亀井野２丁目４－５,35.379762,139.477965
ysn_047478,"",子母口店,神奈川県川崎市高津区子母口５２１－２,35.567757,139.636544
ysn_047479,"",大井松田店,神奈川県足柄上郡大井町金子１８４２,35.325724,139.160769
ysn_047480,"",環状２号線下永谷店,神奈川県横浜市港南区下永谷６丁目１０－２０,35.410837,139.562327
ysn_047482,"",伊勢佐木町店,神奈川県横浜市中区伊勢佐木町４丁目１０９,35.438572,139.632204
ysn_047483,"",川崎富士見店,神奈川県川崎市川崎区富士見１丁目７－１５,35.526441,139.716884
ysn_047484,"",上大岡店,神奈川県横浜市港南区上大岡西１丁目１０－９,35.407068,139.5994
ysn_047485,"",２４６号線荏田店,神奈川県横浜市青葉区荏田町４２０－３,35.557916,139.561726
ysn_047488,"",茅ヶ崎駅南口店,神奈川県茅ヶ崎市幸町２－１０ジョイ茅ヶ崎・ポート１,35.326826,139.410599
ysn_047489,"",関内店,神奈川県横浜市中区真砂町３丁目３２小泉ビル,35.442052,139.638905
ysn_047490,"",１号線川崎遠藤町店,神奈川県川崎市幸区戸手２丁目１,35.541017,139.694876
ysn_047492,"",平塚駅前店,神奈川県平塚市紅谷町２－１,35.325777,139.353176
ysn_047494,"",茅ヶ崎円蔵店,神奈川県茅ヶ崎市円蔵１丁目２４－１０,35.343159,139.413973
ysn_047496,"",行幸道路相武台店,神奈川県座間市相武台１丁目２４－１,35.500462,139.413974
ysn_047497,"",小田急大和駅前店,神奈川県大和市中央１丁目１－２６,35.465457,139.465336
ysn_047498,"",横浜駅東口店,神奈川県横浜市西区高島２丁目１４－１３,35.460583,139.625702
ysn_047499,"",川崎平店,神奈川県川崎市宮前区平２丁目４－１５,35.596377,139.572898
ysn_047500,"",相模原緑が丘店,神奈川県相模原市中央区緑が丘１丁目１２－１８,35.544518,139.383346
ysn_047502,"",小田急新百合ヶ丘駅店,神奈川県川崎市麻生区万福寺１丁目１８－１,35.600644,139.510416
ysn_047503,"",モレラ東戸塚西口店,神奈川県横浜市戸塚区川上町９１－１モレラ東戸塚２Ｆ,35.426968,139.559078
ysn_047504,"",東急中央林間駅店,神奈川県大和市中央林間４丁目６－３,35.504113,139.447939
ysn_047505,"",綱島駅東口店,神奈川県横浜市港北区綱島西１丁目１－３２,35.532738,139.637432
ysn_047506,"",相模原富士見店,神奈川県相模原市中央区富士見２丁目１－１,35.567253,139.381714
ysn_047507,"",青葉成合店,神奈川県横浜市青葉区たちばな台１丁目２０－２４,35.556562,139.516297
ysn_047508,"",海老名上郷店,神奈川県海老名市上郷３８９－１,35.450743,139.386461
ysn_047509,"",藤沢駅北口店,神奈川県藤沢市藤沢４２０－３,35.335801,139.491311
ysn_047510,"",横浜ジョイナス店,神奈川県横浜市西区南幸１丁目５－１,35.461306,139.623466
ysn_047511,"",センター南駅店,神奈川県横浜市都筑区茅ヶ崎中央１－１センター南駅３階,35.542236,139.577837
ysn_047512,"",弘明寺店（テイクアウト・デリバリー専門店）,神奈川県横浜市南区弘明寺町１３３－１,35.420541,139.601972
ysn_047513,"",平塚大神店,神奈川県平塚市大神８丁目２－１,35.390259,139.365223
ysn_047514,"",宿河原店,神奈川県川崎市多摩区長尾５－１９,35.608641,139.585892
ysn_047515,"",１２９号線上溝店,神奈川県相模原市中央区上溝２３８０－６,35.545847,139.358944
ysn_047516,"",妙蓮寺店（テイクアウト・デリバリー専門店）,神奈川県横浜市港北区菊名１丁目７－１,35.495258,139.635999
ysn_047519,"",東林間店（テイクアウト・デリバリー専門店）,神奈川県相模原市南区上鶴間７丁目６－６中島ビル１階,35.517618,139.442449
ysn_047520,"",矢向駅前店（テイクアウト・デリバリー専門店）,神奈川県横浜市鶴見区矢向６丁目６－２７,35.535668,139.683368
ysn_047522,"",武蔵新城店（テイクアウト・デリバリー専門店）,神奈川県川崎市中原区上新城２丁目１－２２,35.583664,139.633981
ysn_047523,"",中山駅前店（テイクアウト・デリバリー専門店）,神奈川県横浜市緑区寺山町６８－１,35.510927,139.542465
ysn_047524,"",大船駅笠間口東店,神奈川県鎌倉市大船１丁目２６－３３,35.350968,139.536094
ysn_047875,"",２４６号線愛甲石田店,神奈川県伊勢原市石田５９７－３,35.413584,139.345763
ysn_047878,"",海老名サービスエリア店,神奈川県海老名市大谷南５丁目２－１東名高速道路海老名ＳＡ下り,35.42767,139.405267
ysn_047886,"",相模原二本松店,神奈川県相模原市緑区二本松３丁目３１－２４,35.595021,139.320687
ysn_047903,"",甲府駅前店,山梨県甲府市丸の内１丁目２－１３,35.662795,138.572018
ysn_047956,"",飯田インター店,長野県飯田市育良町３－１－１４,35.497668,137.805499
ysn_048353,"",北小金店,千葉県松戸市根木内２６,35.82833,139.941932
ysn_048372,"",１６号線五井店,千葉県市原市白金町４丁目８,35.525629,140.103743
ysn_048374,"",こてはし台店,千葉県千葉市花見川区大日町１３６３,35.683148,140.132619
ysn_048380,"",１６号線若柴店,千葉県柏市若柴５－１０,35.885033,139.965249
ysn_048382,"",１６号線野田店,千葉県野田市船形２８５０－１,35.988944,139.853604
ysn_048389,"",千葉中央店,千葉県千葉市中央区富士見２丁目２２－１５星野ビル１Ｆ,35.604973,140.121352
ysn_048390,"",流山店,千葉県流山市加４－１６４３,35.858274,139.906046
ysn_048391,"",古市場店,千葉県千葉市緑区古市場町６２４－１,35.5433,140.149787
ysn_048393,"",１６号線柏店,千葉県柏市柏９３１－１５,35.859635,139.985478
ysn_048395,"",松戸西口店,千葉県松戸市本町２０－２,35.781712,139.903241
ysn_048400,"",柏東口店,千葉県柏市柏１丁目５－１９,35.85763,139.97615
ysn_048401,"",船橋市場町店,千葉県船橋市市場２丁目２－２８,35.702466,139.997907
ysn_048402,"",行徳相之川店,千葉県市川市相之川２丁目６－４,35.67496,139.903571
ysn_048405,"",中山競馬場前店,千葉県市川市若宮３丁目４８－３,35.724656,139.962861
ysn_048406,"",１４号線幕張店,千葉県千葉市花見川区幕張町１丁目７７８０－１,35.660929,140.045469
ysn_048407,"",パビリオン成田店,千葉県成田市ウイング土屋８０,35.789707,140.324986
ysn_048408,"",柏西口店,千葉県柏市旭町１丁目４－１８,35.859159,139.971965
ysn_048410,"",八千代台西口店,千葉県八千代市八千代台西１丁目１０,35.697989,140.093454
ysn_048411,"",千葉さつきが丘店,千葉県千葉市花見川区犢橋町１１０２－３,35.662452,140.104955
ysn_048414,"",都町店,千葉県千葉市中央区都町２丁目２－５,35.60866,140.140575
ysn_048417,"",市川駅前店,千葉県市川市市川１丁目８－２,35.726479,139.910556
ysn_048418,"",千葉モノレール天台駅前店,千葉県千葉市稲毛区轟町５丁目５－２４,35.627466,140.116022
ysn_048421,"",船橋二和東店,千葉県船橋市二和東６丁目２－３,35.753848,140.022574
ysn_048422,"",新京成八柱駅店,千葉県松戸市日暮１丁目１－２,35.788349,139.941317
ysn_048424,"",習志野藤崎店,千葉県習志野市藤崎４丁目３－１５,35.688004,140.041312
ysn_048426,"",佐倉ユーカリが丘店,千葉県佐倉市上座１２０５－１,35.722684,140.162493
ysn_048427,"",千葉末広街道店,千葉県千葉市中央区末広３丁目１７－１,35.589948,140.130686
ysn_048432,"",そば処吉野家 カインズ市原店,千葉県市原市更級３丁目１－１,35.504724,140.107616
ysn_048433,"",２９６号線富里店,千葉県富里市七栄１２７－７,35.734932,140.31901
ysn_048434,"",市川鬼高店,千葉県市川市鬼高３丁目１４－１１,35.7067,139.940164
ysn_048435,"",西船橋店,千葉県船橋市西船４丁目２１－１７千成ビル,35.706073,139.961743
ysn_048436,"",習志野台店,千葉県船橋市習志野１丁目９－２３,35.708916,140.059333
ysn_048437,"",１４号線登戸店,千葉県千葉市中央区登戸２丁目３－８,35.607356,140.113106
ysn_048439,"",プレナ幕張店,千葉県千葉市美浜区ひび野２丁目４プレナ幕張１Ｆ,35.644874,140.043647
ysn_048440,"",浦安駅前店,千葉県浦安市北栄１丁目１７－１６,35.66187,139.896278
ysn_048441,"",カインズ木更津店,千葉県木更津市金田東３丁目１－３,35.429496,139.939199
ysn_048443,"",松戸東口店,千葉県松戸市松戸１２３０－１ニュートウキョウセブンプラザ,35.780521,139.904232
ysn_048444,"",松戸みのり台店,千葉県松戸市稔台８丁目１－６,35.783225,139.927729
ysn_048445,"",カインズ千葉ニュータウン店,千葉県印西市泉野１丁目１４４－６,35.800722,140.130665
ysn_048447,"",京成船橋店,千葉県船橋市本町１丁目５－１,35.697009,139.989245
ysn_048448,"",行徳新浜店,千葉県市川市新浜１丁目２－１７,35.673429,139.920545
ysn_048449,"",都営線本八幡店,千葉県市川市八幡２丁目１６－１４,35.718538,139.929338
ysn_048450,"",成田国際空港第２本館店,千葉県成田市古込１－１第２旅客ターミナルビル本館２階 Ｍ２２１６,35.770425,140.390713
ysn_048451,"",成田国際空港第２サテライト店,千葉県成田市古込１－１第２ターミナルビル南テラス３Ｆ,35.772592,140.395358
ysn_048452,"",１２８号線茂原高師店,千葉県茂原市高師１６７８－１１,35.433261,140.289492
ysn_048453,"",八千代緑が丘店,千葉県八千代市緑が丘西１丁目１３－２,35.731151,140.071842
ysn_048454,"",稲毛駅東口店,千葉県千葉市稲毛区小仲台２丁目７－１３統葉ビル１階,35.634199,140.097322
ysn_048455,"",佐倉寺崎店,千葉県佐倉市寺崎北４丁目１－５,35.708419,140.221673
ysn_048456,"",１２６号線東金堀上店,千葉県東金市堀上２５６,35.55628,140.375524
ysn_048457,"",１６号線八千代村上店,千葉県八千代市村上１６０８－１,35.725853,140.121448
ysn_048458,"",東我孫子店,千葉県我孫子市東我孫子２丁目３６－２５,35.862403,140.044615
ysn_048459,"",ペリエ千葉店,千葉県千葉市中央区新千葉１丁目１－１,35.610055,140.117775
ysn_048461,"",木更津駅前店,千葉県木更津市富士見１丁目１－１,35.378054,139.929979
ysn_048463,"",松戸八ヶ崎店（テイクアウト・デリバリー専門店）,千葉県松戸市八ヶ崎１丁目３０－１０,35.815055,139.937972
ysn_048464,"",ミーナ津田沼店,千葉県習志野市津田沼１丁目３－１ミーナ津田沼１Ｆ,35.686628,140.02623
ysn_048465,"",イオン新浦安店,千葉県浦安市入船１丁目４－１イオン浦安１階フードコート,35.645811,139.917574
ysn_048466,"",×はなまるうどん ＴＸＧＡ流山おおたかの森店,千葉県流山市おおたかの森北１丁目１－１,35.869235,139.928899
ysn_048467,"",木更津太田店,千葉県木更津市太田１丁目３－８,35.382006,139.942419
ysn_048468,"",勝田台駅店（テイクアウト・デリバリー専門店）,千葉県八千代市勝田台１丁目８－１勝田台駅構内,35.712173,140.129816
ysn_048469,"",原木中山駅店（テイクアウト・デリバリー専門店）,千葉県船橋市本中山７丁目７－１,35.699512,139.944624
ysn_048470,"",コーナン京葉船橋インター店,千葉県船橋市海神町３丁目１２４－３,35.695996,139.978298
ysn_048471,"",１２６号線旭店,千葉県旭市ニ５２１－１,35.721904,140.657258
ysn_048472,"",都賀駅前店（テイクアウト・デリバリー専門店）,千葉県千葉市若葉区都賀３丁目３－１,35.632532,140.152342
ysn_048473,"",ＪＲ四街道駅店,千葉県四街道市四街道１丁目 １ＪＲ四街道駅ビル１Ｆ,35.659913,140.168788
ysn_048880,"",ＧＬＰアルファリンク流山５店,千葉県流山市小屋字土深割１５８番１流山５棟１Ｆ,35.884027,139.901216
ysn_049338,"",新所沢店,埼玉県所沢市けやき台１丁目１３－６,35.794632,139.456244
ysn_049349,"",大宮店,埼玉県さいたま市大宮区仲町１丁目９７,35.901694,139.630323
ysn_049352,"",１７号線上尾店,埼玉県上尾市久保７７－１,35.988884,139.581311
ysn_049354,"",下笹目店,埼玉県戸田市笹目６丁目２１－４,35.809533,139.651421
ysn_049358,"",１２２号線川口店,埼玉県川口市朝日１丁目８－６,35.806153,139.73777
ysn_049364,"",蓮田店,埼玉県蓮田市西新宿１丁目７,35.998768,139.658703
ysn_049369,"",４号線越谷店,埼玉県越谷市谷中町１丁目１３４－１,35.87773,139.778334
ysn_049373,"",１７号線鴻巣店,埼玉県鴻巣市宮地１丁目８－４９,36.062106,139.516942
ysn_049376,"",１６号線東大宮店,埼玉県さいたま市見沼区深作３丁目４－９,35.952089,139.664135
ysn_049378,"",１２５号線栗橋店,埼玉県久喜市栗橋東５丁目１０－１４,36.128897,139.708216
ysn_049387,"",１７号線与野店,埼玉県さいたま市中央区円阿弥６丁目３－１,35.890222,139.611863
ysn_049395,"",４０７号線妻沼店,埼玉県熊谷市妻沼１７８０－１,36.225769,139.374236
ysn_049408,"",１７号線宮原店,埼玉県さいたま市北区宮原町１丁目５０３－１,35.934158,139.618883
ysn_049411,"",１７号線与野本町店,埼玉県さいたま市中央区本町西４丁目１５－１２,35.885436,139.617327
ysn_049416,"",和光笹目通り店,埼玉県和光市丸山台３丁目１０－６,35.779713,139.624742
ysn_049418,"",浦和仲町店,埼玉県さいたま市浦和区仲町２丁目３－２２,35.856634,139.656562
ysn_049419,"",１７号線浦和常盤店,埼玉県さいたま市浦和区常盤６丁目２－１５,35.859959,139.649518
ysn_049424,"",久喜店,埼玉県久喜市久喜本７８５－１,36.071891,139.668065
ysn_049427,"",１６号線庄和町店,埼玉県春日部市西金野井３０３－１,35.984574,139.81135
ysn_049432,"",１４０号線秩父店,埼玉県秩父市中宮地町４－２４,36.001249,139.093981
ysn_049433,"",東浦和店,埼玉県さいたま市緑区東浦和８丁目１－１３,35.868828,139.702029
ysn_049437,"",上尾駅前店,埼玉県上尾市谷津２丁目１－５０－１,35.970053,139.590522
ysn_049448,"",所沢駅前店,埼玉県所沢市日吉町１１－２０富士ビル１Ｆ,35.783735,139.475904
ysn_049452,"",志木南口店,埼玉県新座市東北２丁目３８－１,35.819205,139.577569
ysn_049460,"",武蔵浦和駅前店,埼玉県さいたま市南区別所７丁目７－３４,35.842887,139.650622
ysn_049463,"",北浦和西口店,埼玉県さいたま市浦和区北浦和４丁目２－５サクラレジデンス北浦和１Ｆ,35.868191,139.648607
ysn_049464,"",１４０号線花園インター店,埼玉県深谷市小前田４７６－３,36.117631,139.230516
ysn_049465,"",草加新田店,埼玉県草加市旭町１丁目４－３６,35.848878,139.80367
ysn_049466,"",狭山台店,埼玉県狭山市狭山台１丁目２－５,35.856546,139.43434
ysn_049469,"",飯能駅前店,埼玉県飯能市仲町１１－２１,35.847656,139.323394
ysn_049471,"",１７号線深谷店,埼玉県深谷市国済寺５０３－３,36.189358,139.303406
ysn_049474,"",４６３号線南与野店,埼玉県さいたま市中央区鈴谷２丁目６０３－２,35.866904,139.633527
ysn_049477,"",蕨駅前店,埼玉県蕨市塚越１丁目４－１,35.824584,139.694225
ysn_049478,"",川越的場店,埼玉県川越市的場８０１－１,35.911833,139.436597
ysn_049480,"",川越栗橋線菖蒲町店,埼玉県久喜市菖蒲町下栢間９１５－１,36.039302,139.585675
ysn_049481,"",朝霞台駅南口店,埼玉県朝霞市東弁財１丁目４－１７,35.811312,139.589928
ysn_049485,"",せんげん台駅西口店,埼玉県越谷市千間台西１丁目６７,35.932684,139.777335
ysn_049491,"",川口駅東口店,埼玉県川口市川口１丁目１－１キュポ・ラA棟１Ｆ,35.79841,139.721326
ysn_049499,"",南越谷店,埼玉県越谷市南越谷１丁目２３－１,35.872779,139.794774
ysn_049500,"",１７号線熊谷佐谷田店,埼玉県熊谷市佐谷田８８－１,36.130666,139.409613
ysn_049501,"",熊谷駅北口店,埼玉県熊谷市筑波２丁目１１２,36.137017,139.392412
ysn_049506,"",大宮東口店,埼玉県さいたま市大宮区大門町１丁目１７－１,35.903742,139.628545
ysn_049512,"",そば処吉野家 イオンモール川口前川店,埼玉県川口市前川１丁目１－１１イオン川口前川店１Ｆフードコート内,35.831191,139.709814
ysn_049513,"",川口柳崎店,埼玉県川口市柳崎３丁目９－２,35.850589,139.701863
ysn_049514,"",八潮店,埼玉県八潮市上馬場４７６－１,35.818647,139.828523
ysn_049515,"",戸田新曽店,埼玉県戸田市新曽２０９７,35.813432,139.663051
ysn_049518,"",東松山新郷店,埼玉県東松山市新郷１８９－２,36.030807,139.368356
ysn_049521,"",三郷上彦名店,埼玉県三郷市上彦名４１７－１,35.846175,139.857434
ysn_049541,"",１２２号線石神店,埼玉県川口市石神６８５－１,35.856763,139.738328
ysn_049542,"",４０７号線鶴ヶ島店,埼玉県鶴ヶ島市脚折町５丁目１６－１,35.939294,139.397304
ysn_049543,"",２５４号線新座店,埼玉県新座市野火止１丁目７－２０,35.793678,139.571148
ysn_049544,"",４号線杉戸高野台店,埼玉県幸手市上高野２０７０－１,36.048649,139.719851
ysn_049545,"",見沼南中野店,埼玉県さいたま市見沼区南中野４６１－１,35.905631,139.660746
ysn_049546,"",三郷中央店,埼玉県三郷市中央５丁目４５－６,35.825914,139.880379
ysn_049547,"",獨協大学前西口店,埼玉県草加市松原１丁目１ハーモネスタワー松原Ｂ棟１１０,35.839479,139.802787
ysn_049549,"",戸田店,埼玉県戸田市下戸田２丁目１１－４,35.809068,139.685878
ysn_049551,"",戸田喜沢店,埼玉県戸田市喜沢１丁目２３－１,35.810192,139.700725
ysn_049552,"",川口上青木店,埼玉県川口市上青木１丁目５－６,35.819213,139.720618
ysn_049554,"",川口芝店,埼玉県川口市芝３丁目１９－４,35.831888,139.702226
ysn_049555,"",４号線春日部緑町店,埼玉県春日部市緑町６丁目１５－３,35.962936,139.773148
ysn_049557,"",川越北環状線上寺山店,埼玉県川越市上寺山東田３９７－７,35.927972,139.470793
ysn_049558,"",草加新栄店,埼玉県草加市新栄１丁目５７－１０,35.851692,139.780435
ysn_049559,"",外環和光北インター通り店,埼玉県朝霞市大字台字久田２５７－１,35.804848,139.617556
ysn_049560,"",１６号線入間扇町屋店,埼玉県入間市扇町屋５丁目４－１８,35.823018,139.384314
ysn_049561,"",大宮西口店,埼玉県さいたま市大宮区桜木町１丁目１－１１,35.902415,139.624865
ysn_049562,"",１２５号線行田桜町店,埼玉県行田市桜町１丁目２３－５,36.139951,139.470836
ysn_049563,"",さいたま東大宮店,埼玉県さいたま市見沼区東大宮３丁目３－１２,35.950603,139.635096
ysn_049564,"",１７号線本庄若泉店,埼玉県本庄市若泉１丁目９－９,36.243763,139.19265
ysn_049565,"",２５４号線川越木野目店,埼玉県川越市木野目４４６－１,35.893588,139.520562
ysn_049566,"",坂戸鎌倉店,埼玉県坂戸市鎌倉町１丁目１,35.963778,139.405352
ysn_049567,"",カインズ羽生店,埼玉県羽生市小松４５７－１,36.153638,139.53615
ysn_049569,"",浦和駅東口店（テイクアウト・デリバリー専門店）,埼玉県さいたま市浦和区東仲町１－２２,35.855843,139.660975
ysn_049570,"",ビーンズ戸田公園店（テイクアウト・デリバリー専門店）,埼玉県戸田市本町４丁目１５－１,35.804294,139.681806
ysn_049571,"",草加ヴァリエ店,埼玉県草加市高砂４６８－１草加駅高架下,35.825005,139.80656
ysn_049572,"",マルイファミリー志木店,埼玉県志木市本町５丁目２６－１マルイファミリー志木２Ｆフードコート,35.820081,139.577302
ysn_049573,"",草加柳島店,埼玉県草加市柳島町６５０ー３,35.817566,139.788177
ysn_049881,"",ボートレース戸田店,埼玉県戸田市戸田公園８－２２,35.799658,139.659929
ysn_049891,"",鳩ヶ谷店,埼玉県川口市三ツ和２丁目１２－１,35.822325,139.748487
ysn_059701,"",３３０号線宜野湾店,沖縄県宜野湾市我如古１丁目５４－２３,26.253916,127.758223
ysn_059703,"",３３１号線小禄バイパス店 - 閉店 -,沖縄県那覇市具志３丁目２５－１２,26.174172,127.656113
ysn_059705,"",パイプライン浦添店,沖縄県浦添市屋富祖１丁目１－２,26.246986,127.715734
ysn_059706,"",３３１号線糸満店,沖縄県糸満市潮平７７２－１,26.146069,127.674159
ysn_059707,"",３３０号線壺川店,沖縄県那覇市壺川２丁目１－６,26.200864,127.682933
ysn_059708,"",名護バイパス店,沖縄県名護市大北５丁目２２－２３,26.603064,127.983335
ysn_059710,"",泡瀬ベイストリート店,沖縄県沖縄市泡瀬４丁目２０－１１,26.313784,127.832777
ysn_059711,"",ひめゆり通り店,沖縄県那覇市壺屋２丁目６－５,26.209821,127.696393
ysn_059715,"",うるま志林川店,沖縄県うるま市高江洲１０７９－１,26.353827,127.842138
ysn_059718,"",沖縄南インター店,沖縄県沖縄市上地４丁目２０－７,26.331926,127.793746
ysn_059719,"",５８号線牧港店,沖縄県浦添市牧港５丁目５－７,26.263139,127.7229
ysn_059720,"",３２９号線南風原店 - 閉店 -,沖縄県島尻郡南風原町兼城５１６－１,26.191808,127.721805
ysn_059721,"",３２９号線与那原店,沖縄県島尻郡与那原町与那原１０４３,26.205173,127.760041
ysn_059722,"",５８号線北谷桑江店,沖縄県中頭郡北谷町桑江９３－３,26.315195,127.761943
ysn_059723,"",那覇東バイパス国場店,沖縄県那覇市字国場３３３－１,26.18811,127.706809
ysn_059724,"",イオンタウン宮古南店,沖縄県宮古島市平良松原６３１,24.784352,125.282104
ysn_059725,"",×はなまるうどん 那覇空港際内ターミナルビル店,沖縄県那覇市鏡水１５０４階ＮＯＲＴＨフードコート内,26.205247,127.652415
ysn_059726,"",５８号線那覇新都心店,沖縄県那覇市天久２丁目６－５,26.227003,127.688219
ysn_059728,"",イオン北谷店,沖縄県中頭郡北谷町美浜８－３イオン北谷２Ｆ　フードコート,26.310962,127.759222
ysn_059729,"",×はなまるうどん イオン浦西店,沖縄県浦添市前田３丁目１１－８,26.239746,127.74234
ysn_061151,"",桶川北店,埼玉県桶川市北２丁目１５３８－４,36.005608,139.560721
ysn_061311,"",環状七号線鹿浜店,東京都足立区鹿浜３丁目２－２０,35.775389,139.75764
ysn_061312,"",大井町西口店,東京都品川区大井１丁目１－１６,35.604628,139.734912
ysn_061316,"",東京工科大学店,東京都八王子市片倉町 １４０４－１東京工科大学内,35.623324,139.345165
ysn_061317,"",虎ノ門店,東京都港区虎ノ門１丁目１－２１,35.66702,139.753523
ysn_061318,"",大山駅前店,東京都板橋区大山町４－６,35.744927,139.705449
ysn_061319,"",秋葉原中央通り店,東京都千代田区外神田１丁目１１－８,35.696137,139.774323
ysn_061320,"",尾久橋通り皿沼店,東京都足立区皿沼３丁目３２－１,35.789877,139.773097
ysn_061321,"",市ヶ谷駅前店,東京都千代田区五番町３－３,35.687029,139.73897
ysn_061322,"",新青梅街道東大和店,東京都東大和市蔵敷３丁目８８９－１,35.743577,139.421412
ysn_061323,"",下高井戸駅店,東京都世田谷区松原３丁目２９－１７,35.66295,139.644595
ysn_061324,"",浅草駅前店,東京都台東区花川戸１丁目５－２,35.708828,139.801228
ysn_061325,"",４号線梅島店,東京都足立区中央本町１丁目１２－２,35.770063,139.806791
ysn_061329,"",お台場デックス店,東京都港区台場１丁目６－１お台場デックス東京ビーチ１Ｆ,35.625716,139.779815
ysn_061333,"",梅島駅前店,東京都足立区梅田８丁目２－１４,35.768523,139.800632
ysn_061335,"",練馬店,東京都練馬区練馬１丁目５－４,35.734093,139.656518
ysn_061336,"",田町駅芝浦店,東京都港区芝浦３丁目１５－７,35.6388,139.751422
ysn_061337,"",四ッ谷駅前店,東京都新宿区四谷１丁目８－１４,35.683122,139.731918
ysn_061338,"",小伝馬町店,東京都中央区日本橋堀留町１丁目１１－１０,35.685829,139.782934
ysn_061339,"",新大久保駅前店,東京都新宿区百人町２丁目４－１,35.698398,139.703321
ysn_061341,"",赤坂三丁目店,東京都港区赤坂３丁目１２－１１,35.669919,139.741161
ysn_061342,"",千葉街道南小岩店,東京都江戸川区南小岩８丁目２－２０,35.725184,139.890183
ysn_061345,"",６号線白鳥店,東京都葛飾区白鳥２丁目２１－２４,35.745489,139.850203
ysn_061346,"",綾瀬駅東口店,東京都足立区綾瀬３丁目１－１－１５,35.759329,139.830602
ysn_061348,"",新橋東店,東京都港区新橋２丁目１８－５,35.663624,139.762324
ysn_061349,"",水道橋三崎町店,東京都千代田区神田三崎町２丁目１－１,35.696618,139.759025
ysn_061351,"",京王多摩センター店,東京都多摩市落合１丁目１０－１,35.62209,139.427932
ysn_061354,"",三軒茶屋店,東京都世田谷区太子堂２丁目１６－８,35.641289,139.674091
ysn_061355,"",国分寺北口店,東京都国分寺市本町２丁目１０－５近藤ビル,35.697795,139.484302
ysn_061356,"",三ノ輪店,東京都台東区根岸５丁目１８－１５,35.725631,139.7936
ysn_061357,"",金町北口店,東京都葛飾区東金町１丁目２２－１１,35.766618,139.873531
ysn_061358,"",御徒町駅前店,東京都台東区上野４丁目２－１,35.704786,139.777261
ysn_061361,"",大泉学園北口店,東京都練馬区東大泉１丁目２９－７,35.746471,139.589666
ysn_061364,"",門前仲町店,東京都江東区富岡１丁目１０－８,35.667832,139.801617
ysn_061366,"",新宿センタービル店,東京都新宿区西新宿１丁目２５－１新宿センタービル地下１階,35.688407,139.69862
ysn_061367,"",町田小川店,東京都町田市小川３丁目２－１,35.521661,139.470781
ysn_061368,"",西葛西駅１番街店,東京都江戸川区西葛西６丁目１４－２,35.66116,139.863979
ysn_061369,"",福生店,東京都福生市福生７９９－５,35.738324,139.332991
ysn_061370,"",東陽町店,東京都江東区東陽４丁目１－１８,35.666275,139.822385
ysn_061371,"",芝大門店,東京都港区芝大門２丁目１－２山口ビル,35.653543,139.756423
ysn_061372,"",小金井店,東京都小金井市前原町４丁目１３－７,35.686281,139.510204
ysn_061374,"",１４号線西小松川店,東京都江戸川区西小松川町３７－５,35.699039,139.867893
ysn_061375,"",ＪＲ拝島駅店,東京都昭島市松原町４丁目１４－４,35.718151,139.346849
ysn_061376,"",三鷹駅南口店,東京都三鷹市下連雀３丁目２７－９,35.697793,139.564409
ysn_061378,"",亀戸駅前店,東京都江東区亀戸２丁目２０－７,35.694368,139.82875
ysn_061380,"",京成高砂駅前店,東京都葛飾区高砂５丁目２９－１１,35.747999,139.870805
ysn_061381,"",新青梅街道島忠小平店,東京都東久留米市前沢５丁目３３－１７島忠家具センター１Ｆ,35.735588,139.513187
ysn_061382,"",阿佐ヶ谷店,東京都杉並区成田東５丁目４２－１０,35.696241,139.638315
ysn_061383,"",１４号線篠崎店,東京都江戸川区篠崎町７丁目２２－１８,35.700571,139.90709
ysn_061384,"",町田街道小山町店,東京都町田市小山町３６４７－１,35.597912,139.356567
ysn_061387,"",武蔵小金井駅前店,東京都小金井市本町２丁目５－２,35.698247,139.510556
ysn_061393,"",方南町店,東京都杉並区方南２丁目２１－５高橋ビル,35.680319,139.66044
ysn_061395,"",武蔵小山店,東京都品川区小山３丁目２１－１４,35.61595,139.708133
ysn_061396,"",都立大学駅前店,東京都目黒区平町１丁目２７－２,35.614036,139.6796
ysn_061398,"",高円寺駅前店,東京都杉並区高円寺北２丁目４－７杉原ビル,35.702784,139.653738
ysn_061404,"",自由が丘店,東京都目黒区自由が丘１丁目１０－４,35.604593,139.672965
ysn_061408,"",１６号線八王子北野店,東京都八王子市北野町５７４－１,35.645976,139.35542
ysn_061410,"",小岩北口店,東京都江戸川区西小岩３丁目３１－１０,35.731798,139.883537
ysn_061412,"",赤羽東口店,東京都北区赤羽１丁目１０－２,35.77617,139.725426
ysn_061413,"",小岩駅南口店,東京都江戸川区南小岩７丁目２５－１,35.730048,139.885436
ysn_061415,"",新宿四丁目店,東京都新宿区新宿４丁目３－２２安藤ビル,35.686208,139.707316
ysn_061416,"",蒲田駅前店,東京都大田区西蒲田７丁目５－１２新中央ビル,35.560442,139.718333
ysn_061418,"",渋谷１０９前店,東京都渋谷区道玄坂２丁目５－７,35.656033,139.702433
ysn_061420,"",曳舟店,東京都墨田区京島１丁目１－１－１０１,35.713719,139.820118
ysn_061421,"",立花店,東京都墨田区立花５丁目２－１,35.708136,139.832461
ysn_061422,"",大塚店,東京都豊島区南大塚２丁目４６－３,35.727942,139.732724
ysn_061424,"",明大前店,東京都世田谷区松原１丁目３８－４,35.66552,139.653972
ysn_061430,"",霞ヶ関３号館店,東京都千代田区霞が関２丁目１－３,35.672795,139.753309
ysn_061432,"",永田町一丁目店,東京都千代田区永田町１丁目７－１,35.671952,139.748114
ysn_061434,"",菊川駅前店,東京都墨田区菊川２丁目６－１３,35.685279,139.808828
ysn_061436,"",足立保木間店,東京都足立区保木間１丁目２７－１,35.78648,139.811575
ysn_061437,"",東小金井駅前店,東京都小金井市梶野町５丁目２－３７,35.698562,139.527481
ysn_061438,"",入谷店,東京都台東区入谷１丁目６－６,35.717074,139.787733
ysn_061440,"",晴海トリトンスクエア店,東京都中央区晴海１丁目８－１６晴海トリトン１階,35.65431,139.785591
ysn_061441,"",護国寺店,東京都文京区音羽２丁目２－２,35.715348,139.731226
ysn_061442,"",東久留米下里店,東京都東久留米市下里１丁目１０－４,35.753661,139.510055
ysn_061443,"",北千住本町商店街店,東京都足立区千住２丁目３１,35.746402,139.805631
ysn_061444,"",馬喰町店,東京都中央区日本橋馬喰町１丁目５－７,35.689356,139.784927
ysn_061446,"",田原町店,東京都台東区西浅草１丁目７－２０,35.707501,139.794791
ysn_061448,"",羽田空港第１ターミナルビル店,東京都大田区羽田空港３丁目３－２第１旅客ターミナルビル南テラス３Ｆ,35.543686,139.788816
ysn_061449,"",江戸川区役所前店,東京都江戸川区中央１丁目１２－８,35.703064,139.872194
ysn_061450,"",甲州街道府中白糸台店,東京都府中市若松町１丁目２５－６,35.666824,139.507904
ysn_061452,"",豊洲市場店,東京都江東区豊洲６丁目５－１水産仲卸市場棟 ６街区３階１１号,35.641026,139.785689
ysn_061453,"",小川町店,東京都千代田区神田小川町２丁目２,35.691412,139.767735
ysn_061454,"",西新宿８丁目店,東京都新宿区西新宿８丁目４－１,35.691169,139.69672
ysn_061455,"",巣鴨南口店,東京都豊島区巣鴨１丁目１２－３,35.729431,139.743197
ysn_061459,"",根津店,東京都文京区根津２丁目１８－１２,35.715025,139.768768
ysn_061460,"",雪が谷大塚駅前店,東京都大田区南雪谷２丁目１７－１４コムフォート雪谷,35.588163,139.683742
ysn_061461,"",西日暮里店,東京都荒川区西日暮里５丁目１４－１１,35.729381,139.770926
ysn_061462,"",笹塚京王クラウン街店,東京都渋谷区笹塚１丁目５５－１６,35.670877,139.671917
ysn_061463,"",北綾瀬店,東京都足立区谷中２丁目７－５,35.774028,139.835731
ysn_061465,"",新富町店,東京都中央区新富１丁目１７－６,35.668374,139.778626
ysn_061466,"",エキア北千住店,東京都足立区千住旭町４２－１,35.746136,139.808762
ysn_061467,"",ヤエチカ店,東京都中央区八重洲２丁目－１八重洲地下街　八重洲地下１番通り,35.676472,139.773967
ysn_061468,"",下北沢駅東口店,東京都世田谷区北沢２丁目２５－１６,35.659265,139.670801
ysn_061469,"",霞が関コモンゲート店,東京都千代田区霞が関３丁目２－１霞が関コモンゲート西館２０２,35.668797,139.750746
ysn_061470,"",聖蹟桜ヶ丘駅店,東京都多摩市関戸２丁目４１－１,35.647727,139.451378
ysn_061471,"",市谷本村町店,東京都新宿区市谷本村町５－１防衛省市谷地区厚生棟１階,35.690719,139.732467
ysn_061472,"",日本橋室町店,東京都中央区日本橋室町１丁目１１－５,35.682463,139.778433
ysn_061473,"",恵比寿駅東口店,東京都渋谷区恵比寿１丁目１３－９,35.643767,139.714935
ysn_061475,"",西八王子駅北口店,東京都八王子市千人町２丁目２０－２クローバービル１０４,35.654076,139.316119
ysn_061476,"",新宿京王モール店,東京都新宿区西新宿１丁目１南口地下街,35.686646,139.701852
ysn_061477,"",北新宿百人町店,東京都新宿区百人町１丁目２４－４,35.695022,139.70072
ysn_061478,"",志村坂上店（テイクアウト・デリバリー専門店）,東京都板橋区志村２丁目１－４,35.773094,139.696972
ysn_061479,"",羽田空港第２ターミナルビル店,東京都大田区羽田空港３丁目４羽田空港第２ターミナル駅地下１階,35.547348,139.791268
ysn_061480,"",雑色店（テイクアウト・デリバリー専門店）,東京都大田区仲六郷２丁目４２－３,35.546649,139.718897
ysn_061481,"",池袋メトロポリタン通り店（テイクアウト・デリバリー専門店）,東京都豊島区西池袋１丁目４－７,35.725297,139.711976
ysn_061482,"",上野毛店（テイクアウト・デリバリー専門店）,東京都世田谷区上野毛１丁目２５－５ＢＯＡ１Ｆ,35.608915,139.642613
ysn_061483,"",経堂店（テイクアウト・デリバリー専門店）,東京都世田谷区経堂１丁目４－１０アイハラビル,35.644892,139.639303
ysn_061484,"",仙川店（テイクアウト・デリバリー専門店）,東京都調布市仙川町１丁目１６－１８,35.657094,139.588613
ysn_061485,"",中野野方店（テイクアウト・デリバリー専門店）,東京都中野区野方５丁目２３－６長山ビル１Ｆ,35.71559,139.65569
ysn_061486,"",中野南口店,東京都中野区中野２丁目２４－９ナカノサウステラレジデンス１０４,35.70168,139.669549
ysn_061487,"",駒込駅東口店（テイクアウト・デリバリー専門店）,東京都北区中里１丁目６－４,35.733956,139.752591
ysn_061488,"",新中野店（テイクアウト・デリバリー専門店）- 閉店 -,東京都中野区中央４丁目１－１,35.694521,139.67412
ysn_061489,"",新宿靖国通り店,東京都新宿区歌舞伎町１丁目６－３,35.690322,139.705756
ysn_061490,"",幡ヶ谷店（テイクアウト・デリバリー専門店）,東京都渋谷区幡ヶ谷２丁目４８－１,35.67639,139.680125
ysn_061491,"",立川駅北口店,東京都立川市曙町２丁目６－５,35.696143,139.416704
ysn_061492,"",渋谷宮益坂店,東京都渋谷区渋谷２丁目１９－１７第１０６東京ビル,35.656463,139.707415
ysn_061493,"",住吉駅前店（テイクアウト・デリバリー専門店）,東京都江東区住吉２丁目２４－６井出ビル１０２号室,35.685516,139.819136
ysn_061494,"",一橋学園店（テイクアウト・デリバリー専門店）,東京都小平市学園東町１丁目５－７豊正ビル１Ｆ,35.720466,139.483191
ysn_061495,"",浅草橋駅東口店,東京都台東区浅草橋１丁目３０－１,35.694645,139.789635
ysn_061496,"",大手町ファーストスクエア店,東京都千代田区大手町１丁目５－１ファーストスクエア地下１階,35.682385,139.766763
ysn_061497,"",竹ノ塚駅前店,東京都足立区竹の塚６丁目５－３,35.790807,139.794932
ysn_061498,"",亀有駅前店,東京都葛飾区亀有３丁目７－７,35.762518,139.850644
ysn_061499,"",武蔵境店,東京都武蔵野市境１丁目２－１,35.699438,139.547526
ysn_061500,"",両国駅前店,東京都墨田区両国３丁目２５－６,35.692269,139.797646
ysn_061501,"",ひばりが丘店,東京都西東京市ひばりが丘北４丁目１－３２,35.749048,139.547834
ysn_061502,"",京橋２丁目店,東京都中央区京橋２丁目８ー２１,35.674292,139.773979
ysn_061503,"",人形町一丁目店,東京都中央区日本橋人形町１丁目７－９伊勢兼ビル,35.681613,139.786007
ysn_061504,"",京成青砥駅前店,東京都葛飾区青戸３丁目３７－２Hanakoビル,35.742357,139.858688
ysn_062301,"",ヴィアあべのウォーク店,大阪府大阪市阿倍野区阿倍野筋１丁目６－１あべのキューズタウン内,34.642655,135.514923
ysn_062302,"",ＪＲ塚本駅店,大阪府大阪市淀川区塚本２丁目２８－２,34.709348,135.471942
ysn_062304,"",立花駅前店,兵庫県尼崎市立花町１丁目３－１,34.735135,135.402087
ysn_062306,"",龍野店,兵庫県たつの市龍野町富永７９６－１,34.851371,134.548794
ysn_062307,"",鴻池新田店,大阪府東大阪市中鴻池町２丁目１－７,34.694091,135.600297
ysn_062308,"",尼宝線池尻店,兵庫県伊丹市池尻２丁目１－１５,34.774501,135.387273
ysn_062310,"",エコールいずみ店,大阪府和泉市いぶき野５丁目１－１４東館,34.456694,135.459566
ysn_062311,"",神戸名谷インター店,兵庫県神戸市垂水区名谷町９９７－４,34.645728,135.070829
ysn_062313,"",京都百万遍店,京都府京都市左京区田中門前町２８－１４吹上ビル,35.025932,135.781955
ysn_062314,"",大宮通り芝辻町店,奈良県奈良市芝辻町１丁目３－２３,34.681561,135.821548
ysn_062315,"",１７０号線尺度店,大阪府羽曳野市尺度１９０－１,34.527743,135.607947
ysn_062321,"",１７０号線河内長野店,大阪府河内長野市上原西町１０－７,34.44445,135.558563
ysn_062322,"",中環東大阪若江店,大阪府東大阪市若江南町３丁目８－５３,34.650988,135.601986
ysn_062327,"",２８号線洲本店,兵庫県南あわじ市山添８１－１,34.329976,134.845108
ysn_062328,"",上新庄駅前店,大阪府大阪市東淀川区上新庄２丁目２４－２４,34.744753,135.535889
ysn_062329,"",１６３号線門真店,大阪府門真市寿町２１－３０,34.731035,135.597156
ysn_062331,"",寝屋川昭栄町店,大阪府寝屋川市昭栄町１６－８,34.753094,135.629026
ysn_062334,"",寝屋川仁和寺店,大阪府寝屋川市仁和寺町１２－１５,34.761763,135.601175
ysn_062335,"",江坂駅東店,大阪府吹田市江坂町１丁目２２－１２江坂東急ビル弐番館１階,34.754433,135.501591
ysn_062336,"",烏丸五条店,京都府京都市下京区五条通烏丸西入醍醐町２９０－１,34.993256,135.762384
ysn_062337,"",須磨パティオ店,兵庫県神戸市須磨区中落合２丁目２－１,34.675514,135.096021
ysn_062338,"",西京極七条店,京都府京都市右京区西京極佃田町１７,34.985697,135.729872
ysn_062339,"",長居公園通り矢田店,大阪府大阪市東住吉区照ケ丘矢田１丁目２３－１,34.605888,135.537728
ysn_062342,"",中環久宝寺緑地店,大阪府東大阪市大蓮東４丁目１１－３３,34.629533,135.587083
ysn_062343,"",ＪＲ兵庫駅店,兵庫県神戸市兵庫区駅南通５丁目３－７,34.665085,135.16729
ysn_062344,"",ＪＲ明石駅店,兵庫県明石市大明石町１丁目１－２３,34.645986,134.995274
ysn_062346,"",ＪＲ姫路駅店,兵庫県姫路市駅前町１８８ＪＲ姫路駅構内,34.823816,134.693671
ysn_062347,"",八尾高安店,大阪府八尾市高安町北７丁目１７８－６,34.615763,135.632509
ysn_062348,"",大阪駅前第３ビル店,大阪府大阪市北区梅田１丁目 １－３Ｂ６０号,34.695351,135.502658
ysn_062350,"",２６号線岸和田八阪店,大阪府岸和田市八阪町１丁目７－１３,34.453727,135.390735
ysn_062351,"",奈良広陵町店,奈良県北葛城郡広陵町大塚９０５－１,34.527655,135.746002
ysn_062352,"",９号線亀岡千代川店,京都府亀岡市千代川町高野林西田７－２７,35.042024,135.548784
ysn_062353,"",１号線甲賀水口店,滋賀県甲賀市水口町名坂８１８,34.975105,136.167387
ysn_062354,"",１号線久御山店,京都府久世郡久御山町田井新荒見６９－１,34.881545,135.74353
ysn_062355,"",八幡久保田店,京都府八幡市八幡久保田３５－２３,34.859917,135.710525
ysn_062356,"",横堤店,大阪府大阪市鶴見区横堤３丁目６－４４,34.69748,135.577292
ysn_062357,"",ドーチカ店,大阪府大阪市北区堂島１丁目 堂島地下街９号,34.693333,135.49822
ysn_062358,"",宝塚高松町店,兵庫県宝塚市高司５丁目１－８,34.784664,135.371297
ysn_062359,"",大久保バイパス城陽店,京都府城陽市寺田塚本２０５,34.854781,135.765398
ysn_062360,"",関目店,大阪府大阪市城東区成育５丁目２２－１１,34.711497,135.548334
ysn_062361,"",近江八幡店,滋賀県近江八幡市鷹飼町１４７８,35.121535,136.105988
ysn_062362,"",堺インター店,大阪府堺市中区平井７７５－１,34.512528,135.486213
ysn_062363,"",２６号線貝塚店,大阪府貝塚市石才２２９－１,34.431022,135.363008
ysn_062364,"",大和郡山店,奈良県大和郡山市柳町８０－１,34.640887,135.788926
ysn_062365,"",ビエラ岸辺健都店,大阪府吹田市岸部新町５－４５,34.774769,135.542026
ysn_062366,"",ＪＲ茨木駅前店,大阪府茨木市西駅前５－３６茨木高橋ビル１Ｆ,34.813351,135.564098
ysn_062367,"",９号線洛西中山店,京都府京都市西京区大枝中山町１－１２４,34.967675,135.679049
ysn_062371,"",コロワ甲子園店,兵庫県西宮市甲子園高潮町３－３,34.720484,135.365036
ysn_062372,"",宇治槙島店,京都府宇治市槙島町一の坪３９,34.899768,135.786631
ysn_062373,"",２５号線天理店,奈良県天理市田井庄町４９８－１,34.59239,135.829393
ysn_062374,"",橿原木原町店,奈良県橿原市木原町２２３－１,34.512665,135.804069
ysn_062375,"",ＪＲ京橋駅ホーム店,大阪府大阪市城東区新喜多１丁目２－３１ＪＲ大阪環状線京橋駅外廻りホーム,34.694161,135.536657
ysn_062376,"",茨木真砂店,大阪府茨木市真砂１丁目２－４,34.796558,135.576355
ysn_062377,"",城北公園前店,大阪府大阪市旭区生江３丁目１６－３４城北公園共栄ビル１階,34.72492,135.539654
ysn_062378,"",ビエラ高槻南店,大阪府高槻市紺屋町１－３,34.848751,135.621888
ysn_062379,"",松井山手店,京都府八幡市美濃山出口３８－１,34.839818,135.716602
ysn_062380,"",堺東駅前店,大阪府堺市堺区中瓦町２丁３－２６ＡＢホテル内,34.5712,135.48646
ysn_062381,"",姫路大津店,兵庫県姫路市大津区恵美酒２丁目５６－１,34.788908,134.613882
ysn_062382,"",尼崎昭和通店,兵庫県尼崎市昭和通８丁目２７０－１,34.719923,135.409836
ysn_062383,"",大池橋店,大阪府大阪市生野区中川西３丁目５－３２,34.652637,135.543806
ysn_062384,"",ＪＲ神戸駅店,兵庫県神戸市中央区相生町３丁目１－１神戸フードテラス内,34.676386,135.180798
ysn_062385,"",帝塚山店,大阪府大阪市阿倍野区帝塚山１丁目１２－６,34.621505,135.503668
ysn_062386,"",多賀サービスエリア下り店,滋賀県犬上郡多賀町敏満寺西６６－３１,35.215582,136.28824
ysn_062387,"",プリコ六甲道店,兵庫県神戸市灘区永手町４丁目１－１プリコ六甲道内,34.711586,135.241034
ysn_062388,"",御坊店,和歌山県御坊市薗３０７－１,33.889381,135.154014
ysn_062389,"",西宮久保店,兵庫県西宮市久保町１１－１,34.724689,135.342611
ysn_062391,"",服部天神店（テイクアウト・デリバリー専門店）,大阪府豊中市服部西町１丁目３－３４,34.760488,135.476881
ysn_062393,"",ＪＲ玉造駅店,大阪府大阪市天王寺区玉造元町１玉造駅コンコース内１番４０号,34.670801,135.535953
ysn_062394,"",京阪くずは駅店,大阪府枚方市楠葉花園町１４－１０,34.858311,135.678387
ysn_062396,"",阪急蛍池駅前店（テイクアウト・デリバリー専門店）,大阪府豊中市螢池東町１丁目６－６,34.792134,135.452321
ysn_062398,"",ＪＲ堺市駅前店（テイクアウト・デリバリー専門店）,大阪府堺市北区東雲東町１丁１－１５,34.573796,135.501987
ysn_062399,"",阪急淡路駅東口店（テイクアウト・デリバリー専門店）,大阪府大阪市東淀川区東淡路４丁目１７－１１,34.735841,135.520382
ysn_062400,"",昭和町店（テイクアウト・デリバリー専門店）,大阪府大阪市阿倍野区昭和町２丁目１－１２,34.629119,135.520795
ysn_062401,"",あびこ店（テイクアウト・デリバリー専門店）,大阪府大阪市住吉区苅田７丁目 ６－２０,34.596213,135.517642
ysn_062402,"",イオンフードスタイル西神中央店（テイクアウト・デリバリー専門店）,兵庫県神戸市西区糀台５丁目３－４,34.716612,135.022375
ysn_062403,"",和歌山秋月店,和歌山県和歌山市秋月２８１－１,34.226765,135.207588
ysn_062404,"",イズミヤＳＣ八尾店（テイクアウト・デリバリー専門店）,大阪府八尾市沼１丁目１番地,34.585507,135.607503
ysn_062405,"",東心斎橋店,大阪府大阪市中央区東心斎橋１丁目１０－５,34.671566,135.507718
ysn_062407,"",川西栄根店,兵庫県川西市栄根２丁目２２－６,34.817415,135.414487
ysn_062408,"",京都八条口店,京都府京都市南区西九条北ノ内町４１－４,34.981261,135.757467
ysn_062409,"",加西北条店（テイクアウト専門店）,兵庫県加西市北条町横尾３５２－１,34.925073,134.838128
ysn_062410,"",垂水駅西口店,兵庫県神戸市垂水区神田町１丁目２０,34.626117,135.055468
ysn_062411,"",大東曙町店,大阪府大東市曙町３－１３,34.707451,135.626781
ysn_062413,"",４２号線新宮店,和歌山県新宮市佐野３丁目２０９０－４７,33.673177,135.974846
ysn_062509,"",福山新涯店,広島県福山市新涯町５丁目３４－１４,34.451084,133.395621
ysn_062510,"",２号線福山久松通り店,広島県福山市延広町４－１５,34.482734,133.368222
ysn_062511,"",福山手城町店,広島県福山市手城町４丁目７－１０,34.486336,133.402456
ysn_062513,"",広島本通店,広島県広島市中区本通８－２,34.389533,132.462508
ysn_062514,"",広島吉島店,広島県広島市中区吉島西２丁目１７－２８－３,34.370298,132.448303
ysn_062515,"",山陽小野田店,山口県山陽小野田市日の出２丁目８－４,34.001536,131.180694
ysn_062516,"",山口防府店,山口県防府市八王子１丁目１９－１２,34.052684,131.566994
ysn_062517,"",山陽道沼田パーキングエリア下り店,広島県広島市安佐南区伴東町１３６－１,34.459923,132.426147
ysn_062518,"",岡山新保店,岡山県岡山市南区新保１６１４－１,34.634192,133.911762
ysn_062519,"",廿日市宮内店,広島県廿日市市宮内２丁目１－２,34.345971,132.319428
ysn_062520,"",山口中央店,山口県山口市中央４丁目６－７,34.168428,131.470635
ysn_062521,"",リピエ下関店,山口県下関市竹崎町４丁目３－３ｒｉｐｉｅ　１Ｆ,33.946863,130.925665
ysn_062522,"",呉広本町店,広島県呉市広本町１丁目１３－８,34.228898,132.624924
ysn_062523,"",広島段原店,広島県広島市南区段原日出２丁目１２－５,34.382173,132.486154
ysn_062586,"",松山竹原店,愛媛県松山市竹原２丁目１－３９,33.827976,132.755141
ysn_062587,"",高松屋島店,香川県高松市新田町甲６９－５,34.333444,134.106016
ysn_062588,"",広島駅北口店,広島県広島市南区松原町１－２ｅｋｉｅ　１Ｆ,34.394942,132.478708
ysn_062589,"",高松栗林店,香川県高松市東ハゼ町２－１４,34.31833,134.044822
ysn_062590,"",宇品御幸店（テイクアウト・デリバリー専門店）,広島県広島市南区宇品御幸１丁目９－１４,34.365363,132.467121
