store_id,pref_id,shop_name,address,lat,lon
1573,"",イオン札幌桑園 ショップ,北海道札幌市中央区北８条西１４丁目２８番,43.069575825122186,141.33355944444443
1830,"",大通駅 ショップ,北海道札幌市中央区大通西４丁目地下鉄南北線大通駅構内,43.059889709666244,141.35209083333334
0150,"",すすきの ショップ,北海道札幌市中央区南四条西３丁目グリーンビル,43.05551182453546,141.35461305555555
0301,"",宮の森 ショップ,北海道札幌市中央区北五条西２９丁目１,43.06172689159884,141.31253444444445
0811,"",北２４条駅前 ショップ,北海道札幌市北区北２３条西４丁目２－４３,43.090193668297225,141.34426944444445
0596,"",ＪＲ札幌 ショップ,北海道札幌市北区北六条西４丁目,43.068742183388075,141.35056777777777
1975,"",イオン札幌麻生 ショップ,北海道札幌市北区北39条西4丁目1-5イオン札幌麻生B1階,43.107271339891,141.3396586111111
1852,"",アリオ札幌 ショップ,北海道札幌市東区北７条東９丁目２番２０号,43.07177145037357,141.3699625
1556,"",イオン元町 ショップ,北海道札幌市東区北三十一条東１５丁目１－１,43.101249118917174,141.36853805555555
0589,"",イオンモール札幌苗穂 ショップ,北海道札幌市東区東苗穂ニ条３丁目　（イオンショッピングセンター内）,43.079596816842525,141.40406333333334
2087,"",札幌北４９条 ショップ,札幌市東区北49条東8丁目3-17,43.121589478952245,141.35433416666666
1207,"",南郷１３丁目 ショップ,北海道札幌市白石区南郷通１３丁目南５,43.03583069427519,141.42107222222222
0736,"",ルーシー大谷地 ショップ,北海道札幌市白石区栄通１８丁目５-３５,43.027966984196546,141.4343213888889
1628,"",コーチャンフォーミュンヘン大橋 ショップ,北海道札幌市豊平区中の島１条１３丁目１－１,43.017534976640924,141.35570638888888
0257,"",藻岩 ショップ,北海道札幌市南区川沿二条２丁目１番１号,42.999411737938665,141.33610444444443
1560,"",イオン札幌西町 ショップ,北海道札幌市西区西町南６丁目１－１,43.07805092928598,141.28878555555556
1876,"",イオンモール札幌発寒 ショップ,北海道札幌市西区発寒八条１２丁目１－１,43.09621353618232,141.27706305555554
1021,"",新札幌デュオ ショップ,北海道札幌市厚別区厚別中央二条５丁目６－２　デュオ－１　Ｂ１Ｆ,43.03900037617359,141.47188416666665
1941,"",イオン札幌手稲 ショップ,北海道札幌市手稲区前田一条１１－１－１,43.12029424024962,141.24448694444445
0229,"",手稲駅前 ショップ,北海道札幌市手稲区手稲本町一条４丁目１－１２,43.120031821323295,141.24293111111112
1483,"",イオンモール札幌平岡 ショップ,北海道札幌市清田区平岡三条５丁目３－１,42.996547074731424,141.45792277777778
1148,"",コーチャンフォー美しが丘 ショップ,北海道札幌市清田区美しが丘1条5丁目2－1,42.984355502041346,141.45630027777779
0654,"",亀田本町 ショップ,北海道函館市亀田本町１－２１,41.80074539531389,140.74032722222222
1265,"",函館赤松街道 ショップ,北海道函館市桔梗３丁目４０番３９号,41.84257967751284,140.7250575
0074,"",函館五稜郭 ショップ,北海道函館市本町２５－１４,41.78933694297109,140.7522213888889
1102,"",函館本通 ショップ,北海道函館市本通２丁目１－４５,41.79412924137872,140.77047916666666
0157,"",小樽 ショップ,北海道小樽市稲穂３丁目９－１,43.198373975737304,140.99460055555556
1427,"",旭川春光 ショップ,北海道旭川市花咲町５丁目２２７７番６１,43.79474799744096,142.37487472222222
0174,"",旭川２条 ショップ,北海道旭川市二条通８丁目左１号,43.76707126896737,142.36013833333334
2050,"",イオンモール旭川駅前 ショップ,北海道旭川市宮下通７丁目２－５,43.763936451942875,142.35722611111112
1091,"",永山環状 ショップ,北海道旭川市永山十条５丁目１番１９号,43.78381112883502,142.41303638888888
0315,"",東室蘭 ショップ,北海道室蘭市中島町１丁目２３－１０,42.35438674590128,141.01860166666665
0787,"",コーチャンフォー釧路 ショップ,北海道釧路市春採７丁目１番２４号,42.97743386648454,144.41379583333332
1340,"",西帯広ニュータウン ショップ,北海道帯広市西二十一条南４丁目１番地,42.9121357414715,143.14343888888888
0708,"",北見西富 ショップ,北海道北見市西富町１－１－１,43.798936769260926,143.870475
0277,"",北見柏陽 ショップ,北海道北見市柏陽町５７７－６０,43.82226012941874,143.91249555555555
1630,"",岩見沢イオン ショップ,北海道岩見沢市大和四条８丁目,43.18451926860566,141.7408975
1325,"",網走 ショップ,北海道網走市南二条東１丁目３番３,44.022256338332106,144.26769055555556
0700,"",イオンモール苫小牧 ショップ,北海道苫小牧市柳町３丁目１番２０号イオンモール苫小牧１Ｆ,42.656416119305376,141.64195222222222
0923,"",苫小牧バイパス ショップ,北海道苫小牧市ときわ町６丁目２３番３３,42.619938628853106,141.51948194444444
1776,"",苫小牧ＭＥＧＡドン・キホーテ ショップ,北海道苫小牧市木場町１－６,42.64116783957175,141.59537722222223
0696,"",稚内 ショップ,北海道稚内市大黒４丁目７－１,45.3975068198761,141.6920047222222
1180,"",イオン江別 ショップ,北海道江別市幸町３４,43.09734930981387,141.53343833333332
1419,"",名寄西條 ショップ,北海道名寄市西四条南８丁目,44.34827350420322,142.45780694444446
0938,"",千歳 ショップ,北海道千歳市栄町６丁目５１番地,42.82877080417903,141.649325
0389,"",イオン滝川 ショップ,北海道滝川市東町２－２５－３,43.55421422738616,141.93120666666667
1411,"",登別イオン ショップ,北海道登別市若山町４丁目３３番地１,42.381236901915976,141.06855611111112
1026,"",伊達 ショップ,北海道伊達市末永町６４番地１,42.4742269789735,140.8667438888889
2041,"",エスコンフィールドHOKKAIDO ショップ,北海道北広島市Fビレッジ,42.98918777864177,141.5496288888889
1707,"",イオン石狩緑苑台 ショップ,北海道石狩市緑苑台中央１－２,43.15826468523313,141.3350986111111
1910,"",東神楽 ショップ,北海道上川郡東神楽町ひじり野南１条６丁目１番１号,43.72327497828222,142.4064588888889
1368,"",静内イオン ショップ,北海道日高郡新ひだか町静内末広町２－１－１,42.34322435568867,142.35587027777777
0699,"",運動公園通り ショップ,北海道釧路郡釧路町桂木３丁目８,43.01219853755218,144.40321472222223
1818,"",中標津ＴＯＢＵ ショップ,北海道標津郡中標津町南町３番地１０,43.535991717461805,144.97763722222223
1052,"",青森観光通り ショップ,青森県青森市大字浜田字豊田46-6,40.80328061956154,140.75665805555556
1077,"",青森ラ・セラ ショップ,青森県青森市大字八重田４丁目２－１,40.82703543194463,140.80002777777779
2089,"",ガーラタウン青森 ショップ,青森県青森市三好2丁目3-19,40.833027707437275,140.70259666666666
0475,"",イオンタウン弘前樋之口 ショップ,青森県弘前市樋の口２－９－６,40.60269270443307,140.4443288888889
0434,"",弘前ステーション ショップ,青森県弘前市大字表町２－１１,40.599513714275716,140.48466083333332
1246,"",八戸ピアドゥ ショップ 改装休店中,青森県八戸市沼館４丁目７番１１２号八戸沼館ＳＣ「ピアドゥ」Ｂ棟フ－ドコ－ト内,40.52840294953081,141.49693305555556
1221,"",八戸ラピア ショップ,青森県八戸市江陽２丁目１４－１,40.52195879878142,141.5029211111111
0507,"",八戸南類家 ショップ,青森県八戸市南類家1-2-8,40.50378596251683,141.50661444444444
1166,"",五所川原エルム ショップ,青森県五所川原市大字唐笠柳字藤巻５１７－１,40.7987021608362,140.45428055555556
0934,"",むつ中央 ショップ,青森県むつ市中央２丁目２－６,41.28963705300004,141.18700722222223
1125,"",イオンつがる柏 ショップ,青森県つがる市柏稲盛幾世４１,40.80124880822026,140.41677944444444
0897,"",青森下田 ショップ,青森県上北郡おいらせ町中野平４０－１イオンモール下田内,40.60175298804039,141.41754194444445
1594,"",イオン盛岡 ショップ,岩手県盛岡市前潟４丁目７－１イオン盛岡店２Ｆ,39.711570789055216,141.09882555555555
1668,"",イオンモール盛岡南 ショップ,岩手県盛岡市本宮７丁目１番地１号,39.683618568497785,141.12832972222222
0082,"",盛岡大通 ショップ,岩手県盛岡市大通１丁目９－９,39.703092364953314,141.14740277777778
0388,"",盛岡肴町 ショップ,岩手県盛岡市肴町５－５,39.69895838660616,141.15515888888888
1365,"",宮古 ショップ,岩手県宮古市宮町１丁目３－１６,39.63879833278257,141.94474527777777
0607,"",花巻 ショップ,岩手県花巻市下小舟渡１１８－１イトーヨーカドー１Ｆ,39.39350192936818,141.1177213888889
1900,"",イオンタウン釜石 ショップ,岩手県釜石市港町２丁目１－１,39.27110410766147,141.881145
1570,"",二戸 ショップ,岩手県二戸市堀野字長地１１番１,40.295477195579245,141.3019588888889
2038,"",ニトリ水沢 ショップ,岩手県奥州市水沢佐倉河沼田15-1,39.161097677195656,141.1445013888889
0544,"",エスパル仙台 ショップ,宮城県仙台市青葉区中央１丁目１－１エスパル地下１Ｆ,38.258937067715884,140.88182277777778
0528,"",仙台勾当台 ショップ,宮城県仙台市青葉区一番町４丁目１１－１－１０２,38.2656098658677,140.87055583333333
1233,"",イオン仙台幸町 ショップ,宮城県仙台市宮城野区幸町５丁目１０－１,38.27335652826616,140.903135
1018,"",仙台古城 ショップ,宮城県仙台市若林区古城３丁目８－３０,38.235354675582336,140.90851666666666
1144,"",ザ・モール仙台長町 ショップ,宮城県仙台市太白区長町７丁目２０－３,38.22601072018961,140.87669833333334
1875,"",イオン仙台中山 ショップ,宮城県仙台市泉区南中山１丁目３５－４０,38.29794144929638,140.82697166666668
1883,"",イオンモール石巻 ショップ,宮城県石巻市茜平４丁目１０４イオンモール石巻店１Ｆ,38.44758051328242,141.26518555555555
2018,"",イオンタウン塩釜 ショップ,宮城県塩釜市海岸通15番100号,38.318526981685345,141.02436472222223
1358,"",イオン気仙沼 ショップ,宮城県気仙沼市赤岩舘下６－１,38.88909665623144,141.573
0697,"",イオンモール名取 ショップ,宮城県名取市杜せきのした５丁目３番地１,38.16373815528585,140.89534833333335
1807,"",イオン多賀城 ショップ,宮城県多賀城市町前４丁目１－１,38.28240876322946,141.00437027777778
1700,"",イオンタウン佐沼 ショップ,宮城県登米市南方町新島前４６－１,38.68281244262566,141.18311555555556
1744,"",イオン古川 ショップ,宮城県大崎市古川旭２丁目２－１,38.56721738074372,140.97274666666667
1732,"",イオンモール富谷 ショップ,宮城県富谷市大清水１丁目３３－１,38.36488622422665,140.87515277777777
1081,"",大河原バイパス ショップ,宮城県柴田郡大河原町字新東２２－１,38.05585667119441,140.73357555555555
1991,"",イオンモール新利府北館 ショップ,宮城県宮城郡利府町利府字新屋田前２２,38.32685777320616,140.9719636111111
1755,"",イオンモール新利府南館 ショップ,宮城県宮城郡利府町新中道3丁目1-1,38.324442689065016,140.9732111111111
1329,"",秋田山王 ショップ,秋田県秋田市旭北錦町４－５８,39.71473454070973,140.1093361111111
0023,"",秋田広面 ショップ,秋田県秋田市広面字堤敷１９,39.7309503435073,140.14688361111112
0836,"",御所野 ショップ,秋田県秋田市御所野地蔵田１丁目１－１,39.66376953944287,140.1593661111111
1603,"",八橋パブリ ショップ,秋田県秋田市八橋大道東１番地９３,39.728060468231114,140.09251916666668
1059,"",横手 ショップ,秋田県横手市安田字向田１４７番地,39.2985205018335,140.55355972222222
0424,"",大館 ショップ,秋田県大館市御成町３丁目７－５８,40.280591967369574,140.5597388888889
1079,"",大曲 ショップ,秋田県大仙市和合字坪立１７７,39.43813200056502,140.5090325
1197,"",イオン山形北 ショップ,山形県山形市馬見ケ崎２丁目１２－１９,38.282804827152226,140.3308011111111
0469,"",山形駅前 ショップ,山形県山形市香澄町１丁目３－１,38.248030803706456,140.3289663888889
1034,"",山形白山 ショップ,山形県山形市白山１丁目１２番３号,38.2263563452428,140.31966138888887
0855,"",イオン米沢 ショップ,山形県米沢市春日２丁目１３－４,37.923330337139085,140.10881472222223
0891,"",イオン酒田南 ショップ,山形県酒田市あきほ町１２０番１号,38.89185000985461,139.8522886111111
1046,"",イオンモール天童 ショップ,山形県天童市芳賀タウン北４丁目１番１号,38.34017866261371,140.36138055555554
1824,"",イオン東根 ショップ,山形県東根市さくらんぼ駅前３丁目７－１５,38.42721641662451,140.3872436111111
1531,"",イオンモール三川 ショップ,山形県東田川郡三川町大字猪子字和田庫１２８,38.81566573681398,139.83548472222222
1341,"",イオン福島 ショップ,福島県福島市南矢野目西荒田50-17,37.78833540827016,140.45758444444445
1003,"",福島駅前 ショップ,福島県福島市栄町１番１０号,37.755250693629996,140.46026694444444
0726,"",福島南バイパス ショップ,福島県福島市鳥谷野字岩田５３－１,37.73761401572174,140.4669722222222
0392,"",ピボット会津若松 ショップ,福島県会津若松市駅前町１－１０,37.50689467094848,139.92975305555555
0472,"",MEGAドン・キホーテUNY会津若松 ショップ,福島県会津若松市幕内南町9番１０号,37.48357633645421,139.90428833333334
1364,"",イオンタウン郡山 ショップ,福島県郡山市松木町２番８８号,37.39100179254135,140.3891602777778
1949,"",郡山駅前 ショップ,福島県郡山市駅前２－３－８　エリート３９ビル１階,37.398294501143,140.3872086111111
0647,"",郡山西ノ内 ショップ,福島県郡山市西ノ内２丁目１１－４０,37.407623070442895,140.36396583333334
2107,"",イオンモールいわき小名浜 ショップ,福島県いわき市小名浜字辰巳町７９番地,36.947208365672424,140.90238555555555
1153,"",いわきエブリア ショップ,福島県いわき市鹿島町米田字日渡５番地,36.994064620345014,140.90521777777778
0362,"",谷川瀬 ショップ,福島県いわき市平谷川瀬3丁目22番地7,37.04577002149915,140.9010986111111
1352,"",白河 ショップ,福島県白河市新高山３６－３,37.11868527297494,140.19501444444444
1765,"",ベイシア安達 ショップ,福島県二本松市油井字福岡１４０,37.613204999806996,140.46283777777776
1754,"",イオン南相馬 ショップ,福島県南相馬市原町区大木戸字金場７７,37.63713410516249,140.94319222222222
1649,"",イオンモール水戸内原 ショップ,茨城県水戸市内原２丁目１,36.374912674791965,140.35931472222222
1896,"",水戸エクセル ショップ,茨城県水戸市宮町１丁目１－１,36.37066099913267,140.475925
2063,"",ヒタチエ ショップ,茨城県日立市幸町１丁目１６－１ ヒタチエ１階,36.591520234099136,140.65927222222223
1752,"",イオンモール土浦 ショップ,茨城県土浦市上高津３６７イオンモール土浦１Ｆ,36.08021372528649,140.1799677777778
1962,"",イオン古河 ショップ,茨城県古河市旭町1-2-17,36.19704944761294,139.720185
0948,"",結城 ショップ,茨城県結城市下り松三丁目３番地１,36.2867327417542,139.87623638888888
1880,"",イオンモールつくば ショップ,茨城県つくば市稲岡６６－１,36.035113328324215,140.1330822222222
0673,"",イーアスつくば ショップ,茨城県つくば市研究学園５丁目１９番地,36.08548519999672,140.08405083333332
1225,"",トナリエキュート ショップ,茨城県つくば市吾妻１丁目６－１,36.081842467359586,140.1116463888889
1260,"",ジョイフル本田ひたちなか ショップ,茨城県ひたちなか市新光町３４番１,36.407799571436044,140.5859988888889
0977,"",イオンタウン守谷 ショップ,茨城県守谷市百合ヶ丘3丁目249-1,35.94438689721209,139.99158694444444
1359,"",那珂町 ショップ,茨城県那珂市菅谷１５９１－１,36.429725297762346,140.51463333333334
1423,"",西代 ショップ,茨城県稲敷市西代１４９５番地,35.918560111676726,140.4881961111111
1686,"",イオンタウン水戸南 ショップ,茨城県東茨城郡茨城町大字長岡3480-101,36.31077072626312,140.44201833333332
1047,"",境フィズ ショップ,茨城県猿島郡境町１３２７－１,36.10203349165837,139.79687277777776
1460,"",アピタ宇都宮 ショップ,栃木県宇都宮市江曽島本町２２－７アピタ宇都宮店１Ｆ,36.53158838583737,139.86685416666666
0883,"",宇都宮福田屋 ショップ,栃木県宇都宮市今泉町２３７ 　ＦＫＤショッピングプラザ宇都宮店１Ｆ,36.573965887521624,139.90029583333333
1585,"",ＦＫＤ宇都宮インターパーク ショップ,栃木県宇都宮市インターパーク6丁目1番地1　ＦＫＤショッピングモールインターパーク店１Ｆ,36.49095879635449,139.90653583333332
0634,"",ベルモール宇都宮 ショップ,栃木県宇都宮市陽東６丁目２－１,36.55592511913431,139.92857333333333
1751,"",アシコタウンあしかが ショップ,栃木県足利市大月町３－２,36.33480060421489,139.47685083333334
0573,"",アピタ足利 ショップ,栃木県足利市朝倉町245番地アピタ足利店レストラン館1F,36.320213219175784,139.44942805555556
1582,"",イオンモール佐野新都市 ショップ,栃木県佐野市高萩町１３２４番地１ イオンモール佐野新都市ショッピングセンター内,36.299172067466365,139.60632666666666
1793,"",ヨークベニマル鹿沼 ショップ,栃木県鹿沼市西茂呂２丁目２３番地７,36.55310045311528,139.76918083333334
1731,"",イオンモール小山 ショップ,栃木県小山市大字中久喜１４６７－１,36.32155242416635,139.84081416666666
1388,"",大田原 ショップ,栃木県大田原市美原１丁目３１３４－１,36.861640062831455,140.01030166666666
1721,"",イオン那須塩原 ショップ,栃木県那須塩原市島方455番地,36.929154435577026,140.00596416666667
1662,"",イオンさくら ショップ,栃木県さくら市櫻野1555,36.68940382805867,139.97910611111112
0742,"",けやきウォーク前橋 ショップ,群馬県前橋市文京町2丁目1-1,36.379397575872005,139.07846694444444
1809,"",ベイシア前橋みなみモール ショップ,群馬県前橋市新堀町８９３番地,36.33045054548757,139.0967913888889
1810,"",前橋片貝 ショップ,群馬県前橋市上泉町１５番２,36.39580230766396,139.10086555555554
1674,"",イオンモール高崎 ショップ,群馬県高崎市　棟高町1４００番地,36.39038110165705,139.00685416666667
0727,"",高崎駅ビル ショップ,群馬県高崎市八島町２２２,36.3233391794093,139.0118813888889
0665,"",高崎小鳥町 ショップ,群馬県高崎市下小鳥町446-7,36.35358320306884,138.9995911111111
0930,"",高崎東 ショップ,群馬県高崎市高関町526,36.32204415720871,139.0279463888889
0261,"",マーケットシティ桐生 ショップ,群馬県桐生市相生町１丁目１２４番１,36.40599341901803,139.31863166666668
1065,"",伊勢崎宮子 ショップ,群馬県伊勢崎市宮子町２８９－１,36.32836176513549,139.16311583333334
1740,"",スマーク伊勢崎 ショップ,群馬県伊勢崎市西小保方町３６８スマーク伊勢崎内,36.33979645534186,139.23340972222223
2082,"",イオンモール太田 ショップ,群馬県太田市石原町８１番地,36.29399443207698,139.39890083333333
2091,"",ニコモール新田 ショップ,群馬県太田市新田市野井町592-13,36.302673317684516,139.30159444444445
1104,"",渋川 ショップ,群馬県渋川市行幸田６３番地,36.479174253021895,139.00254722222223
2048,"",ジョイホンパーク吉岡 ショップ,群馬県北群馬郡吉岡町大久保３６４－１ ジョイホンパーク吉岡２階フードコート内,36.430394654517656,139.01869027777778
1814,"",ジョイフル本田千代田 ショップ,群馬県邑楽郡千代田町大字萱野８１３－１,36.20703891163858,139.47300166666668
1783,"",ステラタウン大宮宮原 ショップ,埼玉県さいたま市北区宮原町１丁目８５４－１,35.933057088805356,139.62302333333332
2055,"",大宮マルイ ショップ,埼玉県さいたま市大宮区桜木町2丁目3,35.90703229715494,139.62184166666665
1709,"",イオンモール与野 ショップ,埼玉県さいたま市中央区本町西５－２－９,35.890722454382946,139.6149761111111
0522,"",浦和西口 ショップ,埼玉県さいたま市浦和区仲町１丁目１-１０,35.86002682311911,139.65593
0399,"",浦和東口 ショップ,埼玉県さいたま市浦和区東高砂町２-３,35.85810569602506,139.65801166666665
0503,"",南浦和駅前 ショップ,埼玉県さいたま市南区南本町１丁目２-１３,35.84639281653767,139.66909916666665
0771,"",武蔵浦和駅前 ショップ,埼玉県さいたま市南区白幡５丁目１９-１９MARE,35.84479301498347,139.6474863888889
1788,"",イオンモール浦和美園 ショップ,埼玉県さいたま市緑区美園５丁目５０番地１,35.890327343780704,139.73157111111112
0675,"",川越アトレマルヒロ ショップ,埼玉県川越市脇田町１０５アトレマルヒロ１Ｆ,35.90828192226777,139.48302916666665
1131,"",鶴ケ島 ショップ,埼玉県川越市鯨井新田４－１,35.936193440466766,139.42246444444444
1921,"",本川越ペペ ショップ,埼玉県川越市新富町１丁目２２,35.91461107545202,139.48186444444445
1955,"",ウニクス南古谷 ショップ,埼玉県川越市泉町3番1,35.90607116126202,139.51240944444444
2030,"",アズ熊谷 ショップ,埼玉県熊谷市筑波2-115,36.1398581043481,139.39034361111112
0578,"",熊谷ニットーモール ショップ,埼玉県熊谷市銀座２丁目２４５番SCニットーモール１F,36.13874842243275,139.39376694444445
1653,"",アリオ川口 ショップ,埼玉県川口市並木元町１－７９　アリオ川口１Ｆ,35.807676583801204,139.713645
1988,"",イオンモール川口 ショップ,埼玉県川口市安行領根岸3180番地　イオンモール川口２階フードコート,35.838235022862406,139.72422333333333
1973,"",イオンモール川口前川 ショップ,埼玉県川口市前川１－１－１１,35.83351788143858,139.70666527777777
1086,"",西川口駅前 ショップ,埼玉県川口市並木２丁目１－１,35.81574784739808,139.70524805555556
0651,"",東川口 ショップ,埼玉県川口市戸塚東３丁目１－８,35.868221805865645,139.7525863888889
1736,"",ララガーデン川口 ショップ,埼玉県川口市宮町１８－９,35.805027970952196,139.69837083333334
2049,"",ウニクス秩父 ショップ,埼玉県秩父市上野町805-14,35.99555799081375,139.08848916666668
0646,"",小手指 ショップ,埼玉県所沢市小手指町１丁目２６－７,35.803319902029685,139.43901472222223
0440,"",新所沢駅前 ショップ,埼玉県所沢市松葉町２－２２　矢島ビル１F,35.8073436945217,139.45571555555554
1013,"",所沢駅西口 ショップ,埼玉県所沢市くすのき台1丁目14番5グランエミオ所沢1階,35.7865471017841,139.47287944444443
0325,"",飯能ペペ ショップ,埼玉県飯能市仲町１１－２１　飯能ペペ２Ｆ,35.85129007960186,139.3191938888889
0328,"",MEGAドン・キホーテUNY本庄 ショップ,埼玉県本庄市南１丁目２－１０,36.236713212908946,139.1824275
0438,"",ピオニウォーク東松山 ショップ,埼玉県東松山市あずま町４丁目３番地,36.00537099491782,139.41069916666666
1878,"",イオンモール春日部 ショップ,埼玉県春日部市下柳字森田４２０－１,35.988824782549806,139.7892363888889
0755,"",ララガーデン春日部 ショップ,埼玉県春日部市南１－１－１,35.977213179721616,139.75548916666668
1829,"",エミオ狭山市 ショップ,埼玉県狭山市祇園４－５５,35.857131136173535,139.41335055555555
1701,"",イオンモール羽生 ショップ,埼玉県羽生市川崎２丁目２８１－３,36.14265478407917,139.54215916666666
0387,"",エルミこうのす ショップ,埼玉県鴻巣市本町１丁目１番地２,36.060179353593995,139.50974444444444
1972,"",フジモール吹上 ショップ,埼玉県鴻巣市袋９０－１,36.09628727670194,139.46575277777777
0405,"",アリオ深谷 ショップ,埼玉県深谷市上柴町西４丁目２－１４,36.18127354812967,139.29910666666666
2102,"",上尾モンシェリー ショップ,埼玉県上尾市谷津２丁目１-５０-２５,35.97241186565503,139.58687666666665
1886,"",アリオ上尾 ショップ,埼玉県上尾市大字壱丁目367番地,35.96114738231513,139.56620805555556
1206,"",アコス草加駅前 ショップ,埼玉県草加市高砂２丁目７－１,35.82771606365752,139.80403027777777
2020,"",エキア松原 ショップ,埼玉県草加市松原一丁目１番１３号,35.84374985932628,139.8004511111111
1894,"",島忠ホームズ草加舎人 ショップ,埼玉県草加市遊馬町２－１,35.81799141278778,139.76896277777777
0271,"",イオンレイクタウン ショップ,埼玉県越谷市レイクタウン３丁目１－１,35.88176532873138,139.82840861111112
2071,"",エキア越谷 ショップ,埼玉県越谷市弥生町4-11,35.88804447744429,139.78617555555556
1313,"",北越谷 ショップ,埼玉県越谷市東大沢５丁目１２番１８号,35.90531414291535,139.7903925
1005,"",南越谷駅前 ショップ,埼玉県越谷市南越谷２丁目２－１２コア－ズビル１Ｆ,35.876979332418315,139.79011916666667
1447,"",イオンモール北戸田 ショップ,埼玉県戸田市美女木東１丁目３－１,35.82691506069464,139.6522575
1587,"",イオン入間 ショップ,埼玉県入間市上藤沢４６２－１,35.82190712869722,139.3951152777778
0943,"",入間市駅前 ショップ,埼玉県入間市河原町１５０６,35.841172599759076,139.3894286111111
1448,"",北朝霞駅前 ショップ,埼玉県朝霞市浜崎１丁目２－１０,35.8149583737491,139.58769444444445
1977,"",マルイファミリー志木 ショップ,埼玉県志木市本町5丁目26番1号,35.82335156120535,139.57409361111112
1232,"",和光市駅前 ショップ,埼玉県和光市本町３番２３号,35.78767262440501,139.6127238888889
1554,"",デオシティ新座 ショップ,埼玉県新座市中野２丁目１－３８,35.81791621420228,139.54949222222223
0824,"",ベニバナウォーク桶川 ショップ,埼玉県桶川市下日出谷東二丁目１５番地ー１,35.996581753099825,139.55056888888888
1621,"",アリオ鷲宮 ショップ,埼玉県久喜市久本寺字谷田７ー１,36.07879807146698,139.66241083333333
1739,"",モラージュ菖蒲 ショップ,埼玉県久喜市菖蒲町菖蒲6005-1,36.07519070542131,139.6116325
1848,"",フレスポ八潮 ショップ,埼玉県八潮市大瀬一丁目1-3 フレスポ八潮1階,35.80879177715697,139.84401222222223
0470,"",ららぽーと富士見 ショップ,埼玉県富士見市山室１丁目１３１３番,35.85881397630553,139.54873388888888
1644,"",イトーヨーカドー三郷 ショップ,埼玉県三郷市ピアラシティ１丁目１番地１イトーヨーカドー三郷店１F,35.8432538587313,139.85381416666667
2106,"",ららぽーと新三郷 ショップ,埼玉県三郷市新三郷ららシティ３丁目１－１,35.85918601388017,139.86677833333334
1471,"",ＭＥＧＡドンキホーテ蓮田 ショップ,埼玉県蓮田市東４丁目５－１３,35.98036759449555,139.65831833333334
1167,"",坂戸駅前 ショップ,埼玉県坂戸市日の出町２０－２,35.95775123441059,139.39387722222222
0264,"",ＩＹ埼玉大井 ショップ,埼玉県ふじみ野市西鶴ケ丘１－３－１５,35.86494339922684,139.50088222222223
1989,"",ウニクス伊奈 ショップ,埼玉県北足立郡伊奈町学園2丁目188-1　ウニクス伊奈１Fフードコート,36.00977606217661,139.61364083333333
1727,"",イオンタウン上里 ショップ,埼玉県児玉郡上里町大字金久保字蓮山３５９－１,36.26071872792328,139.135685
1642,"",アリオ蘇我 ショップ,千葉県千葉市中央区川崎町５２番地７号,35.58797373780089,140.12248194444444
1292,"",モノレール千葉駅 ショップ,千葉県千葉市中央区新千葉１丁目１－１地先市道路,35.612486969107906,140.11441027777778
1568,"",イトーヨーカドー幕張 ショップ,千葉県千葉市花見川区幕張町４丁目４１７－２５,35.656369029960636,140.05118333333334
0243,"",稲毛 ショップ,千葉県千葉市稲毛区小仲台２丁目４－１１,35.637764742215666,140.09264194444444
1966,"",ワンズモール ショップ,千葉県千葉市稲毛区長沼町３3０番地５０,35.65697386005328,140.11750694444444
1012,"",都賀駅前 ショップ,千葉県千葉市若葉区都賀３丁目４－１,35.635485944567876,140.1496647222222
1073,"",イオン鎌取 ショップ,千葉県千葉市緑区おゆみ野３丁目１６イオン鎌取内,35.561370813218964,140.17755444444444
1986,"",イオンモール幕張新都心 ショップ,千葉県千葉市美浜区豊砂１－１　イオンモール幕張新都心グランドモール１階,35.65387467908423,140.03157277777777
1773,"",イオンモール銚子 ショップ,千葉県銚子市三崎町２丁目２６６０－１,35.71021834356173,140.78763444444445
0547,"",市川駅前 ショップ,千葉県市川市市川１丁目７－６,35.72972691641588,139.90826777777778
0489,"",行徳駅前 ショップ,千葉県市川市行徳駅前２丁目１－１１,35.683316690158335,139.9139563888889
0609,"",ニッケコルトンプラザ ショップ,千葉県市川市鬼高１丁目１－１,35.71717152001587,139.93383083333333
0996,"",南行徳駅前 ショップ,千葉県市川市相之川４丁目１５－３,35.67206880829889,139.90112194444444
0349,"",本八幡 ショップ,千葉県市川市南八幡４丁目７－４,35.71986993130887,139.92698277777777
1853,"",イオンモール船橋 ショップ,千葉県船橋市山手１－１－８,35.712588441894674,139.9784197222222
1544,"",イトーヨーカドー船橋 ショップ,千葉県船橋市本町７丁目６－１,35.70311858294921,139.9849338888889
1965,"",船橋FACE ショップ,千葉県船橋市本町1丁目3－1,35.7007653627432,139.98549694444444
0805,"",船橋本町 ショップ,千葉県船橋市本町２丁目１－１船橋スクエア－２１,35.69773010171259,139.9854138888889
2068,"",ららテラスTOKYO-BAY ショップ,千葉県船橋市若松２丁目２番１号,35.6809262978375,139.99677166666666
0863,"",ららぽーとTOKYO－BAY ショップ,千葉県船橋市浜町２丁目１－１ららぽ－と西館１階,35.686750524584305,139.98869166666665
1502,"",アピタ木更津 ショップ,千葉県木更津市ほたる野４丁目２－４８,35.375315048173995,139.96229
1905,"",イオンモール木更津 ショップ,千葉県木更津市築地１－４,35.36751305199784,139.90748694444446
1116,"",イオンフードスタイル新松戸 ショップ,千葉県松戸市新松戸３丁目２－２,35.82587429405622,139.91572861111112
0426,"",松戸東口 ショップ,千葉県松戸市松戸１－１２２５,35.78405001277192,139.9012675
0982,"",野田花井 ショップ,千葉県野田市堤根９８,35.942219201721684,139.8834711111111
0621,"",茂原 ショップ,千葉県茂原市道表８－６,35.430395152627405,140.28734583333335
1442,"",イオン成田 ショップ,千葉県成田市ウイング土屋２４番地,35.79552837719747,140.31851944444443
1519,"",公津の杜 ショップ,千葉県成田市公津の杜４丁目５番３号,35.759935958930875,140.29599055555556
2069,"",イオンモール津田沼 ショップ,千葉県習志野市津田沼１丁目２３－１　１階,35.69031210791182,140.0250188888889
0563,"",京成大久保駅前 ショップ,千葉県習志野市大久保１丁目２３－１,35.68611030724506,140.04816527777777
0525,"",スカイプラザ柏 ショップ,千葉県柏市柏１丁目１－２０　スカイプラザ柏Ｂ１,35.862321119212645,139.97215916666667
1923,"",セブンパークアリオ柏 ショップ,千葉県柏市大島田１丁目６番地１,35.83144049571737,140.01258833333333
0766,"",モラージュ柏 ショップ,千葉県柏市大山台２丁目３番地,35.88224300112401,139.9694625
0334,"",アリオ市原 ショップ,千葉県市原市更級４丁目３番2,35.50806904080191,140.10196555555555
1780,"",カインズ市原 ショップ,千葉県市原市更級３丁目１－１カインズホーム市原店内,35.50643837629059,140.10391777777778
1696,"",ユニモちはら台 ショップ,千葉県市原市ちはら台西3-4,35.527980598754475,140.17178611111112
2039,"",TXグランドアベニューおおたかの森 ショップ,千葉県流山市おおたかの森北１丁目１－１,35.87230283038163,139.92560583333332
0800,"",イオンモール八千代緑が丘 ショップ,千葉県八千代市緑が丘２丁目１－３,35.72829973755368,140.0729211111111
0187,"",勝田台 ショップ,千葉県八千代市勝田台１丁目１０,35.7150161013122,140.12707583333332
1655,"",フルルガーデン八千代 ショップ,千葉県八千代市村上南１－３－１,35.72243041162028,140.11763194444444
1984,"",ユアエルム八千代台 ショップ,千葉県八千代市八千代台東１－１－１０,35.7005821696972,140.09197944444443
1305,"",天王台駅前 ショップ,千葉県我孫子市天王台１丁目２４,35.8720938678317,140.04017583333334
1951,"",アクロスモール新鎌ケ谷　　 ショップ,千葉県鎌ケ谷市新鎌ケ谷2-12-1,35.78090677625106,140.00126166666666
1105,"",新浦安 ショップ,千葉県浦安市入船１ー４ー１ショッパーズプラザ新浦安,35.648960277726786,139.91489805555557
0602,"",イトーヨーカ堂四街道 ショップ,千葉県四街道市中央５番地,35.66705111595804,140.1649113888889
1465,"",千葉ニュータウン中央 ショップ,千葉県印西市中央北３丁目１番１,35.80240542145967,140.1139925
1842,"",銀座ナイン ショップ,東京都中央区銀座８丁目５番地先　銀座ナイン１号館１Ｆ,35.66809673346664,139.75926555555554
2114,"",晴海トリトン ショップ,東京都中央区晴海1丁目8-16　晴海トリトン内,35.65735645958516,139.78223805555555
2100,"",アトレ信濃町 ショップ,東京都新宿区信濃町３４,35.68009113407443,139.72021805555556
0552,"",新宿靖国通り ショップ,東京都新宿区歌舞伎町１丁目２－１,35.69328410543044,139.7037136111111
1070,"",高田馬場戸山口 ショップ,東京都新宿区高田馬場１丁目３４－１,35.7116367477,139.70404333333335
1826,"",千駄木 ショップ,東京都文京区千駄木３丁目３７－２０,35.7248835511668,139.7633363888889
0373,"",浅草 ショップ,東京都台東区西浅草１丁目７－１６,35.71113696021568,139.79160777777778
1802,"",イトーヨーカドー曳舟 ショップ,東京都墨田区京島1-2-1,35.717581243665556,139.8179075
1690,"",押上業平 ショップ,東京都墨田区業平3-13-6,35.708818896514096,139.81296138888888
0034,"",アリオ北砂 ショップ,東京都江東区北砂２丁目１７－１アリオ北砂フードコート１Ｆ,35.68254480465172,139.82601527777777
1487,"",イトーヨーカドー木場 ショップ,東京都江東区木場１丁目５ー３０,35.66563242687805,139.80447
0075,"",亀戸 ショップ,東京都江東区亀戸６丁目５９－２,35.69685589408096,139.8259975
2036,"",ダイバーシティ東京プラザ ショップ,東京都江東区青海１丁目１－１０,35.6253654892659,139.77598166666667
0652,"",東大島駅前 ショップ,東京都江東区大島９丁目４－１東大島ファミールハイツ１号１１４,35.69102615594991,139.8447661111111
0037,"",門前仲町 ショップ,東京都江東区門前仲町１丁目７－１０,35.672761359861916,139.79462305555555
1948,"",イトーヨーカドー大井町 ショップ,東京都品川区大井１丁目３－６,35.6071687037689,139.73383833333332
0567,"",戸越 ショップ,東京都品川区戸越３丁目１－１５,35.614920174561426,139.71678472222223
0792,"",武蔵小山駅前 ショップ,東京都品川区小山３丁目２６－９駅サイドビル１Ｆ,35.619664290685236,139.703725
0723,"",池上駅前 ショップ,東京都大田区池上６丁目１－２,35.572867357080504,139.70388027777778
1557,"",大森山王 ショップ,東京都大田区山王２丁目３－５,35.58784348993021,139.72688055555557
1509,"",蒲田東口 ショップ,東京都大田区蒲田５丁目１６－１０,35.56225080532445,139.71712944444445
0260,"",糀谷 ショップ,東京都大田区南蒲田３丁目１２－１０山一ビル,35.553473928271025,139.72969333333333
1827,"",小田急ＯＸ経堂 ショップ,東京都世田谷区経堂２－１－３３,35.65157357482153,139.63563305555556
1323,"",喜多見駅前 ショップ,東京都世田谷区喜多見９丁目２－３３,35.63681985321819,139.5877213888889
0859,"",桜新町駅前 ショップ,東京都世田谷区新町２丁目３８－１４,35.63160608132052,139.64530305555556
0412,"",三軒茶屋 ショップ,東京都世田谷区三軒茶屋１丁目３８－８,35.64336665591563,139.67135416666667
0515,"",下北沢 ショップ,東京都世田谷区北沢２丁目１７－１３,35.66004686614313,139.66716333333332
0107,"",成城 ショップ,東京都世田谷区成城２丁目３４－１０,35.6394449516074,139.59870833333332
2075,"",二子玉川ライズオークモール ショップ,東京都世田谷区玉川2丁目21-1　オークモール102,35.612339388484706,139.62808722222223
0958,"",中野 ショップ,東京都中野区中野５丁目６８－１,35.70853855372573,139.66522
0369,"",東中野 ショップ,東京都中野区東中野４－４－５,35.70653638348241,139.68399722222222
0660,"",高井戸 ショップ,東京都杉並区高井戸西２丁目１－２４,35.683549332944224,139.61543138888888
0450,"",南阿佐谷 ショップ,東京都杉並区阿佐谷南１丁目１５－５,35.69946188658496,139.63579805555557
1930,"",池袋メトロポリタン口 ショップ,東京都豊島区西池袋１－１０－１０,35.72957696095215,139.70902194444446
0793,"",池袋サンシャイン通り ショップ,東京都豊島区東池袋１丁目１５－３,35.73079708058043,139.71486166666668
1888,"",池袋西口 ショップ,東京都豊島区西池袋１丁目２０－１,35.73143436966993,139.70968916666666
0200,"",赤羽 ショップ,東京都北区赤羽１丁目１－５,35.77831619731883,139.72120805555556
2103,"",王子メトロピア ショップ,東京都北区王子１丁目１０－１８,35.75418604303887,139.73705166666667
0482,"",町屋 ショップ,東京都荒川区町屋２丁目２－２３,35.743251649983215,139.78067805555557
1781,"",ＬaＬaテラス南千住 ショップ,東京都荒川区南千住４－７－２ＬaＬaテラス南千住,35.73529842119982,139.80203277777778
1303,"",大山 ショップ,東京都板橋区大山東町２１－９,35.7488246425344,139.70344416666666
1804,"",セブンタウン小豆沢 ショップ,東京都板橋区小豆沢３丁目９－５,35.78001667868582,139.6942077777778
1864,"",東武練馬 ショップ,東京都板橋区徳丸２丁目３－４,35.76923979716231,139.66088527777777
0291,"",成増 ショップ,東京都板橋区成増１丁目２８－１５林ビル,35.77615073966435,139.6319263888889
0471,"",西台駅前 ショップ,東京都板橋区高島平１丁目８０－１６,35.78677566165792,139.67358222222222
0633,"",江古田 ショップ,東京都練馬区豊玉上１丁目８－１,35.73619093590749,139.67256944444443
2086,"",石神井公園駅前 ショップ,東京都練馬区石神井町３丁目２３番ー８,35.74376139562809,139.60601305555556
1375,"",練馬高野台駅前 ショップ,東京都練馬区高野台１丁目７－２７,35.7407514238844,139.6167825
2045,"",光が丘IMA ショップ,東京都練馬区光が丘５－１－１光が丘IMA中央館　地下1階,35.75921305422727,139.62838472222222
1675,"",富士見台駅前 ショップ,東京都練馬区貫井３丁目７－５,35.73554314922019,139.62938805555555
1704,"",アリオ西新井 ショップ,東京都足立区西新井栄町１丁目２０－１,35.7745044705839,139.7858997222222
2084,"",エキア竹ノ塚 ショップ,東京都足立区西竹の塚２丁目１－２,35.79421907560099,139.79057916666667
1913,"",北千住 ショップ,東京都足立区千住３丁目９２,35.7509947232917,139.8046097222222
0888,"",亀有駅前 ショップ,東京都葛飾区亀有３丁目７－１１,35.76577561989184,139.84762
1412,"",アリオ葛西 ショップ,東京都江戸川区東葛西９丁目３－３,35.65230369034054,139.88110444444445
0772,"",葛西駅前 ショップ,東京都江戸川区東葛西５丁目１－４篠原ビル１Ｆ,35.66418354858144,139.87345944444445
2077,"",シャポー小岩 ショップ,東京都江戸川区南小岩７丁目２４番１５号,35.73282033560782,139.881155
0886,"",西葛西駅前 ショップ,東京都江戸川区西葛西６丁目１６－６,35.663813222535346,139.85982222222222
0716,"",船堀駅前 ショップ,東京都江戸川区船堀３丁目５－７,35.68321585064763,139.86390583333332
1403,"",イトーヨーカドー狭間 ショップ,東京都八王子市狭間町１４６２－１,35.63830404053281,139.29326694444444
1687,"",ぐりーんうぉーく多摩 ショップ,東京都八王子市別所2丁目56,35.61183857007955,139.3966336111111
0940,"",京王八王子駅前 ショップ,東京都八王子市明神町４丁目６－１,35.65824531219012,139.3429763888889
0268,"",ＪＲ八王子南口 ショップ,東京都八王子市旭町１番１７号セレオ八王子１階,35.65460820769119,139.33866361111112
1697,"",八王子楢原コピオ ショップ,東京都八王子市楢原町1818-15,35.68732663201411,139.30537444444445
1236,"",南大沢駅前 ショップ,東京都八王子市南大沢２丁目２８－１,35.61362031970666,139.37972527777777
1569,"",立川北口 ショップ,東京都立川市曙町１丁目３１－１,35.6995102961429,139.41200055555555
1918,"",ららぽーと立川立飛 ショップ,東京都立川市泉町９３５番地の１,35.71305352245037,139.41777277777777
1778,"",ＩＹ武蔵境 ショップ,東京都武蔵野市境南町２－３－６,35.70105756917605,139.54480916666665
0477,"",吉祥寺サンロード ショップ,東京都武蔵野市吉祥寺本町１丁目１１－２８,35.70531724434553,139.58048833333334
0920,"",府中 ショップ,東京都府中市宮町１丁目４１－１フォ－リス１Ｆ,35.67055865857963,139.4794061111111
0809,"",昭島モリタウン ショップ,東京都昭島市代官山２丁目３－１　昭島モリタウン東館１階,35.71363888889348,139.3627213888889
1695,"",Ｄｉｌａ拝島 ショップ,東京都昭島市松原町4丁目14-4ＪＲ拝島駅構内,35.72118102876374,139.3436111111111
0154,"",仙川 ショップ,東京都調布市仙川町１丁目１４－４４,35.659810202604866,139.58540833333333
0641,"",調布パルコ ショップ,東京都調布市小島町１丁目３８－２調布パルコ１Ｆ,35.65311844020489,139.54367638888888
1661,"",鶴川駅前 ショップ,東京都町田市能ケ谷町１丁目３－２,35.582844152807574,139.47994
2051,"",町田東急ツインズ ショップ,東京都町田市原町田6-4-1,35.54261319060582,139.44648222222222
1999,"",南町田グランベリーパーク ショップ,東京都町田市鶴間３－４－１,35.5082399216857,139.47145972222222
1745,"",イトーヨーカドー武蔵小金井 ショップ,東京都小金井市本町６丁目１４－９,35.700650149861346,139.50497916666666
1712,"",花小金井駅南口 ショップ,東京都小平市花小金井南町1-27-22,35.72610567350178,139.51222166666668
0216,"",イオンモール多摩平の森 ショップ,東京都日野市多摩平２丁目４－１,35.66183960790062,139.38060444444446
1874,"",国分寺マルイ ショップ,東京都国分寺市南町３丁目２０－３,35.699669606443464,139.48050555555557
1618,"",西友福生 ショップ,東京都福生市東町５－１,35.7429645546462,139.328025
1593,"",東大和市駅前 ショップ,東京都東大和市桜ヶ丘１丁目１３００－１９,35.732939117524175,139.43420111111112
0908,"",清瀬駅前 ショップ,東京都清瀬市元町１丁目４－５,35.77283852552902,139.5205613888889
2067,"",イオンモール東久留米 ショップ,東京都東久留米市南沢5丁目17番62号,35.745136933319365,139.52739222222223
1757,"",イオンモールむさし村山 ショップ,東京都武蔵村山市榎１丁目１－３,35.74626539719226,139.3848725
0939,"",聖蹟桜ケ丘 ショップ,東京都多摩市関戸２丁目４１－１,35.65101552724047,139.44814805555555
1657,"",多摩センター ショップ,東京都多摩市落合1丁目45-1,35.623203677658246,139.42624833333332
1456,"",羽村 ショップ,東京都羽村市五ノ神４丁目１３－７,35.76023970054409,139.31663555555556
0286,"",ひばりケ丘 ショップ,東京都西東京市住吉町３丁目９－８,35.75116513924174,139.54553
2015,"",ジョイフル本田瑞穂 ショップ,東京都西多摩郡瑞穂町殿ヶ谷４４２ ジョイフル本田瑞穂１階,35.76121740893364,139.3586161111111
1706,"",イオンモール日の出 ショップ,東京都西多摩郡日の出町大字平井字三吉野桜木２３７番地３,35.73495935894082,139.27542888888888
1997,"",鶴見駅前 ショップ,神奈川県横浜市鶴見区豊岡町２－３,35.50892856943383,139.6749975
0166,"",東神奈川駅前 ショップ,神奈川県横浜市神奈川区西神奈川１丁目６,35.478297873427465,139.63242555555556
0211,"",横浜大口 ショップ,神奈川県横浜市神奈川区大口通５７－１,35.4914441357748,139.6451297222222
2009,"",FOOD&TIME　ISETAN　YOKOHAMA ショップ,神奈川県横浜市西区南幸1丁目5-1　新相鉄ビル　ジョイナスB1,35.46542371523404,139.62102055555556
2113,"",横浜ポルタ ショップ,神奈川県横浜市西区高島２丁目１６　地下１階,35.46534325144716,139.62204
2105,"",横浜みなとみらい ショップ,神奈川県横浜市西区みなとみらい２－３－４ クイーンズスクエア横浜 ステーションコアB３F,35.4576637460938,139.63450138888888
1424,"",イトーヨーカドー別所 ショップ,神奈川県横浜市南区別所１丁目１４－１,35.41567770384468,139.59485583333333
2023,"",イオン天王町 ショップ,神奈川県横浜市保土ヶ谷区川辺町３－５ イオン天王町SC １F,35.45827834401436,139.59949277777778
0572,"",根岸 ショップ,神奈川県横浜市磯子区東町１７－３０,35.416321318546636,139.63568194444446
0041,"",金沢文庫 ショップ,神奈川県横浜市金沢区釜利谷東２丁目１-３,35.3413664206467,139.6204225
0359,"",綱島駅前 ショップ,神奈川県横浜市港北区綱島西１丁目８－１,35.536799331875756,139.6336186111111
1746,"",トレッサ横浜 ショップ,神奈川県横浜市港北区師岡町７００番地,35.52433456469534,139.64604111111112
0985,"",日吉駅前 ショップ,神奈川県横浜市港北区日吉本町１丁目１－１２,35.55361768350294,139.646425
2040,"",ブルーライン新横浜駅 ショップ,神奈川県横浜市港北区新横浜2-100（市営地下鉄新横浜駅B1階）,35.50848549110882,139.6177775
2052,"",西武東戸塚S.C. ショップ,神奈川県横浜市戸塚区品濃町537-1　西武東戸塚S.C.　モール館7F,35.430203807435355,139.55856055555554
0818,"",戸塚西口 ショップ,神奈川県横浜市戸塚区戸塚町１６番地１　戸塚西口共同ビルＡ－３０１トツカーナモール３Ｆ,35.400544963508246,139.5331936111111
1608,"",上大岡駅前 ショップ,神奈川県横浜市港南区上大岡西1丁目15-1,35.40891968042801,139.59553305555556
2001,"",港南台バーズ ショップ,神奈川県横浜市港南区港南台３丁目１－３,35.375060504706845,139.57765
0374,"",鶴ケ峰駅前 ショップ 改装休店中,神奈川県横浜市旭区鶴ケ峰１丁目１２－２０,35.474825511874705,139.54792111111112
2054,"",二俣川 ショップ,神奈川県横浜市旭区二俣川２丁目５０番地１４,35.4630522247407,139.5325086111111
1652,"",カエデウォーク長津田 ショップ,神奈川県横浜市緑区長津田みなみ台４丁目７－１　カエデウォーク長津田１Ｆ,35.518552391552966,139.49889611111112
1779,"",中山 ショップ,神奈川県横浜市緑区中山町２２０番地,35.51393790866565,139.54014916666668
1885,"",相鉄ライフ三ツ境 ショップ,神奈川県横浜市瀬谷区三ツ境４番地　相鉄三ツ境駅構内,35.467942472909414,139.50233305555557
1791,"",イトーヨーカドー立場 ショップ,神奈川県横浜市泉区中田西１－１－１５,35.41316957456855,139.50037361111112
2093,"",ゆめが丘ソラトス ショップ,神奈川県横浜市泉区ゆめが丘３１　１階１３４,35.405021325227985,139.48286833333333
0213,"",青葉台 ショップ,神奈川県横浜市青葉区青葉台２丁目９－１,35.543567737897924,139.51617638888888
1796,"",たまプラーザテラス ショップ,神奈川県横浜市青葉区美しが丘１丁目１番2号,35.57716550684484,139.55926222222223
2047,"",イトーヨーカドーららぽーと横浜 ショップ,神奈川県横浜市都筑区池辺町4035-1,35.51839691841962,139.56683555555554
1262,"",センター北駅前 ショップ,神奈川県横浜市都筑区中川中央１丁目１－１,35.55355946196677,139.57798527777777
1764,"",センター南 ショップ,神奈川県横浜市都筑区茅ヶ崎中央１４－１２,35.54281764868029,139.57343833333334
1450,"",イトーヨーカドー川崎 ショップ,神奈川県川崎市川崎区小田栄２丁目２－１　イトーヨーカドー川崎内,35.51482019104897,139.70803583333333
0643,"",川崎駅前 ショップ,神奈川県川崎市川崎区駅前本町５番地,35.53042689895455,139.6991088888889
1950,"",京急川崎 ショップ,神奈川県川崎市川崎区砂子１丁目３番地1,35.532471111928196,139.70070277777776
1614,"",鹿島田 ショップ,神奈川県川崎市幸区新塚越２０１,35.55066139983288,139.67574
2026,"",ラゾーナ川崎 ショップ,神奈川県川崎市幸区堀川町７２－１ 三井ショッピングパークラゾーナ川崎プラザ１F,35.53310141223545,139.69588638888888
1996,"",イトーヨーカドー武蔵小杉 ショップ,神奈川県川崎市中原区小杉町3-420,35.57536514514915,139.6578963888889
2081,"",武蔵新城 ショップ,神奈川県川崎市中原区上新城２丁目１番１７号,35.5866381586704,139.63103166666667
1119,"",溝ノ口 ショップ,神奈川県川崎市高津区溝口１－４－１ノクティプラザ２,35.599272255480635,139.61301194444445
1747,"",京王稲田堤駅前 ショップ,神奈川県川崎市多摩区菅４丁目１－１,35.63400045378447,139.530965
1898,"",宮崎台 ショップ,神奈川県川崎市宮前区宮崎２丁目１０－１２,35.58699904766201,139.5909886111111
0899,"",新百合ケ丘南口 ショップ,神奈川県川崎市麻生区上麻生１丁目２０－１,35.60384953909989,139.50811944444445
1795,"",アリオ橋本 ショップ,神奈川県相模原市緑区大山町１番２２号,35.59106666605808,139.3498052777778
0540,"",橋本駅前 ショップ,神奈川県相模原市緑区橋本３丁目２８－１ミウィ橋本１Ｆ,35.59527327258605,139.34530444444445
1647,"",上溝 ショップ 改装休店中,神奈川県相模原市中央区上溝７丁目９,35.556997170678166,139.35986472222223
2066,"",古淵駅前 ショップ,神奈川県相模原市南区古淵2丁目18-3　山政第一ビル１F,35.555358240876,139.41957555555555
1958,"",相模大野ステーションスクエア ショップ,神奈川県相模原市南区相模大野3-8-1,35.53168917966386,139.4374447222222
1728,"",イオン横須賀久里浜 ショップ,神奈川県横須賀市久里浜５丁目１３－１,35.22866766936188,139.7041525
1308,"",コースカベイサイド ショップ,神奈川県横須賀市本町２丁目１ー１２,35.283281349294,139.66253527777778
0167,"",横須賀 ショップ,神奈川県横須賀市大滝町２丁目４,35.281066987349895,139.66968694444444
1120,"",横須賀モアーズシティ ショップ,神奈川県横須賀市若松町２丁目３０,35.2783596917629,139.66973166666668
1927,"",ららぽーと湘南平塚 ショップ,神奈川県平塚市天沼１０－１,35.33735822201357,139.3542888888889
0220,"",大船駅前 ショップ,神奈川県鎌倉市大船１丁目１１－２３,35.35203726698362,139.53165833333333
0579,"",湘南台駅前 ショップ,神奈川県藤沢市湘南台１丁目３の１０,35.39716409650689,139.4673625
1581,"",湘南モールフィル ショップ,神奈川県藤沢市辻堂新町４丁目１－１　湘南モールフィル内,35.33866312176497,139.46576472222222
1434,"",藤沢駅前 ショップ,神奈川県藤沢市南藤沢２－１－１,35.338589127648405,139.488335
0485,"",小田原 ショップ,神奈川県小田原市栄町１丁目４－２,35.254412817643434,139.15581083333333
1928,"",小田原ダイナシティ ショップ,神奈川県小田原市中里208　ダイナシティウエスト1F,35.2846352135583,139.18595027777778
0560,"",茅ケ崎北口 ショップ,神奈川県茅ヶ崎市新栄町１３－４９,35.33162728270978,139.40417527777777
1767,"",イオン秦野 ショップ,神奈川県秦野市入船町１２－１,35.37746067675303,139.2276011111111
0799,"",渋沢駅前 ショップ,神奈川県秦野市曲松１丁目１－１,35.37433048909766,139.1842861111111
0922,"",本厚木ミロードイースト ショップ,神奈川県厚木市泉町１－１ 小田急本厚木ミロ－ド１階 ミロードイースト,35.43961148812917,139.36396555555555
1634,"",イオンモール大和 ショップ,神奈川県大和市下鶴間１－２－１,35.488887732645885,139.45770944444445
0493,"",ららぽーと海老名 ショップ,神奈川県海老名市扇町１３－１,35.45598743240719,139.3898597222222
1945,"",イオンモール座間 ショップ,神奈川県座間市広野台２丁目10－４,35.50031736656595,139.42454416666666
1750,"",イオン新潟東 ショップ,新潟県新潟市東区大形本町３丁目１－２,37.92479991470968,139.1148313888889
2083,"",CoCoLo新潟 ショップ,新潟県新潟市中央区花園1丁目1－1,37.91202612415104,139.0618436111111
0070,"",とやの ショップ,新潟県新潟市中央区堀之内南１丁目１６－１,37.90555709912412,139.05189305555555
1974,"",新潟万代シテイ ショップ,新潟県新潟市中央区万代1丁目3-30,37.91609769246141,139.05613861111112
1485,"",アピタ新潟亀田 ショップ,新潟県新潟市江南区鵜ノ子４丁目４６６,37.872111402982036,139.08856166666666
1699,"",イオンモール新潟亀田インター ショップ,新潟県新潟市江南区下早通柳田１丁目１－１,37.87613353553052,139.08135194444444
1163,"",新津原信ＳＣ ショップ,新潟県新潟市秋葉区程島１８６５,37.78608294439185,139.11585916666667
1679,"",アピタ新潟西 ショップ,新潟県新潟市西区小新字白鳥４７４番地,37.88011090352133,139.0032061111111
0688,"",寺尾 ショップ,新潟県新潟市西区寺尾東２丁目９－４３,37.87653933104557,138.97480944444445
1964,"",CoCoLo長岡 ショップ,新潟県長岡市城内町1丁目611-1,37.44622436790609,138.85327972222223
0353,"",長岡シビックコア ショップ,新潟県長岡市千歳１丁目３－２２,37.434617124099645,138.8464725
1683,"",リバーサイド千秋 ショップ,新潟県長岡市千秋2丁目278番地,37.461225027631585,138.8275072222222
0664,"",イオンモール新発田 ショップ,新潟県新発田市住吉町５丁目１１－５,37.94239562623394,139.31012722222223
1349,"",見附 ショップ,新潟県見附市葛巻町１６８１－１,37.53025325464717,138.90833527777778
1798,"",村上インター ショップ,新潟県村上市上助淵１０１０番地１,38.207217540755344,139.48018666666667
1845,"",イオン県央 ショップ,新潟県燕市井土巻３丁目６５,37.6511599849006,138.9350122222222
0937,"",イオン上越 ショップ,新潟県上越市富岡3457,37.152303860571166,138.25828305555555
0706,"",上越モール ショップ,新潟県上越市とよば239-1上越モール内,37.102703089946296,138.27687944444443
1214,"",佐渡佐和田 ショップ,新潟県佐渡市市野沢２７,38.009384503738154,138.34058638888888
0873,"",富山北 ショップ,富山県富山市上冨居３丁目８－３８,36.70894502496829,137.24064777777778
0551,"",富山南 ショップ,富山県富山市上袋１００－１アピタ内,36.66087763062001,137.2114738888889
0073,"",ファボーレ ショップ 改装休店中,富山県富山市婦中町下轡田１６５－１　,36.66250452393512,137.17176083333334
0376,"",イオンモール高岡 ショップ,富山県高岡市下伏間江３８３　イオンモール高岡２Ｆフードコート,36.72376847129715,137.01679222222222
0566,"",志貴野 ショップ,富山県高岡市江尻３３１－１イオン高岡江尻内,36.76155497584716,137.03161833333334
1429,"",メガドンキ魚津 ショップ,富山県魚津市住吉６００番地,36.806862975688944,137.40616944444446
1311,"",イオンモールとなみ ショップ,富山県砺波市中神一丁目１７４,36.64113656966879,136.94767277777777
0843,"",アピタ金沢 ショップ,石川県金沢市中村町１０番２０号アピタ金沢１Ｆ,36.55950459059077,136.64260555555555
0830,"",アルビス高柳 ショップ,石川県金沢市高柳町２－６３－１,36.59187740902607,136.66108888888888
0432,"",石川県庁前 ショップ,石川県金沢市鞍月４丁目１１５番地　金沢ジーサイドビル１F,36.5972661524165,136.62408333333335
0668,"",金沢高尾台 ショップ,石川県金沢市高尾台２丁目１３５,36.52365928271564,136.62846944444445
0132,"",金沢武蔵 ショップ 改装休店中,石川県金沢市青草町８８番地,36.5715674231814,136.65565694444444
0463,"",金沢杜の里 ショップ,石川県金沢市田上の里１丁目８７,36.54304542051691,136.69124083333332
0019,"",香林坊 ショップ,石川県金沢市片町１丁目１－２７,36.562012685906126,136.65394416666666
0087,"",七尾 ショップ,石川県七尾市御祓町一番地パトリア１Ｆ,37.043388024086106,136.96319194444445
1932,"",イオンモール新小松 ショップ,石川県小松市清六町315番地,36.39564041299978,136.46580083333333
0653,"",小松ルート８ ショップ,石川県小松市園町ハ２３－１,36.40644942894815,136.46041777777776
1733,"",イオンモールかほく ショップ,石川県かほく市内日角タ２５番地,36.70959103115595,136.70298555555556
1418,"",アピタ松任 ショップ,石川県白山市幸明町２７０番地,36.516010269916436,136.5768238888889
1992,"",イオンモール白山 ショップ,石川県白山市横江町5001番地,36.54419742031434,136.5813063888889
0161,"",野々市 ショップ,石川県野々市市本町４丁目６－２０,36.532918593386356,136.6118488888889
1890,"",アルプラザ津幡 ショップ,石川県河北郡津幡町北中条１丁目１番地,36.66095953167616,136.72532416666667
0669,"",パリオ ショップ,福井県福井市松城町１２－７,36.06214893827372,136.2408961111111
1468,"",福井エルパ ショップ,福井県福井市大和田２丁目１２１２番地,36.09608687091087,136.25085972222223
0191,"",福井二の宮 ショップ,福井県福井市二の宮３丁目２７－２２,36.086637917102955,136.22064972222222
0293,"",福井ベル ショップ,福井県福井市花堂南２丁目１６－１,36.03386430191017,136.21256472222223
0615,"",堀の宮 ショップ,福井県福井市文京６丁目３３－２,36.07715844042664,136.19747055555555
1039,"",ワッセ ショップ,福井県福井市久喜津町５２－１１,36.054830667911446,136.17519694444445
0537,"",敦賀 ショップ,福井県敦賀市木崎１７－１４,35.64253314106708,136.04988777777777
1906,"",小浜 ショップ,福井県小浜市遠敷９丁目５０１,35.4839739905686,135.7737711111111
0329,"",武生 ショップ,福井県越前市新町３－１,35.90655232628727,136.15388055555556
1917,"",武生楽市 ショップ,福井県越前市横市町２８－１４ー１,35.90749146672019,136.1926711111111
1943,"",春江アミ ショップ,福井県坂井市春江町随応寺第16号11番地,36.13525049806916,136.22017027777778
1748,"",ラザウォーク甲斐双葉 ショップ,山梨県甲斐市志田字柿木６４５－１,35.68461955019667,138.48415944444446
1326,"",オギノリバーシティ ショップ,山梨県中央市山之神字立川１１２２－６５７,35.61429556608932,138.5129661111111
1121,"",イオンモール甲府昭和 ショップ,山梨県中巨摩郡昭和町飯喰１５０５－１,35.62278436123212,138.526685
1435,"",イトーヨーカドー甲府昭和 ショップ,山梨県中巨摩郡昭和町西条１３－１イト－ヨ－カド－１階フ－ドコ－ト,35.64029072247457,138.543755
1769,"",河口湖ベル ショップ,山梨県南都留郡富士河口湖町船津２９８６,35.489996559822224,138.76429555555555
1254,"",長野稲里 ショップ,長野県長野市稲里町中央4丁目8番2号,36.60387859628589,138.16903472222222
0123,"",長野北 ショップ,長野県長野市稲田１丁目１４－２０,36.675170788781756,138.2177636111111
1592,"",イオン南松本 ショップ,長野県松本市双葉５－２０,36.2080218411777,137.96457833333332
1942,"",イオンモール松本 ショップ,長野県松本市中央４丁目９－５１イオンモール松本　風庭１階,36.233817071590664,137.97932416666666
0103,"",上田 ショップ,長野県上田市国分上沖８０－６,36.387988803162926,138.27338083333333
1490,"",上田しおだ野 ショップ,長野県上田市神畑４８８－２,36.38425291892107,138.21198361111112
0729,"",飯田 ショップ,長野県飯田市鼎名古熊６６０－１,35.49873579629145,137.81723666666667
1373,"",須坂インター ショップ,長野県須坂市大字井上１９７３－１,36.63685132862997,138.27590972222222
1089,"",伊那 ショップ,長野県伊那市日影４３５－１,35.837230979979424,137.972555
1238,"",茅野 ショップ,長野県茅野市ちの２６２０番地２,35.997058478282284,138.1433586111111
1414,"",佐久 ショップ,長野県佐久市佐久平駅東７番地６,36.27944316551867,138.46899055555556
1200,"",安曇野 ショップ,長野県安曇野市豊科南穂高１１１５,36.30249804413251,137.92306555555555
1492,"",カラフルタウン岐阜 ショップ,岐阜県岐阜市柳津町丸野３丁目３－６,35.36316441131011,136.72769166666666
0550,"",バロー市橋 ショップ,岐阜県岐阜市市橋２丁目２－５,35.39965945037193,136.72765805555557
0911,"",マーサ２１ ショップ,岐阜県岐阜市正木中1丁目2番1号,35.4486475896317,136.74500194444445
1685,"",イオンモール大垣 ショップ,岐阜県大垣市外野2丁目100番,35.336766324881424,136.61353111111112
0701,"",大垣 ショップ,岐阜県大垣市禾森町４丁目６０,35.351597065303565,136.62298777777778
1191,"",ルビットタウン高山 ショップ,岐阜県高山市岡本町３丁目１８－２,36.149238971080145,137.24735305555555
1496,"",関マーゴ ショップ,岐阜県関市倉知５１６番地,35.47751200785119,136.8994975
1449,"",ルビットタウン中津川 ショップ,岐阜県中津川市淀川町３－８,35.49806323522694,137.5073313888889
1718,"",瑞浪 ショップ,岐阜県瑞浪市益見町３丁目１１番地,35.361107185259804,137.25911833333333
1682,"",羽島 ショップ,岐阜県羽島市江吉良町2939番地,35.30488376802519,136.6916422222222
1505,"",メガドンキ美濃加茂 ショップ,岐阜県美濃加茂市野笹町２丁目字紙屋上４１６番地,35.44371492219961,137.03930805555555
2027,"",イオンモール土岐 ショップ,岐阜県土岐市土岐津町土岐口１３７２－１,35.34767038058764,137.15330833333334
1692,"",イオンモール各務原 ショップ,岐阜県各務原市那加萱場町3丁目8,35.39175023140103,136.82442944444443
0679,"",パティオ可児 ショップ,岐阜県可児市下恵土５７５０番地,35.41490097741367,137.05036166666667
1010,"",モレラ岐阜 ショップ,岐阜県本巣市三橋1100,35.45319048516956,136.67231722222223
1527,"",静岡城北 ショップ,静岡県静岡市葵区城北２丁目１－８,35.00218960326968,138.39162638888888
0370,"",新静岡セノバ ショップ,静岡県静岡市葵区鷹匠1丁目1番1号,34.97550897293719,138.386565
0163,"",アピタ静岡 ショップ,静岡県静岡市駿河区石田１丁目5－１,34.95915258780352,138.4013663888889
1397,"",イオン清水 ショップ,静岡県静岡市清水区上原１丁目６－１６,35.00959348960691,138.4589513888889
1724,"",イオンモール浜松市野 ショップ,静岡県浜松市中央区天王町字諏訪1981-3,34.74061888439394,137.76363777777777
1626,"",イオンモール浜松志都呂 ショップ,静岡県浜松市中央区志都呂２丁目３７番１号　イオンモール浜松志都呂３階,34.69670292496499,137.6510625
2058,"",マックスバリュ浜松助信 ショップ,静岡県浜松市中央区助信町6-12,34.719858915979785,137.73541805555556
2078,"",マックスバリュ浜松新橋 ショップ,静岡県浜松市中央区新橋町１４００‐１,34.67893511332073,137.71119666666667
1547,"",プレ葉ウォーク浜北 ショップ,静岡県浜松市浜名区貴布祢１２００番地,34.798452778509414,137.77959972222223
1756,"",マックスバリュ沼津南 ショップ,静岡県沼津市西島町１０－１,35.08594441845772,138.86348138888889
0038,"",三島広小路 ショップ,静岡県三島市広小路町５－１９,35.11888575337849,138.91104277777777
1538,"",イオンモール富士宮 ショップ,静岡県富士宮市浅間町１－８,35.22038640995365,138.6120977777778
1600,"",伊東 ショップ,静岡県伊東市玖須美元和田７２０番地の１４３,34.94922594728103,139.11453083333333
0593,"",アピタ島田 ショップ,静岡県島田市宝来町８ー２,34.8275162767062,138.18468833333333
0361,"",イオンタウン富士南 ショップ,静岡県富士市鮫島１１８－１０,35.139633248419926,138.67618055555556
2104,"",マックスバリュ富士八幡町 ショップ,静岡県富士市八幡町６－３,35.161310218194664,138.64932333333334
1919,"",アピタ磐田 ショップ,静岡県磐田市今之浦３丁目１番11,34.718073752118904,137.85731444444446
1562,"",マックスバリュ豊田 ショップ,静岡県磐田市立野２０２５－１５,34.713631331988914,137.82044611111112
1925,"",イオン焼津 ショップ,静岡県焼津市東祢宜島１２番地４,34.83893545920021,138.30980305555556
1517,"",掛川 ショップ,静岡県掛川市大池２８２６－１,34.77278671190494,137.98948083333335
0692,"",ザ・ビッグ藤枝田沼 ショップ,静岡県藤枝市田沼３－７－７,34.84697379642123,138.26002583333334
1445,"",御殿場 ショップ,静岡県御殿場市東田中１－１８－１,35.303295414126424,138.94121194444443
0398,"",マックスバリュ裾野 ショップ,静岡県裾野市佐野１５１３－１,35.17197005856521,138.90588805555555
1611,"",マックスバリュ函南 ショップ,静岡県田方郡函南町間宮字寺前台３４１,35.08503004500062,138.93773694444445
1064,"",柿田川 ショップ,静岡県駿東郡清水町玉川６１－２,35.10956097431565,138.90233722222223
2061,"",アピタ千代田橋 ショップ,愛知県名古屋市千種区千代田橋２丁目１番１号,35.18735105174154,136.9694338888889
0085,"",今池 ショップ 改装休店中,愛知県名古屋市千種区今池５丁目２４－１,35.16689357239449,136.93679472222223
0108,"",本山 ショップ,愛知県名古屋市千種区末盛通５丁目１７,35.1638595522859,136.96265
0171,"",イオンモールナゴヤドーム前 ショップ,愛知県名古屋市東区矢田南4丁目102-3,35.187118169170326,136.94467055555555
0137,"",黒川 ショップ,愛知県名古屋市北区田幡２丁目１３－１８,35.19688535064037,136.91175055555556
0587,"",庄内通 ショップ,愛知県名古屋市西区庄内通３丁目１５－１,35.20490993715074,136.89132444444445
2110,"",名古屋則武 ショップ,愛知県名古屋市西区則武新町３－１－１７,35.18005249602916,136.8805111111111
1914,"",ｍｏｚｏワンダーシティ ショップ,愛知県名古屋市西区二方町４０番,35.22468867455877,136.8825825
0098,"",中村公園 ショップ,愛知県名古屋市中村区豊国通１丁目１０,35.16695575670105,136.85493527777777
1963,"",名古屋駅桜通口 ショップ,愛知県名古屋市中村区名駅４丁目４-１５,35.170159263717736,136.886375
0056,"",金山 ショップ,愛知県名古屋市中区金山１丁目１７－１８　ループ金山１Ｆ,35.143284292997606,136.90175583333334
1979,"",セントラルパーク ショップ,愛知県名古屋市中区錦３－１５－１３先,35.17293637646291,136.90789694444445
1588,"",イオンモール熱田 ショップ,愛知県名古屋市熱田区六野１丁目２番１１号,35.13631436087885,136.90895472222223
1346,"",アズパーク千音寺 ショップ,愛知県名古屋市中川区新家１丁目２４２１番地,35.15700318955365,136.80601916666666
1276,"",ヨシヅヤ太平通り ショップ,愛知県名古屋市中川区宮脇町２丁目１１番地,35.13496770883043,136.86795916666668
2010,"",イオンモール名古屋茶屋 ショップ,愛知県名古屋市港区西茶屋２丁目１１,35.10366812046705,136.82538277777778
0844,"",当知 ショップ,愛知県名古屋市港区当知２丁目１５０２,35.10946298591343,136.84677833333333
0140,"",イオンモール新瑞橋 ショップ,愛知県名古屋市南区菊住１丁目７－１０,35.11466496225751,136.93521416666667
0957,"",イオン守山 ショップ,愛知県名古屋市守山区笹ケ根３丁目１２２８,35.23485800305373,137.00384166666666
1713,"",イオンモール大高 ショップ,愛知県名古屋市緑区南大高二丁目４５０番地　イオンモール大高ＳＣ,35.05244321847333,136.94739277777776
0129,"",鳴子 ショップ,愛知県名古屋市緑区相川３丁目２,35.102357221082244,136.9744263888889
1590,"",ヒルズウォーク徳重 ショップ,愛知県名古屋市緑区元徳重１丁目５０５番地,35.09431004511225,136.99931583333333
0188,"",藤が丘 ショップ,愛知県名古屋市名東区藤が丘１６３－１,35.182862144510494,137.02154916666666
0285,"",平針 ショップ,愛知県名古屋市天白区平針２丁目１９０７,35.12245674417321,137.0071113888889
1840,"",ピアゴ植田 ショップ,愛知県名古屋市天白区元植田１丁目302番地,35.13987079253594,136.99182833333333
1107,"",イオン豊橋南 ショップ,愛知県豊橋市野依町字落合１－１２,34.71043629636347,137.38855805555556
1017,"",豊橋幸 ショップ,愛知県豊橋市西幸町字浜池５－２,34.72474604367078,137.40312833333334
1564,"",アピタ岡崎北 ショップ,愛知県岡崎市日名北町４－４６,34.974859634134475,137.15218666666667
0165,"",イオンスタイル岡崎 ショップ,愛知県岡崎市戸崎町字ばら山１－１,34.93824147418114,137.16431166666666
2024,"",アスティ一宮 ショップ,愛知県一宮市栄３丁目１番１号,35.302711510474765,136.79751666666667
2043,"",イオンモール木曽川 ショップ,愛知県一宮市木曽川町黒田字南八ツケ池25-1,35.349261125650365,136.7737338888889
0916,"",一宮大和 ショップ,愛知県一宮市末広３丁目１３－１,35.297130043216185,136.7851863888889
0695,"",テラスウォーク一宮 ショップ,愛知県一宮市両郷町１丁目２番地,35.31077666716387,136.81684972222223
0514,"",瀬戸ルート３６３ ショップ,愛知県瀬戸市西原町２丁目１０８番地,35.20795892874222,137.0634572222222
1136,"",半田青山 ショップ,愛知県半田市青山１丁目４－１,34.87758974105231,136.91543777777778
1640,"",アピタ高蔵寺 ショップ,愛知県春日井市中央台２丁目５　アピタ高蔵寺１Ｆ,35.28268988877243,137.04924777777777
0142,"",イオン春日井 ショップ,愛知県春日井市柏井町４丁目１７,35.238320273910304,136.96181027777777
0571,"",高蔵寺ステーション ショップ,愛知県春日井市高蔵寺町３丁目６５４－１　アスティ高蔵寺内,35.264594112824874,137.04389055555555
2042,"",イオンモール豊川 ショップ,愛知県豊川市白鳥町兎足１－１６,34.82527083588054,137.3512611111111
1080,"",クロスモール豊川 ショップ,愛知県豊川市正岡町池田６９４－１,34.80072521487628,137.38820694444445
1495,"",ヨシヅヤ津島本店 ショップ,愛知県津島市大字津島字北新開３５１番地,35.17532436239026,136.74692166666668
1472,"",アピタ刈谷 ショップ,愛知県刈谷市南桜町２丁目５６番地１号,34.991310967284754,137.00540083333334
0133,"",KiTARA豊田駅前 ショップ,愛知県豊田市喜多町2丁目170番地,35.087128165960934,137.15798222222222
0798,"",イオンスタイル豊田 ショップ,愛知県豊田市広路町１－１,35.07857058694876,137.16006805555554
1332,"",メグリア本店 ショップ,愛知県豊田市山之手８丁目９２番地,35.051911627788456,137.14470472222223
1669,"",アピタ安城 ショップ,愛知県安城市桜井町貝戸尻６０番地,34.92050928846685,137.08731
0225,"",西尾 ショップ,愛知県西尾市住吉町３丁目３５－２,34.86454369065085,137.05769027777777
0338,"",蒲郡 ショップ,愛知県蒲郡市旭町９－１６,34.82567926618359,137.22026277777778
2060,"",イオンモール常滑 ショップ,愛知県常滑市りんくう町2丁目20番3,34.88230993303257,136.8261488888889
0096,"",アピタ江南西 ショップ,愛知県江南市松竹町上野２０５番地,35.34296674625174,136.85523027777776
1189,"",イオン小牧 ショップ,愛知県小牧市東１丁目１２６番地,35.284956325860165,136.93963083333333
1811,"",アピタ稲沢 ショップ,愛知県稲沢市天池五反田１番地,35.253181719590145,136.7719236111111
0532,"",リーフウォーク稲沢 ショップ,愛知県稲沢市長野７丁目１－２,35.26076251428791,136.8191163888889
0032,"",アピタ東海荒尾 ショップ,愛知県東海市荒尾町山王前６０番地,35.039462254769916,136.90510416666666
0290,"",大府駅前 ショップ,愛知県大府市中央町３丁目８７,35.008446871389715,136.96234777777778
0065,"",ギャラリエアピタ知立 ショップ,愛知県知立市長篠町大山１８番地１,34.998328641965074,137.05307444444443
1385,"",ヨシヅヤ清洲 ショップ,愛知県清須市西市場５丁目５－３,35.21897012035512,136.82943722222223
1462,"",イオンタウン弥富 ショップ,愛知県弥富市五明町蒲原１３７１番地４,35.114794112792545,136.71707583333333
1477,"",イオン三好 ショップ,愛知県みよし市三好町青木８８番地,35.09315682631598,137.07861555555556
0625,"",アピタ長久手 ショップ,愛知県長久手市戸田谷９０１番地１,35.1724007476076,137.0384163888889
2053,"",イオンモール長久手 ショップ,愛知県長久手市勝入塚501番地,35.173222643438194,137.0501461111111
1062,"",エアポートウォーク ショップ,愛知県西春日井郡豊山町大字豊場字林先１番８,35.245833213101335,136.92497
1595,"",イオンモール扶桑 ショップ,愛知県丹羽郡扶桑町大字南山名字高塚５番１,35.36153155735416,136.90088833333334
0401,"",アピタ阿久比 ショップ,愛知県知多郡阿久比町大字椋岡字徳吉１－１２,34.920743279063004,136.9204261111111
2057,"",イオンモール津南 ショップ,三重県津市高茶屋小森町145番地,34.670220884738725,136.51783055555555
0486,"",津ステーション ショップ,三重県津市羽所町官有地,34.734243173187934,136.5107763888889
0202,"",アピタ四日市 ショップ,三重県四日市市安島１丁目３－３１,34.96849628012117,136.61657555555556
1511,"",イオンモール四日市北 ショップ,三重県四日市市富州原町２番４０号（イオンモール四日市北店北側フードコート内）,35.00815786188041,136.65708694444444
0553,"",日永カヨー ショップ,三重県四日市市日永４丁目１－４９,34.948899120719325,136.6049036111111
1141,"",伊勢ララパーク ショップ,三重県伊勢市小木町曽弥５３８番地,34.5066566727135,136.72303333333332
0448,"",松阪 ショップ,三重県松阪市田村町２３５－１,34.55640189507433,136.51155583333335
0942,"",松阪塚本 ショップ,三重県松阪市塚本町６９－１,34.595009370504805,136.5214063888889
2112,"",アピタ桑名 ショップ,三重県桑名市中央町3丁目21番地,35.064124756920165,136.687885
0955,"",イオンモール桑名 ショップ,三重県桑名市新西方１丁目２２　イオンモール桑名　１番街１Ｆ,35.071688694009026,136.6630525
1002,"",イオンモール鈴鹿 ショップ,三重県鈴鹿市庄野羽山４丁目１－１,34.872935566729716,136.53168722222222
2092,"",そよら鈴鹿白子 ショップ,三重県鈴鹿市白子駅前３－１,34.83652334134899,136.5917625
1201,"",アピタ伊賀上野 ショップ,三重県伊賀市服部町尾崎１７８８,34.77817168966836,136.1378625
1893,"",イオンモール東員 ショップ,三重県員弁郡東員町大字長深字築田５１０番地１,35.06190619826408,136.58039416666668
1525,"",イオンモール明和 ショップ,三重県多気郡明和町大字中村字長波賀１２２３番地,34.58145782174892,136.61412388888888
2056,"",アルプラザ堅田 ショップ,滋賀県大津市本堅田５丁目２０番１０号,35.11929719176726,135.91558111111112
2012,"",フォレオ大津一里山 ショップ,滋賀県大津市一里山七丁目１番１号,34.97470421752086,135.93431222222222
0952,"",南彦根 ショップ,滋賀県彦根市竹ケ鼻町４３－１,35.24385402262217,136.25115916666667
0829,"",長浜 ショップ,滋賀県長浜市八幡中山町４６５－２,35.391630783545146,136.2773552777778
1094,"",イオン近江八幡 ショップ,滋賀県近江八幡市鷹飼町南３丁目７番,35.12157960146038,136.1028388888889
0638,"",アルプラザ草津 ショップ,滋賀県草津市西渋川１丁目２３－３０,35.02579498335113,135.9589375
0574,"",イオンモール草津 ショップ,滋賀県草津市新浜町３００番地,34.998446889003866,135.9122125
1451,"",西友南草津 ショップ,滋賀県草津市野路町１－１３－３６,35.002704164070494,135.9484336111111
1877,"",アルプラザ守山 ショップ,滋賀県守山市播磨田町１８５－１,35.06652979602905,135.99482722222223
1863,"",アルプラザ水口 ショップ,滋賀県甲賀市水口町本綾野５６６番地の１,34.9770023626944,136.16972583333333
2025,"",東近江八日市 ショップ,滋賀県東近江市札の辻１丁目９７０－３,35.105683512533496,136.21128611111112
1339,"",イオンモール北大路 ショップ,京都府京都市北区小山北上総町４９－１,35.04498573727178,135.75826444444445
0172,"",出町 ショップ,京都府京都市上京区河原町通今出川下る梶井町プランタンビル１Ｆ,35.02828451286675,135.76971277777778
1961,"",洛北阪急スクエア ショップ,京都府京都市左京区高野西開町36番地　洛北阪急スクエア内ミスタードーナツ,35.0411111692823,135.77898472222222
1417,"",近鉄京都 ショップ,京都府京都市下京区東塩小路釜殿町３１－１,34.98468649047122,135.7573025
1947,"",ＪＲ京都駅ビル ショップ,京都府京都市下京区烏丸通塩小路下る東塩小路町９０１番地,34.98583389475191,135.75878777777777
1063,"",イオンモール京都桂川 ショップ,京都府京都市南区久世高田町３７６番１,34.96324687425629,135.70811777777777
1287,"",イオン洛南 ショップ,京都府京都市南区吉祥院御池町３１,34.97536756560904,135.73666222222224
0252,"",京都ファミリー ショップ,京都府京都市右京区山ノ内池尻町１－１,35.00412361695246,135.7209711111111
0999,"",伏見大手筋 ショップ,京都府京都市伏見区両替町４丁目,34.932911938006384,135.76357472222222
0995,"",MOMOテラス ショップ,京都府京都市伏見区桃山町山ノ下３２,34.93774681707223,135.79450277777778
2074,"",イオンタウン山科椥辻 ショップ,京都府京都市山科区椥辻草海道町１５－１,34.97366693594257,135.81612
0497,"",阪急桂駅前 ショップ,京都府京都市西京区桂南巽町１３３桂オーエスプラザビル１Ｆ,34.979758744410105,135.70185666666666
0455,"",ＪＲ福知山 ショップ,京都府福知山市字天田小字吉良９１,35.2961974627952,135.11848583333332
1789,"",らぽーる東舞鶴 ショップ,京都府舞鶴市南浜町２７－５,35.466607693646246,135.3955136111111
0885,"",亀岡駅前 ショップ,京都府亀岡市追分町大堀１７,35.01573432642851,135.5822736111111
1475,"",イズミヤ長岡 ショップ,京都府長岡京市開田４丁目７－１イズミヤ長岡店１Ｆ,34.92254724495142,135.6925136111111
1202,"",アルプラザ京田辺 ショップ,京都府京田辺市田辺中央５丁目２－１,34.82241755018848,135.76931694444445
1995,"",松井山手 ショップ,京都府京田辺市山手西1-11-3,34.83347516916527,135.72154416666666
1409,"",イオンモール久御山 ショップ,京都府久世郡久御山町森南大内１５６－１,34.89344559815854,135.74514027777778
0476,"",都島 ショップ,大阪府大阪市都島区善源寺町１丁目５－５０,34.709502101388395,135.5261463888889
1967,"",イオンスタイル海老江 ショップ,大阪府大阪市福島区海老江１丁目５-５２,34.69758718213378,135.47566166666667
0008,"",福島 ショップ,大阪府大阪市福島区福島７丁目６－２３日の出ビル,34.69749974822087,135.4866822222222
1484,"",福島大開 ショップ,大阪府大阪市福島区大開４丁目１ー１４２,34.69449398095933,135.46477333333334
1884,"",イオンモール大阪ドームシティ ショップ,大阪府大阪市西区千代崎３丁目１３番１イオンモール大阪ドームシティ４Ｆ,34.67031103245117,135.47776083333332
2090,"",天保山マーケットプレース ショップ,大阪府大阪市港区海岸通１丁目１－１０,34.655949657462536,135.4300175
1024,"",上本町 ショップ,大阪府大阪市天王寺区上本町６丁目３－３１－１１４,34.6655116322746,135.51882722222223
0881,"",ＪＲ桃谷駅前 ショップ,大阪府大阪市天王寺区烏ケ辻１丁目３－１熊谷ビル,34.65747664138267,135.52725416666667
2007,"",天王寺ミオ ショップ,大阪府大阪市天王寺区悲田院町１０－４８,34.64764975030834,135.51401333333334
1854,"",ライフなんば ショップ,大阪府大阪市浪速区湊町１－２－３,34.66677016337687,135.49620305555555
0867,"",上新庄駅前 ショップ 改装休店中,大阪府大阪市東淀川区瑞光１丁目１２－３,34.74895328041632,135.53328916666666
1907,"",北巽 ショップ,大阪府大阪市生野区巽北３丁目１５－１５,34.653783101864164,135.55480222222224
1823,"",イトーヨーカドーあべの ショップ,大阪府大阪市阿倍野区阿倍野筋１－６－１,34.64377943269282,135.5115425
1983,"",ｅｋｉｍｏ天王寺 ショップ,大阪府大阪市阿倍野区阿倍野筋１丁目１番４８号,34.645986046653796,135.51432722222222
1660,"",昭和町 ショップ,大阪府大阪市阿倍野区阪南町1丁目50-28,34.633109161518405,135.51655583333334
0236,"",長居 ショップ,大阪府大阪市住吉区長居東４丁目６－１５－１０１,34.60968784604645,135.51328222222222
1322,"",南海天下茶屋駅 ショップ,大阪府大阪市西成区岸里１丁目１－９,34.63703174939493,135.4964711111111
2000,"",アルデ新大阪 ショップ,大阪府大阪市淀川区西中島５丁目１６－１,34.733714657532715,135.5008086111111
0555,"",十三東口 ショップ,大阪府大阪市淀川区十三東２丁目９－６,34.71985142040902,135.48300416666666
1152,"",東三国 ショップ,大阪府大阪市淀川区東三国２丁目３６－２,34.742703385094,135.49867194444445
1671,"",イオンモール鶴見緑地 ショップ,大阪府大阪市鶴見区鶴見４丁目１７－１－３１１,34.70354932068696,135.56660527777777
0689,"",今福鶴見 ショップ,大阪府大阪市鶴見区鶴見３丁目４－１,34.701135747181056,135.56025888888888
0882,"",玉出 ショップ,大阪府大阪市住之江区粉浜西１丁目１－１６,34.622913786762716,135.48928833333332
0031,"",東住吉 ショップ,大阪府大阪市平野区瓜破２丁目１－１３,34.60904711261499,135.5517625
0113,"",梅田東 ショップ,大阪府大阪市北区西天満３丁目１３－１８島根ビル１Ｆ,34.69755452186182,135.50731888888888
1980,"",ｅｋｉｍｏ梅田 ショップ,大阪府大阪市北区角田町８－６,34.70286811569609,135.4986377777778
2044,"",阪神大阪梅田駅 ショップ,大阪府大阪市北区梅田3丁目1　阪神電車大阪梅田駅西口,34.701188561730596,135.4967038888889
1998,"",ホワイティうめだ ショップ,大阪府大阪市北区角田町梅田地下街２－５,34.70355413980949,135.49872944444445
1567,"",大阪ビジネスパーク ショップ,大阪府大阪市中央区城見１丁目３－７松下IMPビル１F,34.69164443329284,135.5305036111111
2096,"",天満橋 京阪シティモール ショップ,大阪府大阪市中央区天満橋京町1-1,34.6901088791313,135.51637555555556
1834,"",なんばウォーク ショップ,大阪府大阪市中央区難波１丁目虹のまち３－２号,34.66723572111777,135.50096527777777
1920,"",イオンモール堺鉄砲町 ショップ,大阪府堺市堺区鉄砲町１,34.59463929989442,135.4807225
1982,"",堺東駅前 ショップ,大阪府堺市堺区三国ヶ丘御幸通１５４,34.57348797872073,135.48404055555557
1981,"",堺三国ヶ丘 ショップ,大阪府堺市堺区向陵西町３丁１－２１,34.5678833264919,135.493165
0663,"",ベルマージュ堺 ショップ,大阪府堺市堺区田出井町１－１,34.577385829383715,135.4966922222222
1179,"",深井駅前 ショップ,大阪府堺市中区深井清水町３９９８番地,34.53108529071662,135.4969475
0826,"",北野田駅前 ショップ,大阪府堺市東区北野田１０７７,34.52312744539242,135.54234333333332
0687,"",アリオ鳳 ショップ,大阪府堺市西区鳳南町３丁１９９－１２,34.52459565439536,135.45923277777777
1617,"",イトーヨーカ堂津久野 ショップ,大阪府堺市西区下田町２０－１,34.54119338634111,135.464235
0577,"",光明池アクト ショップ,大阪府堺市南区鴨谷台２丁１－３,34.473480328052915,135.47545555555556
0112,"",泉北パンジョ ショップ,大阪府堺市南区茶山台１丁３－１,34.4959026885014,135.51451055555555
1970,"",トナリエ栂・美木多 ショップ,大阪府堺市南区原山台２－２－１,34.4843899461753,135.49082638888888
0872,"",イオンモール堺北花田 ショップ,大阪府堺市北区東浅香山町４－１－１２,34.58403719988443,135.51504777777777
2073,"",南海中百舌鳥駅 ショップ,大阪府堺市北区中百舌鳥町２丁目１９６番,34.55617101848794,135.50448944444443
2031,"",ららぽーと堺 ショップ,大阪府堺市美原区黒山２２番１,34.54101293002169,135.5601738888889
1688,"",岸和田カンカン ショップ,大阪府岸和田市港緑町３番１号,34.466389926226825,135.3711525
1994,"",千里中央 ショップ,大阪府豊中市新千里東町１－３,34.809936448812856,135.49511222222222
0599,"",豊中駅前 ショップ,大阪府豊中市本町１丁目１０－１ボゼム豊中１Ｆ,34.787768306291454,135.46219444444444
1515,"",阪急曽根 ショップ,大阪府豊中市曽根東町３丁目１－１,34.77067898376486,135.46785444444444
1841,"",阪急豊中 ショップ,大阪府豊中市本町１丁目１－１,34.78720446628015,135.46201333333335
0118,"",阪急池田 ショップ,大阪府池田市栄町１－１マルシェ池田２番館,34.82199914153728,135.42500527777779
0443,"",江坂東急 ショップ,大阪府吹田市豊津町９－４０,34.75827605521983,135.49619027777777
1234,"",江坂芳野町 ショップ,大阪府吹田市芳野町５－３２,34.75672835458587,135.48859833333333
0925,"",ＪＲ吹田 ショップ,大阪府吹田市朝日町１－１１０,34.76329333860544,135.52427472222223
1922,"",南千里駅前 ショップ,大阪府吹田市津雲台１丁目１－２,34.793280291975144,135.50997527777778
1915,"",ららぽーとEXPOCITY ショップ,大阪府吹田市千里万博公園２－１,34.80482637058208,135.53539805555556
1691,"",いずみおおつCITY ショップ 改装休店中,大阪府泉大津市旭町18-3,34.50201680802948,135.4069088888889
1372,"",イオン高槻 ショップ,大阪府高槻市萩之庄３丁目４７－２　イオン高槻内,34.85876416070132,135.64358972222223
0523,"",ＪＲ高槻 ショップ,大阪府高槻市高槻町９－１,34.85083979609734,135.61940444444446
2016,"",阪急高槻市駅 ショップ,大阪府高槻市城北町２丁目１,34.84972101170047,135.6231688888889
1038,"",イオンモール大日 ショップ,大阪府守口市大日東町1-18（イオンモール大日２Ｆ）,34.74936193508835,135.58049527777777
0831,"",守口市駅 ショップ,大阪府守口市寺内町２丁目２－８,34.73416067684575,135.56390055555556
0895,"",エル枚方 ショップ,大阪府枚方市岡東町１９－２０,34.814878934501614,135.64692194444444
0956,"",くずはモール ショップ,大阪府枚方市楠葉花園町１０－８５,34.86035285286503,135.67653388888888
2117,"",京阪枚方市駅 ショップ,大阪府枚方市岡東町19‐14,34.81597404065097,135.6482352777778
1968,"",ニトリモール枚方 ショップ,大阪府枚方市北山1丁目2番1号,34.83875450911072,135.6977322222222
0011,"",枚方 ショップ,大阪府枚方市禁野本町１丁目８７１,34.817995634091766,135.65350583333333
2035,"",イオンタウン茨木太田 ショップ,大阪府茨木市城の前町２－１－２０４－５,34.83827386878912,135.5742013888889
1506,"",イオンモール茨木 ショップ,大阪府茨木市松ケ本町８－３０－４,34.81151115748322,135.55886166666667
0022,"",茨木南 ショップ,大阪府茨木市双葉町３－１７上田ビル,34.81705628211911,135.57836833333334
0744,"",阪急茨木市駅 ショップ,大阪府茨木市永代町１番５号ロサヴィア内,34.81743039716564,135.57655666666668
1670,"",アリオ八尾 ショップ,大阪府八尾市光町２丁目３,34.63127254419539,135.60571916666666
1589,"",イズミヤ八尾 ショップ,大阪府八尾市沼１丁目１番,34.5884320254594,135.6021861111111
0232,"",ＪＲ八尾駅前 ショップ,大阪府八尾市安中町４丁目８－１８,34.61768728010456,135.59684305555555
0406,"",八尾ペントプラザ ショップ,大阪府八尾市北本町２丁目１番ペントプラザ１０６,34.629970625035064,135.6028425
0751,"",イオンモール日根野 ショップ,大阪府泉佐野市日根野２４９６－１,34.39347103613443,135.33376722222224
2022,"",いこらも～る泉佐野 ショップ,大阪府泉佐野市下瓦屋２－２－７７,34.422196026944405,135.32714277777777
2080,"",エコール・ロゼ ショップ,大阪府富田林市向陽台３丁目１－１,34.501351188184245,135.57999583333333
0584,"",富田林駅前 ショップ,大阪府富田林市本町１８－１９,34.50445733809961,135.6016302777778
0527,"",アドバンス寝屋川 ショップ,大阪府寝屋川市早子町２３－２－１０７,34.763439791861266,135.62150222222223
0631,"",河内長野駅前 ショップ,大阪府河内長野市長野町５－１－１０８,34.4504825683259,135.57199111111112
2003,"",セブンパーク天美 ショップ,大阪府松原市天美東３丁目５００番地,34.59275105012379,135.5426013888889
0860,"",松原ステーション ショップ,大阪府松原市上田３丁目５－１,34.57549744229753,135.55696305555554
0039,"",オペラパーク住道 ショップ,大阪府大東市赤井１丁目４－３,34.70881874970545,135.6192477777778
2085,"",エコール・いずみ ショップ 3月6日は休店中,大阪府和泉市いぶき野5-1-11,34.45950035959695,135.45581083333335
0158,"",ららぽーと和泉 ショップ,大阪府和泉市あゆみ野４－４－７,34.43533628725793,135.44662527777777
0500,"",小野原 ショップ,大阪府箕面市小野原東１丁目１－２７,34.83555000804586,135.5155352777778
0001,"",箕面 ショップ,大阪府箕面市箕面６丁目１番３０,34.832749743843614,135.46910444444444
1971,"",みのおキューズモール ショップ,大阪府箕面市西宿1丁目15番30号,34.833250258369524,135.48932583333334
2046,"",ららぽーと門真 ショップ,大阪府門真市松生町１番１１号,34.73205009929548,135.58457916666666
0451,"",ＪＲ千里丘 ショップ,大阪府摂津市千里丘１丁目１２５－４,34.79115297869616,135.5504575
1578,"",高石駅前 ショップ,大阪府高石市綾園１丁目９－１,34.521258651038444,135.43405166666668
2072,"",藤井寺駅前 ショップ,大阪府藤井寺市岡2-8-9,34.57203240253164,135.59427277777777
0234,"",小阪 ショップ,大阪府東大阪市小阪１丁目８－４０,34.66391934433011,135.58032194444445
1025,"",新石切 ショップ,大阪府東大阪市西石切町３丁目３－７,34.680458699338594,135.64181666666667
1867,"",フレスポ長田 ショップ,大阪府東大阪市長田中２丁目５－２３,34.67930034536094,135.5909961111111
1288,"",イオンモールりんくう泉南 ショップ,大阪府泉南市りんくう南浜３番１号,34.381791955136244,135.26813472222221
1174,"",イオンモール四條畷 ショップ,大阪府四條畷市砂４丁目３番２,34.747448527124135,135.6307675
1952,"",フレンドタウン交野 ショップ,大阪府交野市星田北2丁目26－1,34.774331690026585,135.67435472222223
1027,"",Ｒ３１０さやま ショップ,大阪府大阪狭山市茱萸木７丁目１１８０,34.48228297005862,135.55498055555555
0713,"",六甲道 ショップ,兵庫県神戸市灘区森後町３丁目１－18,34.7156105148863,135.23746777777777
2095,"",イオンモール神戸南 ショップ,兵庫県神戸市兵庫区中之島２丁目１番１号,34.66571204785144,135.17456472222221
1504,"",湊川プラザ ショップ,兵庫県神戸市兵庫区荒田町２丁目１８－２０,34.68108689739193,135.16588333333334
0251,"",新長田 ショップ,兵庫県神戸市長田区若松町５丁目２－１－１０５,34.655998480404044,135.14527166666667
1182,"",山陽板宿 ショップ,兵庫県神戸市須磨区平田町３丁目４番,34.66038631539451,135.13371972222222
1446,"",ＪＲ須磨駅前 ショップ,兵庫県神戸市須磨区須磨浦通５丁目１番１８号,34.642707849888176,135.1128775
0284,"",名谷 ショップ,兵庫県神戸市須磨区中落合２丁目２－１　須磨パティオ,34.67847826651378,135.095035
2079,"",妙法寺 ショップ,兵庫県神戸市須磨区横尾1丁目5,34.67441797043222,135.10990611111112
1096,"",イオンジェームス山 ショップ,兵庫県神戸市垂水区青山台７丁目７番１号,34.646142215796694,135.07611694444444
0204,"",垂水 ショップ,兵庫県神戸市垂水区日向１丁目４番１－１２９レバンテ垂水１番館,34.630525038198556,135.05620833333333
1315,"",イオンモール神戸北 ショップ,兵庫県神戸市北区　上津台８丁目1番１号,34.86092935523038,135.19455638888888
2108,"",エコール・リラ ショップ,兵庫県神戸市北区藤原台中町１丁目２番２号,34.82171752946682,135.2205136111111
1053,"",神戸北町 ショップ,兵庫県神戸市北区日の峰２丁目６－１,34.75637689639913,135.1432086111111
1604,"",神戸ステーション ショップ,兵庫県神戸市中央区相生町３丁目１番２号,34.6790794074398,135.17811472222223
2004,"",さんちか７番街 ショップ,兵庫県神戸市中央区三宮町１丁目１０番１号　さんちか７番街,34.69330655151189,135.19393694444443
0961,"",三宮本通り ショップ,兵庫県神戸市中央区三宮町１丁目４－２３,34.69103418389613,135.19279055555555
1535,"",伊川谷 ショップ,兵庫県神戸市西区池上３丁目２－７グリーンプラザ神戸,34.67056716344548,135.02504888888888
0986,"",イズミヤ西神戸 ショップ 改装休店中,兵庫県神戸市西区竜が岡１丁目２１－１,34.71079533886523,134.94032277777777
1758,"",神戸学園都市 ショップ,兵庫県神戸市西区学園西町１丁目４番地,34.682045999933884,135.05754222222222
0650,"",西神中央 ショップ,兵庫県神戸市西区糀台５丁目２－３プレンティ一番館 フードコート内,34.719423467175595,135.019495
1680,"",イオンモール姫路大津 ショップ,兵庫県姫路市大津区大津町２丁目５番,34.80645098227783,134.60513805555556
0725,"",山陽姫路 ショップ,兵庫県姫路市南町１番地,34.82856388176008,134.69007805555555
1960,"",テラッソ姫路 ショップ,兵庫県姫路市駅前町27,34.82723821636727,134.69372666666666
1321,"",姫路リバーシティー ショップ,兵庫県姫路市飾磨区細江２５６０番地,34.79823275695184,134.66837
1284,"",ゆめタウン姫路 ショップ,兵庫県姫路市神子岡前3丁目12番17号,34.84091800095933,134.6695138888889
1760,"",あまがさきキューズモール ショップ,兵庫県尼崎市潮江１丁目３－１,34.73348985151029,135.43063777777778
2032,"",ソコラ塚口 ショップ,兵庫県尼崎市南塚口町２丁目１,34.75183000867625,135.41534333333334
1192,"",つかしん ショップ,兵庫県尼崎市塚口本町４丁目８－１,34.761979210561755,135.41781361111111
1203,"",阪急園田 ショップ,兵庫県尼崎市東園田町９丁目４８－１,34.75237309530687,135.44755166666667
1985,"",阪神尼崎 ショップ,兵庫県尼崎市神田中通１ー２ー１,34.718669919550145,135.41692
0318,"",フェスタ立花駅前 ショップ,兵庫県尼崎市七松町１丁目３番１－１４２号フェスタ立花南館,34.73678204744024,135.39922222222222
0967,"",武庫之荘駅前 ショップ,兵庫県尼崎市武庫之荘２丁目２番１３号,34.751934365293174,135.3924513888889
0288,"",明石ステーション ショップ,兵庫県明石市大明石町１丁目１－２３,34.64918295290452,134.99239305555557
1175,"",イオン明石 ショップ,兵庫県明石市大久保町ゆりのき通３丁目３番１号,34.67856919334992,134.93505083333332
0248,"",西明石 ショップ,兵庫県明石市小久保２丁目７ー２０,34.66699389897962,134.96070722222223
1956,"",アクタ西宮 ショップ,兵庫県西宮市北口町１番　アクタ西宮東館２F,34.74714111698816,135.35821777777778
0461,"",イオン西宮門戸 ショップ,兵庫県西宮市林田町２－２４　イオン西宮門戸店Ｂ１,34.755834116026286,135.36205444444445
1844,"",イトーヨーカドー甲子園 ショップ,兵庫県西宮市甲子園八番町１－１００,34.71647839276846,135.36619805555554
0094,"",甲子園 ショップ,兵庫県西宮市甲子園口２丁目２－５,34.73838301118433,135.37534027777778
0861,"",ＪＲ西宮 ショップ,兵庫県西宮市池田町１１－１,34.737908337799674,135.34827222222222
0051,"",芦屋 ショップ,兵庫県芦屋市大原町９－１－１０８ラポルテ東館１Ｆ,34.73503822228632,135.3075736111111
1766,"",イオンモール伊丹 ショップ,兵庫県伊丹市藤ノ木１丁目１,34.78140332975619,135.42345138888888
1815,"",イオンモール伊丹昆陽 ショップ,兵庫県伊丹市池尻４丁目１－１,34.784634288352905,135.3815575
2005,"",阪急伊丹駅 ショップ,兵庫県伊丹市西台１丁目１番１号,34.77982127927372,135.4135286111111
1278,"",コープデイズ豊岡 ショップ,兵庫県豊岡市加広町５８番地３７,35.55055184525918,134.8158527777778
0910,"",加古川駅前 ショップ,兵庫県加古川市加古川町溝之口５０７番地,34.766084841278165,134.84016194444445
0656,"",加古川別府 ショップ,兵庫県加古川市別府町朝日町１４番,34.7299724760885,134.8494538888889
1486,"",イズミヤ小林 ショップ,兵庫県宝塚市小林５丁目５番４７号,34.788478350174756,135.35569833333332
0803,"",ソリオ宝塚 ショップ,兵庫県宝塚市栄町２丁目１－１ソリオ１ＧＦ,34.80950503531943,135.34195944444446
1327,"",イオン三木青山 ショップ 改装休店中,兵庫県三木市志染町青山３丁目９－１,34.77931672042335,135.03627194444445
1302,"",アスパ高砂 ショップ,兵庫県高砂市緑丘２丁目１－４０,34.76949859934913,134.80280055555556
0616,"",川西能勢口 ショップ,兵庫県川西市栄町２５－１アステ川西１７５－１２５,34.82659624635901,135.413345
1479,"",三田ウッディタウン ショップ,兵庫県三田市けやき台１丁目６番地２,34.90861124374232,135.18730916666667
1493,"",イオンモール加西北条 ショップ,兵庫県加西市北条町北条３０８－１,34.930457980123016,134.82834805555555
1253,"",淡路ＳＡ（下り線） ショップ,兵庫県淡路市岩屋2568,34.583360434073214,135.01799916666667
1275,"",猪名川 ショップ,兵庫県川辺郡猪名川町白金２丁目１,34.90219248413975,135.36425777777777
1615,"",イオンタウン大安寺 ショップ,奈良県奈良市南京終町１－１２８－１,34.670661689963104,135.82030472222223
0449,"",学園前 ショップ,奈良県奈良市学園北１丁目１ー１ー１０１,34.697202628388915,135.7500175
0004,"",西大寺 ショップ,奈良県奈良市西大寺東町２丁目４－１　奈良ファミリー地下１Ｆ,34.69502559670417,135.78503666666666
0367,"",高の原 ショップ,奈良県奈良市右京１丁目３－４高の原サンタウン内,34.72304241775182,135.78941527777778
0088,"",高田 ショップ,奈良県大和高田市北本町１４－１,34.5194412294198,135.74299333333335
2034,"",アピタ大和郡山 ショップ,奈良県大和郡山市田中町517番,34.64234241037893,135.76940222222223
1775,"",イオンモール大和郡山 ショップ,奈良県大和郡山市下三橋町７４１,34.65107268910882,135.80223805555556
1734,"",イオンモール橿原 ショップ,奈良県橿原市曲川町７丁目２０－１－１５７,34.50573013425841,135.76234472222222
0045,"",八木駅前 ショップ,奈良県橿原市内膳町５丁目１－３０,34.51290922172327,135.79235972222222
1552,"",イオン桜井 ショップ,奈良県桜井市大字上之庄２７８－１,34.52150658506189,135.83672777777778
1899,"",ベルテラスいこま ショップ 改装休店中,奈良県生駒市北新町１０番３６-３０５,34.694150552226986,135.69779472222223
0148,"",王寺 ショップ 改装休店中,奈良県北葛城郡王寺町王寺２丁目９－１５ ル・カーラ１階,34.59608983436819,135.70422166666665
2002,"",イオンモール和歌山 ショップ,和歌山県和歌山市ふじと台２３番地,34.276168113496766,135.1493025
1249,"",イズミヤ和歌山 ショップ,和歌山県和歌山市新生町７番２０　イズミヤ和歌山店２階,34.221423279536424,135.18737333333334
2070,"",紀伊川辺 ショップ,和歌山県和歌山市川辺220,34.261498879299495,135.26355361111112
0124,"",和歌山駅前 ショップ,和歌山県和歌山市美園町５丁目７－５,34.23128473387114,135.19047833333335
0613,"",和歌山国体道路 ショップ,和歌山県和歌山市小雑賀小物成７０４,34.20055138175903,135.18473277777778
1838,"",オークワ橋本 ショップ,和歌山県橋本市妻2丁目１６６－１,34.319959949450116,135.6241122222222
1457,"",ロマンシティ御坊 ショップ,和歌山県御坊市湯川町財部１８１,33.898161740317796,135.14954055555555
1227,"",パビリオンシティ田辺 ショップ,和歌山県田辺市稲成町新江原３１６５,33.74428189104938,135.37680944444443
1637,"",オークワ南紀 ショップ,和歌山県新宮市佐野３丁目１１－１９,33.67565559027117,135.9690961111111
1938,"",イオン鳥取 ショップ,鳥取県鳥取市天神町１番地,35.49349246808912,134.2219127777778
1443,"",イオンモール鳥取北 ショップ,鳥取県鳥取市晩稲348,35.52429405821682,134.2022225
0346,"",イオン米子駅前 ショップ,鳥取県米子市末広町３１１番地,35.42307539518398,133.33322944444444
2115,"",米子旗ヶ崎 ショップ,鳥取県米子市旗ヶ崎２丁目１１－５,35.43561502511778,133.31893222222223
1183,"",米子Ｒ４３１ ショップ,鳥取県米子市新開５丁目２－２,35.45461349014736,133.34470444444443
0864,"",イオン松江 ショップ,島根県松江市東朝日町１５１,35.463706480236155,133.06947222222223
1400,"",松江学園通り ショップ,島根県松江市学園２丁目２２ー１,35.48055589797851,133.068355
0892,"",出雲 ショップ,島根県出雲市渡橋町６２６－８,35.365615606821684,132.74432222222222
1720,"",ゆめタウン出雲 ショップ,島根県出雲市大塚町650-1,35.37686791673329,132.75439527777777
1990,"",岡山駅前 ショップ,岡山県岡山市北区駅前町１丁目８番１８号,34.665928266050734,133.9214088888889
1849,"",大安寺 ショップ,岡山県岡山市北区野殿東町１－５６,34.65888753189535,133.88332333333332
1251,"",ハピータウン原尾島 ショップ,岡山県岡山市中区原尾島１丁目６番２０号,34.67167277734245,133.94716888888888
1263,"",ゆめタウン平島 ショップ,岡山県岡山市東区東平島１６３番地,34.70691751401102,134.0542875
1872,"",ハピータウン岡南 ショップ,岡山県岡山市南区築港新町１丁目１８番５号,34.6040570780028,133.9407325
2101,"",アリオ倉敷 ショップ,岡山県倉敷市寿町１２－２,34.60323198986276,133.7643163888889
1421,"",イオンモール倉敷 ショップ,岡山県倉敷市水江１番地,34.60411747599004,133.7455161111111
1155,"",倉敷エスパーク ショップ,岡山県倉敷市白楽町１２３－１,34.58905288722052,133.76309111111112
0728,"",倉敷中庄 ショップ,岡山県倉敷市松島９７１－１,34.63088634303843,133.80626833333332
0780,"",津山 ショップ,岡山県津山市河辺１１５５－９,35.05903317689832,134.040395
1384,"",笠岡 ショップ,岡山県笠岡市笠岡２３８８,34.50284494289732,133.50552527777776
0047,"",広島サンモール ショップ,広島県広島市中区紙屋町２丁目２－１８サンモール,34.39386021886017,132.45644055555556
0425,"",広島幟町 ショップ,広島県広島市中区幟町１２－１２,34.39405607725875,132.46510666666666
0565,"",フジグラン広島 ショップ 改装休店中,広島県広島市中区宝町２－１,34.386376839164846,132.46410833333334
1157,"",ＪＲ広島ステーション ショップ,広島県広島市南区松原町２－３７　JR広島駅構内,34.397442085848866,132.4745802777778
1711,"",ゆめタウン広島 ショップ,広島県広島市南区皆実町２丁目８－１７,34.37613771992606,132.46429388888888
1033,"",祇園新道 ショップ,広島県広島市安佐南区西原７丁目７－３７,34.441684402061064,132.47475555555556
1371,"",ゆめタウン安古市 ショップ,広島県広島市安佐南区高取北１丁目６番１１号,34.47446009460007,132.43953222222223
0788,"",フジグラン高陽 ショップ,広島県広島市安佐北区亀崎１丁目１番６号,34.48233315423051,132.52386555555555
1694,"",ゆめタウン呉 ショップ,広島県呉市宝町5-10,34.24201103414064,132.5560663888889
1348,"",フジグラン三原 ショップ,広島県三原市円一町１丁目１番７号,34.394727248383894,133.07863722222223
0569,"",尾道 ショップ,広島県尾道市東御所町１ー６,34.40450697400069,133.1930988888889
2111,"",東尾道 ショップ,広島県尾道市高須町581-1,34.44219724991348,133.23484666666667
1639,"",平成大学通り ショップ,広島県福山市御幸町大字上岩成４９２－１,34.54681267498433,133.35185416666667
0619,"",福山蔵王 ショップ,広島県福山市南蔵王町２丁目２６－５１,34.50247735583236,133.39799305555556
1803,"",福山緑町 ショップ,広島県福山市緑町２番１－１３号,34.477389066616226,133.37186694444443
1051,"",ゆめタウン大竹 ショップ,広島県大竹市晴海１丁目６－１,34.24152938872333,132.2233963888889
0941,"",フジグラン東広島 ショップ,広島県東広島市西条町御薗宇４４０５,34.40784796238746,132.74955138888888
1129,"",ゆめタウン黒瀬 ショップ,広島県東広島市黒瀬町楢原１００－１ゆめタウン黒瀬,34.32424909224654,132.66560777777778
1055,"",ゆめタウン東広島 ショップ,広島県東広島市西条町土与丸９７１番地,34.427639492198374,132.74967972222223
1410,"",フジグランナタリー ショップ,広島県廿日市市阿品３丁目１番１号,34.32133061517805,132.31506916666666
2099,"",ゆめタウン廿日市 ショップ,広島県廿日市市下平良２丁目２－１,34.346053197395435,132.33550527777777
1784,"",イオンモール広島府中 ショップ,広島県安芸郡府中町大須２-１-１,34.393856319722595,132.4995461111111
0963,"",フジグラン安芸 ショップ,広島県安芸郡坂町北新地２－３－３０,34.349280839545926,132.51858916666666
1164,"",シーモール下関 ショップ,山口県下関市竹崎町４丁目４－８,33.94979534852449,130.9235675
1926,"",ゆめシティ ショップ,山口県下関市伊倉新町３丁目１－１,34.00633893302587,130.93355944444446
1380,"",フジグラン宇部 ショップ,山口県宇部市明神町３丁目１－１,33.930904859014944,131.25655583333332
1230,"",ゆめタウン宇部 ショップ,山口県宇部市黒石北三丁目４番１号,33.98442781253113,131.2062486111111
0998,"",ゆめタウン山口 ショップ,山口県山口市大内千坊６丁目９番１号,34.15975480869787,131.49134
0378,"",防府 ショップ,山口県防府市中央町１－３,34.051945657206836,131.56856416666668
0749,"",サンリブ下松 ショップ,山口県下松市南花岡６丁目８－１,34.030737866130934,131.86508111111112
1028,"",ゆめタウン柳井 ショップ,山口県柳井市南町４丁目５番３号,33.96115423538686,132.1058936111111
1041,"",おのだサンパーク ショップ,山口県山陽小野田市中川６丁目４－１,33.98580764578361,131.17036083333332
1935,"",イオンモール徳島 ショップ,徳島県徳島市南末広町４－１,34.061737253981505,134.5732825
1605,"",マルナカ徳島 ショップ,徳島県徳島市西新浜町１丁目４５番１,34.0444466936205,134.55890305555556
1658,"",フジグラン石井 ショップ,徳島県名西郡石井町高川原544-1,34.08358076941235,134.44218333333333
1539,"",フジグラン北島 ショップ,徳島県板野郡北島町鯛浜字西ノ須１７４番地,34.111970479814616,134.547195
1987,"",ゆめタウン徳島 ショップ,徳島県板野郡藍住町奥野字東中須88-1,34.11918122572573,134.5005586111111
1684,"",イオンモール高松 ショップ,香川県高松市香西本町1-1,34.35219446374343,134.00461611111112
2076,"",JR高松 ショップ,香川県高松市浜ノ町１‐２０,34.35069756200468,134.04678833333332
1205,"",高松屋島 ショップ,香川県高松市屋島西町1899-1,34.339112358535175,134.10016805555554
1331,"",ゆめタウン高松 ショップ,香川県高松市三条町字中所６０８番１,34.31647934716531,134.04151027777777
1408,"",フジグラン丸亀 ショップ,香川県丸亀市川西町南１２８０番地１,34.24272185934904,133.83615416666666
1737,"",ゆめタウン三豊 ショップ,香川県三豊市豊中町本山甲２２番,34.145251693135656,133.6992336111111
1383,"",高松三木 ショップ,香川県木田郡三木町氷上花丸８９４,34.26355523328546,134.13498305555555
1723,"",イオンモール綾川 ショップ,香川県綾歌郡綾川町萱原８２２－１,34.251450423809466,133.93047444444446
2028,"",イオンスタイル松山 ショップ,愛媛県松山市天山１丁目１３－５,33.823324991419135,132.7764813888889
1953,"",いよてつ高島屋 ショップ,愛媛県松山市湊町5丁目1ー1,33.83573009029043,132.76266666666666
0659,"",フジグラン松山 ショップ,愛媛県松山市宮西１丁目２－１,33.8445558752302,132.75261666666665
0978,"",フジ姫原 ショップ,愛媛県松山市姫原２丁目４番２８号,33.86642410419407,132.75849305555556
2109,"",そよら今治馬越 ショップ,愛媛県今治市馬越町４丁目８－１,34.056116592026925,132.97973416666667
2017,"",イオンモール新居浜 ショップ,愛媛県新居浜市前田町８－８,33.95475924394518,133.2678338888889
1347,"",フジ宇和 ショップ,愛媛県西予市宇和町卯之町４丁目６５４番地,33.3600428732548,132.51483416666667
0827,"",フジグラン重信 ショップ,愛媛県東温市野田３丁目１－１３,33.79563151879878,132.83281527777777
0970,"",エミフルＭＡＳＡＫＩ ショップ,愛媛県伊予郡松前町大字筒井850,33.78850329355147,132.71554444444445
1507,"",イオンモール高知 ショップ,高知県高知市秦南町１丁目４－８,33.57622734518023,133.54243527777777
1786,"",高知帯屋町 ショップ,高知県高知市帯屋町１－５－５,33.56102263775166,133.54111583333332
0875,"",フジグラン高知 ショップ 改装休店中,高知県高知市朝倉東町５２－１５,33.54281260118103,133.49877805555556
1561,"",フジグラン野市 ショップ,高知県香南市野市町西野２００７番地１,33.5619728268344,133.6961611111111
0403,"",門司駅前 ショップ,福岡県北九州市門司区柳町２丁目２－２６,33.903650761677504,130.93398944444445
2097,"",イオン若松 ショップ,福岡県北九州市若松区二島1丁目3-1,33.89177633373921,130.74383416666666
2065,"",イオン戸畑 ショップ,福岡県北九州市戸畑区汐井町２－２,33.895877341535076,130.82017444444443
0676,"",到津 ショップ,福岡県北九州市小倉北区上到津３丁目３－２９,33.87394395411727,130.85050694444445
1498,"",小倉砂津 ショップ,福岡県北九州市小倉北区砂津３丁目１－１－１２２,33.88297144430686,130.88798555555556
1248,"",ＪＲ小倉 ショップ,福岡県北九州市小倉北区浅野１丁目１－１,33.88665391174145,130.8823847222222
0898,"",サニーサイドモール小倉 ショップ,福岡県北九州市小倉南区下曽根新町１０－１サニーサイドモール小倉１Ｆ,33.832441728660335,130.93292583333334
1820,"",サンリブシティ小倉 ショップ 改装休店中,福岡県北九州市小倉南区上葛原２－１４－１,33.838710223259326,130.90800388888889
1871,"",サンリブもりつね ショップ,福岡県北九州市小倉南区守恒１丁目１１番２５号,33.836872299985764,130.87535666666668
1681,"",イオンモール八幡東 ショップ,福岡県北九州市八幡東区東田３丁目２－１０２,33.86964339844512,130.81184555555555
0975,"",イオンタウン黒崎 ショップ,福岡県北九州市八幡西区西曲里町３－１,33.859670344712725,130.7601675
2006,"",永犬丸 ショップ,福岡県北九州市八幡西区永犬丸４丁目１０－２４,33.84102137478344,130.7335097222222
2064,"",JR折尾 ショップ,福岡県北九州市八幡西区折尾１丁目12-1,33.86420659644494,130.71226027777777
0086,"",イオンモール香椎浜 ショップ,福岡県福岡市東区香椎浜３丁目１２－１イオンモール香椎浜１階,33.656866929192326,130.4298175
1258,"",えきマチ香椎 ショップ,福岡県福岡市東区香椎駅前１丁目１１番１号(JR香椎駅内１階),33.658680582741994,130.4435963888889
1522,"",ゆめタウン博多 ショップ,福岡県福岡市東区東浜１丁目１－１,33.61139730679138,130.4115647222222
1799,"",ＪＲ南福岡 ショップ,福岡県福岡市博多区寿町２丁目９番３０号,33.542525532761644,130.46001694444445
0460,"",博多ステーション ショップ,福岡県福岡市博多区博多駅中央街１番１号アミュエスト１階,33.589708875246174,130.4209263888889
1869,"",フォレオ博多 ショップ,福岡県福岡市博多区東那珂１丁目１４－４６,33.57412132070137,130.4396811111111
2014,"",ららぽーと福岡 ショップ,福岡県福岡市博多区那珂6丁目23-1,33.56517716273878,130.44048944444444
1228,"",イオンスタイル笹丘 ショップ,福岡県福岡市中央区笹丘１丁目２８番７４号,33.564748401371155,130.37659472222222
0121,"",大濠 ショップ,福岡県福岡市中央区大濠公園４５,33.590075860836265,130.37489944444445
1887,"",天神国体道路 ショップ,福岡県福岡市中央区大名１－１－４,33.58648338958072,130.39687055555555
1048,"",西鉄薬院 ショップ,福岡県福岡市中央区渡辺通２丁目６－１　西鉄薬院駅ビル1F,33.58198529710969,130.40167305555556
0153,"",福岡天神 ショップ,福岡県福岡市中央区天神２丁目１１－２,33.59063284546594,130.39858055555555
0608,"",福岡長丘 ショップ,福岡県福岡市南区長丘５丁目１６－１０,33.553158552653954,130.38825833333334
1438,"",イオンマリナタウン ショップ,福岡県福岡市西区豊浜３丁目１番１０号,33.589378973733574,130.33435111111112
1831,"",イオンモール福岡伊都 ショップ,福岡県福岡市西区北原１丁目２番　イオンモール福岡伊都SC本館１Ｆ,33.577283320594105,130.25790972222222
2029,"",えきマチ姪浜 ショップ,福岡県福岡市西区姪浜４丁目８－２,33.58361756086421,130.32510833333333
1822,"",木の葉モール橋本 ショップ,福岡県福岡市西区橋本２丁目２７－２,33.55603006343994,130.32162416666668
1978,"",イオン原 ショップ,福岡県福岡市早良区原6-27-52,33.564514574844836,130.3420436111111
2062,"",プラリバ西新 ショップ,福岡県福岡市早良区西新４丁目１－１,33.58348493391319,130.35989972222222
1816,"",イオンモール大牟田 ショップ,福岡県大牟田市岬町３番４号,33.03060747939175,130.4280513888889
1537,"",ゆめタウン大牟田 ショップ,福岡県大牟田市旭町２丁目２８－１,33.03666637298015,130.4539411111111
0060,"",西鉄久留米 ショップ,福岡県久留米市東町３１６－２バスセンター内,33.31254124190541,130.5214286111111
1777,"",ゆめタウン久留米 ショップ,福岡県久留米市新合川１丁目２－１,33.32112107191386,130.5378902777778
0784,"",イオンモール直方 ショップ,福岡県直方市湯野原２丁目１番１号,33.76826805627242,130.7498725
0456,"",イオン穂波 ショップ,福岡県飯塚市枝国長浦６６６－４８,33.63698216657136,130.67356555555557
2059,"",ゆめタウン飯塚 ショップ,福岡県飯塚市菰田西3丁目6-1,33.629016302759844,130.68514055555556
1508,"",ゆめタウン八女 ショップ,福岡県八女市蒲原字志乃江９８８－２８,33.21541752752795,130.54710833333334
1395,"",ゆめタウン大川 ショップ,福岡県大川市大字上巻字野口４３０－１,33.202567598791575,130.38781194444445
1158,"",ゆめタウン行橋 ショップ,福岡県行橋市西宮市３丁目８－１,33.72033437933778,130.96770583333333
1014,"",イオン小郡 ショップ,福岡県小郡市大保字弓場１１０,33.410652266627096,130.56639277777776
1742,"",イオンモール筑紫野 ショップ,福岡県筑紫野市大字立明寺４３４－１,33.480914762198005,130.52660527777778
0931,"",ゆめタウン筑紫野 ショップ,福岡県筑紫野市針摺東３丁目３－１,33.48416710679853,130.53804833333334
1057,"",アクロスモール春日 ショップ,福岡県春日市春日５丁目１７番地,33.51634243951317,130.47072111111112
1350,"",イオン大野城 ショップ,福岡県大野城市錦町４丁目１－１,33.537734287746176,130.47610277777778
2094,"",くりえいと宗像 ショップ,福岡県宗像市くりえいと1-3-3,33.809790619734855,130.56477777777778
1856,"",イオンモール福津 ショップ,福岡県福津市日蒔野６丁目１６番地の１,33.75265322242105,130.49313777777778
1794,"",ゆめマートうきは ショップ,福岡県うきは市吉井町千年１５６－１,33.35203990828576,130.7626113888889
1280,"",イオン甘木 ショップ,福岡県朝倉市甘木岩入３８０番地イオン甘木ショッピングセンター内,33.40533333489442,130.65365972222222
1399,"",那珂川 ショップ,福岡県那珂川市松木３丁目１,33.5150185184327,130.42993833333333
0868,"",イオン福岡東 ショップ,福岡県糟屋郡志免町別府北２丁目１４番１号,33.60804298264186,130.453205
1839,"",ライフガーデン新宮中央 ショップ,福岡県糟屋郡新宮町中央駅前１丁目５番２号,33.71201709478227,130.45113111111112
2021,"",トリアスモール ショップ,福岡県糟屋郡久山町山田1111,33.652660033200895,130.48870944444445
1643,"",イオンモール福岡 ショップ,福岡県糟屋郡粕屋町大字酒殿字老ノ木１９２－１,33.596905052884786,130.47905416666666
1324,"",ゆめタウン遠賀 ショップ,福岡県遠賀郡遠賀町松の本１丁目１－１,33.85215436130478,130.6696575
1480,"",イオンモール佐賀大和 ショップ,佐賀県佐賀市大和町大字尼寺３５３５,33.304168964019034,130.28033416666668
0617,"",ＪＲ佐賀 ショップ,佐賀県佐賀市駅前中央１丁目１１－１０,33.26429865703781,130.2979652777778
1717,"",ゆめタウン佐賀 ショップ,佐賀県佐賀市兵庫北５－１４－１,33.275928618250134,130.30821333333333
1428,"",イオン唐津 ショップ,佐賀県唐津市鏡字立神４６７１(イオン唐津店1F),33.43682124837924,130.01193472222224
1171,"",フレスポ鳥栖 ショップ,佐賀県鳥栖市本鳥栖町５３７－１,33.37528719795307,130.51801083333334
1283,"",ゆめタウン武雄 ショップ,佐賀県武雄市武雄町大字武雄４９９２,33.18893550263365,130.02496333333335
1833,"",イオン東長崎 ショップ,長崎県長崎市田中町１０２７－８,32.76838267233992,129.95236
1463,"",ＪＲ長崎 ショップ,長崎県長崎市尾上町１－１,32.751499311793594,129.8708413888889
1859,"",チトセピア ショップ,長崎県長崎市千歳町５番１号,32.79029942541669,129.86162694444445
0393,"",みらい長崎 ショップ,長崎県長崎市茂里町１－５５,32.76225157618536,129.86471444444445
1837,"",ゆめタウン夢彩都 ショップ,長崎県長崎市元船町１０－１,32.74621789715376,129.86996166666665
1156,"",イオン大塔 ショップ,長崎県佐世保市大塔町１４２－５,33.148592816685266,129.77996583333334
0637,"",佐世保京町 ショップ,長崎県佐世保市下京町８－１２,33.16924521182073,129.7230536111111
1959,"",させぼ五番街 ショップ,長崎県佐世保市新港町2-1,33.16519327588301,129.72304916666667
0703,"",ＪＲ諌早 ショップ,長崎県諫早市永昌町１－１,32.85153263487564,130.0416686111111
1596,"",イオン大村 ショップ,長崎県大村市幸町２５番地２００,32.9011314813017,129.95427388888888
1071,"",有家 ショップ,長崎県南島原市有家町山川字堅間１３６－１７,32.66333156284642,130.30970277777777
1481,"",イオン時津 ショップ,長崎県西彼杵郡時津町浜田郷７５１－５,32.83124278614935,129.86307722222222
1677,"",熊本下通り ショップ,熊本県熊本市中央区新市街６－６,32.799280431174445,130.70750916666665
1902,"",ゆめマート大江 ショップ,熊本県熊本市中央区大江３丁目２－４０,32.80305762495185,130.72467777777777
0117,"",健軍 ショップ,熊本県熊本市東区健軍３丁目５１－１６,32.77864157028823,130.76055305555556
1316,"",日赤通り ショップ,熊本県熊本市東区長嶺南４丁目１－１,32.80986212100336,130.77083972222223
0965,"",ゆめタウンサンピアン ショップ,熊本県熊本市東区上南部２丁目２－２,32.827100822202326,130.7633013888889
0601,"",ＪＲ熊本 ショップ,熊本県熊本市西区春日３丁目１５番３０号,32.789640156570336,130.68785527777777
0709,"",イオンタウン西熊本 ショップ 3月8日まで改装休店中,熊本県熊本市南区島町３－1－1,32.76354522164945,130.68270833333332
1241,"",ゆめタウンはません ショップ,熊本県熊本市南区田井島１丁目２番１号,32.77150163878632,130.72641222222222
0758,"",熊本清水バイパス ショップ,熊本県熊本市北区室園町２番２６号,32.82561272209014,130.7224338888889
0100,"",イオン八代 ショップ,熊本県八代市沖町六番割３９８７－３,32.52509471908984,130.58489555555556
2116,"",ゆめタウンシティモール ショップ,熊本県荒尾市緑ヶ丘１丁目１－１,32.982564150039316,130.47061694444446
1889,"",ゆめマート玉名 ショップ 3月13日まで改装休店中,熊本県玉名市亀甲字長畑134,32.92915379823877,130.55436166666667
1239,"",宇土シティ ショップ,熊本県宇土市善道寺町字綾織９５,32.68282620046713,130.6679525
1184,"",イオンモール宇城 ショップ,熊本県宇城市小川町河江１－１　イオンモール宇城内,32.59667948324779,130.70667111111112
1441,"",天草本渡 ショップ,熊本県天草市北原町５番３０号,32.46729103870016,130.1867386111111
1912,"",ゆめタウン光の森 ショップ,熊本県菊池郡菊陽町光の森７－３３－１,32.85890293569191,130.78582305555557
1648,"",イオンモール熊本 ショップ,熊本県上益城郡嘉島町大字上島字長池２２３２,32.73771999053058,130.74343972222223
0467,"",大分ステーション ショップ,大分県大分市要町１－４０,33.23282334339254,131.60625333333334
0847,"",大分高城 ショップ,大分県大分市高城西町２８－１,33.24154665778941,131.652335
1551,"",大分パークプレイス ショップ,大分県大分市公園通り西２丁目１番,33.19504395294041,131.65792444444443
1503,"",トキハわさだ ショップ,大分県大分市大字玉沢字楠本７５５－１,33.188449090051236,131.58090166666668
1702,"",ゆめタウン別府 ショップ,大分県別府市楠町３８２－７,33.27627456884406,131.50781194444446
1020,"",イオンモール三光 ショップ,大分県中津市三光佐知１０３２番地,33.55777411189367,131.1940461111111
1295,"",ゆめタウン中津 ショップ,大分県中津市蛭子町３丁目９９番地,33.602558390840464,131.19422305555557
1641,"",イオンモール宮崎 ショップ,宮崎県宮崎市新別府町江口８６２－１,31.922467713013628,131.4564638888889
1792,"",うめこうじ佐土原 ショップ,宮崎県宮崎市佐土原町下田島９９２２－３,32.025306617411744,131.4781725
0837,"",ＪＲ宮崎 ショップ,宮崎県宮崎市錦町１－８,31.91529475401825,131.4320011111111
1800,"",ベアーズモール清武 ショップ,宮崎県宮崎市清武町正手２丁目３７－８,31.86117705109884,131.38668055555556
0080,"",宮交シティ ショップ,宮崎県宮崎市大淀４丁目６ー２８宮交シティ,31.894547747442434,131.41999388888888
0344,"",宮崎一番街 ショップ,宮崎県宮崎市中央通４６－１,31.91506628299769,131.4215625
0465,"",都城 ショップ,宮崎県都城市中原町３０街区８号,31.728201476762308,131.07366638888888
0658,"",イオン延岡 ショップ,宮崎県延岡市旭町２－２－１,32.572604914301166,131.66985416666665
1851,"",イオン日向 ショップ,宮崎県日向市大字日知屋字古田町６１－１,32.42470400209177,131.6511025
0520,"",イオンモール鹿児島 ショップ,鹿児島県鹿児島市東開町７　イオンモール鹿児島３Ｆフードコート内,31.527691464445933,130.53622222222222
0495,"",鹿児島中央駅前 ショップ,鹿児島県鹿児島市中央町１０番地,31.584324183623206,130.54434111111112
0386,"",天文館 ショップ,鹿児島県鹿児島市東千石町１４－１６,31.59099333699079,130.55535055555555
1195,"",南栄 ショップ,鹿児島県鹿児島市南栄６丁目１－２,31.502752800018225,130.5168177777778
1828,"",ピュアタウン武岡 ショップ,鹿児島県鹿児島市武岡１丁目１１５－４,31.587611985852273,130.52603527777777
0808,"",鹿屋寿 ショップ,鹿児島県鹿屋市寿８丁目７１４－１９,31.38716197074145,130.87548972222223
1870,"",タイヨー永利 ショップ,鹿児島県薩摩川内市永利町７１２番地,31.810332370837465,130.33349583333333
1638,"",コープ国分 ショップ,鹿児島県霧島市国分府中町１－５３－１,31.745166843330217,130.76163694444443
1520,"",奄美大島 ショップ,鹿児島県奄美市名瀬小浜町３４,28.3847251930121,129.50215666666668
1542,"",姶良 ショップ,鹿児島県姶良市西餅田３３２８番２,31.717714873410536,130.62215277777779
1762,"",天久りうぼう ショップ,沖縄県那覇市天久１丁目２－１,26.230376624695488,127.68989166666667
0841,"",イオン那覇 ショップ,沖縄県那覇市金城５丁目１０番地の２,26.196983096432053,127.66602416666667
1298,"",壺川 ショップ,沖縄県那覇市壺川３丁目１番１９号,26.208659940870273,127.67831694444445
1572,"",那覇メインプレイス ショップ,沖縄県那覇市おもろまち４丁目４番,26.224779680304405,127.69503777777778
0543,"",サンエーコンベンションシティ ショップ,沖縄県宜野湾市宇地泊３－６－１,26.274909505462027,127.72993305555555
1314,"",石垣 ショップ,沖縄県石垣市登野城１１５７,24.34069189094122,124.16455444444445
2098,"",イオンてだこ浦西 ショップ,沖縄県浦添市前田３丁目１９－４０,26.241877026475244,127.74187722222223
1741,"",サンエー経塚 ショップ,沖縄県浦添市経塚６５２番地,26.237347440561294,127.72273444444444
2037,"",サンエーパルコシティ ショップ,沖縄県浦添市西洲３－１－１,26.261531770436818,127.69783833333334
0968,"",イオン名護 ショップ,沖縄県名護市名護４４７２,26.609542386058987,127.98431444444445
2088,"",サンエーしおざきシティ ショップ,沖縄県糸満市潮崎町２丁目2,26.124405016822497,127.66827972222222
1016,"",美里 ショップ,沖縄県沖縄市東２丁目１－６,26.345156795195805,127.82151055555556
1494,"",イオン具志川 ショップ,沖縄県うるま市前原３０３,26.337930760770057,127.84402666666666
1813,"",具志川メインシティ ショップ,沖縄県うるま市字江洲４５０－１,26.35269246205553,127.82565
2013,"",サンエー石川シティ ショップ,沖縄県うるま市石川2521番地1,26.421384328838084,127.82351138888889
2019,"",サンエー宮古島シティ ショップ,沖縄県宮古島市平良字下里2511-43,24.77471296365137,125.30073722222222
1356,"",イオン北谷 ショップ,沖縄県中頭郡北谷町美浜８－３,26.3143794438936,127.757345
2008,"",イオンモール沖縄ライカム ショップ,沖縄県中頭郡北中城村字ライカム１番地,26.314422961115657,127.79557972222223
1597,"",サンエー西原 ショップ,沖縄県中頭郡西原町嘉手苅１３０番地,26.2245544551549,127.76510777777777
1622,"",イオン南風原 ショップ,沖縄県島尻郡南風原町宮平２６４番地,26.20139150677485,127.73774138888889
1858,"",サンエーつかざん ショップ,沖縄県島尻郡南風原町字津嘉山１４７１－２,26.19054165684031,127.70935305555555
