store_id,pref_id,shop_name,address,lat,lon
947,"",エル守口店,大阪府守口市河原町1-3,34.7357725,135.5659112
946,"",【3/7 OPEN！】鎌倉パスタ 丸広百貨店川越店,埼玉県川越市新富町２丁目６−１,35.912591,139.4834488
943,"",プライムツリー赤池店,愛知県日進市赤池町箕ノ手１,35.108621,137.0243969
932,"",越後の里CoCoLo新潟店,新潟県新潟市中央区花園１丁目１−１CoCoLo新潟１階 WESTSIDE,37.9115222,139.0627439
926,"",ゆめが丘ソラトス店,神奈川県横浜市泉区ゆめが丘31番地,35.405294100156,139.48269857737
925,"",なんばウォーク店,大阪府大阪市中央区難波1丁目虹のまち3-7号　なんばウォーク2番街北通り内,34.6672166,135.5017818
917,"",ココリア多摩センター 店,東京都多摩市落合１-４６-１ ココリア多摩センター６F,35.6225967,139.4249185
907,"",ヨドバシ仙台店,宮城県仙台市宮城野区榴岡１-３-１ ヨドバシ仙台第１ビル６F,38.2589686,140.8834947
906,"",アスティ静岡店,静岡県静岡市葵区黒金町４７ アスティ静岡１F,34.9715857,138.3879126
905,"",Kamakurapasta Fresca ルミネエスト店,東京都新宿区新宿３-３８-１ ルミネエスト新宿７F,35.6912448,139.7011092
898,"",アミュプラザおおいた店,大分県大分市要町１-１４ アミュプラザおおいた店４F,33.2331459,131.6063255
893,"",中野セントラルパーク店,東京都中野区中野４-１０-２ 中野セントラルパークサウス２F,35.7068049,139.6613911
886,"",シャポー船橋店,千葉県船橋市本町７-１-１ シャポー船橋南館４F,35.7014332,139.9865911
880,"",富山マルート店,富山県富山市明輪町１-２３１ 富山マルート店４F,36.7020417,137.211985
850,"",イオンモール土岐店,岐阜県土岐市土岐津町土岐口字中山１３７２-１ イオンモール土岐店１F,35.3465558,137.182528
461,"",イオンモール東久留米店,東京都東久留米市南沢５-１７-６２ イオンモール東久留米店１F,35.74512,139.52762
462,"",Dew阪急山田店,大阪府吹田市山田西４-１-２ Dew阪急山田２F,34.80501,135.51533
463,"",ららぽーと沼津店,静岡県沼津市東椎路字東荒３０１-３ ららぽーと沼津店１F,35.11881,138.84001
464,"",イオンタウン四日市泊店,三重県四日市市泊小柳町４-５ イオンタウン四日市泊店１F,34.93797,136.60131
465,"",イオン新浦安店,千葉県浦安市入船１-４-１ イオン新浦安ショッピングセンター４F,35.64873,139.91475
466,"",グランデュオ蒲田店,東京都大田区西蒲田７-６８-１ グランデュオ蒲田西館７F,35.56246,139.71567
467,"",アリオ橋本店,神奈川県相模原市緑区大山町１-２２ アリオ橋本店２F,35.5907,139.34935
468,"",コースカベイサイドストアーズ店,神奈川県横須賀市本町２-１-１２ コースカベイサイドストアーズ３F,35.28326,139.66257
469,"",あべのＨｏｏｐ店,大阪府大阪市阿倍野区阿倍野筋１-２-３０ あべのＨｏｏｐ店B１F,34.64506,135.51369
470,"",イオンモール名取店,宮城県名取市杜せきのした５-３-１ イオンモール名取１F,38.16378,140.89594
471,"",アトレ信濃町店,東京都新宿区信濃町３４ アトレ信濃町２F,35.68019,139.7202
472,"",流山おおたかの森S･C店,千葉県流山市おおたかの森南１-２-１ 流山おおたかの森S･C店FLAPS４F,35.87111,139.92502
473,"",リエール藤沢店,神奈川県藤沢市南藤沢１-２ リエール藤沢２F,35.33857,139.48785
474,"",ミッテン府中店,東京都府中市宮町１-４１-２ ミッテン府中９F,35.67066,139.4799
475,"",イオンモール羽生店,埼玉県羽生市川崎２-２８１-３ イオンモール羽生店１F,36.14613,139.54158
420,"",イオンモール常滑店,愛知県常滑市りんくう町２-２０-３ イオンモール常滑１F,34.88111,136.82673
421,"",金沢野々市店,石川県野々市市三納１-４７,36.51797,136.60845
422,"",ピオレ明石店,兵庫県明石市大明石町１-４-２０ ピオレ明石南館２F,34.64872,134.99195
423,"",広島紙屋町店,広島県広島市中区大手町１-５-２,34.39418,132.45579
424,"",イオンタウン姶良店,鹿児島県姶良市西餅田２６４-１ イオンタウン姶良1F,31.73269,130.6269
425,"",武蔵浦和マーレ店,埼玉県さいたま市南区白幡５-１９-１９ 武蔵浦和マーレ２F,35.84375,139.64817
426,"",イオンモール今治新都市店,愛媛県今治市にぎわい広場１-１ イオンモール今治新都市１F,34.04408,132.96253
427,"",イオンモール神戸北店,兵庫県神戸市北区上津台８-１-１ イオンモール神戸北１F,34.86113,135.19431
428,"",イオンモール秋田店,秋田県秋田市御所野地蔵田１-１-１ イオンモール秋田１F,39.66373,140.16085
429,"",イオンタウンユーカリが丘店,千葉県佐倉市西ユ-カリが丘６-１２-３ イオンタウンユーカリが丘東館１F,35.72705,140.15279
430,"",ゆめタウン呉店,広島県呉市宝町５-１０ ゆめタウン呉３F,34.24234,132.55626
431,"",イオンモール高の原店,京都府木津川市相楽台１-１-１ イオンモール高の原２F,34.72586,135.7907
432,"",東葛西店,東京都江戸川区東葛西６-４３-１５,35.65952,139.88038
433,"",シャポー本八幡店,千葉県市川市八幡２-１７-１ シャポー本八幡１F,35.72039,139.92844
434,"",ゆめタウン光の森店,熊本県菊池郡菊陽町光の森７-３３-１ ゆめタウン光の森１F,32.8603,130.78431
435,"",広島アルパーク店,広島県広島市西区草津新町２-２６-１ 広島アルパーク東棟２F,34.37347,132.39463
436,"",三井アウトレットパーク札幌北広島店,北海道北広島市大曲幸町３-７-６ 三井アウトレットパーク札幌北広島２F,42.97097,141.47158
437,"",小田原ダイナシティ店,神奈川県小田原市中里２０８ 小田原ダイナシティ４F,35.28364,139.18545
438,"",立川店,東京都立川市若葉町１-１-２,35.7199988,139.4324254
440,"",イオンモール新小松店,石川県小松市清六町３１５ イオンモール新小松店１F,36.3954,136.46483
441,"",宇都宮パセオ店,栃木県宇都宮市川向町１-２３ 宇都宮パセオ１F,36.56009,139.89817
442,"",イオンモール浜松志都呂店,静岡県浜松市中央区志都呂２-３７-１ イオンモール浜松志都呂１F,34.6971801,137.6493907
443,"",トラベロッジ河原町四条店,京都府京都市中京区河原町通三条下ル山崎町２４０ トラベロッジ河原町四条店１F,35.0072801,135.7688155
444,"",ダイニング イオンモール津田沼店,千葉県習志野市津田沼1-23-1 イオンモール津田沼3階,35.6902778,140.025
445,"",イーアス高尾,東京都八王子市東浅川町５５０-１ イーアス高尾１F,35.64276,139.28884
446,"",ペリエ千葉店,千葉県千葉市中央区新千葉１-１-１ ペリエ千葉店５F,35.61306,140.11375
447,"",イオンモール松本店,長野県松本市中央４-９-５１ イオンモール松本店１F,36.2339993,137.9783201
448,"",マルイ大宮店,埼玉県さいたま市大宮区桜木町２-３ マルイ大宮店７F,35.90695,139.62183
450,"",金沢直江店,石川県金沢市直江東１-２７,36.6129248,136.6364572
451,"",仙台パルコ店,宮城県仙台市青葉区中央１-２-３ 仙台パルコ９F,38.26196,140.88159
452,"",ジョイナステラス二俣川店,神奈川県横浜市旭区二俣川２-９１-７ ジョイナステラス二俣川４F,35.46375,139.53215
453,"",アミュプラザ鹿児島店,鹿児島県鹿児島市中央町１-１ アミュプラザ鹿児島６F,31.58428,130.54248
454,"",イオンモール津南店,三重県津市高茶屋小森町１４５ イオンモール津南２F,34.6706,136.51833
455,"",カレッタ汐留店,東京都港区東新橋１-８-２ カレッタ汐留B２F,35.6648867,139.7624926
456,"",イオンレイクタウンmori店,埼玉県越谷市レイクタウン３-１-１ イオンレイクタウンmori１F,35.88157,139.82778
457,"",錦糸町パルコ店,東京都墨田区江東橋４-２７-１４ 錦糸町パルコ店６F,35.69649,139.81583
458,"",けやきウォーク前橋店,群馬県前橋市文京町２-１-１ けやきウォーク前橋１F,36.37835,139.07852
459,"",イオンモール東浦店,愛知県知多郡東浦町緒川旭１３−２ イオンモール東浦店１F,34.9795385,136.9747489
460,"",アトレ松戸店,千葉県松戸市松戸１１８１ アトレ松戸店７F,35.78525,139.90063
377,"",松山銀天街店,愛媛県松山市湊町４-５-６,33.83598,132.76499
378,"",イオンモール鹿児島店,鹿児島県鹿児島市東開町７ イオンモール鹿児島１F,31.52737,130.53694
379,"",イオンモール日の出店,東京都西多摩郡日の出町平井字三吉野桜木２３７-３ イオンモール日の出１F,35.7344247,139.2749441
380,"",阪急大井町ガーデン,東京都品川区大井１-５０-５ 阪急大井町ガーデン１F,35.60621,139.73372
381,"",くずはモール店,大阪府枚方市楠葉花園町１０-８５ KUZUHAMALL南館１F,34.86014,135.67681
382,"",イオンモール和歌山店,和歌山県和歌山市ふじと台２３番地イオンモール和歌山1F,34.2764951,135.1490504
383,"",イオンモール天童店,山形県天童市芳賀タウン北４-１-１ イオンモール天童１F,38.3439319,140.3634985
384,"",アリオ鳳店,大阪府堺市西区鳳南町３-１９９-１２ アリオ鳳３F,34.52445,135.45888
385,"",イオンモール新潟亀田インター店,新潟県新潟市江南区下早通柳田１-１-１ イオンモール新潟南１F,37.87609,139.08122
386,"",ゆめタウン広島店,広島県広島市南区皆実町２-８-１７ ゆめタウン広島２階,34.37616,132.46379
387,"",ベルテラスいこま店,奈良県生駒市北新町２０４３ ベルテラスいこま３F,34.69423,135.69769
389,"",青森ELM店,青森県五所川原市唐笠柳藤巻５１７-１ 青森ELM１F,40.79858,140.4542
390,"",ゆめタウン博多店,福岡県福岡市東区東浜１-１-１ ゆめタウン博多１F,33.61216,130.41198
391,"",モリタウン昭島店,東京都昭島市代官山二丁目3番1号　モリタウン昭島,35.7140709,139.3623006
392,"",泉北パンジョ店,大阪府堺市南区茶山台１-３-１ パンジョ本館４F,34.49555,135.5164
393,"",広島金座街店,広島県広島市中区本通１-３ ブライトビル,34.39327,132.46199
394,"",イオンモール京都五条店,京都府京都市右京区西院追分町２５-１ イオンモール京都五条３F,34.99694,135.72684
396,"",イオンモール木更津店,千葉県木更津市築地１-４ イオンモール木更津１F,35.36498,139.90872
397,"",イオンモール綾川店,香川県綾歌郡綾川町萱原８２２-１ イオンモール綾川１F,34.25143,133.93098
398,"",イオンモール多摩平の森店,東京都日野市多摩平２-４-１ イオンモール多摩平の森１F,35.6619,139.38031
399,"",イオンモール岡山店,岡山県岡山市北区下石井１-２-１ イオンモール岡山６F,34.66202,133.91849
400,"",イオンモール日吉津店,鳥取県西伯郡日吉津村日吉津１１６０-１ イオンモール日吉津ウエスト棟１F,35.4457263,133.3864352
401,"",イオンモール札幌平岡店,北海道札幌市清田区平岡３条５-３-１ イオンモール札幌平岡２F,42.99784,141.45897
402,"",MIDORI長野店,長野県長野市南千歳１-２２-６ MIDORI長野３F,36.64394,138.18894
403,"",アミュプラザ長崎店,長崎県長崎市尾上町１-１ アミュプラザ長崎５F,32.75126,129.87064
404,"",イオンモール伊丹店,兵庫県伊丹市藤ノ木１-１-１ イオンモール伊丹３F,34.781,135.42406
405,"",イオンモール旭川駅前店,北海道旭川市宮下通７-２-５ イオンモール旭川駅前４F,43.76377,142.35777
406,"",イオンモール与野店,埼玉県さいたま市中央区本町西５-２-９ イオンモール与野３F,35.8909,139.61488
407,"",カラフルタウン岐阜店,岐阜県岐阜市柳津町丸野３-３-６ カラフルタウン岐阜１F,35.36232,136.72854
408,"",イオンモール沖縄ライカム店,沖縄県中頭郡北中城村ライカム１ イオンモール沖縄ライカム４F,26.3137504,127.7966025
409,"",岡山青江店,岡山県岡山市北区青江１-１２-１０,34.63494,133.92052
410,"",ゆめタウン廿日市店,広島県廿日市市下平良２-１３１７-３０ ゆめタウン廿日市１F,34.34556,132.33644
411,"",イオンモール佐野新都市店,栃木県佐野市高萩町１３２４-１ イオンモール佐野新都市１F,36.29916,139.60593
412,"",イオンモール千葉ニュータウン店,千葉県印西市中央北３-２ イオンモール千葉ニュータウン１F,35.802,140.11332
413,"",深川冬木店,東京都江東区冬木１８-９,35.6751,139.80301
414,"",福知山店,京都府福知山市東羽合町１４９,35.2944,135.11473
415,"",イオンモール北大路店,京都府京都市北区小山北上総町４９-１ イオンモール北大路店２F,35.04465,135.75806
416,"",市ヶ谷店,東京都千代田区九段南３-９-１１,35.69238,139.74109
417,"",イオンモール四條畷店,大阪府四條畷市砂４-３-２ イオンモール四條畷２F,34.74607,135.62872
418,"",ゆめタウン久留米店,福岡県久留米市新合川１-２-１ ゆめタウン久留米１F,33.32178,130.53849
419,"",プレナ幕張店,千葉県千葉市美浜区ひび野２-４ プレナ幕張１F,35.64756,140.04055
340,"",湘南モールフィル店,神奈川県藤沢市辻堂新町４-１-１ 湘南モールフィル１F,35.33868,139.46487
341,"",アクウェルモール武蔵小金井店,東京都小金井市本町６-１４-２８ アクウェルモール武蔵小金井２F,35.70049,139.50589
342,"",ららぽーと磐田店,静岡県磐田市高見丘１２００ ららぽーと磐田２F,34.75003,137.84104
343,"",松井山手店,京都府京田辺市山手西１-１０-１,34.83312,135.72215
344,"",イオンモール富士宮店,静岡県富士宮市浅間町１-８ イオンモール富士宮１F,35.22047,138.61198
345,"",たまプラーザ店,神奈川県横浜市青葉区美しが丘１-７ たまプラーザ５F,35.57889,139.55769
346,"",西宮今津店,兵庫県西宮市今津出在家町８-２６,34.7261,135.34877
348,"",上本町YUFURA店,大阪府大阪市天王寺区上本町６-５-１３ 上本町YUFURA５F,34.66477,135.5195
349,"",浜松中沢店,静岡県浜松市中央区中沢町８３-１,34.7237734,137.7304171
350,"",京都ヨドバシ店,京都府京都市下京区烏丸通七条下ル東塩小路町５９０-２ 京都ヨドバシ６F,34.98821,135.75897
351,"",イオンモール甲府昭和店,山梨県中巨摩郡昭和町飯喰１５０５-１ イオン甲府昭和１F,35.62247,138.52685
352,"",イオンモール鶴見緑地店,大阪府大阪市鶴見区鶴見４-１７-１ イオンモール鶴見緑地４F,34.70338,135.56591
353,"",イオンモール川口前川店,埼玉県川口市前川１-１-１１ イオンモール川口前川１F,35.83351,139.7076
354,"",イオンモール堺北花田店,大阪府堺市北区東浅香山町４-１-１２ イオンモール堺北花田４F,34.58407,135.51573
356,"",イオンモール倉敷店,岡山県倉敷市水江１ イオンモール倉敷１F,34.60388,133.74622
357,"",ゆめタウン徳島店,徳島県板野郡藍住町奥野字東中須８８-１ ゆめタウン徳島１F,34.11876,134.50109
358,"",なかもず店,大阪府堺市北区百舌鳥西之町２-５３７,34.54818,135.49455
359,"",イオンモール水戸内原店,茨城県水戸市内原２-１ イオンモール水戸内原１F,36.37424,140.35813
360,"",アリオ上田店,長野県上田市天神３-５-１ アリオ上田１F,36.39933,138.24387
361,"",クリスタ長堀店,大阪府大阪市中央区南船場２ クリスタ長堀B１F,34.67501,135.50482
362,"",高島屋立川店,東京都立川市曙町２-３９-３ 立川高島屋９F立川ガーデンテーブルズ,35.70049,139.41337
363,"",ゆめタウン高松店,香川県高松市三条町中所６０８-１ ゆめタウン高松１F,34.31662,134.04164
364,"",イオンモール熊本店,熊本県上益城郡嘉島町大字上島字長池２２３２ イオンモール熊本１F,32.73875,130.7427
365,"",ゆめタウン出雲店,島根県出雲市大塚町６５０-１ ゆめタウン出雲１F,35.37712,132.75519
366,"",イオンモールつくば店,茨城県つくば市稲岡６６-１ イオンモールつくば１F,36.03439,140.1328
367,"",ゆめタウン佐賀店,佐賀県佐賀市兵庫北５-１４-１ ゆめタウン佐賀店１F,33.27638,130.30883
368,"",高松丸亀町商店街店,香川県高松市丸亀町１２-６,34.34379,134.05023
369,"",ミウィ橋本店,神奈川県相模原市緑区橋本３-２８-１ ミウィ橋本５F,35.59493,139.34576
370,"",みなとみらい店,神奈川県横浜市西区みなとみらい３-５-１ みなとみらい４F,35.45755,139.63207
371,"",トツカーナ店,神奈川県横浜市戸塚区戸塚町１６-１ 戸塚西口共同ビル トツカーナ１F,35.40071,139.5328
372,"",DININGノースポート・モール店,神奈川県横浜市都筑区中川中央１-２５ ノースポートモール５F,35.5520981,139.5794141
373,"",桜美林学園前店,東京都町田市根岸町１０１０-２,35.5798,139.40729
374,"",横浜ワールドポーターズ店,神奈川県横浜市中区新港２-２-１ 横浜ワールドポーターズ１F,35.45363,139.63895
375,"",アリオ西新井店,東京都足立区西新井栄町１-２０-１ アリオ西新井店３F,35.77407,139.7862
376,"",イオン小郡ショッピングセンター店,福岡県小郡市大保字弓場１１０ イオンモール小郡１F,33.40873,130.56519
302,"",京都桂店,京都府京都市西京区上桂東ノ口町１０３,34.99058,135.70264
303,"",春日井店,愛知県春日井市南下原町２２０−３,35.27021,136.9732145
304,"",北加賀屋店,大阪府大阪市住之江区西加賀屋２-１３-２４,34.61864,135.47525
305,"",神戸さんちか店,兵庫県神戸市中央区三宮１丁目１０−１ 神戸さんちか１０番街グルメスクエア,34.6919534,135.1950461
307,"",イオンモール盛岡南店,岩手県盛岡市本宮７丁目１−１ イオンモール盛岡南 1階,39.6834723,141.1285162
308,"",堺泉北店,大阪府堺市南区小代３６５-６,34.50815,135.48933
309,"",名古屋パルコ店,愛知県名古屋市中区栄３-２９-１ 名古屋パルコ西棟７F,35.16373,136.90725
310,"",イオンモール札幌発寒店,北海道札幌市西区発寒８条１２-１ イオンモール札幌発寒１F,43.09599,141.27747
311,"",ららぽーと柏の葉店,千葉県柏市若柴１７５ ららぽーと柏の葉３F,35.89426,139.95097
312,"",倉敷店※12/1(日)はイベントの為、14時～18時の間、休業いたします）,岡山県倉敷市沖新町７９-５,34.58083,133.75534
313,"",戸塚モディ店,神奈川県横浜市戸塚区戸塚町１０ 戸塚モディ７F,35.40147,139.5346
314,"",羽曳野店,大阪府羽曳野市西浦１-１９９９,34.54618,135.60357
315,"",イオンモール高松店,香川県高松市香西本町１-１ イオンモール高松１F,34.35183,134.00468
316,"",センター南店,神奈川県横浜市都筑区茅ヶ崎中央６-２ VeLeV B棟１F,35.54346,139.57379
317,"",町田東急ツインズ店,東京都町田市原町田６-４-１ 東急百貨店町田店EAST８F,35.54221,139.44666
318,"",浦和パルコ店,埼玉県さいたま市浦和区東高砂町１１-１ 浦和パルコ５F,35.85895,139.65919
319,"",イオンモール津山店,岡山県津山市河辺１０００-１ イオンモール津山１F,35.06525,134.04665
320,"",アクアウォーク大垣店,岐阜県大垣市林町６-８０-２１ アクアウォーク大垣１F,35.36891,136.6175
321,"",神戸名谷店,兵庫県神戸市垂水区名谷町小川２５６９-６,34.66255,135.08079
322,"",イオンタウン富士南店,静岡県富士市鮫島１１８-１０ イオンタウン富士南１F,35.14018,138.67558
323,"",豊中服部店,大阪府豊中市服部南町２-８-２８,34.76098,135.47698
324,"",モリシア津田沼店,千葉県習志野市谷津１-１６-１ モリシア津田沼２F,35.6899,140.0191
325,"",徳島山城店,徳島県徳島市山城西４-３６,34.04797,134.55227
326,"",岐阜マーサ21店,岐阜県岐阜市正木中１-２-１ 岐阜マーサ２１ ３F,35.44713,136.74524
328,"",金沢フォーラス店,石川県金沢市堀川新町３-１ 金沢フォーラス６F,36.57946,136.64995
329,"",岸和田店,大阪府岸和田市上野町西１０-２６,34.46815,135.38123
330,"",イオンモール鈴鹿店,三重県鈴鹿市庄野羽山４-１-２ イオンモール鈴鹿１F,34.8722,136.532
331,"",イーアスつくば店,茨城県つくば市研究学園５-１９ イーアスつくば１F,36.08647,140.08398
332,"",鶴見店,大阪府大阪市鶴見区安田１-８-１０,34.70542,135.58871
333,"",スマーク伊勢崎SC店,群馬県伊勢崎市西小保方町３６８ スマーク伊勢崎１F,36.33905,139.23311
334,"",イオンモール草津店,滋賀県草津市新浜町３００ イオンモール草津１F,34.99814,135.91302
335,"",尼崎名神店,兵庫県尼崎市名神町２-１８-１５,34.74338,135.41678
336,"",モラージュ菖蒲SC店,埼玉県久喜市菖蒲町菖蒲６００５-１ モラージュ菖蒲１F,36.07536,139.61091
337,"",プレ葉ウォーク浜北店,静岡県浜松市浜名区貴布祢１２００ プレ葉ウォーク浜北１F,34.7976728,137.7794985
338,"",ユニバーサル・シティウォーク大阪店,大阪府大阪市此花区島屋６-２-６１ ユニバーサル・シティウォーク大阪５F,34.6686537,135.4375962
339,"",箕面小野原店,大阪府箕面市小野原西６-１２-１６,34.83,135.5158
293,"",辰巳店,岡山県岡山市北区辰巳２-１０２,34.64122,133.89099
294,"",横須賀モアーズシティ店,神奈川県横須賀市若松町２-３０ モアーズシティ８F,35.27827,139.67041
295,"",なんばCITY店,大阪府大阪市中央区難波５-１-６０ なんばCITY本館Ｂ１F,34.66311,135.50179
296,"",大阪東住吉店,大阪府大阪市東住吉区住道矢田５-１-１０,34.60904,135.53962
297,"",京都伏見店,京都府京都市伏見区下鳥羽六反長町１０３,34.93542,135.75161
298,"",祇園新道店,広島県広島市安佐南区西原８-４０-４,34.44205,132.47409
299,"",Ario川口店,埼玉県川口市並木元町１-７９ Ario川口３F,35.80776,139.71393
