store_id,pref_id,shop_name,address,lat,lon
4038,"",プライムファイブ東急プラザ銀座店,東京都中央区 銀座五丁目2番1号 東急プラザ銀座B1階Ａ区画,35.672436526207,139.76240196884
4039,"",渋谷道玄坂店,東京都渋谷区 道玄坂2-23-12 フォンティスビル1F,35.660306638279,139.69599306884
4040,"",神楽坂店,東京都新宿区 箪笥町22番地,35.7001176,139.7334599
4041,"",渋谷スクランブルスクエア店,東京都渋谷区 渋谷2-24-12 渋谷スクランブルスクエア9階,35.658475,139.7021051
4042,"",六本木店,東京都港区 六本木5-1-3 ゴトウビルディング１st 1Ｆ,35.6627976,139.7328864
4043,"",目黒東口店,東京都品川区 上大崎2-13-30 oak meguro 1階,35.6344554,139.7183768
4045,"",＆TEA ルミネ有楽町店,東京都千代田区 有楽町2-5-1 ルミネ有楽町8F,35.673682,139.7629359
4046,"",＆TEA 六本木一丁目店,東京都港区 六本木1-6-1 泉ガーデンタワー1F,35.664837,139.7396353
4047,"",ルミネエスト新宿5F店,東京都新宿区 新宿3丁目38番1号 ルミネエスト新宿5F,35.6913237,139.7011442
4048,"",東急プラザ渋谷店,東京都渋谷区 道玄坂1丁目2-3 渋谷フクラス4階402区画,35.657846261255,139.70032212651
4049,"",渋谷ファイヤー通り店,東京都渋谷区 神南1-12-14,35.662831,139.7006561
4050,"",渋谷ソラスタ店,東京都渋谷区 道玄坂1-21-1 渋谷ソラスタ1階,35.6565919,139.6969052
4051,"",溝の口店,神奈川県川崎市高津区 溝口2-8-1,35.6002778,139.6110927
4052,"",上田駅店,長野県上田市 天神1丁目 ＪＲ東日本上田駅お城口,36.3969071,138.2491846
4053,"",イオンモール香椎浜店,福岡県福岡市東区 香椎浜3-12-1 イオンモール香椎浜店1F,33.6582035,130.4303721
4054,"",金沢入江店,石川県金沢市 入江2-188,36.56453,136.627678
4055,"",大名古屋ビルヂング店,愛知県名古屋市中村区 名駅三丁目28番12号 大名古屋ビルヂング5階,35.172179250751,136.8845390265
4056,"",平和島東京流通センター店,東京都大田区 平和島6-1-1 東京流通センター センタービル1F,35.5813815,139.74857
4057,"",ゆめタウン高松店,香川県高松市 三条町608-1 ゆめタウン高松2F,34.3172941,134.0410506
4058,"",代々木駅北口店,東京都渋谷区 代々木1-36-1 オダカビル1F,35.6839924,139.7013577
4059,"",ＴＮＣ放送会館店,福岡県福岡市早良区 百道浜2-3-2 TNC放送会館1F,33.5925982,130.3528311
4060,"",伊豆ゲートウェイ函南店,静岡県田方郡函南町 塚本887-1 道の駅伊豆ゲートウェイ函南,35.075884749047,138.9258753265
4061,"",神田橋本郷通り店,東京都千代田区 内神田1-2-8,35.6908115,139.7648026
4062,"",Emio練馬高野台店,東京都練馬区 高野台1-7-27 Ｅｍｉｏ練馬高野台 2Ｆ,35.7403247,139.6172868
4063,"",神田スクエア店,東京都千代田区 神田錦町2丁目2-1 神田スクエア1階,35.6931163,139.7633404
4064,"",イオン札幌麻生店,北海道札幌市北区 北39条西4-1-5 イオン札幌麻生店1F,43.1070253,141.3394446
4065,"",セレオ甲府店,山梨県甲府市 丸の内1-1-8 セレオ甲府１F,35.666916,138.568405
4066,"",武蔵小杉店,神奈川県川崎市中原区 小杉町3-472 東急武蔵小杉駅構内,35.5761752,139.6597425
4068,"",Emio Style BIGBOX高田馬場店,東京都新宿区 高田馬場1-35-3 BIGBOX高田馬場2階,35.7127131,139.7045044
4069,"",淡路町靖国通り店,東京都千代田区 神田淡路町1-1-1,35.6954552,139.7671442
4070,"",イオンモール筑紫野店,福岡県筑紫野市 立明寺434-1 イオンモール筑紫野 2F,33.4814933,130.5276368
4071,"",宮崎台店,神奈川県川崎市宮前区 宮崎2-10-12,35.5871009,139.5911989
4073,"",ヤマトヤシキ加古川店,兵庫県加古川市 加古川町篠原町21-8 ヤマトヤシキ百貨店加古川店 1Ｆ,34.7664614,134.8393467
4074,"",シティプラザ大阪店,大阪府大阪市中央区 本町橋2-31 シティプラザ大阪内,34.684195,135.5106419
4075,"",青葉台駅店,神奈川県横浜市青葉区 青葉台1-7-3,35.5428738,139.516736
4076,"",新丸子店,神奈川県川崎市中原区 新丸子町766番地,35.580663,139.662032
4077,"",イトーヨーカドー大船店,神奈川県鎌倉市 大船6-1-1 イトーヨーカドー大船1階,35.3539852,139.5383415
4078,"",西鉄福岡天神駅店,福岡県福岡市中央区 天神2丁目11-3 ソラリアステージM3F,33.5902013,130.3989964
4085,"",多治見駅前店,岐阜県多治見市 音羽町一丁目226番地 中之郷ビルディング1F,35.3364477,137.1206004
4092,"",アクロスプラザ三芳店,埼玉県入間郡 三芳町大字藤久保北新埜855番403,35.838916,139.524824
4109,"",九州大学病院店,福岡県福岡市東区 馬出3-1-1 九州大学病院内,33.6101336,130.415684
4123,"",福岡徳洲会病院店,福岡県春日市 須玖北4丁目5番地 福岡徳洲会病院1階,33.5441411,130.4472734
4135,"",函館駅店,北海道函館市 若松町12番地13号 函館本線函館駅舎内2F,41.7735159,140.7260503
4148,"",京王高幡SC店,東京都日野市 高幡116-10,35.6615696,139.4141786
4160,"",倉敷美観地区店,岡山県倉敷市 中央1丁目10番13号,34.594627145426,133.77140639765
4169,"",武蔵小山駅店,東京都品川区 小山3丁目4-8 駅ビル1F,35.6204281,139.7044488
4207,"",アクロスプラザ長岡美沢店,新潟県長岡市 沖田1丁目6番地,37.4443687,138.8652342
4216,"",エミフルＭＡＳＡＫＩ店,愛媛県伊予郡 松前町筒井850 エミフルMASAKI 1F,33.78965,132.716358
4237,"",アリオ加古川店,兵庫県加古川市 別府町緑町2 1F,34.7282721,134.8484197
4239,"",六本木3丁目ナナナリア店,東京都港区 六本木三丁目2番1号 住友不動産六本木グランドタワー1階,35.6645989,139.7381854
4243,"",府中駅南口店,東京都府中市 宮町一丁目100番地 ル・シーニュ1F,35.6715529,139.4797829
4253,"",サントムーン柿田川店,静岡県駿東郡 清水町玉川61-2 サンﾄムーン柿田川1F,35.110466,138.903513
4259,"",イオンモール浜松志都呂店,静岡県浜松市中央区志都呂２丁目３７−１,34.6968747,137.6514035
4262,"",ステアーズオブザシー 金ヶ浜店,宮崎県日向市 平岩2217-3,32.358862,131.6226213
4268,"",浦和仲町店,埼玉県さいたま市浦和区 仲町1丁目4番10,35.8596674,139.6544517
4273,"",ルミネ池袋店,東京都豊島区 西池袋1-11-1 ルミネ池袋1F,35.7287452,139.7091828
4275,"",ソニーシティ内店,東京都港区 港南1-7-1 ソニーシティ1F,35.6311111,139.7438574
4279,"",月島駅前店,東京都中央区 月島一丁目5番1号,35.6639803,139.7838269
4293,"",高松赤十字病院店,香川県高松市 番町4丁目1-3 高松赤十字病院 1F,34.3410844,134.043231
4300,"",新宿イーストサイドスクエア店,東京都新宿区 新宿6-27-30 新宿イーストサイドスクエアB1F,35.6973935,139.7084253
4313,"",ベイドリーム清水店,静岡県静岡市清水区 駒越北町8-1 ベイドリーム清水1F,34.9852521,138.4998988
4338,"",京急蒲田駅店,東京都大田区 蒲田4丁目50番11号 ウイングキッチン京急蒲田１Ｆ,35.5605342,139.7236707
4358,"",＆TEA 浦添西海岸パルコシティ店,沖縄県浦添市 西洲3丁目1-1 浦添西海岸パルコシティ2F,26.2635109,127.6997525
4372,"",OBPクリスタルタワー店,大阪府大阪市中央区 城見1-2-27 クリスタルタワー1F,34.6921134,135.5285323
4384,"",札幌HTB創世スクエア店,北海道札幌市中央区 北1条西１丁目6番地 さっぽろ創世スクエアHTB本社1階ロビー,43.0630002,141.3551561
4409,"",京王多摩センター駅店,東京都多摩市 落合1-10-1 駅ビル2F,35.6254879,139.4248651
4413,"",なんばEKIKAN店,大阪府大阪市浪速区 敷津東2-1-4,34.6576332,135.5022295
4420,"",秋葉原ＵＤＸ店,東京都千代田区 外神田4-14-1 秋葉原UDX1F,35.7008829,139.7725502
4422,"",静岡パルシェ B1F店,静岡県静岡市葵区 黒金町49番地 パルシェB1F 静岡パルシェ,34.972168,138.3887397
4462,"",千葉みなと店,千葉県千葉市中央区 中央港1-16-3,35.6046003,140.1033633
4474,"",草加VARIE2店,埼玉県草加市 氷川町1970 東武草加ヴァリエ VARIE2,35.8293583,139.8036771
4517,"",富士市中央公園店,静岡県富士市 蓼原町1822番地,35.1593061,138.6666307
4527,"",江古田店,東京都練馬区 旭丘1丁目78番3号,35.7372404,139.6735414
4569,"",松山銀天街店,愛媛県松山市 湊町4-8-8,33.8360524,132.7672592
4608,"",大垣市民病院店,岐阜県大垣市 南頬町4丁目86番地 大垣市民病院1階 大垣市民病院,35.3528736,136.622241
4652,"",イオンモール常滑BOOK & CAFE店,愛知県常滑市 りんくう町2丁目20 イオンモール常滑2F,34.883826,136.8259483
4690,"",横浜ポルタ店,神奈川県横浜市西区 高島2-16 横浜ポルタB1F,35.4660119,139.623671
4779,"",湘南モールＦＩＬＬ店,神奈川県藤沢市 辻堂新町4-1-1 湘南モールFILL1F,35.3386374,139.4640732
4785,"",イオンモールつがる市立図書館店,青森県つがる市 柏稲盛幾世41イオンモールつがる市立図書館棟1F,40.802347140017,140.41778932642
4794,"",ニューコースト新浦安店,千葉県浦安市 明海4-1-1 NEW COAST SHIN-URAYASU1階,35.642987,139.9234739
5398,"",岡山市民病院店,岡山県岡山市北区 北長瀬表町三丁目20番1号 岡山市民病院1階,34.6523332,133.8851123
5399,"",フタバ横川新館店,広島県広島市西区 横川町三丁目2番34号,34.409905275646,132.44965963249
5400,"",伊丹空港店,大阪府豊中市 蛍池西町三丁目５５５番地 北ターミナル４階,34.791332,135.4403952
5401,"",キテミテマツド店,千葉県松戸市 松戸1307-1 1階,35.7819382,139.8989083
5402,"",中部国際医療センター店,岐阜県美濃加茂市 健康のまち一丁目2番地,35.458157,137.016998
5403,"",アトレ秋葉原店,東京都千代田区 神田花岡町1-9 アトレ秋葉原2F,35.6982952,139.7748639
7917,"",佐久平店,長野県佐久市岩村田5502番地41,36.2717116,138.4607667
8336,"",ナイスガーデン秋田店,秋田県秋田市仁井田本町５丁目４−１,39.6753428,140.1260642
8337,"",阿蘇くまもと空港店,熊本県上益城郡益城町 大字小谷1802-2,32.833727933051,130.85637934421
8344,"",コミュシティ高円寺マシタ店,東京都杉並区 高円寺南3-70-1,35.70528432873,139.64898721166
8347,"",君津中央病院店,千葉県木更津市 桜井1010,35.359254,139.9227882
8348,"",学習院大学店,東京都豊島区 目白1-5-1 学習院大学目白キャンパス 東1号館,35.718609956062,139.71246052099
8354,"",ららぽーと門真店,大阪府門真市 松生町1番11号ららぽーと門真3階3640タリーズコーヒー,34.732369794059,135.58356128416
8392,"",CoCoLo長岡店,新潟県長岡市 城内町1丁目611-1 2F,37.446244584667,138.85326744611
8393,"",ルミネ大宮LUMINE1店,埼玉県さいたま市大宮区 錦町630番地 ルミネ大宮LUMINE1 6F,35.9055332,139.6241707
8394,"",下北沢店,東京都世田谷区北沢2丁目31番7号,35.662881301362,139.66789347793
8395,"",Dew阪急山田,大阪府吹田市 山田西4丁目1番2号 Dew阪急山田2F,34.804807390747,135.51539956811
8396,"",＆TEA あべのキューズモール店,大阪府大阪市阿倍野区 阿倍野筋一丁目6番1号 あべのキューズモール1階,34.645425270716,135.51222734324
8407,"",エトモ自由が丘店,東京都目黒区 自由が丘1-11-7,35.607884,139.668932
8409,"",神戸大学医学部附属病院店,兵庫県神戸市中央区 楠町7丁目5-2 福利厚生施設2階,34.684972739228,135.17080878475
8411,"",-SELECT- 阪急三宮店,兵庫県神戸市中央区 加納町4丁目2番1号 3F,34.693854557147,135.19351300347
8412,"",ミソラタウン掛川店,静岡県掛川市 高御所３０５番２,34.764918143181,137.98249541229
8427,"",エスパル郡山店,福島県郡山市 字燧田195 エスパル郡山2F,37.3990838,140.3887019
8626,"",品川インターシティ店,東京都港区 港南2丁目15番2号 品川インターシティA棟2F 201,35.6276551,139.7421714
8627,"",阪急石橋店,大阪府池田市 石橋2-18-1 阪急石橋阪大前駅梅田行きホーム,34.8078131,135.4458073
8628,"",がん研有明病院店,東京都江東区 有明3-8-31 がん研有明病院内,35.6343666,139.7954544
8435,"",君津駅前店,千葉県君津市 東坂田2-3-1,35.335924502462,139.89490607722
8640,"",神奈川県立こども医療センター店,神奈川県横浜市南区 六ツ川2-138-4 神奈川県立こども医療センター内1F,35.4217348,139.5796959
8635,"",横越バイパス店,新潟県新潟市江南区 横越上町5-1-6 蔦屋書店横越バイパス店内,37.8495919,139.1440387
8647,"",キッズコミュ グランツリー武蔵小杉店,神奈川県川崎市中原区 新丸子東3丁目1135番地-1 グランツリー武蔵小杉4F,35.5739745,139.6597835
8637,"",梶ヶ谷店,神奈川県川崎市高津区 末長1-49-1 田園ステーションテラス,35.5943574,139.6049048
8586,"",＆TEA 御殿場プレミアム・アウトレットヒルサイド店,静岡県御殿場市 深沢1312 2階 4350区,35.3064232,138.967126
8625,"",日比谷シャンテ店,東京都千代田区 有楽町1丁目2-2 日比谷シャンテ B1F,35.6733098,139.7601257
8624,"",阪急大阪梅田駅３F店,大阪府大阪市北区 芝田1-1-2 阪急大阪梅田駅3階改札内,34.7053715,135.4983393
8632,"",戸田中央総合病院店,埼玉県戸田市 本町1-19-3 戸田中央総合病院 Ａ館1F,35.8107424,139.68051
8655,"",赤坂ガーデンシティ店,東京都港区 赤坂4-15-1 赤坂ガーデンシティ1F,35.674321,139.7314765
8682,"",＆TEA センター南店,神奈川県横浜市都筑区 茅ヶ崎中央1-1,35.5453825,139.5747645
8651,"",ハンズマン吉尾店,宮崎県都城市 吉尾町772,31.7546882,131.0798206
8646,"",御殿場プレミアム・アウトレットウエスト店,静岡県御殿場市 深沢1312 K11区,35.307186,138.9677558
8661,"",函館五稜郭病院店,北海道函館市 五稜郭町38番3号 函館五稜郭病院1F,41.7924608,140.7555224
8638,"",防衛医大病院店,埼玉県所沢市 並木3-2 防衛医科大学校病院 玄関棟1F,35.8014124,139.4660231
8652,"",東京ダイヤビルディング店,東京都中央区 新川1-28-38 東京ダイヤビルディング1号館1F,35.6751687,139.7839321
8660,"",三井住友海上駿河台ビル店,東京都千代田区 神田駿河台3丁目9番地 三井住友海上駿河台ビルB2F,35.6964462,139.7648485
8629,"",赤坂店,東京都港区 赤坂3-13-10,35.6729861,139.7372642
8654,"",虎ノ門桜田通り店,東京都港区 虎ノ門1-16-17 虎ノ門センタービル1F,35.6686656,139.7485831
8688,"",昭和大学江東豊洲病院店,東京都江東区 豊洲5丁目1番 昭和大学江東豊洲病院内1F,35.650431,139.7958936
8659,"",大塚店,東京都豊島区 南大塚3-53-11 今井三菱ビル1F,35.7304044,139.7289238
8670,"",麹町店,東京都千代田区 麹町3-3 麹町センタープレイス1F,35.6836489,139.7382516
8639,"",ＮＢＦ豊洲店,東京都江東区 豊洲5-6-52 NBF豊洲キャナルフロント1F,35.6508706,139.7995237
8711,"",嵐電嵐山駅店,京都府京都市右京区 嵯峨天龍寺造路町20-2,35.0150658,135.6779959
8656,"",虎ノ門グローバルスクエア店,東京都港区 虎ノ門一丁目3番1号 虎ノ門グローバルスクエア 1階,35.6699773,139.7498989
8664,"",フタバ図書GIGAフレスタモール岩国店,山口県岩国市 室の木町1丁目2番38号 フレスタモール カジル岩国内,34.1702567,132.2145043
8665,"",市立釧路総合病院店,北海道釧路市 春湖台1番12号 市立釧路総合病院1F,42.9773632,144.4034024
8662,"",岐阜大学病院店,岐阜県岐阜市 柳戸1番1 岐阜大学病院内1F,35.4678292,136.7331983
8641,"",新宿コクーンタワー店,東京都新宿区 西新宿1-7-3 コクーンタワー1F,35.691711,139.6972524
8663,"",セブンパーク天美店,大阪府天美東3丁目500番地セブンパーク天美2F,34.5914604,135.5432193
8631,"",錦糸町アルカウエスト店,東京都墨田区 錦糸1-2-4 アルカウエスト2F,35.6974444,139.809523
8693,"",セレスティン芝三井ビルディング店,東京都港区 芝3-23-1 セレスティン芝三井ビルディング1F,35.6506947,139.7487968
8675,"",四条大宮店,京都府京都市下京区 四条通大宮東入立中町495 大宮MOMOビル1F,35.003797,135.7500579
8668,"",レム鹿児島店,鹿児島県鹿児島市 東千石町1-32 レム鹿児島1F,31.5900431,130.5532999
8685,"",フジグラン北島店,徳島県板野郡 北島町鯛浜西ノ須174 フジグラン北島2F,34.1121136,134.5472993
8650,"",大丸梅田店,大阪府大阪市北区梅田３丁目１−１ 大丸梅田 5階,34.701757,135.496303
8666,"",コムシティ黒崎店,福岡県北九州市八幡西区 黒崎3-15-3 COMCITY3F,33.8663606,130.765069
8658,"",京急川崎駅店,神奈川県川崎市川崎区 砂子1-3-1,35.5325241,139.7003756
8680,"",小田急マルシェ町田店,東京都町田市 原町田6-1-1 小田急マルシェ町田2F,35.5429321,139.4444529
8713,"",成瀬駅前店,東京都町田市 南成瀬1-1-1 りそな銀行成瀬支店内,35.5354555,139.4733379
8657,"",ラゾーナ川崎店,神奈川県川崎市幸区 堀川町72番地1 ＬＡＺＯＮＡ川崎ｐｌａｚａ1F,35.5306259,139.6975096
8704,"",豊田上郷SA上り店,愛知県豊田市 永覚町上長根4-1 豊田上郷ＳＡ（上り線）内,35.033288,137.13564
8673,"",ウニクス鴻巣店,埼玉県鴻巣市 北新宿225-1 ウニクス鴻巣2F,36.1124594,139.4397378
8728,"",浦和パルコ店,埼玉県さいたま市浦和区 東高砂町11-1 浦和パルコB1F,35.8588195,139.6586755
8722,"",横浜ランドマークタワー店,神奈川県横浜市西区 みなとみらい2-2-1 横浜ランドマークタワー3F,35.454881,139.631542
8687,"",メイワンエキマチ店,静岡県浜松市中央区 砂山町6-1 メイワンエキマチイースト,34.7038123,137.7351378
8644,"",竹橋店,東京都千代田区 神田錦町3-19 ヒロセ第2ビル1F,35.6915126,139.7606251
8701,"",軽井沢・プリンスショッピングプラザ店,長野県北佐久郡軽井沢町 軽井沢 軽井沢・プリンスショッピングプラザ内,36.3398712,138.6326182
8712,"",イオン都城店,宮崎県都城市 早鈴町1990 イオン都城ショッピングセンター1F,31.7145848,131.0759306
8667,"",天神新天町店,福岡県福岡市中央区 天神2丁目7-241 新天町内,33.5900858,130.3970755
8633,"",TSUTAYA WAY橋本店,和歌山県橋本市 妻2-2-25 スーパーセンターオークワ橋本店内1F,34.320087,135.6235288
8683,"",花川戸隅田公園店,東京都台東区 花川戸1-1-31 隅田公園内,35.7134195,139.8012622
8678,"",ペリエ千葉ストリート2店,千葉県千葉市中央区 新千葉1-1-1,35.6132619,140.1148384
8677,"",あみプレミアム・アウトレット店,茨城県稲敷郡 阿見町よしわら四丁目1番地1 100区画,35.9827815,140.2357355
8689,"",ニューポートひたちなか店,茨城県ひたちなか市 新光町35 ニューポートひたちなかファッションクルーズ1F,36.4053211,140.5858957
8731,"",住友不動産虎ノ門タワー店,東京都港区 虎ﾉ門2-2-1 住友不動産虎ノ門タワー１Ｆ,35.6692504,139.745643
8676,"",西鉄久留米店,福岡県久留米市 東町315-2 西鉄久留米駅ビル2F,33.3123256,130.5210538
8672,"",大手町プレイス 3階店,東京都千代田区 大手町二丁目3番1号 大手町プレイス3階,35.686936,139.7671647
8700,"",JRE梅田スクエアビルディング店,大阪府大阪市北区 梅田1-12-17 梅田スクエアビル1F,34.7004741,135.49797
8703,"",フォレオ菖蒲店,埼玉県久喜市菖蒲町菖蒲寺田６００６−１ 蔦屋書店フォレオ菖蒲店内,36.0708462,139.6176358
8735,"",PCP丸の内店,東京都丸の内1-11-1 グランアージュ内パシフィックセンチュリープレイス丸の内B1F,35.6780898,139.7668727
8754,"",新川崎ツインタワー店,神奈川県川崎市幸区 鹿島田1-1-2 新川崎ツインタワーWEST棟1F,35.5498298,139.6733549
8697,"",セレクト Ｕ＿ＰＬＡＣＥ川越駅西口店,埼玉県川越市脇田本町８−１ U＿PLACE川越 2F,35.9058643,139.4812238
8630,"",横浜ワールドポーターズ店,神奈川県横浜市中区 新港2-2-1 ワールドポーターズ2F,35.4539718,139.6383813
8669,"",サンストリート浜北店,静岡県浜松市浜名区 平口2861 サンストリート浜北1F,34.7958459,137.7615838
8691,"",NEWoMan横浜店,神奈川県横浜市西区 南幸1-1-1 ニュウマン横浜2階,35.4671438,139.6230148
8699,"",＆TEA 横浜元町店,神奈川県横浜市中区 元町5-201,35.4392443,139.64608
8739,"",東急百貨店たまプラーザ店,神奈川県横浜市青葉区 美しが丘1-7 東急百貨店たまプラーザ店 B1F,35.5785444,139.5582927
8729,"",友愛医療センター店,沖縄県豊見城市与根西原50−番地 友愛医療センタ 1F,26.1703771,127.6543049
8513,"",都庁店,東京都新宿区 西新宿2-8-1 東京都庁第二本庁舎2F,35.6878808,139.6921011
8753,"",＆TEA さんすて岡山店,岡山県岡山市北区 駅元町1番1号 さんすて岡山北館1階,34.6664992,133.9188764
8770,"",中央林間東急スクエア店,神奈川県大和市 中央林間4-12-1 中央林間東急スクエア1Ｆ,35.5076579,139.4456819
8755,"",釧路店,北海道釧路市 末広町3-1-1 パステルパーク1F,42.9832738,144.3861417
8684,"",アミュプラザ長崎店,長崎県長崎市 尾上町1-1アミュプラザ長崎1F,32.7518088,129.8708253
8648,"",エールエール広島駅前店,広島県広島市南区 松原町9-1 エールエールＡ館 B2F,34.3961587,132.4740384
8674,"",福井大学病院店,福井県吉田郡永平寺町 松岡下合月23-3 福井大学医学部附属病院 1F,36.1086924,136.2942649
8694,"",京都大学病院店,京都府京都市左京区 聖護院川原町54 京都大学医学部附属病院1F,35.0194479,135.7772775
8732,"",作新学院前店,栃木県宇都宮市 西一の沢町2-1,36.5689141,139.8617212
8460,"",＆TEA KITTE丸の内店,東京都千代田区 丸の内2丁目7番2号 ＪＰタワー（ＫＩＴＴＥ館）1F,35.6794589,139.7652296
8740,"",ネクスト船橋店,千葉県船橋市 本町1-5-1 ネクスト船橋1階,35.7002501,139.9860088
8748,"",イオンモール岡山店,岡山県岡山市北区 下石井1丁目2番1号 イオンモール岡山6F,34.6619989,133.9182613
8681,"",イオンモール出雲店,島根県出雲市 渡橋町1066 イオンモール出雲1F,35.3681383,132.7387806
8730,"",川崎ルフロン店,神奈川県川崎市 川崎区日進町1-11 川崎ルフロン6F,35.5293469,139.6967744
8686,"",札幌ステラプレイス店,北海道札幌市中央区北５条西２丁目５ 札幌ステラプレイス イースト6F,43.0678859,141.3518986
8551,"",ウニクス野田店,千葉県野田市 つつみ野1丁目1番2 ウニクス野田1F,35.9451101,139.8500387
8714,"",沼津駅南口イーラｄｅ店,静岡県沼津市 大手町1-1-6 イーラde1F,35.101987,138.8583413
8751,"",高田西店,新潟県上越市 大貫4丁目4番22号,37.1133211,138.2337265
8706,"",長岡新保店,新潟県長岡市 新保6丁目222番地 蔦屋書店 長岡新保店内,37.4690307,138.8687258
8776,"",アトレ目黒店,東京都品川区 上大崎3-1-1 アトレ目黒2F,35.6334127,139.7158275
8642,"",三井アウトレットパーク滋賀竜王店,滋賀県蒲生郡竜王町薬師字砂山１１７８−６９４,35.0594913,136.1004478
8710,"",MIDORI長野店,長野県長野市 南千歳1-22-6 MIDORI長野2F,36.6439386,138.1889383
8774,"",昭和大学横浜市北部病院店,神奈川県横浜市都筑区 茅ケ崎中央35-1 1F,35.5466358,139.5697063
8734,"",さいか屋藤沢店,神奈川県藤沢市 藤沢555 さいか屋藤沢2Ｆ,35.3397543,139.4873192
8653,"",日本赤十字社名古屋第一病院店,愛知県名古屋市中村区 道下町3-35 日本赤十字愛知医療センター 2階,35.1717596,136.86253
8705,"",フタバ図書アルティ福山店,広島県福山市 明神町1丁目14番20号,34.489423,133.3956421
8771,"",昭和大学藤が丘病院店,神奈川県横浜市青葉区 藤が丘1-30 昭和大学藤が丘病院1F,35.5446959,139.5294225
8784,"",＆TEA グランフロント大阪南館店,大阪府大阪市北区 大深町4番20号 グランフロント大阪 南館B1,34.7040701,135.4947252
8757,"",イオンスタイル東淀川店,大阪府大阪市東淀川区 豊新2丁目12-3,34.74202253649,135.52704797231
8715,"",旭川赤十字病院店,北海道旭川市 曙1条1-1-1 旭川赤十字病院内,43.7694764,142.3484557
8747,"",水戸赤十字病院店,茨城県水戸市 三の丸3-12-48 水戸赤十字病院 1F,36.3711522,140.4873487
8708,"",高崎モントレー店,群馬県高崎市 八島町222番地 高崎モントレー4F,36.3223145,139.0120262
8773,"",with U ルミネ池袋店,東京都豊島区 西池袋1-11-1 ルミネ池袋6F,35.7292386,139.7096398
8721,"",TSUTAYA弘前店,青森県弘前市 大字高田2-1-1,40.6005841,140.5013371
8725,"",千葉西総合病院店,千葉県松戸市金ケ作佐野１０７−１ 千葉西総合病院,35.8040081,139.9450762
8733,"",八重瀬シティ店,沖縄県島尻郡八重瀬町 屋宜原99番１ サンエー八重瀬シティ内,26.1608618,127.7301116
8519,"",羽田空港第3ターミナル店,東京都大田区 羽田空港2-6-5 羽田空港第3旅客ターミナルビル2F,35.5443157,139.7688131
8616,"",長野川中島店,長野県長野市 稲里町中央2-12-1 蔦屋書店長野川中島店内1F,36.6020791,138.171728
8696,"",ルミネ立川店,東京都立川市 曙町2-1-1 ルミネ立川7Ｆ,35.6984975,139.4137106
8782,"",羽田空港第2ターミナル出発ゲート店,東京都大田区 羽田空港3-4-2 羽田空港第2旅客ターミナル 2階保安エリア内,35.5532751,139.78727
8761,"",OKB田県店,愛知県小牧市久保一色字佃９９１−８,35.3185051,136.9432806
8760,"",シャポーロコ平井店,東京都江戸川区 平井3-30-1 シャポーロコ平井 1F、2Ｆ,35.7063841,139.8425493
8612,"",新宿第一生命ビルディング,東京都新宿区 西新宿2-7-1 新宿第一生命ビルディング2F,35.6917478,139.6912373
8777,"",ウニクス浦和美園店,埼玉県さいたま市岩槻区美園東２丁目１７番地１３ ウニクス浦和美園 ２F,35.902387,139.7306752
8719,"",東京日本橋タワー7階店,東京都中央区日本橋二丁目7番1号 東京日本橋タワー7階,35.6818794,139.7742575
8716,"",龍ヶ崎店,茨城県龍ヶ崎市 中里2-1-2,35.9298111,140.2031662
8698,"",小田急マルシェ新百合ヶ丘店,神奈川県川崎市麻生区 万福寺1-18-1 小田急マルシェ新百合ヶ丘2F,35.6040401,139.5076269
8645,"",ASTY静岡店,静岡県静岡市葵区 黒金町47番地 アスティ静岡西館内,34.9712597,138.3875778
8709,"",ワイプラザ新保店,福井県福井市 新保北1-303 2F,36.0860942,136.2490627
8636,"",エビススバルビル店,東京都渋谷区 恵比寿1-20-8 エビススバルビル1F,35.6469628,139.7134352
8695,"",西梅田店,大阪府大阪市北区梅田３丁目 大阪駅前地下街 7号,34.7006791,135.4960557
8736,"",昭島モリタウン店,東京都昭島市田中町５６２−１ モリタウン 本館 １階,35.7138504,139.3624241
8726,"",湘南藤沢オーパ店,神奈川県藤沢市 南藤沢22-3 藤沢オーパ3F,35.3377332,139.486991
8727,"",東武宇都宮店,栃木県宇都宮市 宮園町5-4 東武宇都宮百貨店5階,36.5599011,139.8803835
8779,"",トレアージュ白旗店,神奈川県藤沢市藤沢２丁目３−１５トレアージュ白旗1F,35.3495682,139.47899
8746,"",豊田GAZA店,愛知県豊田市 喜多町1-140 GAZAビル2F,35.0875661,137.1573455
8759,"",上野御徒町店,東京都台東区 上野5-25-11,35.7076278,139.7756038
8802,"",大館店,秋田県大館市 清水5丁目2-41,40.2836319,140.5468314
8781,"",神保町三井ビルディング店,東京都千代田区 神田神保町1-105 神保町三井ビルディング1F,35.6941976,139.7607936
8791,"",グランエミオ大泉学園店,東京都練馬区 東大泉一丁目28-1 グランエミオ大泉学園2F,35.7495199,139.5873326
8634,"",新宿スクエアタワー店,東京都新宿区 西新宿6-22-1 新宿スクエアタワー1F,35.6941731,139.6875807
8798,"",新宿若松河田店,"東京都新宿区 若松町28-6 アイランドピア新宿 1,2F",35.6994328,139.7184945
8768,"",SUNSHINE SAKAE店,愛知県名古屋市中区 錦3-24-4 SUNSHINE SAKAE1F,35.1695786,136.9063616
8763,"",ららぽーと横浜店,神奈川県横浜市都筑区 池辺町4035-1 ららぽーと横浜1F,35.5168508,139.5663589
8690,"",築地一丁目店,東京都中央区 築地1-9-2 伊勢常ビル1F,35.6693512,139.77183
8649,"",住友不動産麻布十番ビル店,東京都港区 三田一丁目4番1 住友不動産麻布十番ビル1F,35.6539815,139.7417338
8783,"",イオンモール大牟田店,福岡県大牟田市 岬町3-4 イオンモール大牟田店1F,33.0305411,130.4266437
8743,"",いわき市医療センター店,福島県いわき市 内郷御厩町久世原16番地 いわき市医療センター1階,37.0423552,140.8690639
8749,"",セレオ甲府ANNEX店,山梨県甲府市 丸の内1丁目1-8 セレオ甲府4F,35.6669514,138.5690419
8742,"",コースカベイサイドストアーズBOOK ＆ CAFE店,神奈川県横須賀市 本町2-1-12 コースカベイサイドストアーズ4F,35.2832688,139.6627548
8718,"",青森空港店,青森県青森市 大字大谷字小谷1番5号 2階ロビー,40.7382326,140.6887538
8765,"",大川高木病院店,福岡県大川市 酒見141-11 高木病院内,33.2064784,130.3800878
8778,"",＆TEA 水戸エクセル店,茨城県水戸市 宮町1-1-1 水戸エクセル3F,36.371043,140.4759393
8737,"",広島シャレオ店,広島県広島市中区紙屋町２丁目 地下街527号,34.3952866,132.4571281
8750,"",武蔵浦和駅前店,埼玉県さいたま市南区 別所7丁目21番1号 プラウドタワー武蔵浦和マークス1F,35.845766,139.6454242
8786,"",イーサイト籠原店,埼玉県熊谷市 新堀713 イーサイト籠原2F,36.1748867,139.3300782
8780,"",イオンモール神戸南店,兵庫県神戸市兵庫区 中之島2丁目1番1号 イオンモール神戸南1F,34.6656507,135.174527
8738,"",with U 西宮阪急店,兵庫県西宮市 高松町14-1 西宮阪急4階,34.7434703,135.3586962
8812,"",国立店,東京都国立市 中1-10-1,35.6981309,139.4454763
8789,"",慶應日吉店,神奈川県横浜市港北区 日吉4-1-1 協生館1F,35.5524851,139.6474474
8788,"",広島緑井店,広島県広島市安佐南区 緑井1-5-2 フジグラン緑井1F,34.466654,132.4760621
8717,"",神谷町プライムプレイス店,東京都港区 虎ﾉ門4-1-17,35.6650313,139.7438947
8793,"",浜松町駅北口店,東京都港区 浜松町1-30 浜松町スクエア1F,35.6567964,139.7564987
8767,"",福井ベル店,福井県福井市 花堂南2-16-1 アルプラザベル1F,36.0337433,136.2127013
8775,"",福岡空港出発ゲート店,福岡県福岡市博多区 大字下臼井778番地の1 福岡空港 国内線旅客ターミナルビル2階,33.5961438,130.4488426
8792,"",早稲田大学研究開発センター店,東京都新宿区 早稲田鶴巻町５１３,35.7071961,139.7211733
8794,"",ららぽーと柏の葉北館店,千葉県柏市 若柴178-4 柏の葉キャンパス148街区2 ショップ＆オフィスららぽーと柏の葉北館1階,35.8947067,139.9520935
8809,"",静岡紺屋町店,"静岡県静岡市葵区 紺屋町3-14 1F,2F",34.9733429,138.3852676
8799,"",春日部駅西口店,埼玉県春日部市 粕壁1-10-1,35.9798842,139.751938
8787,"",フォンテAKITA店,秋田県秋田市 中通2-8-1 ＳＣ内2F,39.7162487,140.1275843
8707,"",御殿場プレミアム・アウトレットイースト店,静岡県御殿場市 深沢1312 御殿場プレミアム・アウトレット2395区 ※宅急便発送の際はＳゾーンと記載,35.3071769,138.9677525
8744,"",広島段原店,広島県広島市南区 段原南1丁目3-52,34.3856248,132.4754953
8813,"",山口葵店,山口県山口市 葵町1-4-70,34.1608438,131.4497447
8790,"",サンリブきふね店,福岡県北九州市小倉北区貴船町１−１４,33.8714381,130.8707065
8434,"",浦和さくら草通り店,埼玉県さいたま市浦和区 高砂2丁目5番11,35.8578795,139.6538864
8806,"",銀座三越コミュ店,東京都中央区 銀座4-6-16銀座三越ル・プレイス内3F,35.671355,139.765801
8756,"",東北大学病院店,宮城県仙台市青葉区 星陵町1-1 東北大学病院内,38.2719147,140.8608594
8795,"",くわなメディアライヴ店,三重県桑名市 中央町3-79 くわなメディアライヴ1F,35.0628394,136.6870394
8810,"",＆TEA 広島本通店,広島県広島市中区 本通5番5号,34.3933167,132.458644
8807,"",ゆめタウンはません店,熊本県熊本市南区 田井島1－2－1 ゆめタウンはません3F,32.771533,130.7266127
8762,"",エアポートウォーク名古屋店,愛知県西春日井郡豊山町 豊場林先1番8 エアポートウォーク名古屋1F,35.2462398,136.9244591
8797,"",イオンモール福津店,福岡県福津市 日蒔野6丁目16-1 イオンモール福津2F,33.7526793,130.4935065
8804,"",ウニクス高崎店,群馬県高崎市 飯塚町1150-5 ウニクス高崎 2F,36.340116,139.0072172
8741,"",東武動物公園駅店,埼玉県南埼玉郡 宮代町百間2-3-24 東武動物公園駅構内,36.025049,139.7267202
8724,"",兵庫医科大学病院店,兵庫県西宮市 武庫川町1番1号 兵庫医科大学病院1号館附属棟3F,34.7186523,135.3791108
8785,"",福岡空港店,福岡県福岡市博多区 下臼井767-1 福岡空港 3F,33.5973642,130.4473991
8814,"",青山一丁目店,東京都港区 南青山一丁目2番6号,35.672179,139.7254154
8772,"",ウィズイトーヤ 京急横浜駅店,神奈川県横浜市西区 高島2丁目16番1号 京浜急行 京急横浜駅下り線ホーム,35.4659852,139.6232715
8796,"",RAYARD Hisaya-odori Park店,愛知県名古屋市中区 丸の内三丁目18番11号先,35.1754246,136.9078767
8803,"",アトレ大森店,東京都大田区 大森北1-6-16 アトレ大森1F,35.5885954,139.728569
8805,"",エキュート立川店,東京都立川市 柴崎町3-1-1 エキュート立川3F,35.6973197,139.4131408
8811,"",上野の森さくらテラス店,東京都台東区 上野公園1-54 上野の森さくらテラス1F,35.7121694,139.774655
8745,"",高知桟橋通り店,高知県高知市 桟橋通2丁目12-8,33.5497525,133.5462366
8800,"",三田国際ビル店,東京都港区 三田1-4-28 三田国際ビルB1F,35.6525822,139.7444302
8801,"",霞が関中央合同庁舎第5号館店,東京都千代田区霞が関１丁目２−２ 中央合同庁舎第5号館 1階,35.6732003,139.7529902
8766,"",宇都宮駅ビルパセオ店,栃木県宇都宮市 川向町1-23 宇都宮駅ビルパセオ2F,36.5596275,139.8985324
8816,"",大丸東京店,東京都千代田区丸の内１丁目９−１ 大丸東京店４F,35.6812237,139.76858
8817,"",TSUTAYA西明石店,兵庫県明石市藤江中谷928 TSUTAYA 西明石,34.6722372,134.9532924
8815,"",-SELECT- ニュウマン新宿店,東京都渋谷区 千駄ヶ谷 5-24-55 ニュウマン新宿 2F エキナカ,35.6887114,139.7018502
8822,"",大手町プレイス 2階店,東京都千代田区 大手町二丁目3番1号 大手町プレイス2階,35.6873879,139.767443
8819,"",with U みのおキューズモール店,大阪府箕面市 西宿1丁目17－22 みのおキューズモール,34.832841,135.4906749
8818,"",大阪赤十字病院店,大阪府大阪市天王寺区 筆ヶ崎町5-30 本館2階,34.6648894,135.5254898
8821,"",土岐プレミアム・アウトレットサテライト店,岐阜県土岐市 土岐ヶ丘1丁目2番地,35.3421256,137.1661217
8823,"",丸の内テラス店,東京都千代田区 丸の内1丁目3番4号 丸の内テラス地下1階,35.6844089,139.764093
8820,"",イオンスタイル豊田店,愛知県豊田市 広路町1丁目1 イオンスタイル豊田1F,35.0782742,137.1592188
8824,"",三井アウトレットパーク幕張店,千葉県千葉市美浜区 ひび野2-6-1 三井アウトレットパーク幕張パークサイド1F,35.6464419,140.041707
8826,"",りんくうプレミアム・アウトレット店,大阪府泉佐野市 りんくう往来南3-28,34.4080103,135.295387
8825,"",古淵店,神奈川県相模原市南区 古淵3-13-33 イトーヨーカドー古淵店1F,35.5523841,139.4184078
8828,"",古賀ＳＡ下り店,福岡県古賀市 薦野1100番地,33.7385438,130.5202714
8525,"",＆TEA 博多駅マイング店,福岡県福岡市博多区 博多駅中央街1-1,33.5911414,130.4202301
8829,"",ウィングキッチン金沢八景店,神奈川県横浜市金沢区 瀬戸15－1,35.3311601,139.6203766
8838,"",宇治徳洲会病院店,京都府宇治市槙島町 石橋145,34.9033778,135.7867808
8841,"",南柏店,千葉県柏市 南柏中央6-7 フィールズ南柏 MALL･1,35.8448373,139.9549803
8836,"",西宝店,"香川県高松市 西宝町2丁目7-47 TSUTAYA西宝店内1F,2F",34.3414182,134.029354
8840,"",イオンモールナゴヤドーム前店,愛知県名古屋市東区 矢田南4-102-3 イオンモールナゴヤドーム前2F,35.1876306,136.9459274
8849,"",ウニクス南古谷店,埼玉県川越市 泉町1-1 ウニクス南古谷店 2F,35.9032933,139.5165069
8827,"",東京警察病院店,東京都中野区 中野4丁目22-1 2階,35.7091215,139.6593603
8843,"",札幌ＳＴＶ北２条店,北海道札幌市中央区 北2条西2-15 STV北2条ビル1F,43.0637171,141.3543774
8830,"",経堂コルティ店,東京都世田谷区 経堂2-1-33 経堂コルティ2F,35.6514782,139.6360311
8834,"",ららぽーと海老名店,神奈川県海老名市 扇町13番1号 1階 10400,35.4550072,139.3892006
8845,"",金町駅南口店,東京都葛飾区 金町6-2-1,35.768304,139.8717775
8832,"",熊本大学病院店,熊本県熊本市中央区 本荘1-1-1 熊本大学病院1階,32.7959788,130.7114297
8839,"",府立総合医療センター店,大阪府大阪市住吉区 万代東3-1-56 府立総合医療センター内,34.6164717,135.5055217
8858,"",獨協医科大学病院店,栃木県下都賀郡 壬生町大字北小林880 獨協医科大学病院アメニティ棟内,36.4719422,139.8244644
8842,"",京成日暮里駅店,東京都荒川区 西日暮里2-19-1 京成日暮里駅構内2階,35.7279618,139.7714751
8859,"",はり姫店,兵庫県姫路市神屋町３−２６４,34.8264454,134.7018443
8833,"",亀田メディカルセンター店,千葉県鴨川市 東町929 K-TOWER 1F,35.1204907,140.1265125
8615,"",新潟駅南LEXN店,新潟県新潟市中央区 天神1-12-7,37.9101861,139.0607277
8835,"",徳島大学病院店,徳島県徳島市 蔵本町2-50-1 徳島大学病院内,34.0757806,134.5186213
8844,"",イオンモール沖縄ライカム店,沖縄県中頭郡北中城村 字ライカム1番地1階 未来屋書店内,26.3150009,127.7978239
8848,"",東福原店,鳥取県米子市 東福原6丁目12-40,35.4461625,133.3491939
8853,"",東急プラザ蒲田店,東京都大田区西蒲田７丁目６９−１ 東急プラザ蒲田 3F,35.5616833,139.7152179
8851,"",エディオン広島本店西館店,広島県広島市中区 紙屋町2－1－18 エディオン広島本店 西館1F,34.3951716,132.456201
8870,"",ライフガーデン茂原店,千葉県茂原市六ツ野八貫野２７８５−１,35.4308913,140.3101948
8878,"",飯田橋ガーデンエアタワー店,東京都千代田区 飯田橋3-10-10 飯田橋ガーデンエアタワー1F,35.7004643,139.7505314
8855,"",with U 小田急百貨店町田店,東京都町田市 原町田6丁目12番20号 小田急百貨店町田店6階,35.5438039,139.4451446
8863,"",順天堂大学練馬病院店,東京都練馬区 高野台3丁目1番10号 順天堂大学医学部附属練馬病院内1F,35.742043,139.6153136
8872,"",札幌日本生命ビル店,北海道札幌市中央区 北3条西4-1-1,43.064862,141.3499005
8884,"",ラスカ茅ヶ崎店,神奈川県茅ヶ崎市 元町1番1号 ラスカ茅ヶ崎5階,35.3305647,139.4062218
8850,"",コトニアガーデン新川崎店,神奈川県川崎市幸区 北加瀬2丁目-11-1,35.5522888,139.6631932
8856,"",四ツ谷東口店,東京都千代田区 麹町5-3 第7秋山ビルディング1F,35.6845734,139.7333827
8852,"",tekuteながまち店,宮城県仙台市太白区 長町5丁目1-30 tekuteながまち,38.2273441,140.8856628
8894,"",矢板店,栃木県矢板市 末広町20-1 うさぎやTSUTAYA矢板店1F,36.805363,139.9347496
8861,"",セブンパーク アリオ柏店,千葉県柏市 大島田1丁目6-1 セブンパーク アリオ柏2F,35.8331778,140.0129227
8867,"",本庄早稲田店,埼玉県本庄市 早稲田の杜2丁目1番46号 蔦屋書店本庄早稲田店内1F,36.219429,139.185
8857,"",鉄鋼ビル店,東京都千代田区 丸の内1丁目8番2号鉄鋼ビルB1F-1F,35.6828559,139.7700834
8871,"",東陽町イースト２１店,東京都江東区 東陽町6-3-2 イースト21モール1F,35.6747337,139.8153954
8868,"",Otemachi One店,東京都千代田区 大手町1丁目2番1号 B1F,35.6876906,139.7624839
8895,"",イオンスタイル板橋前野町店,東京都板橋区 前野町4丁目21番22号 イオンスタイル板橋前野町店1F,35.7710808,139.6921891
8862,"",馬車道駅店,神奈川県横浜市中区 本町5丁目49番地 馬車道駅改札前,35.4501841,139.6362779
8846,"",JCHO大阪病院店,大阪府大阪市福島区 福島4-2-78,34.6917302,135.4832296
8876,"",築地聖ルカ通り店,東京都中央区 築地3丁目6-2,35.6677643,139.7740639
8574,"",JRWD堂島タワー店,大阪府大阪市北区 堂島2-4-27,34.6960341,135.4929447
8864,"",フタバ図書MEGA中筋店,広島県広島市安佐南区 中筋4-11-7,34.4554036,132.4788967
8847,"",横浜ジョイナス店,神奈川県横浜市西区 南幸一丁目5番1号 相鉄ジョイナス3Ｆ,35.465496,139.6212565
8881,"",＆TEA イオンタウン仙台泉大沢店,宮城県仙台市泉区 大沢1-5-1 イオンタウン仙台泉大沢店内 2F,38.35007825677,140.88126179651
8877,"",アリオ上尾店,埼玉県上尾市 壱丁目北29番地14 アリオ上尾1F,35.9617459,139.5662863
8887,"",イオンモール広島府中店,広島県安芸郡府中町 大須2-1-1 イオンモール広島府中店1F,34.3931316,132.4996648
8893,"",東京ガーデンシアター店,東京都江東区有明２丁目１−６,35.6374644,139.7924047
8880,"",イオンモール直方店,福岡県直方市 湯野原二丁目1番1号 イオンモール直方2F,33.7675748,130.7503997
8886,"",三鷹駅南口店,東京都三鷹市 下連雀3-46-6,35.7024392,139.5605086
8885,"",桜新町店,東京都世田谷区 桜新町2-8-2,35.6318835,139.6449416
8873,"",東急あざみ野駅店,神奈川県横浜市青葉区 あざみ野2-1-1 東急あざみ野ビル1F,35.5684026,139.5537133
8932,"",阪急西宮北口店,兵庫県西宮市高松町６−２０ 北口駅改札内 阪急西宮,34.7457201,135.3561135
8614,"",小出店,新潟県魚沼市 井口新田708,37.2290191,138.9761616
8854,"",金山総合駅店,愛知県名古屋市中区 金山1-17-18 ループ金山1F,35.1434856,136.9013366
8945,"",日本生命浜松町クレアタワー店,東京都港区 浜松町2丁目3-1日本生命浜松町クレアタワー 1階,35.6563096,139.755735
8958,"",東武浅草駅店,東京都台東区 花川戸1-4-1 東武浅草駅構内2Fコンコース内,35.7114907,139.7980218
8946,"",コースカベイサイドストアーズ店,神奈川県横須賀市 本町2-1-2 Coaska Bayside Stores 2F,35.2823604,139.6625767
8890,"",芝NBFタワー店,東京都港区 芝大門1-1-30 芝NBFタワー1F,35.6595091,139.752853
8965,"",エミル高槻店,大阪府高槻市 城北町2-1-18 エミル高槻2階,34.8495727,135.6225773
8892,"",ららぽーと和泉店,大阪府和泉市 あゆみ野4-4-7 2階 22200,34.4371109,135.4484675
8882,"",栄セントラルパーク店,愛知県名古屋市中区 錦3-15-13 栄セントラルパーク地下街,35.1731374,136.9083904
8874,"",豊橋駅前店,愛知県豊橋市 駅前大通1-132,34.7628066,137.3828034
8908,"",ゆめタウン光の森店,熊本県菊池郡 菊陽町光の森７丁目３９－１ ゆめタウン光の森南館1F,32.8595685,130.7859065
8923,"",イーホテル東新宿店,東京都新宿区 歌舞伎町2-3-15 イーホテル東新宿1F,35.6977069,139.7071308
8903,"",高坂SA上り店,埼玉県東松山市田木字立野４−５,35.9852627,139.384824
8906,"",りんくうシークル店,大阪府泉佐野市 りんくう往来南3番地りんくうプレジャータウンシークル1F,34.4089934,135.2970925
8911,"",ルクア イーレ 5F店,大阪府大阪市北区 梅田3-1-3 ルクア イーレ 5F,34.7026119,135.49444
8865,"",新大阪阪急ビル店,大阪府大阪市淀川区 宮原1丁目1番1号新大阪阪急ビル3F,34.7337547,135.4993771
8955,"",日暮里店,東京都荒川区 西日暮里2-25-1-110,35.7293914,139.7711696
8901,"",白金高輪駅店,東京都港区 白金一丁目17番3号 NBFプラチナタワーB1F,35.6446843,139.7344657
8915,"",大崎センタービル店,東京都品川区 大崎1-5-1,35.621299,139.7284759
8898,"",ららぽーと磐田店,静岡県磐田市 高見丘1200 ららぽｰと磐田1F,34.7504231,137.8407817
8610,"",梅田茶屋町ＭＢＳ店,大阪府大阪市北区 茶屋町17-1 毎日放送本社ビル1F,34.7084663,135.4997849
8902,"",新横浜店,神奈川県横浜市港北区 新横浜2-6-12,35.5088205,139.6145663
8910,"",宇都宮インターパークビレッジ店,栃木県宇都宮市 インターパーク4-1-3 インターパークショッピングビレッジ,36.4935049,139.9069199
8879,"",東京スカイツリータウン・ソラマチ店,東京都墨田区 押上1-1-2 東京スカイツリータウン・ソラマチ3F,35.7107002,139.8124077
8904,"",ニューオータニガーデンコート店,東京都千代田区 紀尾井町4-1 ガーデンコート2F,35.6793642,139.7354528
8922,"",グランデュオ蒲田店,東京都大田区 西蒲田7-68-1 グランデュオ蒲田西館M2階,35.5626173,139.7156876
8869,"",ワイプラザ武生店,福井県越前市 横市町?28-14-1-2階,35.907192,136.193076
8875,"",川口市立医療センター店,埼玉県川口市 西新井宿180 1F,35.8437861,139.7309222
8613,"",新潟新通店,新潟県新潟市西区 新通1272 蔦屋書店新通店内1F,37.8610893,138.9505603
8896,"",東銀座店,東京都中央区 築地1-13-14 NBF銀座スクエア1F,35.6677787,139.7695316
8431,"",TX守谷駅店,茨城県守谷市 中央4-9 TX守谷駅1F,35.9503055,139.9916349
8936,"",グランデュオ立川店,東京都立川市 柴崎町3-2-1 グランデュオ立川6F,35.6973986,139.4146671
8973,"",江ノ電江ノ島駅店,神奈川県藤沢市 片瀬海岸1丁目8番41号,35.3109982,139.4872492
8913,"",ビーンズアネックス新秋津店,東京都東村山市 秋津町5‐25-50,35.7779833,139.4935228
8933,"",堺筋本町店,大阪府大阪市中央区 南本町1-7-15 明治安田生命堺筋本町ビル1F,34.6824359,135.5067387
8900,"",豊田メグリア店,愛知県豊田市 山之手8-92 豊田メグリア1F,35.0520256,137.1443941
8925,"",芝公園店,東京都港区 芝公園2-4-1 芝パークビル1F,35.655622,139.7522702
8905,"",日本赤十字社医療センター店,東京都渋谷区 広尾4-1-22 日本赤十字社医療センター内,35.6550082,139.7178082
8891,"",TSUTAYA東広島店,広島県東広島市 西条御条町6-20 3階,34.4210369,132.7450467
8907,"",with U イオンモール成田店,千葉県成田市 ウィング土屋24 イオンモール成田1F,35.7958305,140.3197393
8940,"",仙台泉プレミアム・アウトレット店,宮城県仙台市泉区 寺岡6-1 仙台プレミアム・アウトレット2385区,38.3415762,140.836829
8914,"",日比谷セントラルビル店,東京都港区 西新橋1-2-9 日比谷セントラルビル内1F,35.669716,139.7545243
8988,"",七尾店,石川県七尾市藤橋町ア 部6番地19,37.045088,136.9465809
8948,"",アトレ竹芝店,東京都港区 海岸1－10-45,35.6564263,139.762173
8919,"",高松サンシャイン通り店,香川県高松市 林町2217-21,34.292328,134.0612522
8912,"",済生会東部病院店,神奈川県横浜市鶴見区 下末吉3-6-1 済生会東部病院内1F,35.5238527,139.6755877
8957,"",錦糸町テルミナ店,東京都墨田区 江東橋3丁目14番5号 テルミナ4F,35.6964454,139.8139269
8950,"",歌舞伎座店,東京都中央区 銀座4丁目12番15号 ＧＩＮＺＡ ＫＡＢＵＫＩＺＡ B2F,35.6697489,139.7680041
8920,"",東武曳舟駅店,東京都墨田区 東向島二丁目27番1号,35.7174765,139.816953
8917,"",フジグラン松山店,愛媛県松山市 宮西一丁目2番1号 フジグラン松山1F,33.8445619,132.7525196
8942,"",新宿二丁目店,"東京都新宿区 新宿2-5-9 1F,2F",35.6897586,139.7069918
8938,"",祇園花見小路店,京都府京都市東山区 四条通花見小路東入祇園町北側268番地 ヤサカ祇園ビル1F,35.0040443,135.7750474
8987,"",六本木一丁目店,東京都港区 六本木1-6-1 泉ガーデンタワー1F,35.6648219,139.7395039
8918,"",富士川楽座店,静岡県富士市岩淵１４８８−１,35.1619075,138.6186459
8939,"",池袋サンシャインシティアルパ店,東京都豊島区東池袋３丁目１−２ サンシャインシティ 専門店街アルパ 1F,35.7291059,139.7187027
8889,"",カラフルタウン岐阜店,岐阜県岐阜市 柳津町丸野3-3-6 カラフルタウン岐阜1F,35.3624596,136.7288574
8971,"",新潟中央インター店,新潟県新潟市中央区 湖南4-8,37.8768256,139.0392428
8934,"",金沢ビーンズ店,石川県金沢市 鞍月5-158,36.5989715,136.6236022
8935,"",早大理工店,東京都新宿区 大久保3-4-1,35.706042,139.7085567
8899,"",KU白楽駅店,神奈川県横浜市神奈川区 白楽100,35.4897213,139.6278781
8963,"",サンリブくりえいと宗像店,福岡県宗像市 くりえいと1-5-1 サンリブくりえいと宗像2F,33.8117705,130.5639036
8937,"",成田空港第２ターミナル店,千葉県成田市 古込字古込1番成田国際空港内第二旅客ターミナル本館3F制限区域Ｍ3021号室,35.7726738,140.3896515
8961,"",手稲渓仁会病院店,北海道札幌市手稲区 前田一条12-1-40 手稲渓仁会病院内,43.1220436,141.2432856
8928,"",愛媛大学病院店,愛媛県東温市 志津川454 愛媛大学医学部付属病院内,33.8025457,132.8796711
8960,"",三井アウトレットパーク ジャズドリーム長島店,三重県桑名市 長島町浦安368 1F6251タリーズコーヒー,35.0301824,136.7254472
8909,"",ららぽーと福岡店,福岡県福岡市博多区 那珂6丁目23番1号 2階 24011,33.5654446,130.4392696
8897,"",ハンズマン宇宿店,鹿児島県鹿児島市 宇宿2-14-6 ハンズマン宇宿店本館2F,31.5420352,130.5411765
8929,"",新宿センタービル店,東京都新宿区 西新宿1-25-1 新宿センタービルMB1F,35.6917301,139.6955263
8977,"",近鉄難波ビル店,大阪府大阪市中央区 難波4-1-1 近鉄難波ビル,34.6667812,135.5000662
8930,"",京都大学時計台店,京都府京都市左京区 吉田本町36-1 京都大学時計台記念館B1F,35.0264117,135.7808164
8953,"",春日井市民病院店,愛知県春日井市鷹来町１丁目１−１ 春日井市民病院,35.2718695,136.9691544
8985,"",アトレ吉祥寺店,東京都武蔵野市 吉祥寺南町1丁目1番24号アトレ吉祥寺東館2F,35.7031153,139.5811437
8952,"",阪急宝塚店,兵庫県宝塚市栄町２丁目３−１ G・コレクション阪急宝塚1F,34.8103569,135.341259
8943,"",大宮ソニックシティー店,埼玉県さいたま市大宮区 桜木町1-7-5 大宮ソニックシティー2F,35.9052881,139.6197199
8531,"",広島神辺店,広島県福山市 神辺町大字新道上2丁目10-26フジグラン神辺1F,34.5445076,133.3571926
8972,"",with U 吹田グリーンプレイス店,大阪府吹田市 片山町2丁目3番11号 吹田グリーンプレイス内,34.7654069,135.5194151
8931,"",戸田店,埼玉県戸田市 新曽662 T-FRONTE2階,35.8175408,139.6684595
8964,"",国立精神・神経医療研究センター店,東京都小平市 小川東町4-1-1 1F,35.7370225,139.4760327
8954,"",ウニクス川越店,埼玉県川越市 新宿町1丁目17番地1 ウニクス川越2F,35.9046521,139.4799434
8967,"",宇都宮ベルモール店,栃木県宇都宮市 陽東6-2-1 ベルモール1F,36.555055,139.9288664
8611,"",滋賀医大病院店,滋賀県大津市瀬田月輪町 　滋賀医科大学医学部附属病院外来棟1F,34.9729559,135.9515675
8921,"",海浜幕張店,千葉県千葉市美浜区 ひび野1-8 メッセアミューズモール1F,35.6495085,140.0422374
8994,"",トナリエ大和高田店,奈良県大和高田市 幸町3-18 トナリエ大和高田,34.5187625,135.7438176
8575,"",出雲店,島根県出雲市 高岡町1237-1,35.3833948,132.7624745
8970,"",筑波大学附属病院店,茨城県つくば市 天久保2-1-1 けやき棟1F,36.0925646,140.1020256
8924,"",TMGあさか医療センター店,埼玉県朝霞市 溝沼1340-1 TMGあさか医療センター1Ｆ,35.8110365,139.5936796
8927,"",イオンモール浜松市野店,静岡県浜松市中央区天王町諏訪１９８１−３ イオンモール浜松市野店2F,34.7399223,137.7624661
8956,"",長泉桜堤店,静岡県駿東郡 長泉町桜堤1-8-15,35.1446684,138.9051223
8951,"",近鉄四日市店,三重県四日市市 諏訪栄町7-34 近鉄百貨店四日市店2Ｆ,34.9672527,136.6184041
8926,"",ところざわサクラタウン店,埼玉県所沢市 東所沢和田三丁目31番地３,35.797458,139.506867
9003,"",常盤橋タワー店,東京都千代田区 大手町二丁目6番4号 TOKYO TORCH 常盤橋タワー 地下1階,35.6841813,139.7706824
8986,"",砧世田谷通り店,東京都世田谷区 砧1-15-3 GU世田谷砧店1F,35.6364189,139.6192536
8992,"",麻布十番駅前店,東京都港区 麻布十番1-11-8,35.6555975,139.7367347
8975,"",たまプラーザテラス リンクプラザ店,神奈川県横浜市青葉区 新石川町2-1-15 たまプラーザテラス リンクプラザ 2F,35.5765992,139.5576732
9004,"",カワサキデルタ店,神奈川県川崎市幸区 大宮町1‐5 JR川崎タワー商業棟2階,35.5305008,139.6942122
8981,"",仙台パルコ２店,宮城県仙台市青葉区中央３丁目７−５ 仙台パルコ２ 1F,38.2591346,140.8799108
8944,"",アトレ亀戸店,東京都江東区 亀戸5-1-1　アトレ亀戸 5階,35.6977626,139.8261739
8974,"",イクスピアリ店,千葉県浦安市 舞浜1-4 イクスピアリ1F ガーデンサイト,35.6336352,139.8869916
8968,"",フタバ図書TERAイオンモール福岡店,福岡県糟屋郡粕屋町酒殿 字老ノ木 192-1-2001 イオンモール福岡2F,33.5971607,130.4812223
9002,"",ヤマダ電機なんば店,大阪府大阪市浪速区 難波中2-11-35 2F,34.660022,135.5015979
8996,"",神保町店,東京都千代田区 神田神保町2-7 神保町ＮＫビル1F,35.6955398,139.7558127
8991,"",佐世保京町店,長崎県佐世保市 上京町4-4番地,33.1696286,129.7231737
8949,"",札幌徳洲会病院店,北海道札幌市厚別区 大谷地東1丁目1-1,43.029235,141.4479345
8993,"",サッポロファクトリー店,北海道札幌市中央区北２条東４丁目,43.0651383,141.3621604
8982,"",エスパルいわき店,福島県いわき市 平字田町３８-１６ エスパルいわき3階,37.0579239,140.8921255
8941,"",長岡花園店,新潟県長岡市 花園南1丁目36番地,37.4298779,138.8623798
8989,"",柴又駅前店,東京都葛飾区 柴又四丁目8番16号,35.756896,139.875539
8969,"",鹿児島中町店,鹿児島県鹿児島市 中町4-23,31.5922107,130.5560482
8959,"",成田空港第1ターミナル南ウイング店,千葉県成田市 三里塚字御料牧場1番1 成田国際空港第一旅客ターミナル南ウイング4階,35.7631346,140.3872889
8966,"",九段会館テラス店,東京都千代田区九段南一丁目5番1号九段会館テラス,35.6946028,139.7515014
8998,"",岩手医大病院店,岩手県紫波郡 矢巾町医大通二丁目1番1号 岩手医科大学附属病院トクタヴェール内,39.6137063,141.1631204
9001,"",ららぽーと沼津店,静岡県沼津市東椎路字東荒301番地3他 2階,35.1195517,138.8405907
8514,"",新宿NSビルアネックス店,東京都新宿区西新宿２丁目４−１ 新宿NSビル 1F,35.6877791,139.6938342
8990,"",土岐プレミアム・アウトレット店,岐阜県土岐市 土岐ヶ丘1-2 土岐プレミアム・アウトレット900番,35.3388308,137.1661436
8984,"",札幌ちえりあ店,北海道札幌市西区 宮の沢1条1丁目1-10,43.0885682,141.2745109
8980,"",イオンモール土岐店,岐阜県土岐市 土岐津町土岐口1372番の１ イオンモール土岐 1階,35.345528162705,137.15377482082
8947,"",東松山店,埼玉県東松山市 あずま町4丁目8-3,36.003419,139.4130704
8978,"",Ｅｍｉｏ狭山市店,埼玉県狭山市 祇園4-55 Emio狭山市 2F,35.8571022,139.4130482
8983,"",鳥栖プレミアム・アウトレット店,佐賀県鳥栖市 弥生が丘8-1 鳥栖プレミアム・アウトレット内区画NO.430,33.4069625,130.5113395
8979,"",大阪ステーションシティ店,大阪府大阪市北区 梅田3丁目1-3ノースゲートビルディング11F,34.7025452,135.4945138
8997,"",新宿住友ビル店,東京都新宿区 西新宿2-6-2 地下1階,35.6912291,139.6926359
8962,"",＆TEA アトレヴィ巣鴨店,東京都豊島区 巣鴨1-16-8 アトレヴィ巣鴨4F,35.7335821,139.7393108
9000,"",石神井公園店,東京都練馬区 石神井町2-14-31 ビオラ1F,35.7436667,139.6075584
8995,"",淀屋橋店,大阪府大阪市中央区 高麗橋4-2-16 大阪朝日生命会館1F,34.6896634,135.5006501
8510,"",新宿ＮＳビル店,東京都新宿区西新宿２丁目４−１ 新宿NSビル 1F,35.6884046,139.6930874
8999,"",エミオ田無店,東京都西東京市 田無町4丁目1-1 エミオ田無2階,35.7274714,139.539854
9007,"",ＦＫＤ宇都宮店,栃木県宇都宮市 今泉町237 福田屋ショッピングプラザ宇都宮店2F,36.5737641,139.9004981
9006,"",セレオ国分寺店,東京都国分寺市 南町3-20-3 セレオ国分寺2F,35.7002733,139.4806997
9005,"",神戸ファッションマート店,兵庫県神戸市東灘区 向洋町中6-9 神戸ファッションマート1F,34.6894654,135.2688153
9010,"",阪急三番街南館店,大阪府大阪市北区 芝田1-1-3 阪急三番街 南館1F,34.7042399,135.4984647
9009,"",ゆめタウン別府店,大分県別府市 楠町382-7,33.2767055,131.5076721
9008,"",三井アウトレットパーク入間店,埼玉県入間市 宮寺3169-1 三井アウトレットパーク入間内,35.809825,139.3797152
9011,"",朝日新聞東京本社ビル店,東京都中央区 築地5-3-2 朝日新聞東京本社ビル2Fコンコース内,35.66453,139.7668676
9012,"",東京商工会議所ビル店,東京都千代田区 丸の内3-2-2 東京商工会議所ビル（丸の内二重橋ビルディング）1階,35.6780959,139.7611527
9014,"",横浜みなとみらいビジネススクエア店,神奈川県横浜市西区 みなとみらい3-6 みなとみらいビジネススクエア1F,35.4589158,139.6320558
9016,"",館林アゼリアモール店,群馬県館林市 楠町3648-1 館林つつじの里SC内 アゼリアモール1F,36.2417136,139.5689821
9015,"",仙台市立病院店,宮城県仙台市太白区 あすと長町一丁目1番1号 仙台市立病院1階,38.2316904,140.8884416
9019,"",柏モディ店,千葉県柏市 柏1-2-26 柏モディ2階,35.8606498,139.9708964
9017,"",小倉店,福岡県北九州市小倉北区船場町４−２５,33.8838211,130.8775333
9018,"",新横浜プリンスペペ店,神奈川県横浜市港北区 新横浜3-4 新横浜プリンスペペ2階,35.5094272,139.6186188
9022,"",会津若松店,福島県会津若松市 幕内南町9-10 ドン・キホーテUNY会津若松店1F,37.4834919,139.9043842
9032,"",三井アウトレットパーク多摩南大沢店,東京都八王子市 南大沢1-600 三井アウトレットパーク多摩南大沢1F,35.6141039,139.3773058
9027,"",日本経済新聞社太陽樹店,東京都千代田区 大手町1-3-7 日本経済新聞社東京本社ビル2F,35.6885759,139.7621083
9020,"",東京ポートシティ竹芝店,東京都港区 海岸1-7-1 東京ポートシティ竹芝1Ｆ,35.6555046,139.760674
9021,"",日テレプラザ店,東京都港区東新橋１丁目６−１ 日本テレビタワー 地下２階,35.6644041,139.7598876
9034,"",高知大学病院店,高知県南国市 岡豊町小蓮185番1 高知大学医学部附属病院内1F,33.5944444,133.6143161
9044,"",市立札幌病院店,北海道札幌市中央区 北11条西13丁目1-1 市立札幌病院1F,43.0709152,141.3344522
9052,"",サンシャイン水族館店,東京都豊島区東池袋３丁目１−３ サンシャインシティ ワールドインポートマートビル 屋上,35.7290645,139.7195843
9035,"",産業医科大学病院店,福岡県北九州市八幡西区 医生ヶ丘1-1 産業医科大学病院1F,33.8781847,130.7137189
9024,"",新宿御苑駅前店,東京都新宿区 新宿1-6-5 ソノリティ新宿御苑1F,35.6885978,139.7100694
8511,"",TX柏の葉キャンパス駅前店,千葉県柏市 若柴174,35.8942687,139.9526852
9023,"",松江店,島根県松江市 東朝日町151 イオン松江SC1F,35.4643881,133.0693221
9025,"",PLiCO六甲道店,兵庫県神戸市灘区 永手町4-1-1 プリコ六甲道中央館2F,34.7153608,135.2390486
9026,"",アトレ松戸店,千葉県松戸市 松戸1181 アトレ松戸5F,35.7852617,139.9005914
9028,"",南町田グランベリーパーク駅店,東京都町田市 鶴間3-3-2,35.5116329,139.4713639
9060,"",トリアス久山店,福岡県糟屋郡久山町 大字山田1111 トリアス久山内H棟1F,33.6530823,130.4899046
9029,"",＆TEA 伊丹店,兵庫県伊丹市 中央3-5-1,34.7809218,135.4176244
9031,"",天王寺公園店,大阪府大阪市天王寺区 茶臼山町5番55号,34.6479725,135.5124262
9033,"",天満屋八丁堀店,広島県広島市中区 胡町5-22 天満屋広島八丁堀店内(MUZEN&ジュンク堂書店内)7F,34.3931303,132.4643567
9042,"",スタートラム広島店,広島県広島市中区 八丁堀16番11号 スタートラム広島1Ｆ,34.3945586,132.4614884
9063,"",大阪城公園駅前店,大阪府大阪市中央区 大阪城3-1,34.6886378,135.5331592
9040,"",プレイアトレ土浦店,茨城県土浦市 有明町1-30,36.078036,140.2055697
9030,"",住友不動産秋葉原ファーストビル・テラス店,東京都千代田区 外神田1丁目9番1号 住友不動産秋葉原ファーストビル・テラス1F,35.6989204,139.7697864
9036,"",金沢大学病院店,石川県金沢市 宝町13-1 金沢大学病院内,36.557282,136.6730893
9077,"",なんばパークス店,大阪府大阪市浪速区 難波中2丁目10番70号 なんばパークス5F,34.6613851,135.502238
9056,"",ルミネ北千住店,東京都足立区 千住旭町42-2 ルミネ北千住6F,35.7501322,139.8049498
9038,"",ウニクス伊奈店,埼玉県北足立郡 伊奈町学園2-188-1 ウニクス伊奈2F,36.0094524,139.6132004
9039,"",汐留住友ビル店,東京都港区 東新橋一丁目9番2号 汐留住友ビル2F,35.6624817,139.7602741
9037,"",近鉄奈良店,奈良県奈良市 西大寺東町2-4-1 近鉄百貨店 奈良店 5階,34.6950742,135.7851064
9046,"",松山赤十字病院店,愛媛県松山市 文京町1番地,33.8484764,132.7741694
9066,"",羽田エアポートガーデン店,東京都大田区 羽田空港2-7-1 2階 239,35.5443493,139.7650271
9047,"",大阪城天守閣前店,大阪府大阪市中央区 大阪城1-1 ミライザ大阪城 1F,34.6858777,135.526525
9109,"",イオンモール旭川西店,北海道旭川市 緑町23-2161-3 イオンモール旭川西店1F,43.7931766,142.3280582
9053,"",大垣書店 ジ アウトレット広島店,広島県広島市佐伯区 石内東4丁目1番1号1001 THE OUTLETS HIROSHIMA1F,34.4112509,132.3982042
9048,"",有松店,愛知県名古屋市緑区 南陵601 有松ジャンボリーA4棟,35.0446254,136.965098
9045,"",横須賀中央店,神奈川県横須賀市 若松町2丁目1番3号,35.2798946,139.669732
9041,"",＆TEA さっぽろ地下街オーロラタウン店,北海道札幌市中央区大通西２丁目,43.060744,141.3545408
8518,"",所沢駅店,埼玉県所沢市 くすのき台1丁目14番5号 西武鉄道所沢駅改札内,35.786591606625,139.47416516694
9117,"",東京ドームシティ店,東京都文京区 後楽1丁目3番61号 東京ドームシティ セントラルパーク,35.7044197,139.7534471
9043,"",イオンモール熊本店,熊本県上益城郡嘉島町 大字上島字長池2232-2114 イオンモール熊本店2F,32.7379581,130.7440173
9059,"",東海荒尾店,愛知県東海市 荒尾町山王前60 アピタ東海荒尾店1F,35.0394837,136.9057629
9068,"",本厚木ミロードイースト店,神奈川県厚木市 泉町1-1 小田急本厚木ミロード1（イースト）1F,35.4397076,139.3647572
9080,"",池尻大橋店,東京都世田谷区 池尻3-2-3 ハピネス5ビル,35.6506018,139.683939
8462,"",富士山三島東急ホテル店,静岡県三島市 一番町17-1 富士山三島東急ホテル区画101,35.1258305,138.9113565
9065,"",大阪梅田芝田店,大阪府大阪市北区 芝田1-1-35,34.7051935,135.4976826
9067,"",大崎オーバルコート店,東京都品川区 東五反田2-17-1 オーバルコート大崎 マークウエスト1F,35.6235219,139.7290611
9049,"",新発田店,新潟県新発田市 新栄町3-1-31,37.9529551,139.2973911
9070,"",立教大学店,東京都豊島区西池袋３丁目３４−１ 立教大学 池袋キャンパス 12号館 1F,35.7302353,139.7024408
9055,"",豊洲フロント店,東京都江東区 豊洲3丁目2番20号1F,35.6569651,139.7957371
9051,"",山形松見町店,山形県山形市 松見町21-10 ヤマザワ松見町店内,38.2313188,140.340634
9104,"",有明ガーデン店,東京都江東区 有明2-1-8 ショッピングシティ有明ガーデン4階,35.638401,139.7928882
9050,"",ザ パーク フロント ホテル店,大阪府大阪市此花区 島屋6丁目2番52号 301,34.6681141,135.4375488
9091,"",東京女子医科大学病院店,東京都新宿区 河田町8-1 総合外来センター南エントランス,35.6984295,139.7200599
9057,"",イオンモール水戸内原店,茨城県水戸市 内原2丁目1番地 イオンモール水戸内原 2F,36.3740697,140.3583028
9058,"",グランドスケープ池袋店,東京都豊島区 東池袋1丁目30番3号 グランドスケープ池袋2階,35.7308205,139.7164188
9061,"",センター南店,"神奈川県横浜市都筑区 茅ケ崎中央6-30 ヴェレヴ1,2F",35.5432723,139.5735737
9074,"",＆TEA 三井アウトレットパーク札幌北広島,北海道北広島市 大曲幸町3丁目7-6 三井アウトレットパーク札幌北広島2F,42.9702213,141.4710462
9098,"",御堂筋本町ビル店,大阪府大阪市中央区 本町3丁目5番7号 御堂筋本町ビルB1F,34.6838175,135.5010996
9132,"",マークイズみなとみらい店,神奈川県横浜市西区 みなとみらい三丁目5番1号 マークイズみなとみらい4階405区,35.4578497,139.631624
9079,"",シャポー本八幡店,千葉県市川市 八幡2-17-1,35.7205408,139.928113
9073,"",新宿イーストサイドスクエアアトリウム店,東京都新宿区 新宿6-27-30 新宿イーストサイドスクエア1F,35.6967356,139.7084534
9069,"",ピアザ神戸店,兵庫県神戸市中央区 北長狭通3-31-92,34.6904372,135.1888132
9113,"",阪急西宮ガーデンズ店,兵庫県西宮市 高松町14-2-104 阪急西宮ガーデンズ1F,34.7441908,135.3587961
9099,"",四条烏丸 京都三井ビル店,京都府京都市下京区 四条通烏丸東入ル長刀鉾町８番 京都三井ビル地下１階,35.003799,135.7603084
9111,"",富山県立中央病院店,富山県富山市 西長江2丁目2番78号 富山県立中央病院内,36.6922007,137.2373999
9122,"",長岡古正寺店,新潟県長岡市 古正寺町350番地 長岡マーケットモール内,37.4583635,138.8159275
9144,"",信州大学病院店,長野県松本市 旭3-1-1 信州大学病院内,36.2492554,137.9788745
9129,"",江坂駅前店,大阪府吹田市 豊津町9-1 EDGE江坂1F,34.759494,135.4965638
9062,"",岩国医療センター店,山口県岩国市 愛宕町1-1-1 岩国医療センター1F,34.1434702,132.2036221
9075,"",札幌厚生病院店,北海道札幌市中央区北３条東８丁目５,43.0675196,141.3692845
9095,"",東京ドームシティラクーア店,東京都文京区 春日1丁目1-1 ラクーア3F,35.7072018,139.7521707
9064,"",プレイアトレ土浦3階店,茨城県土浦市 有明町1-30 プレイアトレ土浦3階,36.0779173,140.2056111
9137,"",フタバ図書アルティアルパーク北棟店,広島県広島市西区 草津南4-7-1 アルパーク北棟2F,34.3752582,132.3930913
8540,"",宮崎高千穂通り店,宮崎県宮崎市 橘通東4-8-1 カリーノ宮崎1F,31.9166839,131.4252907
9076,"",京都三条通り店,京都府京都市中京区 三条通麩屋町東入弁慶石町50,35.0085288,135.7663463
9094,"",羽田イノベーションシティ店,東京都大田区 羽田空港1丁目1番4号 羽田イノベーションシティ ゾーンK・1F,35.5485082,139.7549822
9087,"",日本赤十字社和歌山医療センター店,和歌山県和歌山市 小松原通4-20 1F,34.2199998,135.1678804
9086,"",小田原ダイナシティ店,神奈川県小田原市 中里313-12 ダイナシティーウォーク,35.2826179,139.1882566
9084,"",巣鴨地蔵通り店,東京都豊島区 巣鴨三丁目18番18号,35.7352946,139.7355326
9088,"",羽田空港第2ターミナル店,東京都大田区 羽田空港3-4-2 羽田空港第2旅客ターミナル 1F 到着ロビー,35.5516595,139.7876743
9135,"",石巻赤十字病院店,宮城県石巻市 蛇田字西道下71,38.4594309,141.2807471
9123,"",立命館大学衣笠キャンパス店,京都府京都市北区 等持院北町56-1 平井嘉一郎記念図書館1F,35.0339778,135.7254181
9147,"",nonowa武蔵境店,東京都武蔵野市 境南町2丁目1番35号,35.7021978,139.544721
9081,"",加古川中央市民病院店,兵庫県加古川市 加古川町本町439番地 加古川中央市民病院1F,34.771142,134.832719
9128,"",ららぽーと湘南平塚店,神奈川県平塚市 天沼10-1 3階34070,35.3361943,139.3548421
9126,"",新宿オークタワー店,東京都新宿区西新宿６丁目８−１ 住友不動産新宿オークタワー内,35.693683,139.6906608
9157,"",京都寺町通り店,京都府京都市中京区 寺町通三条下る桜之町425-2,35.007646,135.7670075
9161,"",エミオ東久留米店,東京都東久留米市 東本町1番8号 エミオ東久留米 2F,35.7604296,139.5341418
9168,"",高岡射水店,富山県射水市 坂東127-1,36.7590012,137.0608384
9134,"",長野赤十字病院店,長野県長野市 若里5-22-1,36.6275358,138.1905309
9071,"",大崎ガーデンタワー店,東京都品川区 西品川一丁目1番1号 住友不動産大崎ガーデンタワー1F,35.6145617,139.7310024
9169,"",阪急三番街北館店,大阪府大阪市北区 芝田1-1-3 阪急三番街1F,34.7057217,135.4980769
9097,"",OEDO日本橋店,東京都中央区日本橋２丁目７−１ 東京日本橋タワー B1F,35.6820231,139.7743604
9072,"",三井アウトレットパーク仙台港店,宮城県仙台市宮城野区 中野三丁目7番地の2 三井アウトレットパーク仙台港2320,38.2748301,140.9903121
9108,"",NEOPASA静岡上り店,静岡県静岡市葵区小瀬戸字谷川地１５４４−３,34.9792808,138.2923546
9096,"",島根大学医学部附属病院店,島根県出雲市 塩冶町89-1 1階,35.3477474,132.7528574
9145,"",名古屋空港店,愛知県西春日井郡豊山町豊場林先 名古屋空港内,35.2539121,136.9194427
9105,"",グリナード永山店,東京都多摩市 永山1-4 グリナード永山1号館4F,35.6294865,139.4480971
9133,"",那覇空港店,沖縄県那覇市 字鏡水150番地 3階,26.2056022,127.6510473
9138,"",神戸中央市民病院店,兵庫県神戸市中央区 港島南町2丁目1-1 神戸中央市民病院内2F,34.659899,135.214387
9174,"",綾瀬駅前店,東京都足立区 綾瀬3-1-2,35.7621871,139.824539
9156,"",グランフロント大阪北館９Ｆ店,大阪府大阪市北区 大深町3番1号 グランフロント大阪北館9F,34.7051903,135.4948429
9083,"",小田原トザンイースト店,神奈川県小田原市 栄町2-1-2 トザンイースト1階,35.2559729,139.1569445
9100,"",徳島駅前店,徳島県徳島市 元町1-5-1 ホテルサンルート徳島1F,34.073333,134.5508609
9112,"",タカシマヤ ゲートタワーモール店,愛知県名古屋市中村区名駅１丁目１−３ タカシマヤ ゲートタワーモール 5F,35.1722265,136.8827511
9114,"",長崎大学病院店,長崎県長崎市 坂本1丁目7番1号 長崎大学病院1F,32.7699435,129.8683485
9090,"",大手町パークビルディング店,東京都千代田区 大手町一丁目1番1号 大手町パークビルディングB1F,35.6867295,139.7631701
9110,"",東京ビッグサイト店,東京都江東区 有明3-11-1 東京ビッグサイト2F,35.6292544,139.7935329
9160,"",仙台中央通り店,宮城県仙台市青葉区 中央1-8-23 タイコヤビル 1F,38.2618001,140.8795356
9119,"",仙台富沢西店,宮城県仙台市太白区 富沢西３丁目１－１,38.2118042,140.8571225
9120,"",埼玉医科大学総合医療センター茶寮店,埼玉県川越市鴨田１９８１ 埼玉医科大学総合医療センター本館2F,35.934617,139.519584
9115,"",アリオ倉敷店,岡山県倉敷市 寿町12-2 アリオ倉敷2Ｆ,34.6028893,133.7643216
9089,"",広島中央通り店,"広島県広島市中区 堀川町5-4 1F,2F,3F",34.3926484,132.4629916
9180,"",栃木城内店,栃木県栃木市 城内町2-6-23,36.3726597,139.7447227
9125,"",丸紅ビル店,東京都千代田区 大手町1丁目4-2,35.6906231,139.7597121
9130,"",日比谷フォートタワー店,東京都港区 西新橋1丁目1番1号,35.6701473,139.7529282
9127,"",MSH日本橋箱崎ビル店,東京都中央区 日本橋箱崎町19-21 MSH日本橋箱崎ビル1F,35.6791641,139.78704
9107,"",元住吉駅店,神奈川県川崎市中原区 木月1-36-12 元住吉駅ビル1F,35.5648778,139.6538133
9092,"",佐渡佐和田店,新潟県佐渡市 市野沢82 蔦屋書店佐渡佐和田店内,38.0083544,138.3399987
9154,"",イオンモールつがる柏店,青森県つがる市 柏稲盛幾世41 イオンモールつがる柏1F,40.8024673,140.4171998
9106,"",西小山駅店,東京都品川区 小山6－3－10,35.6156632,139.698793
9131,"",大阪梅田ツインタワーズ・サウス店,大阪府大阪市北区梅田１丁目１３−１ 大阪梅田ツインタワーズ・サウス １１階,34.7010486,135.4987533
9093,"",みなみ野店,東京都八王子市 みなみ野1-7-7,35.6324444,139.327324
9162,"",鳥取大学医学部附属病院店,鳥取県米子市 西町36-1 外来ホール1F,35.4291386,133.3249706
9116,"",ららぽーと新三郷店,埼玉県三郷市 新三郷ららシティ3-1-1,35.8601114,139.8655413
9140,"",銀座六丁目昭和通り店,東京都中央区 銀座6-14-5 東武銀座第1ビル1F,35.6686744,139.7656105
8532,"",キッズコミュ アリオ札幌店,北海道札幌市東区 北7条東9丁目2番20 アリオ札幌2階,43.0716372,141.3700957
9101,"",八戸八日町店,青森県八戸市 大字八日町４３番地１ DEVELD八日町1F,40.510164,141.491871
9165,"",キューポラ川口店,埼玉県川口市 川口1-1-1 キュ・ポラ本館専門店3F,35.8013698,139.7182089
9175,"",丸の内永楽ビルディング店,東京都千代田区 丸の内1-4-1 丸の内永楽ビルディングB1F,35.684346,139.7652323
8440,"",ららぽーと柏の葉店,千葉県柏市 若柴175 ららぽｰと柏の葉3F,35.8933979,139.9504146
9118,"",大阪梅田ツインタワーズ・ノース店,大阪府大阪市北区 角田町8番1号 大阪梅田ツインタワーズ・ノース15階,34.7026591,135.4984269
8463,"",星天qlay店,神奈川県横浜市保土ヶ谷区 星川一丁目1番1号 星天qlay 2階 B-2-4,35.4589118,139.5946247
9103,"",京都アバンティ店,京都府京都市南区 東九条西山王町31番地 京都アバンティ1階,34.9835599,135.760275
9155,"",昭和大学病院店,東京都品川区旗の台１丁目５−８ 中央棟 1F,35.6085812,139.7037188
9142,"",湘南藤沢徳洲会病院店,神奈川県藤沢市 辻堂神台1丁目5番1号,35.3409153,139.4454774
9153,"",東京スクエアガーデン店,東京都中央区 京橋3丁目1-1 東京スクエアガーデンB1F,35.6759236,139.7691231
9177,"",シャポー本八幡西口店,千葉県市川市 八幡2-17-1 本八幡ショッピングセンター1階109号,35.721483,139.925904
9141,"",トーブ イコート店,埼玉県草加市 松原三丁目3番1号 TOBU icourt 1階,35.8415475,139.7931535
9163,"",小手指店,埼玉県所沢市 小手指町1-1-1 小手指駅1Ｆ,35.8009214,139.43815
9181,"",野田阪神ウイステ店,大阪府大阪市福島区 海老江1-1-23 野田阪神ウイステ1階,34.695162,135.4754323
9183,"",ペリエ西千葉店,千葉県千葉市中央区 春日2-24-4 ペリエ西千葉1F,35.6220479,140.1037352
9143,"",山口県立総合医療センター店,山口県防府市 大字大崎77番地 山口県立総合医療センター1F,34.066348,131.5417667
9166,"",聖隷浜松病院店,静岡県浜松市中央区 住吉2-12-12 聖隷浜松病院B棟B1,34.7310384,137.7249809
9121,"",モリシア津田沼店,千葉県習志野市 谷津1-16-1 モリシア津田沼1F,35.6898822,140.0194976
9186,"",ｂｏｎｏ相模大野店,神奈川県相模原市南区 相模大野3-3 bono相模大野ＳｏｕｔｈＭａｌｌ 2F,35.5308044,139.4358667
9124,"",＆TEA ららぽーと立川立飛店,東京都立川市 泉町935-1 1階 16501,35.7133644,139.4184016
9167,"",東邦大森病院店,東京都大田区 大森西6-11-1 東邦大学医療センター大森病院1F,35.5690232,139.7237864
9149,"",福井赤十字病院店,福井県福井市月見２丁目４−１ 福井赤十字病院1階,36.0474752,136.2127274
9172,"",KOMATSU店,石川県小松市 沖町451番地,36.3963452,136.4616192
8620,"",羽田空港第1ターミナル9番ゲート店,東京都大田区 羽田空港3-3-2 第1ターミナル2階出発保安エリア内,35.547383,139.7846832
9136,"",CIAL横浜店,神奈川県横浜市西区 南幸1-1-1 シァル横浜B1,35.4671529,139.6230148
9187,"",上田大屋店,長野県上田市 大屋219-5,36.3704927,138.2970704
9148,"",日本橋YUITOアネックス店,東京都中央区 日本橋室町2丁目4番1号 浮世小路千疋屋ビルＢ１Ｆ,35.6869994,139.7738669
9139,"",ウニクス秩父店,埼玉県秩父市 上野町805-14 ウニクス秩父 1F,35.9958094,139.0886509
9150,"",シャポー市川店,千葉県市川市 市川1－1－1 シャポー市川Ｂ１Ｆ,35.7286574,139.9081753
9190,"",ルミネ大宮LUMINE2 改札内店,埼玉県さいたま市大宮区 錦町630 ルミネ大宮LUMINE2 1F（改札内）,35.9065646,139.6232263
8617,"",江ノ電長谷駅店,神奈川県鎌倉市 長谷2-14-10,35.3113593,139.5359367
9173,"",新潟万代店,新潟県新潟市中央区 幸西3-1-6 蔦屋書店新潟万代内,37.9114167,139.0474606
9146,"",＆TEA ふかや花園プレミアム・アウトレット BOOKS CAFE店,埼玉県深谷市 花園1番地 1800区,36.1329054,139.2480521
9176,"",西武しんきん荻窪店,東京都杉並区 荻窪5-28-16 西武信用金庫荻窪支店内,35.7036465,139.6209315
9185,"",埼玉医科大学病院店,埼玉県入間郡 毛呂山町毛呂本郷38,35.9392617,139.3072285
9152,"",イオンモール宮崎店,宮崎県宮崎市 新別府町江口862-1 イオンモール宮崎1F 区画No.175,31.9225875,131.4563356
9158,"",静岡ペガサート店,静岡県静岡市葵区 御幸町3-21 ペガサート1F,34.9750034,138.3862661
9170,"",長野アイビースクエア店,長野県長野市 南千歳1-3-7 アイビースクエアビル1F,36.6459709,138.1887215
9171,"",町田モディ店,東京都町田市 原町田6-2-6 町田モディ3階,35.5433078,139.4450711
9193,"",ヤエチカ店,東京都中央区 八重洲2丁目1番八重洲地下街中4号,35.679479,139.7714689
9159,"",山口葵TSUTAYA店,山口県山口市 葵１丁目4-70 プリムールあおい内1F,34.160502,131.4506446
9164,"",山形七日町店,山形県山形市 七日町2-1-8 イイナス1F,38.2524699,140.339108
9179,"",和歌山MIO店,和歌山県和歌山市 美園町5-61 和歌山MIO 1F,34.2319682,135.1911483
9189,"",帯広厚生病院店,北海道帯広市 西14条南10丁目1番地,42.9194008,143.1810399
9188,"",西新宿駅前店,東京都新宿区 西新宿8-5-1 B1F,35.694664053228,139.69309881193
8461,"",奥沢駅店,東京都世田谷区 奥沢3-47-17,35.60373,139.6720671
9182,"",カテプリ新さっぽろ店,北海道札幌市厚別区 厚別中央2条5丁目7番 カテプリ新さっぽろ店1F,43.0374757,141.4727157
9184,"",イオンモール下田店,青森県上北郡おいらせ町 中野平40-1 イオンモール下田内 1F,40.6023968,141.4180854
9192,"",長崎玉屋店,長崎県長崎市 新大工町5番35号 2F,32.7526197,129.8865611
9195,"",大利根店,埼玉県加須市 琴寄111,36.1252152,139.6843236
9196,"",好仁会東大病院店,東京都文京区 本郷7-3-1 東京大学医学部附属病院内1F,35.7110466,139.766262
9200,"",みなとみらい東急スクエア1店,神奈川県横浜市西区 みなとみらい2-3-2 みなとみらい東急スクエア①3階,35.4561649,139.632857
9199,"",金沢野々市店,石川県野々市市 粟田5丁目461,36.51547,136.6090579
9198,"",古川駅店,宮城県大崎市 古川駅前大通1-7-35 古川駅ショッピングセンター「古川駅食品館ピボット」,38.5714049,140.9681332
9197,"",ホテル阪神大阪店,大阪府大阪市福島区 福島5-6-16,34.6969367,135.4876313
9201,"",イーサイト上尾店,埼玉県上尾市 柏座1-1-18 イーサイト上尾2F,35.9733686,139.5886135
9202,"",三井アウトレットパーク木更津店,千葉県木更津市 金田東3丁目1番1 三井アウトレットパーク木更津内 区画番号13000,35.4341562,139.9372383
8521,"",ルミネエスト新宿B1店,東京都新宿区 新宿3丁目38番1号 ルミネエスト新宿B1,35.691497,139.7010272
9204,"",イオンモール神戸北店,兵庫県神戸市北区 上津台8-1-1 イオンモール神戸北1F,34.8607381,135.1941956
9203,"",トレッサ横浜店,神奈川県横浜市港北区 師岡町700-1 トレッサ横浜南棟1F,35.5245453,139.6462141
9205,"",アトレ川崎店,神奈川県川崎市川崎区 駅前本町26-1 アトレ川崎1F,35.5306386,139.6975105
8512,"",マチナトシティ店,沖縄県浦添市 城間2008-1 マチナトシティ1F,26.2608668,127.7112413
9207,"",松本駅前大通り店,長野県松本市 深志1-2-11 昭和ビル1F,36.2310195,137.9667347
9206,"",アリオ橋本店,神奈川県相模原市緑区 大山町1番22号アリオ橋本1F,35.5904792,139.3507397
9210,"",浅草新仲見世店,東京都台東区 浅草1丁目19番8号,35.7117411,139.7969179
9209,"",花のれんタリーズコーヒー なんばグランド花月店,大阪府大阪市中央区 難波千日前11番6号,34.6651475,135.5035268
9208,"",ダイバーシティ東京プラザ店,東京都江東区 青海1丁目1番地10号 ダイバーシティ東京プラザ3F,35.62484,139.7757093
9211,"",新潟大学病院店,新潟県新潟市中央区 旭町通一番町754番地 アメニティモール1F,37.9185934,139.0362771
9214,"",三島日清プラザ店,静岡県三島市 中田町9番30号 イトーヨーカドー日清プラザ店1F,35.1135623,138.9193444
9213,"",新宿小滝橋通り店,東京都新宿区 西新宿7-8-13 栗原ビル1F,35.6954818,139.6983053
9216,"",宇都宮駅東口店,栃木県宇都宮市 元今泉4-19-16,36.55994,139.9043341
9212,"",ららぽーとEXPOCITY店,大阪府吹田市 千里万博公園2-1 3階 30620,34.8045493,135.534511
9215,"",盛岡駅フェザン店,"岩手県盛岡市 盛岡駅前通1-44 盛岡フェザン1,2F",39.7025993,141.1360274
9219,"",自治医大駅前店,栃木県下野市 医大前3-1-1 TSUTAYA自治医大1F,36.3950988,139.8556806
9218,"",豊田上郷SA下り店,愛知県豊田市 永覚町百間圦1-4 豊田上郷ＳＡ（下り線）内,35.0307143,137.1347
9217,"",＆TEA エスパル仙台店,宮城県仙台市青葉区 中央1丁目1-1 エスパル仙台 本館2F,38.2590263,140.8811036
9221,"",サンエー那覇メインプレイス店,沖縄県那覇市 おもろまち4丁目4-9 サンエー那覇メインプレイス2F,26.2258782,127.6941305
9220,"",ウィング上大岡店,神奈川県横浜市港南区 上大岡西1-6-1 京急ショッピングプラザ・ウィング上大岡B1F,35.408457,139.5963686
9226,"",Pasar幕張店,千葉県千葉市花見川区 幕張町2-2651-1 Pasar幕張(下り線)内,35.6714097,140.053776
9223,"",プライムツリー赤池店,愛知県日進市 赤池町箕ノ手1番,35.1184661,137.0220225
9222,"",新宿エルタワー店,東京都新宿区 西新宿1-6-1 新宿エルタワーB2F,35.6922072,139.6974397
9224,"",聖隷三方原病院店,静岡県浜松市中央区 三方原町3453 聖隷三方原病院 プラザ棟1F,34.7924368,137.6902103
9225,"",宝塚北ＳＡ店,兵庫県宝塚市 玉瀬字奥之焼1-125,34.8668426,135.3032094
9227,"",コミュシティ エスパル仙台店,宮城県仙台市青葉区 中央一丁目1-1,38.25994,140.883553
9231,"",ペリエ稲毛コムスクエア店,千葉県千葉市稲毛区 稲毛東3丁目19番11号 コムスクエア1,35.6373225,140.0925461
9229,"",汐留シティセンター店,東京都港区 東新橋一丁目5番2号 汐留シティセンターB2F,35.6655706,139.7605469
9230,"",大泉学園店,東京都練馬区 東大泉2-34-1 オズスタジオシティ1F,35.7530811,139.5951682
9228,"",ＭＩＮＡＮＯ分倍河原店,東京都府中市 片町3-22-26,35.6669987,139.4696135
9236,"",ヨドバシ横浜店,神奈川県横浜市西区 北幸1-2-7 ヨドバシ横浜B2F,35.46769,139.6203809
9232,"",博多マルイ店,福岡県福岡市博多区 博多駅中央街9番1号 博多マルイ1F,33.5890794,130.4190103
9233,"",アル・プラザ高槻店,大阪府高槻市 芥川町1-2 C-0201号 2F,34.8519853,135.6165502
9235,"",グランフロント大阪北館１Ｆ店,大阪府大阪市北区 大深町3番1号 グランフロント大阪北館1F,34.7059511,135.4947249
9238,"",国立国際医療研究センター店,東京都新宿区 戸山1-21-1 国立国際医療研究センター内1F,35.7021723,139.7161088
9234,"",日比谷公園店,東京都千代田区 日比谷公園1丁目5番,35.6731549,139.7540331
9237,"",ペリエ千葉店,千葉県千葉市中央区 新千葉一丁目1番1号 ペリエ千葉6F,35.6133296,140.1136676
8459,"",ひたちなか新光町店,茨城県ひたちなか市 新光町30番4号 蔦屋書店ひたちなか店内,36.4071293,140.5845895
8458,"",前橋みなみモール店,群馬県前橋市 新堀町940 蔦屋書店前橋みなみモール店内1F,36.3315199,139.0985204
8457,"",ララガーデン長町店,宮城県仙台市太白区 長町7-20-5 ララガーデン長町1F,38.2249139,140.8760693
8442,"",＆TEA 京都タカシマヤ店,京都府京都市下京区 四条通河原町西入真町52番地 京都髙島屋4階,35.0029148,135.7680707
8429,"",KUZUHA MALL店,大阪府枚方市 楠葉花園町15-1 くずはモール本館3F,34.8621535,135.6762137
8441,"",tete名谷店,兵庫県神戸市須磨区 中落合2丁目3番3号,34.67882280026,135.094556189
8523,"",日本大通り店,神奈川県横浜市中区 日本大通11番地,35.4465026,139.642768
8524,"",-SELECT- 神戸三田プレミアム・アウトレット店,兵庫県神戸市北区 上津台7-3 K-3 神戸三田プレミアム・アウトレット,34.860063423529,135.19105678533
8529,"",CIAL鶴見店,神奈川県横浜市鶴見区 鶴見中央1丁目1-2 CIAL鶴見5F,35.5078969,139.6767864
8530,"",＆TEA ゆめタウン徳島店,徳島県板野郡 藍住町奥野字東中須88-1 ゆめタウン徳島1階 ゆめタウン徳島,34.119092977912,134.50164436429
8544,"",＆TEA 金沢百番街Rinto店,石川県金沢市 木ノ新保町1-1 金沢百番街Rinto 1階,36.5782386,136.6479096
8572,"",＆TEA ららぽーと堺店,大阪府堺市 美原区黒山22番1 2階22071,34.541228372284,135.5597770866
8601,"",そよら武蔵狭山店,埼玉県狭山市 入間川3-31-5,35.8602738,139.4061077
8602,"",住友不動産新宿ファーストタワー店,東京都新宿区 西新宿五丁目1番1号,35.695751,139.6870459
8603,"",サンリブ三ヶ森店,福岡県北九州市 八幡西区三ヶ森3-9-1 サンリブ三ヶ森,33.832298305267,130.73870081547
9240,"",ハンズマン松原店,大阪府松原市 新堂4丁目1139 ハンズマン松原店2F,34.56793893417,135.55215367068
9246,"",＆TEA ホワイティうめだ店,大阪府大阪市北区 角田町梅田地下街2-8号ノースモール1内,34.702486763431,135.49952987887
9247,"",-SELECT- ルミネ町田店,東京都町田市 原町田6-1-11 ルミネ町田1F,35.542094562629,139.44604714212
9248,"",＆TEA エスパル福島店,福島県福島市 栄町1-1 エスパル福島2階,37.754761657498,140.46031410723
9249,"",＆TEA Corowa甲子園店,兵庫県西宮市 甲子園高潮町3-3 コロワ甲子園1階,34.724028321463,135.36191609883
9270,"",広島LECT店,広島県広島市西区扇二丁目1番45号　LECT2F,34.3729575,132.4066547
9290,"",自治医大病院店,栃木県下野市 薬師寺3311-1,36.3978961,139.8604994
9291,"",新綱島スクエア店,神奈川県横浜市港北区 綱島東一丁目9番10号１F,35.535730261393,139.63538277156
9292,"",ザ・スクエア聖蹟桜ヶ丘店,東京都多摩市 関戸1-1-5 ザ・スクエア聖蹟桜ヶ丘1階 ザ・スクエア聖蹟桜ヶ丘,35.6517624,139.4461504
9293,"",CeeU Yokohama店,神奈川県横浜市西区 南幸２丁目16-1 CeeU Yokohama 5階 CeeU Yokohama,35.464478361499,139.61733827658
9294,"",-SELECT-きときと市場とやマルシェ店,富山県富山市 明輪町1番220号,36.701219174009,137.21402936212
9295,"",ディアモール大阪店,大阪府大阪市北区 梅田1丁目 大阪駅前ダイヤモンド地下街3号,34.700355605064,135.49722220974
9296,"",&TEA ペリエ千葉ペリチカ店,千葉県千葉市中央区 千葉県千葉市中央区新千葉1-1-1 ペリチカB1F,35.612689932519,140.1144553289
9313,"",東京医科大学病院店,東京都新宿区 西新宿６-７-１,35.6940386,139.6927487
9314,"",滑川店,富山県滑川市 上小泉2829 明文堂書店 滑川店内,36.7547311,137.3467026
9341,"",千葉大学病院店,千葉県千葉市中央区 亥鼻1－8－1 千葉大学医学部附属病院,35.604027764551,140.13632585537
9342,"",札幌天使病院店,北海道札幌市東区 北１２条東３丁目１?１,43.076352459323,141.35774003278
9363,"",福島野田町店,福島県福島市 野田町五丁目1番44号,37.75736,140.4469761
9382,"",スズラン百貨店高崎店,群馬県高崎市 鞘町1-1 スズラン百貨店高崎店内1階,36.324906641336,139.00567404289
9393,"",サンリブBUONO萩原店,大分県大分市 萩原2丁目3-29 サンリブBUONO萩原1F サンリブBUONO萩原,33.248648153377,131.63850815004
9394,"",フォレストモール新前橋店,群馬県前橋市 古市町180-1,36.375094182264,139.04477016711
9395,"",-SELECT- 横浜ジョイナスB1F店,神奈川県横浜市西区 南幸一丁目4番B1号,35.46605271492,139.62072776204
9396,"",CoCoLo新潟店,新潟県新潟市中央区花園１−１−１ JR新潟駅構内,37.912289690494,139.06265689067
9397,"",＆TEA nonowa国立SOUTH店,東京都国立市 中1-1-52 nonowa国立SOUTH 2F,35.699010353966,139.44605583098
9398,"",キャナルシティ博多店,福岡県福岡市博多区 住吉1-2-25 キャナルシティ博多 ビジネスセンタービル 1F,33.589822078744,130.41112164706
9399,"",グランドプリンスホテル新高輪店,東京都港区 高輪３－１３－１,35.629831253318,139.73333222305
9428,"",京阪寝屋川市駅店,大阪府寝屋川市 早子町16番11号 京阪寝屋川市駅 改札内 物販店舗区画,34.763738772626,135.62062192747
9431,"",新千歳空港ハッピーフライト店,北海道千歳市 美々新千歳空港ターミナルビル連絡施設3階,42.787356821234,141.67876843634
9433,"",ハーバーテラス松島離宮店,宮城県宮城郡松島町松島浪打浜１８,38.3675683,141.0603458
9434,"",五反田ＪＰビルディング店,東京都品川区 西五反田8丁目4番13号,35.622344808768,139.72198582148
9435,"",横浜コネクトスクエア店,神奈川県横浜市西区 みなとみらい３－３,35.456831413185,139.62912367422
9439,"",タリーズコーヒー 鹿児島大学病院店,鹿児島県鹿児島市 桜ケ丘8-35-1 さくらぴあ2階,31.547828136258,130.52739455508
9450,"",サカエチカ店,愛知県名古屋市中区栄三丁目4番6号 先路下 北第11号、第13号,35.169381651423,136.90693625778
9451,"",ハレザ池袋店,東京都豊島区 東池袋一丁目18 番 1 号,35.732400382388,139.71589986569
9469,"",水戸赤塚店,茨城県水戸市 河和田1-1665-1,36.377694853056,140.41578597135
9471,"",＆TEA 大宮DOM店,埼玉県さいたま市大宮区 桜木町二丁目３番地,35.906820655402,139.62209878177
9477,"",渋谷アクシュ店,東京都渋谷区 渋谷２丁目１７?１ アクシュ3階,35.659087350539,139.70429676681
9492,"",羽田空港第1ターミナル15番ゲート店,東京都大田区羽田空港3-3-2 羽田空港第1ターミナル2階出発保安エリア内,35.549599879306,139.78334166933
9493,"",＆TEA 名古屋ラシック店,愛知県名古屋市中区 栄三丁目6番1号 ラシック7F,35.167652584919,136.90809196737
9496,"",ゆめが丘ソラトス店,神奈川県横浜市泉区	 ゆめが丘31番地　区画番号104,35.404869812997,139.48267053849
9497,"",Shibuya Sakura Stage店,東京都渋谷区 桜丘町１番４号 渋谷サクラステージ SHIBUYAサイド,35.657173841524,139.70174141129
9501,"",KITTE大阪店,大阪府大阪市北区 梅田３丁目２番２号 ＫＩＴＴＥ大阪 B１F ０２７区画,34.700617565202,135.49424957858
9505,"",＆TEA なんばスカイオ店,大阪府大阪市中央区 難波5丁目1?60 なんばスカイオ2F,34.663675147554,135.50091596326
9515,"",枚方モール店,大阪府枚方市 岡東町１９－１ 枚方モール２階,34.81719350584,135.65000016704
9518,"",グラングリーン大阪店,大阪府大阪市北区大深町6番38号 グラングリーン大阪北館2F,34.7043676,135.493159
9526,"",エミテラス所沢店,埼玉県所沢市 東住吉１０番１号 エミテラス所沢３階,35.785861847616,139.47012084228
9529,"",住友不動産東京三田ガーデンタワー店,東京都港区 三田3-5-19,35.645062364451,139.74347744631
9538,"",成田赤十字病院店,千葉県成田市 飯田町90-1 アメニティー棟１階,35.765262341758,140.30381919617
9540,"",京阪京橋駅片町口店,大阪府大阪市都島区 東野田町2丁目1番38号,34.69700474807,135.53210070499
9544,"",郡山安積店,福島県郡山市安積荒井3丁目363,37.371208238731,140.36373580898
9545,"",セレオ八王子店,東京都八王子市 旭町1-1 セレオ八王子北館4階,35.656097749117,139.33912201185
9546,"",フォルテ富里店,千葉県富里市 御料９３１ー１,35.727923082021,140.35454601498
9568,"",なんばウォーク店,大阪府大阪市中央区難波2丁目虹のまち1－1号,34.6670283,135.4988038
9569,"",-SELECT- 三井アウトレットパーク マリンピア神戸店,兵庫県神戸市垂水区海岸通12-2 1階 13900,34.626328945883,135.04882570089
9570,"",＆TEA ラスカ平塚店,神奈川県平塚市宝町1-1,35.328426046124,139.35088817097
9571,"",福岡空港国際線ターミナル店,福岡県福岡市博多区大字青木 739 番地 福岡空港 国際線旅客ターミナルビル 1階到着ロビーエリア,33.585801501335,130.44420798544
9572,"",イオンモール猪名川店,兵庫県川辺郡猪名川町白金2丁目1番 イオンモール猪名川2F,34.901775335523,135.36432430046
9573,"",長津田店,神奈川県横浜市緑区長津田4-1-1,35.532024794194,139.49463867909
9587,"",CIAL PLAT東神奈川店,神奈川県横浜市神奈川区東神奈川1丁目29番　CIAL PLAT 東神奈川　2階,35.47799896292,139.63378782002
9598,"",琉球大学病院店,沖縄県宜野湾市字喜友名1076番地　琉球大学病院3階,26.289080834132,127.76668662306
9599,"",聖マリアンナ医科大学病院店,神奈川県川崎市宮前区菅生２丁目１６番１号 聖マリアンナ医科大学病院内,35.600512695592,139.54889052469
9600,"",東武ふじみ野駅店,埼玉県富士見市ふじみ野東１－２６－１,35.860765103529,139.52294306071
9603,"",東京テレポート駅店,東京都江東区青海1-2-1 東京テレポ－ト駅改札内,35.627409997586,139.77880464361
9632,"",ヨークパーク郡山店,福島県郡山市西ノ内2-11-40,37.407754621989,140.36403999662
9633,"",竹尾インター店,新潟県新潟市東区はなみずき3-3-1,37.914355855286,139.10315691527
9634,"",＆TEA 有明ガーデン店,東京都江東区有明2-1-8 ショッピングシティ有明ガーデン2階,35.637995966667,139.79226671183
