store_id,pref_id,shop_name,address,lat,lon
10,"",表参道・北青山店,東京都港区北青山3-10-7,35.6642295,139.7111026
1000,"",金沢北安江店,石川県金沢市北安江2-1536,36.5859153,136.6488477
1004,"",日の出町店,神奈川県横浜市中区日の出町1-2 スカイコート,35.4459608,139.6272184
1007,"",豊明店,愛知県豊明市前後町螺貝1389-1,35.058336,136.989891
1009,"",近江守山店,滋賀県守山市播磨田町441,35.0709638,135.9938991
1012,"",白梅町店,京都府京都市北区北野上白梅町61,35.0275445,135.731944
1018,"",南岩国店,山口県岩国市南岩国町1-24-8,34.1336494,132.2024227
1021,"",延岡店,宮崎県延岡市別府町3914-1,32.5658559,131.6824285
1022,"",アル・プラザ水口店,滋賀県甲賀市水口町本綾野566-1 アル・プラザ水口　1F,34.9768422,136.1712352
1023,"",恵み野店,北海道恵庭市恵み野西1-8-5,42.9027608,141.5779038
1024,"",札幌環状通東店,北海道札幌市東区北15条東14-3-1,43.0817731,141.3723375
1026,"",浜松有玉店,静岡県浜松市中央区有玉南町1601-1,34.7522578,137.7495684
103,"",近鉄八尾店,大阪府八尾市北本町2-1 ペントプラザ19号,34.629685,135.6039524
1030,"",北見とん田店,北海道北見市とん田東町390番地2,43.7992515,143.8785858
1035,"",旭川永山店,北海道旭川市永山3条5丁目75番21号,43.790803,142.4048183
1036,"",熊本植木店,熊本県熊本市北区植木町滴水35-9,32.8928769,130.6905224
1048,"",新津店,新潟県新潟市秋葉区新津4570-3,37.791808,139.1103433
1049,"",沼津香貫店,静岡県沼津市下香貫前原1478-8,35.0782357,138.8718423
1050,"",広島八木店,広島県広島市安佐南区八木2-13-14,34.4795507,132.493318
1058,"",アピタ富山東店,富山県富山市上冨居3-8-38,36.7093028,137.2402847
1059,"",豊田美里店,愛知県豊田市美里4-1-1,35.0797949,137.1805907
1062,"",北松戸店,千葉県松戸市上本郷3064,35.7939338,139.9188025
1070,"",天保山マーケットプレース店,大阪府大阪市港区海岸通り1- 1-10,34.6557892,135.4301254
1073,"",大牟田有明プラザ店,熊本県荒尾市原万田700-1,33.00075,130.4383733
1083,"",今市店,栃木県日光市森友807-1,36.7212526,139.7132686
1087,"",登川店,沖縄県沖縄市登川1-1-7,26.3673877,127.8181717
1089,"",高松今里店,香川県高松市今里町4-5,34.3234268,134.0580679
1090,"",日田店,大分県日田市三本松2-6-25,33.3200471,130.9307968
1097,"",山陽明石駅店,兵庫県明石市大明石町1-4-3 山陽電車明石駅構内,34.648601,134.9932353
110,"",浅草店,東京都台東区浅草1-1-17,35.711085,139.7976057
1101,"",別府亀川バイパス店,大分県別府市上人ケ浜380-1,33.3167676,131.499717
1105,"",八代松江店,熊本県八代市松江町235-1,32.512969,130.5981512
1106,"",鹿屋店,鹿児島県鹿屋市札元2-3826-8,31.3983799,130.8721427
111,"",堺百舌鳥店,大阪府堺市北区百舌鳥陵南町2-686,34.545072,135.4888687
112,"",溝ノ口店,神奈川県川崎市高津区溝口1-10-1,35.6001747,139.6113244
1124,"",草加駅前店,埼玉県草加市高砂2-7-1 アコス南館1F,35.8277983,139.8045742
1126,"",小田原国府津店,神奈川県小田原市小八幡3-18-7,35.2752824,139.2030299
1129,"",鎌倉店,神奈川県鎌倉市小町1-4-26,35.3180607,139.5512194
1131,"",桜新町店,東京都世田谷区桜新町2-10-2,35.6316659,139.6438566
1134,"",大村松並店,長崎県大村市松並2-1224-1,32.9218496,129.9488921
1141,"",八戸田面木店,青森県八戸市大字田面木字下田面木3-1,40.4990875,141.4500745
1143,"",長岡川崎店,新潟県長岡市東栄1-1-30,37.4578577,138.8628221
1144,"",紋別店,北海道紋別市落石町4丁目-32-30,44.3621094,143.3349856
1148,"",船橋芝山店,千葉県船橋市芝山4-1,35.720433,140.0199844
1150,"",倉吉店,鳥取県倉吉市山根572-1,35.4489803,133.8491637
1151,"",熊本人吉店,熊本県人吉市鬼木町640-3,32.2248544,130.7671603
1153,"",札幌篠路店,北海道札幌市北区篠路3条1-1-10,43.1460809,141.3504081
1160,"",みずほPayPayドーム福岡店,福岡県福岡市中央区地行浜2-2-2 福岡ドーム,33.5942532,130.3621937
1162,"",むつ店,青森県むつ市中央2-7-10,41.2871009,141.1840424
1166,"",神戸学園都市店,兵庫県神戸市西区学園西町1-5 キャンパススクエア東館,34.6827079,135.0578569
1168,"",松原店,大阪府松原市上田3-6-1 ユメニティ松原,34.5749488,135.5573827
1174,"",槙島店,京都府宇治市槙島町35-46,34.9127426,135.7834016
1175,"",彦根大藪店,滋賀県彦根市長曽根南町笹塚468-1,35.2641559,136.2430438
1176,"",栗東店,滋賀県栗東市高野194-1,35.0310757,136.0142348
1178,"",吉川駅前店,埼玉県吉川市保1-13-3 吉川駅前ショッピングプラザ,35.8782662,139.8441977
118,"",泉大津店,大阪府泉大津市松ノ浜町1-2-2,34.511573,135.4168937
1181,"",鈴鹿中央通り店,三重県鈴鹿市西条町402-1,34.8755388,136.568232
1188,"",イオン高槻店,大阪府高槻市萩之庄3-47-2,34.8582093,135.6438603
1190,"",三島北店,静岡県三島市萩268-2,35.1490734,138.9084454
1192,"",アピア八日市店,滋賀県東近江市八日市浜野町3-1 アピア　4F,35.1147806,136.1969958
1193,"",JR博多店,福岡県福岡市博多区博多駅中央街1-1-4-6,33.590704,130.4203174
1198,"",尾道店,広島県尾道市栗原町6050-1,34.4243729,133.1872511
1199,"",新潟出来島店,新潟県新潟市中央区上近江4-12-20,37.8985641,139.0289382
1201,"",本牧店,神奈川県横浜市中区本牧原15-6,35.4237791,139.6656806
1206,"",イオン豊科店,長野県安曇野市豊科4268-1,36.3020145,137.9090421
121,"",大泉学園店,東京都練馬区東大泉1-37-12,35.7511588,139.5859
1211,"",箕面店,大阪府箕面市牧落1-7-36,34.8252457,135.4713138
1213,"",古川橋店,大阪府門真市柳田町5-14,34.7339612,135.5932674
1214,"",宝塚インター店,兵庫県宝塚市安倉北2-18-15,34.804103,135.3729286
1218,"",原町店,群馬県吾妻郡東吾妻町大字原町761-2,36.5754491,138.8289793
1227,"",呉店,広島県呉市中央1-6-10,34.244552,132.5598638
1235,"",JR鹿児島中央店,鹿児島県鹿児島市中央町1-1 アミュプラザ鹿児島プレミアム館１階,31.5836187,130.5426241
1237,"",ウイング上大岡店,神奈川県横浜市港南区上大岡西1-6-1 ウィング上大岡B-131,35.4084784,139.5962342
124,"",川崎生田店,神奈川県川崎市多摩区生田3-13-13,35.6218321,139.5497682
125,"",相模原中央店,神奈川県相模原市中央区中央2-13-1,35.5727301,139.3734158
1253,"",イオンモール桑名店,三重県桑名市新西方1-22 イオンモール桑名1番街,35.0721246,136.6630668
1257,"",桐生広沢店,群馬県桐生市広沢町4-2050-1,36.3819335,139.3404262
126,"",新座野火止店,埼玉県新座市野火止8-1-16,35.7974607,139.5673557
1262,"",伊那店,長野県伊那市日影435-1,35.837877,137.9730627
1264,"",長野エムウェーブ前店,長野県長野市大字北長池字牧田273-1,36.6422658,138.2435854
1271,"",小禄店,沖縄県那覇市赤嶺1-4-4,26.1939582,127.6627349
1272,"",美東泡瀬店,沖縄県沖縄市泡瀬4-5-5,26.3218483,127.8301251
1273,"",イオン伊達店,北海道伊達市末永町8番地1,42.4734897,140.8620982
1276,"",江戸崎パンプ店,茨城県稲敷市大字江戸崎甲4836,35.9592172,140.31589
1278,"",イオン静内店,北海道日高郡新ひだか町静内末広町2丁目1番1号,42.3430905,142.3555508
1283,"",JR宮崎店,宮崎県宮崎市錦町1-8,31.9151603,131.4319876
1285,"",イオン小樽店,北海道小樽市築港11-6,43.184643,141.0221936
1288,"",トリアス久山店,福岡県糟屋郡久山町山田1054-1,33.6539354,130.4912712
129,"",上野池ノ端店,東京都台東区上野2-12-23,35.7096822,139.7728683
1292,"",イオンモール倉敷店,岡山県倉敷市水江1,34.602029,133.7460628
1296,"",イオンタウン松ヶ崎店,千葉県柏市大山台1-6,35.8793822,139.9675091
1298,"",釧路十条店,北海道釧路市鳥取大通り2-2-8,43.010089,144.3607511
1299,"",二子玉川店,東京都世田谷区玉川2-22-13,35.612404,139.627083
13,"",荻窪店,東京都杉並区上荻1-8-10,35.7049901,139.6204551
1300,"",海老名店,神奈川県海老名市中央1-19-30,35.4515987,139.3966627
1305,"",イオン天草店,熊本県天草市亀場町食場740,32.4348657,130.1785528
1306,"",イオン小千谷店,新潟県小千谷市大字平沢新田字荒田339,37.3193458,138.7958624
1309,"",イオン八街店,千葉県八街市文違301-3-6,35.6802804,140.3113525
1310,"",ゆめタウン博多店,福岡県福岡市東区東浜1-1-1,33.6115062,130.4116804
1312,"",グラード伊集院店,鹿児島県日置市伊集院町徳重3-11-1,31.6302493,130.3986528
1313,"",イオンタウン郡山店,福島県郡山市松木町2-88 イオンタウン郡山G棟,37.3910644,140.3884713
1314,"",大館店,秋田県大館市根下戸新町18-86,40.2744671,140.5300176
1322,"",宇都宮アピタ店,栃木県宇都宮市江曽島本町22-7,36.5318156,139.866895
1324,"",イオン千葉ニュータウン店,千葉県印西市中央北3-1-1,35.802309,140.1138103
1328,"",イオンタウン大田店,島根県大田市長久町土江97,35.1986029,132.4820623
1330,"",福井幾久店,福井県福井市二の宮1-1-114,36.0847069,136.2270586
1332,"",ビバシティ彦根店,滋賀県彦根市竹ヶ鼻町43-1 ビバシティ彦根　1F,35.243714,136.2513031
1335,"",東広島フジグラン店,広島県東広島市西条町御薗宇4405,34.4082419,132.7496131
1336,"",郡山西部プラザ店,福島県郡山市西ノ内2-11-35,37.4074658,140.362988
1337,"",アピタ新潟亀田店,新潟県新潟市江南区鵜ノ子4-466,37.8719169,139.0891965
1338,"",川内店,鹿児島県薩摩川内市永利町712 　タイヨー永利内,31.810027,130.332878
1339,"",イオンモール山形南店,山形県山形市若宮3丁目7番8号,38.2268848,140.3059398
1341,"",徳島沖浜店,徳島県徳島市沖浜3-8,34.0502709,134.5517061
1342,"",徳島川内店,徳島県徳島市川内町大松333-1,34.117482,134.5779
1343,"",赤井店,大阪府大東市氷野2-1-20,34.7103138,135.6179563
1344,"",芦原橋店,大阪府大阪市浪速区塩草3-12-9,34.6594313,135.4898368
1348,"",トキハわさだタウン店,大分県大分市大字玉沢楠本755-1,33.1886786,131.5817864
1350,"",甲子園口店,兵庫県西宮市甲子園口2-1-34,34.7385363,135.3755633
1354,"",MEGAドン・キホーテUNY掛川店,静岡県掛川市大池2826,34.7728512,137.989568
1356,"",イオン六日町店,新潟県南魚沼市余川3100,37.0811186,138.8785543
1361,"",昭和バイパス飯喰店,山梨県中巨摩郡昭和町飯喰189-1,35.624684,138.524437
1364,"",ゆめタウン益田店,島根県益田市高津町7-21-22,34.6899632,131.8167269
1366,"",姫路保城店,兵庫県姫路市保城579-1,34.8561728,134.7195177
1367,"",姫路土山店,兵庫県姫路市土山1-6-20,34.8318624,134.6750827
138,"",本一色店,東京都江戸川区本一色2-23-17,35.7171252,139.8749878
1381,"",岡山新保店,岡山県岡山市南区新保661-10,34.6316277,133.9065458
1383,"",イオンモール宇城店,熊本県宇城市小川町河江1-1,32.5977099,130.7031612
1384,"",石山店,滋賀県大津市松原町9-14 　平和堂石山店駐車場内,34.978768,135.9043912
139,"",上新庄店,大阪府大阪市東淀川区上新庄2-24-24,34.7480955,135.5331172
1392,"",姫路リバーシティ店,兵庫県姫路市飾磨区細江2560,34.7983162,134.6679331
1402,"",パークプレイス大分店,大分県大分市公園通り西2-1,33.1950659,131.6583987
1406,"",イオン札幌元町店,北海道札幌市東区北31条東15-1-1,43.1014308,141.3683891
1409,"",MEGAドン・キホーテUNY魚津店,富山県魚津市住吉556,36.8060857,137.4067038
1410,"",イオン浜松西店,静岡県浜松市中央区入野町6244-1,34.6990443,137.6897944
1412,"",南草津駅前店,滋賀県草津市野路1-15-5フェリエ南草津内1F,35.003008,135.9477141
1415,"",イオン大塔店,長崎県佐世保市大塔町14-2,33.1486407,129.7800494
1418,"",若松二島店,福岡県北九州市若松区二島1-4-10,33.89015,130.743552
142,"",保谷店,東京都西東京市保谷町3-18-23,35.7317157,139.5507403
1421,"",太子店,兵庫県揖保郡太子町東出144-3,34.8329486,134.5976682
1424,"",町田金井店,東京都町田市金井ヶ丘4-47-27,35.5815191,139.4703295
1425,"",しおだ野店,長野県上田市大字小島字下小島574-10,36.382567,138.2108125
1426,"",フレスタ横川店,広島県広島市西区横川町3-2-36,34.4096199,132.4493119
1433,"",京橋店,大阪府大阪市都島区東野田町2-1-38京阪モール西館,34.6971207,135.532013
1434,"",アピタ新潟西店,新潟県新潟市西区小新5-7-21,37.880552,139.003324
1435,"",出水店,鹿児島県出水市六月田町333,32.1045406,130.345156
1436,"",イオン都城店,宮崎県都城市早鈴町1990,31.7147449,131.0759703
1439,"",西新井店,東京都足立区梅島3-32-6,35.7772436,139.7908055
144,"",枚方バイパス店,大阪府枚方市堂山東町1-34,34.8148326,135.6704941
1440,"",高林店,群馬県太田市高林寿町1809 -25,36.2630818,139.3767095
1442,"",千歳烏山店,東京都世田谷区南烏山6-4-30 SNビル内,35.668348,139.600459
1445,"",金町店,東京都葛飾区東金町1-24-6,35.7699347,139.8696426
1448,"",聖蹟桜ヶ丘店,東京都多摩市関戸1-11-1 京王ストアー内,35.6505518,139.44747
1449,"",深谷店,埼玉県深谷市上柴町東4-16-19,36.1809528,139.3012855
1450,"",館林店,群馬県館林市東美園町18-4,36.2341344,139.5414992
1451,"",加須店,埼玉県加須市北小浜103,36.1251794,139.617903
1452,"",行田店,埼玉県行田市大字持田2229-1,36.135628,139.4317261
1453,"",総和店,茨城県古河市西牛谷1626-1,36.2011158,139.7309522
1454,"",小山南店,栃木県小山市西城南3-1-10,36.2999171,139.8067453
1456,"",八王子堀之内店,東京都八王子市堀之内3-30-3,35.626431,139.399666
1458,"",青砥駅店,東京都葛飾区青戸3-36-1 青砥ショッピングセンター内,35.7456956,139.8561759
1459,"",宇都宮簗瀬店,栃木県宇都宮市東簗瀬1-28-27,36.5427709,139.9012858
1460,"",福田屋ショッピングプラザ店,栃木県宇都宮市今泉町237,36.5738496,139.9002851
1461,"",鹿沼店,栃木県鹿沼市貝島町506-2,36.5613639,139.7666553
1462,"",秩父店,埼玉県秩父市中宮地町21-6,36.0062792,139.0917375
1463,"",東久留米店,東京都東久留米市中央町2-6-43,35.7565148,139.5211827
1465,"",綾瀬店,東京都足立区綾瀬3-1-18,35.7623382,139.8266418
1466,"",葛飾白鳥店,東京都葛飾区白鳥4-4-10,35.7508111,139.8485889
1467,"",亀有店,東京都葛飾区亀有3-21-6,35.7653759,139.8484023
1472,"",アル・プラザ醍醐店,京都府京都市伏見区醍醐高畑町1-37　アル・プラザ醍醐　1F,34.950975,135.8110908
1473,"",宮古店,沖縄県宮古島市平良字西里973-1,24.7974666,125.2934263
1474,"",ゆめタウン久留米店,福岡県久留米市新合川1-2-1,33.3217804,130.5384058
1475,"",JR行橋店,福岡県行橋市西宮市2丁目1番1号,33.7289519,130.9700257
1476,"",アル・プラザ亀岡店,京都府亀岡市篠町野条上又11-1アル・プラザ亀岡,35.0018595,135.6025094
1477,"",飯田店,長野県飯田市鼎名古熊590-7,35.4991959,137.816142
1478,"",イオンモール香椎浜店,福岡県福岡市東区香椎浜3-12-1,33.6569842,130.4295076
1484,"",アクトアモーレ高槻店,大阪府高槻市芥川1丁目2番アクト・アモーレC-106,34.8523023,135.6159415
1488,"",成田ニュータウン店,千葉県成田市江弁須490-2,35.7699372,140.2984254
1489,"",JR門司店,福岡県北九州市門司区中町2-1,33.9040968,130.9332239
1490,"",佐倉店,千葉県佐倉市表町3-20-6,35.7122919,140.2306349
1491,"",イオンタウン七光台店,千葉県野田市七光台4-2,35.9817091,139.8528903
1495,"",イオンモール福岡店,福岡県糟屋郡粕屋町酒殿字老ノ木192-1,33.5969384,130.4804616
1497,"",檀田店,長野県長野市檀田2-21-7,36.6755807,138.2103927
1498,"",アル・プラザ鯖江店,福井県鯖江市下河端町16 アル・プラザ鯖江　1F,35.9689973,136.189156
151,"",本八幡店,千葉県市川市八幡2-5-2 二葉屋ビル,35.7223242,139.9273696
152,"",池田店,大阪府池田市城南1-9-16,34.8191428,135.4314322
154,"",百合ヶ丘店,神奈川県川崎市麻生区百合ケ丘1-21 小田急マルシエビル,35.6087969,139.5160763
155,"",新宿西口店,東京都新宿区西新宿1-2-10,35.6929591,139.6994212
162,"",高円寺店,東京都杉並区高円寺南3-70-1,35.7053217,139.64929
164,"",蘇我店,千葉県千葉市中央区南町1-2-12,35.5856339,140.1309409
167,"",横浜西口店,神奈川県横浜市西区南幸2-7-18,35.4643953,139.6186382
17,"",国分寺店,東京都国分寺市本町2-10-6,35.7011326,139.4812024
171,"",立川店,東京都立川市曙町2-12-16,35.6990865,139.4147182
176,"",モリタウン昭島店,東京都昭島市代官山2丁目3番1号,35.7134129,139.3623527
178,"",南加瀬店,神奈川県川崎市幸区南加瀬4-30-17,35.5417515,139.6615647
183,"",長吉店,大阪府大阪市平野区長吉長原東1-1-41,34.6062644,135.5737076
184,"",練馬駅前店,東京都練馬区豊玉北5-19-13,35.7370811,139.6537609
185,"",千里丘店,大阪府摂津市千里丘2-12-28,34.7906037,135.5477708
187,"",岸谷店,神奈川県横浜市鶴見区岸谷2-20-3,35.4979572,139.6619435
194,"",池袋西口店,東京都豊島区西池袋1-24-1,35.7317861,139.7102739
196,"",越谷駅前店,埼玉県越谷市弥生町3-24,35.8882092,139.7864908
197,"",洋光台店,神奈川県横浜市磯子区洋光台5-1-35,35.3781247,139.59544
20,"",中野駅前店,東京都中野区中野5-62-6,35.7065112,139.6662699
205,"",浦安店,千葉県浦安市北栄1-16-16 折本ビル,35.6652306,139.8933659
206,"",狭山亀の甲店,大阪府大阪狭山市茱萸木3-97-2,34.4976252,135.5472238
208,"",子母口店,神奈川県川崎市高津区明津200,35.5687219,139.6367077
212,"",尼崎西店,兵庫県尼崎市浜田町5-78,34.7265357,135.3976921
217,"",野庭丸山台店,神奈川県横浜市港南区丸山台2-33-22,35.395975,139.565368
219,"",武蔵境店,東京都武蔵野市境南町2-3-4,35.7012739,139.5443235
220,"",浦和六辻店,埼玉県さいたま市南区根岸5-24-6,35.8397864,139.6600442
222,"",蓮田店,埼玉県蓮田市西新宿1-15,36.0023891,139.6553936
223,"",新小岩店,東京都葛飾区新小岩1-48-5,35.7163064,139.8589485
225,"",小野原店,大阪府箕面市粟生新家3-3-29,34.8359384,135.5146398
231,"",三ツ境店,神奈川県横浜市瀬谷区三ツ境2-19,35.4681852,139.5027617
236,"",学園前店,奈良県奈良市学園北1-1-12,34.6976783,135.7497666
24,"",成城店,東京都世田谷区成城2-35-10,35.639747,139.599638
241,"",相模原大野台店,神奈川県相模原市南区大野台6-5-14,35.5537671,139.4145245
246,"",大和新庄店,奈良県葛城市東室149-1,34.4957377,135.7347203
247,"",所沢駅前店,埼玉県所沢市日吉町2-2,35.7872085,139.4727911
25,"",伊勢佐木町店,神奈川県横浜市中区伊勢佐木町1-2-1,35.4450726,139.6338929
255,"",東金バイパス店,千葉県東金市東上宿2-28,35.55543,140.3668859
260,"",北花田店,大阪府堺市北区北花田町3-17-2,34.583197,135.5165942
263,"",清瀬駅前店,東京都清瀬市松山1-5-2,35.7713778,139.5198234
265,"",湘南台店,神奈川県藤沢市湘南台1-4-1,35.3969606,139.4674237
266,"",小平駅前店,東京都小平市美園町1-15-6 富麻ビル,35.7361604,139.4881252
273,"",君津店,千葉県君津市南子安6-21-15,35.3263956,139.9242971
276,"",西川口店,埼玉県川口市並木3-1-1,35.8159918,139.7049526
278,"",緑園都市店,神奈川県横浜市泉区緑園3-1-1,35.4394182,139.5216562
289,"",明姫別府店,兵庫県加古川市別府町別府字西ノ名904,34.7366387,134.8500594
290,"",相模原相原店,神奈川県相模原市緑区相原4-12-13,35.5986248,139.3214994
299,"",三鷹駅前店,東京都三鷹市下連雀3-27-15,35.7015722,139.5611487
30,"",高田馬場店,東京都新宿区高田馬場1-28-10,35.7121787,139.7046843
300,"",光が丘IMA店,東京都練馬区光が丘5-1-1 IMA2F,35.7594048,139.6287688
3001,"",新鎌ヶ谷店,千葉県鎌ケ谷市新鎌ヶ谷2-9-4,35.780038,140.0001516
3004,"",ヨークタウン坂東店,茨城県坂東市辺田1104-1,36.0373773,139.890463
3005,"",マルナカ益野店,岡山県岡山市東区益野30-1,34.6591712,133.9983687
3007,"",シーサイドモール笠岡店,岡山県笠岡市笠岡2388,34.5028501,133.505508
3008,"",津山イーストランド店,岡山県津山市川崎138,35.0597126,134.0285333
3012,"",イオンスーパーセンター十和田店,青森県十和田市大字相坂字六日町山166-1,40.6037977,141.2573175
3014,"",福井ベル店,福井県福井市花堂南2-16-1 ベルショッピングセンター内,36.0338339,136.2120252
3016,"",MEGAドン.キホーテUNY会津若松店,福島県会津若松市幕内南町9-10,37.483493,139.904384
3018,"",イオンモール柏店,千葉県柏市豊町2丁目5番25号,35.8518475,139.9617942
3020,"",イオンモール盛岡南店,岩手県盛岡市本宮7-1-1,39.6834131,141.1279462
3021,"",イオンモール発寒店,北海道札幌市西区発寒8条12丁目1番1号,43.0959881,141.2770489
3023,"",イオンフードスタイル新松戸店,千葉県松戸市新松戸3-2-2　1F,35.8258397,139.9160818
3024,"",ゆめタウン佐賀店,佐賀県佐賀市兵庫北5-14-1,33.2756206,130.3079261
3025,"",リオンドール須賀川東店,福島県須賀川市仲の町40-1,37.2978993,140.3812899
3026,"",けやきウォーク前橋店,群馬県前橋市文京町2-1-1,36.3788519,139.0785932
3027,"",上田店,長野県上田市踏入2-1223,36.3903348,138.2603356
3028,"",イオンスーパーセンター一関店,岩手県一関市狐禅寺字石の瀬11-1,38.939678,141.153476
3029,"",ゆめタウン中津店,大分県中津市大字島田134-1,33.6023631,131.1943732
3031,"",リバーサイド千秋店,新潟県長岡市千秋2-278,37.460883,138.8267494
3035,"",イオン米沢店,山形県米沢市春日町2-13-4,37.9230232,140.1084682
3037,"",アステ川西店,兵庫県川西市栄町25-1　アステ川西1F,34.8265301,135.41296
3043,"",下館店,茨城県筑西市西谷貝沼堀347,36.3094492,139.9665922
3044,"",イオンモール八千代緑が丘店,千葉県八千代市緑が丘2-1-3,35.7282644,140.0739697
3046,"",イオン那須塩原店,栃木県那須塩原市島方455番地,36.9287747,140.0049753
3048,"",船橋駅前店,千葉県船橋市本町4-45-22,35.7001902,139.9863422
305,"",高島平店,東京都板橋区高島平8-4-2 プラザタカシマ,35.789233,139.6613027
3050,"",高松屋島店,香川県高松市屋島西町1981-1,34.3362795,134.0979192
3062,"",イオン相馬店,福島県相馬市馬場野字雨田51,37.7874993,140.9318145
3063,"",イオンタウン弘前樋の口店,青森県弘前市樋の口2-9-6,40.6027285,140.4440698
3064,"",アピタ阿久比店,愛知県知多郡阿久比町大字椋岡字徳吉1番地12,34.9211239,136.9209066
3065,"",R6日立金沢町店,茨城県日立市金沢町2-3-21,36.545253,140.6226963
3066,"",姫路南店,兵庫県姫路市飾磨区三宅1-3,34.8114244,134.6819232
3068,"",氏家店,栃木県さくら市卯の里3-42-2,36.6794414,139.9603211
307,"",河辺店,東京都青梅市野上町3-1-7,35.7886849,139.2875341
3071,"",勝田稲田店,茨城県ひたちなか市稲田1059,36.4312143,140.5237828
3072,"",ラザウォーク甲斐双葉店,山梨県甲斐市志田字柿木645-1,35.6847457,138.4832894
3076,"",イオンモール秋田店,秋田県秋田市御所野地蔵田1-1-1,39.6640273,140.1599197
3077,"",板宿店,兵庫県神戸市須磨区平田町2-2-9　森岡ビル,34.660331,135.1344482
3078,"",水戸元吉田町店,茨城県水戸市元吉田町1959,36.341512,140.479729
3079,"",函南店,静岡県田方郡函南町間宮字西前道越446番1,35.0831812,138.938057
3080,"",兵庫豊岡店,兵庫県豊岡市船町346-1,35.5539694,134.8150108
3083,"",八重瀬店,沖縄県島尻郡八重瀬町伊覇243,26.1609654,127.7223396
3084,"",イオン北上江釣子店,岩手県北上市北鬼柳19-68,39.2931864,141.0943558
3085,"",西鈴蘭台店,兵庫県神戸市北区北五葉1-2-3,34.7262053,135.1363655
3086,"",アル・プラザあまがさき店,兵庫県尼崎市潮江1-3-1 アル・プラザあまがさき1F,34.7334866,135.4303136
3087,"",MEGAドン．キホーテ上水戸店,茨城県水戸市上水戸2-9-10,36.3896008,140.4453729
3088,"",東武練馬駅前店,東京都板橋区徳丸2-3-1　徳丸スクエア2F,35.7690579,139.6618955
3089,"",浜町中央店,長崎県長崎市浜町7-4,32.743807,129.8782319
3091,"",玉津店,兵庫県神戸市西区玉津町小山190-1,34.681136,134.9820152
3092,"",大宮大和田店,埼玉県さいたま市見沼区大和田町1-497-1,35.9242997,139.6476604
3093,"",セラビ幸町店,宮城県仙台市宮城野区大梶7-10,38.2723458,140.9002761
3094,"",仙台駅前店,宮城県仙台市青葉区中央1-8-38 AKビル,38.2619298,140.8804981
3095,"",名取バイパス店,宮城県名取市田高字沢目427,38.178159,140.8907504
3096,"",古川店,宮城県大崎市古川駅東2-5-13,38.5753129,140.9698517
31,"",八王子店,東京都八王子市東町13-10,35.6587977,139.3383051
3100,"",イオンタウン矢本店,宮城県東松島市小松字上浮足43番地　イオンタウン矢本SC駐車場内DT店舗,38.4255925,141.2027502
3101,"",上尾駅前店,埼玉県上尾市谷津2-1-50-1 上尾協和ビル1F,35.972969,139.5874504
3103,"",ゆめタウン八女店,福岡県八女市大字蒲原988-28,33.2156033,130.5472494
3104,"",寒川町倉見店,神奈川県高座郡寒川町倉見1083-3,35.392859,139.380461
3106,"",平塚四之宮店,神奈川県平塚市四之宮6-4-36,35.358874,139.3581974
3107,"",愛甲石田店,神奈川県伊勢原市石田598-1,35.417398,139.3432106
3108,"",国分店,鹿児島県霧島市国分野口西5-22,31.7391132,130.7444471
3111,"",イオン洛南店,京都府京都市南区吉祥院御池町31　1F,34.9756909,135.7367353
3112,"",イオン武富店,沖縄県糸満市武富仲間田原194番地,26.165754,127.6922769
3113,"",天神サザン通り店,福岡県福岡市中央区天神2丁目10-14,33.5899203,130.3983962
3115,"",秦野店,神奈川県秦野市落合353,35.3799479,139.2333603
3116,"",小諸店,長野県小諸市三和1-3044-1,36.3310409,138.4304242
3117,"",JR久留米店,福岡県久留米市城南町2-34,33.3198963,130.5019147
3118,"",JR姫路駅店,兵庫県姫路市豆腐町222　ピオレごちそう館内,34.8266882,134.6918825
3123,"",トレッサ横浜店,神奈川県横浜市港北区師岡町700番地 トレッサ横浜　南棟,35.5247243,139.645739
3124,"",倉敷中庄店,岡山県倉敷市中庄2305-6,34.6262584,133.798776
3125,"",諫早長野町店,長崎県諫早市長野町1532-1,32.8330843,130.079516
3126,"",ゆめタウン徳島店,徳島県板野郡藍住町奥野字東中須88番の1  　ゆめタウン徳島,34.1189705,134.5015152
3128,"",北谷店,沖縄県中頭郡北谷町美浜3-22-3,26.3229966,127.7566439
3129,"",CoCoLo新潟店,新潟県新潟市中央区花園1-1-21,37.9116965,139.0629667
3131,"",フジグラン神辺店,広島県福山市神辺町大字新道上字二丁目10番26号　フジグラン神辺敷地駐車場内,34.5451528,133.3584639
3132,"",イオンモール熊本店,熊本県上益城郡嘉島町大字上島字長池2232 イオンモール熊本店内,32.7378476,130.7449031
3134,"",イオン多賀城店,宮城県多賀城市町前4-1-1 イオン多賀城店内1F,38.2824114,141.0046281
3135,"",茅ヶ崎西久保店,神奈川県茅ヶ崎市西久保831,35.3488006,139.3972522
3136,"",イオンモール浜松市野店,静岡県浜松市中央区天王町字諏訪1981-3 イオンモール浜松市野店2階フードコート,34.739943,137.7626883
3139,"",村上インター店,新潟県村上市上助渕1010,38.2071224,139.4803443
3141,"",イオンモール久御山店,京都府久世郡久御山町森南大内156-1 　2階,34.8932047,135.7465276
3148,"",新潟新通店,新潟県新潟市西区大野字村上176番4,37.8640067,138.9526953
3149,"",アル・プラザ アミ店,福井県坂井市春江町随応寺16-11  アル・プラザ　アミ,36.1347604,136.2196394
3150,"",イオンモール福津店,福岡県福津市日蒔野6丁目16番地の1,33.7544247,130.4949127
3152,"",那珂川店,福岡県那珂川市道善1-9-2,33.5145417,130.426236
3153,"",塩尻店,長野県塩尻市大字広丘野村1787-33,36.1352453,137.9547136
3154,"",松江店,島根県松江市学園南1-22-17,35.4724552,133.0642142
3156,"",イトーヨーカドー湘南台店,神奈川県藤沢市石川6-2-1,35.3925587,139.4466025
3157,"",伊勢原店,神奈川県伊勢原市桜台１-２-３,35.3949762,139.3137106
3158,"",イオンモールＫＹＯＴＯ店,京都府京都市南区西九条鳥居口町１,34.9820474,135.7546304
3159,"",吉野ヶ里店,佐賀県神埼郡吉野ヶ里町田手1663-1,33.3206386,130.3921312
3160,"",イオンモール船橋店,千葉県船橋市山手1-1-8,35.7116072,139.9788322
3162,"",門前仲町店,東京都江東区富岡1-8-18,35.6719509,139.7964774
3163,"",イオン八戸田向店,青森県八戸市大字田向3丁目5-1イオン八戸田向,40.4922541,141.5096998
3164,"",フジグラン西条店,愛媛県西条市新田字北新田235,33.9263855,133.1832912
3165,"",モレラ岐阜店,岐阜県本巣市三橋1100-1 モレラ岐阜1F,35.4542931,136.6728679
3166,"",河原町三条店,京都府京都市中京区河原町六角上ル大黒町５９,35.0077888,135.7692071
3167,"",具志川店,沖縄県うるま市安慶名１番９-４,26.3728495,127.8531883
3169,"",イオンモールナゴヤドーム前店,愛知県名古屋市東区矢田南4-102-3イオンモール名古屋ドーム前,35.1871593,136.9451271
3170,"",前橋野中店,群馬県前橋市野中町104-1,36.380273,139.1070436
3172,"",飯塚秋松店,福岡県飯塚市秋松864-1,33.6177529,130.6710615
3173,"",巣鴨店,東京都豊島区巣鴨1-18-8 巣鴨ＳＹマンション,35.7325274,139.7393524
3174,"",駒込店,東京都豊島区駒込1-43-14 ＳＫビル,35.7354837,139.7467154
3176,"",イオンモール水戸内原店,茨城県水戸市内原2-1,36.375034,140.3591788
3177,"",ライフ相模大野駅前店,神奈川県相模原市南区相模大野3-2-1ライフ相模大野内,35.5311356,139.4351367
3178,"",イオンモール東久留米店,東京都東久留米市南沢5-17-62 3F,35.7451556,139.5275061
3179,"",名張店,三重県名張市瀬古口字丁ノ坪219-1,34.6145028,136.0893646
3180,"",浦添店,沖縄県浦添市港川２５４,26.2649278,127.7140806
3183,"",イオンモール春日部店,埼玉県春日部市下柳420-1 2F,35.9884205,139.7898016
3184,"",イオンモール高知店,高知県高知市秦南町1-4-8,33.5765393,133.5425899
3185,"",下関駅前店,山口県下関市竹崎町4-3-1,33.9505856,130.9228198
3186,"",フジグラン野市店,高知県香南市野市町西野2007番地１　フジグラン野市駐車場内,33.5616057,133.6973555
3188,"",イオンモール大阪ドームシティ店,大阪府大阪市西区千代崎3-13-1　イオンモール大阪ドームシティ4Fフードコート内,34.6703964,135.4779693
3190,"",上板橋店,東京都板橋区常盤台4-32-6ドミール常盤台,35.7638801,139.6773412
3191,"",佐賀白石店,佐賀県杵島郡白石町東郷1303,33.1915421,130.1406824
3192,"",熊本玉名店,熊本県玉名市中字寺畑1680-3,32.9282906,130.5479335
3193,"",仙台六丁の目店,宮城県仙台市若林区六丁の目南町8-1,38.2506329,140.9390664
3197,"",島忠ホームズ草加舎人店,埼玉県草加市遊馬町2-1,35.8184731,139.7679955
3198,"",小牧店,愛知県小牧市山北町45,35.2947778,136.9141604
3200,"",イオン小郡店,福岡県小郡市大保17-1,33.4088132,130.5639744
3201,"",させぼ五番街店,長崎県佐世保市新港町1-5,33.1655536,129.722338
3202,"",イオンモール東員店,三重県員弁郡東員町大字長深字築田510-1,35.0614022,136.5797129
3204,"",イオンモール天童店,山形県天童市芳賀タウン北四丁目１番１号　イオンモール天童２F,38.3437235,140.3633884
3206,"",東松戸店,千葉県松戸市東松戸2-158,35.7703558,139.9435523
3207,"",くずはモール店,大阪府枚方市楠葉花園町１０-８５,34.8602039,135.6761366
3208,"",宮崎台店,神奈川県川崎市宮前区宮崎2-10-12,35.5870632,139.5911024
3209,"",ゆめタウン広島店,広島県広島市南区皆実町2-8-17,34.3759625,132.4635898
3210,"",イオンモール名古屋茶屋店,愛知県名古屋市港区西茶屋2-11　イオンモール名古屋茶屋3Ｆフードコート内,35.1039097,136.8250835
3211,"",イオンモール大高店,愛知県名古屋市緑区南大高2丁目450番地,35.0534781,136.9471778
3213,"",ゆめタウン大江店,熊本県熊本市中央区大江3-2-40,32.8030934,130.7251856
3214,"",山鹿店,熊本県山鹿市大橋通305,33.0129382,130.6855791
3215,"",イオンモール京都桂川店,京都府京都市南区久世高田町３７６  イオンモール京都桂川３Ｆ,34.963443,135.7082879
3225,"",サニーアクシス南国店,高知県南国市大そね乙1009-1,33.5660072,133.6483801
3226,"",イオンタウン富士南店,静岡県富士市鮫島118-10,35.1397555,138.675776
3227,"",イオンタウン黒崎店,福岡県北九州市八幡西区西曲里町3-1,33.8601688,130.7603432
3228,"",上越高田インター店,新潟県上越市上中田780-3,37.0902411,138.2330427
3229,"",MOMOテラス店,京都府京都市伏見区桃山町山ノ下３２　ＭＯＭＯ２Ｆ,34.9371447,135.7947364
3230,"",イオンタウン田崎店,熊本県熊本市西区田崎字下寄380,32.7842994,130.6779739
3231,"",アルティモール東神楽店,北海道上川郡東神楽町ひじり野南1条6丁目1番1号,43.7230255,142.4076403
3233,"",アミュプラザ大分店,大分県大分市要町1-14　アミュプラザ大分,33.2331459,131.6063255
3234,"",真美ヶ丘店,奈良県北葛城郡広陵町馬見中4-1-1,34.546124,135.724876
3235,"",岩出店,和歌山県岩出市中迫１３１,34.2614208,135.3169209
3236,"",和歌山パームシティ店,和歌山県和歌山市中野30-1,34.2554416,135.1398311
3237,"",京成勝田台店,千葉県八千代市勝田台1-8-1,35.7153478,140.1263807
3239,"",ジョイフル本田ニューポートひたちなか店,茨城県ひたちなか市新光町34-1,36.408154,140.5861435
3241,"",ゆめタウン廿日市店,広島県廿日市市下平良2-2-1,34.3461231,132.3354457
3242,"",アル・プラザ京田辺店,京都府京田辺市田辺中央5-2-1　アル・プラザ京田辺店1F,34.8220179,135.7689376
3243,"",紀三井寺店,和歌山県和歌山市三葛315-1,34.1921037,135.1855999
3244,"",御坊店,和歌山県御坊市湯川町財部１８１　オオクワロマンシティ御坊店内,33.8982343,135.1488332
3245,"",志津店,千葉県佐倉市上志津1600-1,35.7139252,140.1432657
3246,"",寝屋川市駅前店,大阪府寝屋川市早子町23-2-101,34.7633206,135.6215159
3247,"",エル・枚方店,大阪府枚方市岡東町19-20,34.8153944,135.6477599
3249,"",コープ愛子店,宮城県仙台市青葉区栗生7-1-1,38.2680392,140.7785838
3250,"",南アルプスガーデン店,山梨県南アルプス市十五所1423-4　南アルプスガーデン内,35.6191857,138.468562
3251,"",青物横丁店,東京都品川区南品川2-4-1,35.6100148,139.7426288
3252,"",学芸大学店,東京都目黒区鷹番3-6-20,35.6291671,139.6846144
3253,"",オーストリート橋本彩の台店,和歌山県橋本市あやの台1-50-3,34.3363351,135.6528713
3254,"",和歌山北インター店,和歌山県和歌山市田屋102-1,34.2565162,135.2261824
3255,"",松井山手欽明台店,京都府八幡市欽明台西３１番地３,34.8396588,135.7152207
3256,"",鶴岡ミーナ店,山形県鶴岡市千石町3-38,38.7186795,139.8295245
3257,"",鹿児島吉野店,鹿児島県鹿児島市吉野3丁目60番3号,31.6584715,130.5683561
3258,"",イオンタウン姶良店,鹿児島県姶良市西餅田264-1,31.7320548,130.6263866
3260,"",新宮店,和歌山県新宮市佐野３-11-9,33.6736814,135.9710357
3261,"",イオン甘木店,福岡県朝倉市甘木岩入３８０,33.4051973,130.6539325
3262,"",長命ヶ丘店,宮城県仙台市泉区長命ケ丘3-27-1,38.3093084,140.8432122
3265,"",向日市上植野店,京都府向日市上植野桑原11-1,34.9312468,135.7110186
3267,"",サンキュー小林店,宮崎県小林市堤3005-12,31.9821377,130.9959427
3269,"",北広島大曲店,北海道北広島市大曲幸町6-1,42.9696718,141.4704943
3270,"",大井松田店,神奈川県足柄上郡大井町金子1641,35.3333872,139.155141
3271,"",コープ榴ヶ岡店,宮城県仙台市宮城野区榴岡5-10-10,38.2574146,140.8955788
3272,"",ユアエルム京成八千代台店,千葉県八千代市八千代台東1-1-10,35.700544,140.0919535
3274,"",錦糸町楽天地店,東京都墨田区江東橋4-27-14 楽天地ビル２Ｆ,35.6964962,139.8158142
3276,"",阪南黒田店,大阪府阪南市黒田425-1,34.3546754,135.2448378
3278,"",長野駅前店,長野県長野市南長野北石堂町1414-1,36.6459727,138.1869986
3279,"",イオンモール日根野店,大阪府泉佐野市日根野2496-1 イオンモール日根野内,34.393449,135.3335942
3280,"",京急鶴見店,神奈川県横浜市鶴見区鶴見中央1-30-22,35.507191,139.6780138
3281,"",河内長野店,大阪府河内長野市上原西町1-8,34.4487635,135.5566793
3282,"",イオンモール新居浜店,愛媛県新居浜市前田町8-8 イオンモール新居浜ＳＣ内,33.9545283,133.2683721
3283,"",いわき泉店,福島県いわき市泉町滝尻字泉町7丁目20-16,36.95098,140.859813
3284,"",ＪＲ小倉店,福岡県北九州市小倉北区浅野1-1-1,33.8864937,130.8817499
3285,"",諫早店,長崎県諫早市小船越町名字乙石1-27,32.8498318,130.0340724
3286,"",つくば研究学園店,茨城県つくば市研究学園5-17-4,36.084248,140.083908
3289,"",近鉄河内小阪駅店,大阪府東大阪市小阪1-8-8,34.6640743,135.581295
3290,"",イオンモール松本店,長野県松本市中央4-9-51 風庭3階,36.2327001,137.9783394
3291,"",伊万里店,佐賀県伊万里市新天町中島462-4,33.2698287,129.8723103
3292,"",イオンモール京都五条店,京都府京都市右京区西院追分町25,34.9973465,135.7272274
3293,"",百万遍京都大学前店,京都府京都市左京区吉田泉殿町1-86,35.0286801,135.778627
3294,"",碧南店,愛知県碧南市城山町1-81-2 バロー碧南城山店　敷地内,34.8937988,137.0075531
3295,"",日向店,宮崎県日向市財光寺507-1,32.4101352,131.6306619
3305,"",MEGAドン．キホーテ姫路広畑店,兵庫県姫路市広畑区夢前町1-1,34.7969006,134.6370456
3306,"",イオン和泉府中店,大阪府和泉市肥子町2-2-1 イオン和泉府中内,34.4855755,135.420632
3308,"",ルート286鈎取店,宮城県仙台市太白区鈎取本町1-21-4,38.2186105,140.837262
3310,"",秋田新国道店,秋田県秋田市泉字登木200番1,39.7375881,140.0975083
3311,"",五所川原エルム店,青森県五所川原市大字唐笠柳字藤巻517-1 エルム街ショッピングセンター1階,40.7987355,140.4540056
3312,"",長野千曲店,長野県千曲市鋳物師屋中島135-1,36.520828,138.1282907
3313,"",ラゾーナ川崎プラザ店,神奈川県川崎市幸区堀川町72番地1  ラゾーナ川崎プラザ,35.5328137,139.6953849
3314,"",イオンモールりんくう泉南店,大阪府泉南市泉南市りんくう南浜3-12 イオンモールりんくう泉南2Ｆ,34.3798876,135.2670996
3315,"",ゆめタウン大川店,福岡県大川市大川市大字上巻宇野口430-1,33.2036089,130.3882849
3321,"",相模原小山モール店,神奈川県相模原市中央区小山3-37-1,35.5828146,139.3566215
3322,"",ミスターマックス町田多摩境ショッピングセンター店,東京都町田市小山ヶ丘6-1-10,35.606098,139.3498234
3323,"",アリオ橋本店,神奈川県相模原市緑区大山町1 アリオ橋本1Fフードコート,35.5908953,139.3495198
3324,"",京王永山店,東京都多摩市永山1-18-1 1階,35.6303736,139.4481329
3327,"",幸手店,埼玉県幸手市大字上高野737,36.0675428,139.7168706
3330,"",エルミこうのす店,埼玉県鴻巣市本町1-1-2,36.0601173,139.5097014
3331,"",アリオ鷲宮店,埼玉県久喜市久本寺字谷田7-1,36.0783951,139.6612686
3332,"",ベニバナウォーク桶川店,埼玉県桶川市下日出谷東二丁目15番1,35.9966257,139.5503348
3334,"",R1山科店,京都府京都市山科区西野広見町32-2 マリーベルウィング１階,34.9816011,135.8081922
3335,"",大分店,大分県大分市末広町2-125-2,33.235906,131.601832
3336,"",大牟田店,福岡県大牟田市大正町1-3-11,33.0354353,130.4446101
3337,"",オリナス錦糸町店,東京都墨田区太平4-1-5,35.7004883,139.8171735
3338,"",甲州塩山店,山梨県甲州市塩山下於曽1608-1,35.7005073,138.7243948
3339,"",西友東大宮店,埼玉県さいたま市見沼区東大宮5-44-2,35.9489326,139.6421692
3340,"",桜美林学園前店,東京都町田市根岸町1008-23,35.5790071,139.4074671
3341,"",流山おおたかの森店,千葉県流山市流山おおたかの森西1丁目1-1,35.871627,139.924981
3342,"",イオン明石店,兵庫県明石市大久保町ゆりのき通2-3-1 イオン明石2番街,34.680304,134.936971
3343,"",イオンモール四條畷店,大阪府四條畷市砂4-3-2,34.7459327,135.6292347
3344,"",ザ・ビッグ春採店,北海道釧路市春採7-1-48 ザ・ビッグ内,42.9763233,144.4132826
3345,"",サンピア光明池店,大阪府堺市南区鴨谷台2-2-1,34.4738836,135.476016
3346,"",ゆめタウン下松店,山口県下松市中央町21-3,34.0185065,131.862832
3347,"",大森西口店,東京都大田区山王2-2-12,35.5887523,139.727673
3348,"",祐天寺店,東京都目黒区祐天寺2-1-5 高坂ビル,35.6379317,139.6917879
3349,"",西八王子店,東京都八王子市千人町1-11-17,35.6590258,139.3150237
3350,"",あざみ野店,神奈川県横浜市青葉区あざみ野2-1-3第二東急あざみ野ビル,35.567531,139.5528659
3353,"",渋沢駅前店,神奈川県秦野市曲松1-1-1 小田急マルシェ渋沢,35.374286,139.1844327
3354,"",イオンモール東浦店,愛知県知多郡東浦町大字緒川字旭13-2,34.9787021,136.9741817
3355,"",武庫之荘駅前店,兵庫県尼崎市南武庫之荘1-1,34.7514081,135.3935508
3356,"",阪急茨木店,大阪府茨木市永代町1-5,34.8161807,135.5754471
3357,"",山陽小野田店,山口県山陽小野田市日の出町2-15 13-4,34.0046278,131.1782882
3358,"",イオンモール熱田店,愛知県名古屋市熱田区六野1-2-11,35.136433,136.9095303
3359,"",パルコシティ店,沖縄県浦添市西洲3-1-1,26.261879,127.6975573
3360,"",光の森店,熊本県菊池郡菊陽町光の森7-33-1,32.8587611,130.7858336
3361,"",プラットプラット堺駅前店,大阪府堺市堺区戎島3-22-1 プラットプラットSC内,34.5823999,135.4698258
3362,"",ファボーレ富山店,富山県富山市婦中町下轡田165-1 ファボーレ富山 1階,36.6628952,137.1714818
3363,"",豊山豊場店,愛知県西春日井郡豊山町豊場字高前5,35.2446263,136.9091445
3364,"",八王子大和田店,東京都八王子市大谷町48-5,35.6686657,139.3533168
3365,"",四日市店,三重県四日市市泊小柳町4-5-4,34.9390335,136.6026199
3366,"",鶴ケ島店,埼玉県鶴ヶ島市脚折4-22-13,35.945179,139.3944168
3368,"",綱島店,神奈川県横浜市港北区綱島西1-8-1,35.536777,139.633761
3369,"",妙蓮寺店,神奈川県横浜市港北区菊名1-2-7,35.498151,139.6331
3370,"",ザ・モール仙台長町店,宮城県仙台市太白区長町7-20-3,38.225902,140.876821
3371,"",三鷹野崎店,東京都三鷹市野崎3-8-8,35.6817667,139.5430466
3372,"",イオンモール日の出店,東京都西多摩郡日の出町大字平井字三吉野桜木237-3,35.7346072,139.2758237
3373,"",イトーヨーカドー国領店,東京都調布市国領町8-2-64,35.6468901,139.5640901
3374,"",津島店,愛知県津島市埋田町1-78,35.1756037,136.7410114
3375,"",ゆめタウン山口店,山口県山口市大内千坊6-9-1,34.1602004,131.4914283
3376,"",佐原店,千葉県香取市佐原イ4215-9,35.9007208,140.4919332
3377,"",パピヨンガーデン店,福岡県福岡市博多区千代1-2-1,33.6013536,130.4201131
3379,"",カインズ滑川店,埼玉県比企郡滑川町大字羽尾字蔵之前2691-1,36.060777,139.367351
3380,"",カインズ川島インター店,埼玉県比企郡川島町大字上伊草字五反田191-1,35.9751928,139.4670222
3381,"",ピオニウォーク東松山店,埼玉県東松山市あずま町4-3 ピオニウォーク東松山ガーデンコート内,36.005409,139.410727
3382,"",羽村店,東京都羽村市五ノ神1-3-6,35.759067,139.31794
3383,"",すすきのノルベサ店,北海道札幌市中央区南三条西5-1-1,43.0561425,141.3509568
3384,"",サンエー石川シティ店,沖縄県うるま市石川2521-1,26.4172544,127.8264814
3385,"",イオンモール北大路店,京都府京都市北区小山北上総町49-1,35.044975,135.7582331
3386,"",中山店,神奈川県横浜市緑区寺山町58 ビーンズ中山1F,35.5143437,139.5396619
3387,"",ららぽーと愛知東郷店,愛知県愛知郡東郷町東郷中央土地区画整理事業62街区1、3,35.0986937,137.0465818
3388,"",福岡西新店,福岡県福岡市早良区祖原1-1,33.5811213,130.3583008
3389,"",イトーヨーカドー能見台店,神奈川県横浜市金沢区能見台東3-1 イトーヨーカドー能見台１Fフードコート内,35.3587079,139.6270261
3390,"",福岡今宿店,福岡県福岡市西区今宿3-41-36,33.581665,130.263957
3391,"",カナートモール伏見店,京都府京都市伏見区深草出羽屋敷町23-6 カナートモール伏見１階,34.946842,135.763375
3392,"",三浦海岸店,神奈川県三浦市南下浦町上宮田1184-2,35.1892973,139.6585076
3393,"",横須賀武山店,神奈川県横須賀市武1-20-15,35.229492,139.652649
3394,"",東長崎店,長崎県長崎市平間町925-1,32.786679,129.947807
3395,"",9号線洛西店,京都府京都市西京区大枝中山町8-6,34.971194,135.67409
3396,"",イオンモール綾川店,香川県綾歌郡綾川町萱原822-1,34.251814,133.930713
3397,"",高崎OPA店,群馬県高崎市八島町46-1,36.323081,139.011073
3398,"",イオンモール盛岡インター店,岩手県盛岡市前潟4-7-1,39.711723,141.098651
3399,"",イオン上越店,新潟県上越市富岡3457,37.15278,138.258531
3400,"",イトーヨーカドー船橋店,千葉県船橋市本町7-6-1,35.703253,139.985046
3401,"",イトーヨーカドー大井町店,東京都品川区大井1-3-6,35.607171,139.733988
3402,"",関町店,東京都練馬区関町南1-9-1,35.7205891,139.5907244
3403,"",仙川店,東京都調布市仙川町1-16-8,35.6608212,139.5852455
3404,"",網走駒場店,北海道網走市駒場南8-87,43.997663,144.285347
3405,"",アクロスプラザ武雄店,佐賀県武雄市武雄町大字富岡12516番,33.198845,130.034929
3406,"",アミュプラザくまもと店,熊本県熊本市西区春日3-15-26,32.7889,130.688284
3407,"",福山ばら公園前店,広島県福山市御門町3-2-10,34.478555,133.371245
3408,"",新堀川伏見下鳥羽店,京都府京都市伏見区南寝小屋町43,34.936291,135.750874
3409,"",榛原店,静岡県牧之原市細江字下り条2146-1,34.757171,138.243055
3410,"",ベイサイド鹿児島店,鹿児島県鹿児島市浜町２-３-１,31.600545,130.564873
3411,"",南越谷店,埼玉県越谷市新越谷1-32-7,35.875176,139.783891
3412,"",京都リサーチパーク店,京都府京都市下京区中堂寺粟田町91,34.995594,135.737227
3413,"",函館美原店,北海道函館市美原3-30-8,41.818976,140.745301
3414,"",室蘭店,北海道室蘭市中島本町1-6-5,42.353877,141.010997
3415,"",あどがわ店,滋賀県高島市安曇川町西万木55　平和堂あどがわ店１F,35.327556,136.028268
3416,"",ゆめタウン長府店,山口県下関市ゆめタウン1-1,34.030226,131.012931
3417,"",ＳＭＡＲＫ店,群馬県伊勢崎市西小保方町368,36.33946,139.233152
3418,"",イオンタウン釜石店,岩手県釜石市港町２-１-１,39.271123,141.881237
3419,"",保土ヶ谷店,神奈川県横浜市保土ケ谷区岩井町1-7-309 アーバンビル内　ビーンズ3F,35.446749,139.599516
3420,"",イオン久里浜店,神奈川県横須賀市久里浜5-13-1,35.229034,139.704061
3421,"",田園調布店,東京都大田区田園調布3-25-17,35.596857,139.666953
3422,"",イオン東戸塚店,神奈川県横浜市戸塚区品濃町535-1,35.430309,139.561403
3423,"",プララ杉田店,神奈川県横浜市磯子区杉田1-17-1,35.383711,139.61637
3424,"",池上店,東京都大田区池上6-3-9,35.572273,139.703114
3425,"",本郷台店,神奈川県横浜市栄区小菅ヶ谷1-4-7,35.366396,139.550334
3426,"",コースカベイサイド店,神奈川県横須賀市本町2-1-12,35.283079,139.661352
3427,"",烏丸錦小路店,京都府京都市中京区錦小路通高倉西入西魚屋町600,35.004949,135.762485
3428,"",稲沢店,愛知県稲沢市横地町25番地,35.249365,136.780351
3429,"",セブンタウン小豆沢店,東京都板橋区小豆沢3-9-5,35.780198,139.694248
3430,"",ガーデンモール木津川店,京都府木津川市州見台1丁目1-1,34.720626,135.817667
3431,"",福岡松崎店,福岡県福岡市東区松崎2-4-33,33.6351,130.440432
3432,"",新京成八柱駅ビル店,千葉県松戸市日暮1-1-1,35.79136,139.93772
3433,"",指宿店,鹿児島県指宿市西方1474 サンキュー北指宿店,31.257182,130.627545
3434,"",アリオ鳳店,大阪府堺市西区鳳南町3-199-12 アリオ鳳１F,34.524722,135.459292
3435,"",イオンモール鈴鹿店,三重県鈴鹿市庄野羽山4-1-2,34.871764,136.531608
3436,"",志段味店,愛知県名古屋市守山区中志段味73街区 仮97番,35.251059,137.029831
3437,"",ラスカ茅ケ崎店,神奈川県茅ヶ崎市元町1-1 湘南ステーションビル3Ｆ改札階,35.330477,139.406086
3439,"",高田馬場四丁目店,東京都新宿区高田馬場4-18-9,35.71211,139.699584
3440,"",セブンパーク天美店,大阪府松原市天美東3-500,34.592347,135.542296
3442,"",盛岡永井店,岩手県盛岡市永井12地割67-1,39.656841,141.138595
3443,"",京急弘明寺駅前店,神奈川県横浜市南区弘明寺町267,35.424326,139.597784
3444,"",成増店,東京都板橋区成増2-17-23,35.77766,139.631029
3445,"",大和高田神楽店,奈良県大和高田市神楽110-3,34.52446,135.741549
3446,"",大府店,愛知県大府市一屋町5-26-3,35.023738,136.95308
3447,"",新仙台泉中央店,宮城県仙台市泉区泉中央4-19-6,38.321073,140.886198
3448,"",熊本富合店,熊本県熊本市南区富合町田尻164-1,32.702759,130.67148
3449,"",イオン島原店,長崎県島原市弁天町1-7080-1,32.783966,130.372244
3450,"",八王子みなみ野店,東京都八王子市みなみ野1-8-1,35.63098,139.327854
3451,"",出雲斐川店,島根県出雲市斐川町荘原2219ｰ1,35.395836,132.849727
3452,"",大崎ニューシティ店,東京都品川区大崎1-6-4,35.619694,139.729492
3453,"",ラソラ札幌店,北海道札幌市白石区東札幌四条1-1-1,43.055246,141.384696
3454,"",テラッセ納屋橋店,愛知県名古屋市中区栄1-2-49 B棟2F,35.166622,136.892947
3455,"",本山店,愛知県名古屋市千種区末盛通5-13,35.164163,136.963474
3456,"",ヨークベニマル新佐沼店,宮城県登米市迫町佐沼字中江2-5-1,38.690792,141.189817
3457,"",イトーヨーカドー和光店,埼玉県和光市丸山台1-9-3,35.786443,139.61222
3458,"",ららぽーと福岡店,福岡県福岡市博多区那珂6-23-1,33.565075,130.438502
3459,"",藤が丘店,愛知県長久手市蟹原101,35.173494,137.029762
3460,"",春日部ユリノキ通り店,埼玉県春日部市豊町４丁目６-４,35.967505,139.737627
3461,"",カメイドクロック店,東京都江東区亀戸6-31-6,35.695972,139.829236
3462,"",ダイエー西宮店,兵庫県西宮市浜松原町21-1,34.725914,135.345968
3463,"",プレ葉ウォーク浜北店,静岡県浜松市浜名区貴布祢1200,34.797673,137.779499
3464,"",イオンモール下田店,青森県上北郡おいらせ町中野平40-1,40.600992,141.417929
3465,"",宮崎大塚店,宮崎県宮崎市大塚町池ノ内1075番,31.92515,131.391666
3466,"",白木原店,福岡県大野城市瓦田4-14-1,33.532406,130.484906
3467,"",9号線亀岡店,京都府亀岡市余部町大塚21-2,35.019407,135.561388
3468,"",金沢新神田店,石川県金沢市新神田4-1-13,36.562571,136.630063
3469,"",アピアさっぽろ店,北海道札幌市中央区北五条西４アピアフードウォークB１F,43.066873,141.34989
3470,"",関西スーパー西冠店,大阪府高槻市西冠3-29-7,34.832375,135.622379
3471,"",阪急南茨木店,大阪府茨木市天王2-6-15南茨木阪急ビル3F,34.802422,135.565465
3472,"",いこらもーる泉佐野店,大阪府泉佐野市下瓦屋2-2-77,34.422456,135.326819
3473,"",イオン札幌西岡店,北海道札幌市豊平区西岡三条3-4-1,43.018257,141.387557
3474,"",住吉駅前店,兵庫県神戸市東灘区住吉宮町4-3-13,34.71888,135.262051
3475,"",与那原店,沖縄県島尻郡与那原町与那原1050-5,26.209506,127.758271
3476,"",南鹿児島店,鹿児島県鹿児島市新栄町6-3,31.546876,130.542603
3477,"",鳥取駅南店,鳥取県鳥取市東品治町111‐1,35.494335,134.223871
3478,"",西原坂田店,沖縄県中頭郡西原町字翁長坂田升533-1,26.239005,127.746824
3479,"",イオン天王町店,神奈川県横浜市保土ケ谷区川辺町3イオン天王町ショッピングセンター３Fフードコート,35.458105,139.599637
3480,"",ゆめタウン柳井店,山口県柳井市南町4-5-3,33.960418,132.105699
3481,"",元住吉店,神奈川県川崎市中原区木月3-9-32,35.565415,139.648995
3482,"",吹田店,大阪府吹田市朝日町15-3,34.7620681,135.5256864
3483,"",塚本駅前店,大阪府大阪市西淀川区柏里2-1-15,34.7119327,135.4688205
3484,"",ＪＲ戸畑店,福岡県北九州市戸畑区汐井町1-1,33.896853,130.820522
3485,"",ららぽーと堺店,大阪府堺市美原区黒山22-1,34.54057,135.560469
3486,"",壺川店,沖縄県那覇市壺川3-4-8,26.206296,127.680022
3487,"",日生中央サピエ店,兵庫県川辺郡猪名川町松尾台1-2-1,34.906687,135.39202
3488,"",小倉足立インター店,福岡県北九州市小倉北区神岳1-2-18,33.871546,130.892158
3489,"",イトーヨーカドー武蔵小杉駅前店,神奈川県川崎市中原区小杉3-420,35.575512,139.657811
3490,"",カジル岩国店,山口県岩国市室の木町1-2-38,34.170252,132.214501
3491,"",いなげや大泉学園店,埼玉県新座市栄4-1-26,35.776884,139.586416
3492,"",ウニクス上里店,埼玉県児玉郡上里町七本木2272-1,36.237904,139.151375
3493,"",三原店,広島県三原市皆実1-14-1,34.395487,133.070571
3494,"",袋井店,静岡県袋井市川井959-8,34.744384,137.912428
3495,"",浜松三島町店,静岡県浜松市中央区三島町125-1,34.687281,137.738246
3496,"",獨協大学前トーブイコート店,埼玉県草加市松原三丁目3番1号　TOBU icourt 　1階101,35.841567,139.793161
3497,"",ジョイフル本田千代田店,群馬県邑楽郡千代田町萱野813-1,36.205613,139.472661
3498,"",ヨークベニマル伊達店,福島県伊達市前川原55,37.820718,140.506233
3499,"",横須賀三春町店,神奈川県横須賀市三春町4-7-1,35.264113,139.693103
3500,"",アビオシティ加賀店,石川県加賀市作見町ル25-1,36.319756,136.351802
3501,"",ピアゴ植田店,愛知県名古屋市天白区元植田1-302,35.139807,136.991974
3502,"",ららぽーと門真店,大阪府門真市松生町1-11,34.729394,135.585584
3503,"",ＪＲ佐賀店,佐賀県佐賀市駅前中央1丁目11-10,33.264132,130.297491
3504,"",ジョイホンパーク吉岡店,群馬県北群馬郡吉岡町大久保片貝382-1番地,36.435501,139.018599
3505,"",友部スクエア店,茨城県笠間市住吉1245-2,36.314496,140.324963
3506,"",ミーナ天神店,福岡県福岡市中央区天神4丁目3-8,33.592974,130.398374
3507,"",サンロード青森店,青森県青森市緑3-9-2,40.806401,140.752776
3508,"",白根店,新潟県新潟市南区字前能登406-2,37.769243,139.01755
3509,"",アリオ上尾,埼玉県上尾市壱丁目北29番地14,35.961219,139.565587
3510,"",ゆめタウン飯塚店,福岡県飯塚市菰田西3-6-1,33.631591,130.684681
3511,"",イオンモール直方店,福岡県直方市湯野原2-1-1,33.769259,130.7496794
3512,"",宮崎新別府店,宮崎県宮崎市新別府町江口884-3,31.923825,131.452595
3513,"",本厚木ミロードイースト店,神奈川県厚木市泉町1-1,35.44004,139.365504
3514,"",直方バイパス店,福岡県直方市下境910-1,33.73738,130.745554
3515,"",アイテラス落合南長崎アネックス店,東京都豊島区南長崎4-13-4,35.724326,139.683145
3516,"",デリスクエア今池店,愛知県名古屋市千種区今池1-30-6,35.167335,136.935967
3517,"",アル・プラザ香里園店,大阪府寝屋川市日新町5-5,34.783589,135.624035
3518,"",京都西院店,京都府京都市右京区西院東淳和院8ｰ21,35.004901,135.73169
3519,"",横須賀中央店,神奈川県横須賀市大滝町2-23,35.279693,139.670039
3520,"",奈良西大和店,奈良県北葛城郡河合町大字薬井304-1,34.587065,135.713693
3521,"",ゆめテラス祇園店,広島県広島市安佐南区西原5-19-44,34.439625,132.466226
3522,"",ＪＲ折尾店,福岡県北九州市八幡西区折尾1-12-1,33.864131,130.712461
3523,"",福岡糸島店,福岡県糸島市波多江駅北3-1-36,33.565149,130.225126
3524,"",フジグラン北宇和島店,愛媛県宇和島市伊吹町甲912-2,33.2347275,132.5689054
3525,"",フジグラン十川店,香川県高松市十川東町55-1,34.2706417,134.1092802
3526,"",フジグラン松山店,愛媛県松山市宮西1-2-1,33.8450939,132.7526934
3527,"",フジグラン北島店,徳島県板野郡北島町鯛浜字西ノ須174,34.1117363,134.547275
3528,"",フジグラン重信店,愛媛県東温市野田3-1-13,33.7954081,132.8337513
3529,"",エミフルＭＡＳＡＫＩ店,愛媛県伊予郡松前町筒井850,33.7886862,132.7156484
3530,"",伊東デュオ店,静岡県伊東市玖須美元和田720-143,34.948849,139.114278
3531,"",久留米上津店,福岡県久留米市上津1-14,33.287921,130.526088
3532,"",可児店,岐阜県可児市下恵土5747-1,35.416048,137.051167
3533,"",岩倉店,愛知県岩倉市鈴井町下新田122-1,35.2843513,136.863042
3534,"",イオンタウン守口店,大阪府守口市京阪本通2-2-4,34.737639,135.564173
3535,"",イオンタウン伊賀上野店,三重県伊賀市四十九町字堂山1850,34.747297,136.135742
3536,"",調布北口店,東京都調布市布田1-35-2,35.654063,139.544412
3537,"",西神中央店,兵庫県神戸市西区糀台5-6-1,34.718928,135.018565
3538,"",いわき平Paix Paix店,福島県いわき市平六町目6-1,37.05741,140.897895
3539,"",フレンドマート大津京店,滋賀県大津市柳川2-6-2,35.031591,135.864026
3540,"",長浜店,滋賀県長浜市八幡東町34-1,35.385037,136.284299
3541,"",宮崎大島店,宮崎県宮崎市大島町松ノ木下275,31.940641,131.440675
3542,"",イオンスタイル仙台卸町店,宮城県仙台市若林区卸町1-1-1,38.252251,140.919427
3543,"",マックスバリュ金沢しめの店,石川県金沢市戸板西1-133,36.580488,136.616289
3544,"",豊橋店,愛知県豊橋市藤沢町141 ホリディスクエア内,34.744283,137.3709169
3545,"",アピタ向山店,愛知県豊橋市向山町中畑1-1 アピタ向山店内1階,34.7549366,137.4015452
3546,"",博多デイトスアネックス店,福岡県福岡市博多区博多駅中央街1-1 博多デイトスアネックス2階,33.590728,130.421595
3547,"",合志店,熊本県合志市合生字小池4266-3,32.901925,130.76146
3548,"",イオンモール草津店,滋賀県草津市新浜町300　イオンモール草津1階,34.99811,135.917439
3549,"",野田店,千葉県野田市中根302-1,35.9438074,139.8850213
3550,"",草加店,埼玉県草加市住吉1-1-15,35.8298984,139.8071712
3551,"",竜ケ崎店,茨城県龍ケ崎市川原代町字文間通り5588-1,35.90715,140.172617
3552,"",神栖店,茨城県神栖市神栖1-12-1,35.8984246,140.6430604
3553,"",八日市場店,千葉県匝瑳市八日市場ハ962-5,35.7041619,140.5586414
3554,"",銚子松岸店,千葉県銚子市長塚町3-650-37,35.7397397,140.798179
3555,"",鹿嶋店,茨城県鹿嶋市宮中332-1,35.9625196,140.6414874
3556,"",ハローズ玉島店,岡山県倉敷市玉島1916-6,34.554874,133.680805
3557,"",イオンモール高岡店,富山県高岡市下伏間江383,36.723982,137.017506
3558,"",瀬谷南口店,神奈川県横浜市瀬谷区瀬谷4-4-10,35.470019,139.481914
3559,"",逗子店,神奈川県逗子市逗子5-3-28,35.294666,139.577984
3560,"",明大前店,東京都世田谷区松原2-45-2,35.668313,139.649877
3561,"",油山店,福岡県福岡市城南区東油山2-4-3,33.537667,130.379834
3562,"",イオンモール太田店,群馬県太田市石原町81,36.2944868,139.4006513
3563,"",朝霞駅前店,埼玉県朝霞市本町2-5-24,35.797001,139.599424
3564,"",三宮さんプラザ店,兵庫県神戸市中央区三宮町1-8-1　さんプラザ地下1階,34.6921,135.193751
3565,"",梅田HEP通り店,大阪府大阪市北区角田町6-15,34.7036987,135.5009584
3566,"",別府若草店,大分県別府市若草町10-29,33.290746,131.503245
3567,"",イオンモール都城駅前店,宮崎県都城市栄町4672-5,31.734826,131.080578
3568,"",名古屋平田店,愛知県名古屋市西区西原町139,35.227815,136.862385
3569,"",大宮東口店,埼玉県さいたま市大宮区大門町2-83,35.90663,139.627211
3570,"",高松東ハゼ店,香川県高松市東ハゼ町12-5,34.321423,134.04148
3571,"",JR玉造駅前店,大阪府大阪市天王寺区玉造元町2-31,34.6742485,135.5322134
3572,"",イオン宇品店,広島県広島市南区宇品東6-1-15,34.362395,132.468348
3573,"",HiroPa店,広島県広島市中区基町15-1,34.400516,132.455562
3574,"",今治店,愛媛県今治市馬越町3-2-20,34.056327,132.981132
3575,"",和歌山MIO店,和歌山県和歌山市美園町5-61,34.231644,135.191168
3576,"",薬院駅前店,福岡県福岡市中央区渡辺通2-6-2-1,33.58194,130.40151
3577,"",越谷レイクタウン1丁目店,埼玉県越谷市レイクタウン1-18-8,35.883972,139.814192
3578,"",ヨークタウン八山田店,福島県郡山市八山田西1-56,37.426326,140.364158
3579,"",中山町店,鹿児島県鹿児島市中山町1401-1,31.544007,130.502144
3580,"",コープ坂戸薬師町店,埼玉県坂戸市薬師町28-1,35.968082,139.399454
3581,"",ゆめタウン高松店,香川県高松市三条町608-1,34.316289,134.041456
3582,"",松山山越店,愛媛県松山市山越4-1-35,33.861493,132.758946
3583,"",大分中島中央店,大分県大分市中島中央3-4-14,33.246047,131.613892
3584,"",名古屋栄セントラルパーク店,愛知県名古屋市中区錦3-15-13,35.172208,136.908502
3585,"",イオン鹿屋店,鹿児島県鹿屋市白崎町4-1,31.378559,130.855788
3586,"",太宰府向佐野店,福岡県太宰府市向佐野1-10-17,33.509353,130.495336
3587,"",帯広南の森東店,北海道帯広市南の森東1-1-10,42.884211,143.175332
3588,"",セブンパークアリオ柏店,千葉県柏市大島田1-6-1　1F-1240,35.8336181,140.0129822
3589,"",イオンタウンふじみ野店,埼玉県ふじみ野市福岡2-1-6,35.880488,139.521828
3590,"",アピタテラス横浜綱島店,神奈川県横浜市港北区綱島東4-3-17,35.542397,139.641846
3591,"",イオンタウン楽々園店,広島県広島市佐伯区楽々園4-14-1,34.361893,132.353491
3592,"",松山南久米店,愛媛県松山市南久米町558-1,33.812699,132.796862
3593,"",TXアベニュー八潮店,埼玉県八潮市大瀬6-5-1,35.808092,139.845383
3594,"",富山荒川店,富山県富山市荒川2-15-35,36.69635,137.245991
3595,"",イオンタウン松原店,大阪府松原市新堂4-1154,34.566484,135.551507
3596,"",仙台鶴ケ谷バイパス店,宮城県仙台市宮城野区鶴ケ谷字京原122,38.298865,140.924259
3597,"",出雲店,島根県出雲市渡橋町95-5,35.368399,132.75294
3598,"",仙台五橋店,宮城県仙台市若林区清水小路1-6,38.250434,140.881312
3599,"",湘南深沢店,神奈川県鎌倉市常盤208-1,35.329568,139.521161
361,"",生駒駅前店,奈良県生駒市元町1-3-23,34.692687,135.697903
373,"",王子店,東京都北区王子1-16-6 KFCビル1F,35.755019,139.7374172
375,"",天満駅前店,大阪府大阪市北区天神橋4-8-19,34.7052397,135.5112677
378,"",南浦和店,埼玉県さいたま市南区南浦和2-39-16 第五大雄ビル1F,35.8473993,139.6704507
381,"",瑞江店,東京都江戸川区東瑞江1-27-4 福田ビル,35.6925611,139.8980943
383,"",いずみ中央店,神奈川県横浜市泉区和泉中央南5-4-13　 いずみ中央SC相鉄ライフ内,35.4157135,139.4873806
388,"",十三東口店,大阪府大阪市淀川区十三東2-8-11 古林ビル,34.7196424,135.4829703
389,"",野田阪神店,大阪府大阪市福島区吉野2-14-12,34.6932644,135.4751213
393,"",経堂店,東京都世田谷区経堂2-3-1 木津ビル,35.6519677,139.6363613
4004,"",平井店,東京都江戸川区平井5-21-12,35.7073573,139.8421076
4005,"",葛西店,東京都江戸川区東葛西5-1-2 第2吉田ビル,35.6639441,139.8734563
4008,"",三軒茶屋店,東京都世田谷区太子堂4-23-15,35.6438871,139.6708187
4011,"",新百合ヶ丘店,神奈川県川崎市麻生区上麻生1-20-1 アコルデ,35.6038277,139.5081038
4012,"",大宮三橋町店,埼玉県さいたま市西区三橋5-913-1,35.9079822,139.5948894
4014,"",サンポップ町屋店,東京都荒川区荒川7-50-9 サンポップB1,35.7424118,139.7807545
4019,"",大船東口店,神奈川県鎌倉市大船1-5-8,35.353673,139.531805
4023,"",ノクティー溝の口店,神奈川県川崎市高津区溝口1-4-1,35.5989594,139.6128955
4024,"",イオン鎌取店,千葉県千葉市緑区おゆみ野3-16-1,35.5614572,140.1775803
4032,"",武蔵新城店,神奈川県川崎市中原区新城5-4-3,35.5862737,139.6295175
4034,"",玉出店,大阪府大阪市住之江区粉浜1-5-39,34.6225975,135.4902496
404,"",真駒内店,北海道札幌市南区真駒内幸町2-1-12 ミュークリスタル,42.9904009,141.3546564
4041,"",MEGAドン．キホーテ市原店,千葉県市原市青柳北1-1,35.5146737,140.0660178
4048,"",阪神甲子園店,兵庫県西宮市甲子園 7番町 1-27,34.7230879,135.363983
4050,"",五反田店,東京都品川区東五反田5-27-6 第一五反田ビル,35.6269941,139.7235113
4052,"",藤沢南口店,神奈川県藤沢市南藤沢3-2,35.3380846,139.4885076
4053,"",港北ニュータウン北山田店,神奈川県横浜市都筑区北山田1-12-4,35.5609769,139.5937151
4054,"",上本町店,大阪府大阪市天王寺区上本町6-2-21,34.6664958,135.5195915
4055,"",鹿島田店,神奈川県川崎市幸区下平間223,35.5517236,139.6809206
4061,"",東川口店,埼玉県川口市戸塚3-35-11,35.8685316,139.7519305
4063,"",磯子店,神奈川県横浜市磯子区森1-6,35.3995442,139.6172459
4067,"",ビーンズ赤羽店,東京都北区赤羽1-1-1 ビーンズ2内,35.7784878,139.720062
4069,"",イオン和田山店,兵庫県朝来市和田山町枚田岡774,35.329236,134.8637479
4070,"",吉祥寺南口店,東京都武蔵野市吉祥寺南町1-4-1,35.7025372,139.5793266
4071,"",恵比寿駅前店,東京都渋谷区恵比寿西1-9-4,35.6471561,139.708456
4075,"",イトーヨーカドー川崎店,神奈川県川崎市川崎区小田栄2-2-1,35.5145107,139.7086203
4078,"",福知山店,京都府福知山市堀小字今岡2692,35.2943814,135.1342517
4084,"",中央環状巨摩橋店,大阪府東大阪市若江西新町4-1-4,34.654819,135.5977868
4086,"",MEGAドン．キホーテ蓮田店,埼玉県蓮田市東4-4258-22,35.9800192,139.6586012
4089,"",イトーヨーカドー木場店,東京都江東区木場1-5-30,35.66554,139.8048479
4095,"",ショップス市川鬼高店,千葉県市川市鬼高3-28-16 ショップス市川内,35.7090267,139.9366677
4097,"",イオン南砂店,東京都江東区南砂6-7-15,35.6720795,139.8359025
4101,"",西宮北口店,兵庫県西宮市甲風園1-4-9 不二屋第2ビル,34.7469588,135.355973
4104,"",デイリーカナート天下茶屋店,大阪府大阪市西成区岸里1-1-95,34.6373828,135.4962471
4116,"",武蔵小金井店,東京都小金井市本町5-13-6 ソナーレ小金井,35.7025216,139.5072178
4118,"",イオンモール伊丹店,兵庫県伊丹市藤ノ木1丁目1番1号　イオンモール伊丹テラス,34.7815611,135.423511
4121,"",愛川町店,神奈川県愛甲郡愛川町角田584-1,35.5313647,139.3315791
4122,"",イオンタウン天理店,奈良県天理市東井戸堂町381番,34.5903451,135.8249431
4123,"",武蔵小山店,東京都品川区荏原3-4-16,35.6175705,139.7071021
4124,"",MEGAドン．キホーテ成東店,千葉県山武市成東1808-1,35.5950906,140.397391
4125,"",東浦和店,埼玉県さいたま市緑区大間木3-1-2,35.8775623,139.6936249
4126,"",つかしん店,兵庫県尼崎市塚口本町4-8-1,34.7611368,135.4200935
4127,"",旗の台店,東京都品川区旗の台3丁目11-13,35.6052654,139.7038569
4128,"",西大寺店(ならファミリー店),奈良県奈良市西大寺東町2-4-1（奈良ファミリーB1Fフードコート内）,34.6951089,135.7851287
413,"",平塚店,神奈川県平塚市紅谷町10-2 金子ビル,35.3289777,139.3483322
4130,"",ミスターマックスおゆみ野店,千葉県千葉市緑区おゆみ野中央2-3-1,35.554509,140.1616319
4132,"",イオン北千里店,大阪府吹田市古江台4-2-50,34.8197438,135.5092752
4134,"",三ノ輪店,東京都荒川区南千住5-3-16,35.7320277,139.7927779
4135,"",イズミヤ八尾店,大阪府八尾市沼1丁目1番地,34.5886202,135.603039
4137,"",イオンタウン大安寺店,奈良県奈良市南京終町1丁目128-1,34.6704982,135.8205184
4139,"",蒲田東口店,東京都大田区蒲田5-23-1,35.562709,139.718863
4140,"",LICOPA東大和店,東京都東大和市桜ヶ丘2-142-1 LICOPA東大和,35.7356968,139.4242523
4142,"",カインズホーム青梅店,東京都青梅市新町6-9,35.7929831,139.3157558
4145,"",ベイシア鴨川店,千葉県鴨川市貝渚字中川間300,35.1030861,140.0971008
4146,"",土気あすみが丘店,千葉県千葉市緑区あすみが丘7-1,35.5206907,140.2672795
4147,"",豊中駅前店,大阪府豊中市本町1丁目10-1ﾎﾞｾﾞﾑ豊中第一ﾋﾞﾙ3F,34.7878182,135.4622427
4148,"",アピタ大和郡山店,奈良県大和郡山市田中町字宮西517,34.6422595,135.7694965
4151,"",都賀店,千葉県千葉市若葉区都賀3-30-9,35.6362358,140.1527644
4153,"",東船橋店,千葉県船橋市東船橋4-19,35.6972602,140.0092027
4154,"",市原国分寺台店,千葉県市原市東国分寺台1-1-13,35.4946637,140.1171079
4155,"",戸塚店,神奈川県横浜市戸塚区戸塚町55,35.3995307,139.5325277
4157,"",東三国店,大阪府大阪市淀川区東三国4-2-17,34.7414199,135.4980519
4159,"",銀座INZ店,東京都中央区銀座西3-1 INZ1,35.6736375,139.7642272
4162,"",東陽町店,東京都江東区東陽4-10-7 サニーハウス東陽,35.6717813,139.8165477
4164,"",羽鳥店,神奈川県藤沢市辻堂神台2-5-23,35.3450262,139.4484334
4167,"",鎌倉大船モール店,神奈川県鎌倉市岡本1188,35.3479511,139.5168411
4170,"",くるる府中店,東京都府中市宮町1-50,35.671541,139.4816371
4176,"",新橋店,東京都港区新橋3-16-24,35.6659798,139.7567324
4177,"",アピタ長津田店,神奈川県横浜市緑区長津田みなみ台4-7-1,35.5184396,139.4986395
4178,"",R－2芦屋店,兵庫県芦屋市楠町11-20,34.7345733,135.3165206
4180,"",カインズホーム館山店,千葉県館山市高井1771,35.0097208,139.873469
4184,"",三宮阪急駅前店,兵庫県神戸市中央区北長狭通1-2-3 二鶴ビル,34.6938911,135.193084
4188,"",イオン喜連瓜破店,大阪府大阪市平野区瓜破2-1-13　イオン喜連瓜破駅前店内,34.6083969,135.5513524
4192,"",イオン新浦安店,千葉県浦安市入船1-4-1,35.6489617,139.9148393
4194,"",ひばりが丘店,東京都西東京市ひばりが丘1-1-1,35.7515162,139.544317
4195,"",ミスターマックス湘南藤沢店,神奈川県藤沢市辻堂新町4-3-5　ミスターマックス湘南藤沢ショッピングセンター内,35.3395491,139.4645102
4196,"",ウニクス伊奈店,埼玉県北足立郡伊奈町学園2-188-1,36.0095676,139.6134675
4197,"",秋葉原店,東京都千代田区外神田1丁目4番11号,35.698559,139.7708643
4198,"",イオンモール浦和美園店,埼玉県さいたま市緑区大字大門3710イオンモール浦和美園内,35.8909722,139.7311499
4199,"",センター北駅店,神奈川県横浜市都筑区中川中央1-1-1　横浜市営地下鉄センター北駅3階,35.5537396,139.5785516
4204,"",イオンモール鶴見緑地店,大阪府大阪市鶴見区鶴見4-17-1-310,34.703607,135.5662673
4205,"",イオンモールむさし村山店,東京都武蔵村山市榎1-1-3,35.7468353,139.3843763
4206,"",イオンモール神戸北店,兵庫県神戸市北区上津台8-1-1イオンモール神戸北SC3Fフードコート内,34.8610472,135.1958161
4208,"",緑一丁目店,大阪府大阪市旭区新森6-1-19,34.7153138,135.5608428
4209,"",みなとみらい東急スクエア店,神奈川県横浜市西区みなとみらい2-3-8 　みなとみらい東急スクエア　フードコート内,35.4566144,139.6344552
421,"",目白店,東京都豊島区目白3-5-10,35.7225141,139.7045807
4213,"",イトーヨーカドーららぽーと横浜店,神奈川県横浜市都筑区池辺町4035番地1,35.5178879,139.5675181
4217,"",ミエル川口店,埼玉県川口市本町2-7-25,35.800647,139.7277833
4218,"",ジョイフル本田瑞穂店,東京都西多摩郡瑞穂町殿ヶ谷442,35.7608198,139.3579723
4219,"",イオンモール高の原店,京都府木津川市相楽台1-1　イオンモール高の原店内,34.7252147,135.7908213
4227,"",ココロット鶴ヶ峰店,神奈川県横浜市旭区鶴ヶ峰2-82-1,35.4747188,139.5499357
4229,"",コーナン中百舌鳥店,大阪府堺市北区中百舌鳥町3-428-2,34.5535611,135.5108932
4230,"",西武拝島店,東京都昭島市美堀町5-21-2,35.7211037,139.3444144
4234,"",イオンモール川口前川店,埼玉県川口市前川1-1-11,35.8331235,139.7070846
4235,"",アリオ川口店,埼玉県川口市並木元町1-79,35.807536,139.7141673
4236,"",イオンモール橿原店,奈良県橿原市曲川町7-20-1,34.5059777,135.7630934
4238,"",四谷駅前店,東京都新宿区四谷1-3,35.6862088,139.7291971
4240,"",アリオ加古川店,兵庫県加古川市別府町緑町2　アリオ加古川（フードコート内）,34.7284615,134.8489987
4241,"",イオン葛西店,東京都江戸川区西葛西3-9-19,35.6695324,139.8585934
4243,"",イオンモール加西北条店,兵庫県加西市北条町北条308-1,34.9305733,134.8281878
4248,"",イオンモール与野店,埼玉県さいたま市中央区本町西5-2-9,35.8911465,139.6151165
4250,"",イオンモール奈良登美ヶ丘店,奈良県生駒市鹿畑町3720番地　イオンモール登美ヶ丘店内2F,34.7261389,135.750704
4251,"",イオン東神奈川店,神奈川県横浜市神奈川区富家町1　東神奈川イオンSC内1F,35.4800804,139.6328268
4253,"",アリオ北砂店,東京都江東区北砂2-17-1　アリオ北砂モール1F,35.6819158,139.8261922
4254,"",イオンモール大和店,神奈川県大和市下鶴間1-2-1イオンモール大和1階,35.4889532,139.4578049
4255,"",イオン市川妙典店,千葉県市川市妙典5-3-1　1番街1Fイオン内,35.6925222,139.9281073
4257,"",あべのキューズモール店,大阪府大阪市阿倍野区阿倍野筋1-6-1　キューズモールQ-016,34.645263,135.5122101
4258,"",浦和仲町店,埼玉県さいたま市浦和区仲町1-2-7,35.8599604,139.6552058
4259,"",イトーヨーカドー曳舟店,東京都墨田区京島1-2-1,35.7173468,139.8179047
4261,"",イオン茨木店,大阪府茨木市松ケ本町8番30号　1階フードコート内,34.810267,135.557953
4262,"",姉ヶ崎店,千葉県市原市姉崎東1-5-11,35.478024,140.0445424
4264,"",石神井公園店,東京都練馬区石神井町3丁目20-16,35.7430374,139.6062664
4265,"",西友二俣川店,神奈川県横浜市旭区二俣川2-52-1（西友二俣川店1階独立区画内）,35.4613724,139.5333652
4268,"",茂原店,千葉県茂原市道表18-10,35.4337857,140.2868503
427,"",米子皆生店,鳥取県米子市皆生6-8-46,35.45084,133.360984
4272,"",帝京大学板橋キャンパス店,東京都板橋区加賀２-１１-１,35.7592669,139.7143642
4273,"",ララガーデン川口店,埼玉県川口市宮町18-9,35.8049764,139.6981508
4274,"",外環羽曳野店,大阪府羽曳野市西浦3丁目5-6,34.5419031,135.6042437
4279,"",アーバンドックららぽーと豊洲店,東京都江東区豊洲2-4-9　マリーナキッチン内,35.6542865,139.7923017
4280,"",木更津店,千葉県木更津市文京4丁目5-23,35.3733165,139.9334651
4281,"",関西学院大学店,兵庫県西宮市上ヶ原一番町1-155 H号館内,34.7705099,135.3458583
4284,"",稲毛マリンピア店,千葉県千葉市美浜区高洲3-13-1　マリンピア　1階,35.6287103,140.0737408
4285,"",川越マイン店,埼玉県川越市脇田町103,35.9073783,139.4839649
4286,"",アリオ市原店,千葉県市原市更級4丁目3番地,35.5075808,140.1015196
4293,"",ベルク入間野田店,埼玉県入間市野田894-1　ベルク入間野田店１F,35.8448227,139.3614746
4296,"",ららぽーと富士見店,埼玉県富士見市山室1-1313,35.8590956,139.5482632
4297,"",イオンモール木更津店,千葉県木更津市築地 １-4　イオンモール木更津１階,35.3666257,139.9076528
4298,"",イオンモール多摩平の森店,東京都日野市多摩平2丁目4番,35.6620324,139.3806795
430,"",平岸店,北海道札幌市豊平区平岸3条8-1-31,43.0340275,141.369256
4301,"",フォレスタ六甲店,兵庫県神戸市灘区永手町4-2-1,34.7157402,135.2383432
4304,"",ららぽーとEXPOCITY店,大阪府吹田市千里万博公園2-1,34.8058168,135.5349275
4305,"",イトーヨーカドー大宮コクーン店,埼玉県さいたま市大宮区吉敷町4丁目263-1,35.8966,139.6349308
4306,"",ららぽーと立川立飛店,東京都立川市泉町935番地１他,35.7111261,139.4189937
4307,"",イオンモール堺鉄砲町店,大阪府堺市堺区鉄砲町1 イオンモール堺鉄砲町3階,34.5945211,135.4809766
4309,"",日本橋人形町店,東京都中央区日本橋人形町二丁目6番2,35.6859925,139.7827792
4310,"",センター南駅サウスウッド店,神奈川県横浜市都筑区茅ケ崎中央6番１号　サウスウッド１階,35.5439732,139.5744285
4312,"",加古川店,兵庫県加古川市加古川町篠原町1-13,34.7661213,134.8379521
4313,"",西友行徳店,千葉県市川市行徳駅前1丁目19-1　西友行徳店地下１階,35.6840058,139.9151479
4315,"",永福町店,東京都杉並区和泉3-4-2,35.6759384,139.6438619
4316,"",イオンモール大和郡山店,奈良県大和郡山市下三橋町741  イオンモール大和郡山店　3階フードコート内,34.651291,135.8021732
4317,"",ダイエー藤沢店,神奈川県藤沢市藤沢520 ダイエー藤沢店内,35.3402784,139.4843984
4318,"",ピーコックストア芝浦アイランド店,東京都港区芝浦4丁目22-2,35.6410775,139.7528296
4320,"",相鉄ローゼン成瀬店,東京都町田市南成瀬1-3-5,35.5365081,139.4722193
4321,"",青葉台店,神奈川県横浜市青葉区青葉台2-9-14,35.5440899,139.5163516
4322,"",ベスタ狭山店,埼玉県狭山市入間川1165-1,35.8608366,139.4292795
4323,"",イオンモール北戸田店,埼玉県戸田市美女木東1-3-1イオンモール北戸田店2階,35.826624,139.6526246
4324,"",御嶽山店,東京都大田区北嶺町37-13,35.5856539,139.6820047
4325,"",西友福生店,東京都福生市東町5-1,35.7432501,139.328023
4327,"",ベイシア日高モール店,埼玉県日高市大字森戸新田字藤久保88-5,35.9136508,139.3725893
4329,"",鴨居店,神奈川県横浜市緑区鴨居1-7-19,35.5103825,139.5676055
4331,"",ららぽーと名古屋みなとアクルス店,愛知県名古屋市港区港明2-3-2 ららぽーと名古屋みなとアクルス1F,35.1101403,136.8834195
4332,"",イオンモール座間店,神奈川県座間市広野台2丁目10-4,35.5008799,139.4258162
4334,"",ペリエ千葉店,千葉県千葉市中央区新千葉1-1-1 1Fフードコート内,35.6133494,140.1143951
4335,"",御徒町南口店,東京都台東区上野5-27-3,35.7068189,139.7745709
4336,"",イオンモール新潟亀田インター店,新潟県新潟市江南区下早通柳田1-1-1,37.8761609,139.0808194
4337,"",斑鳩法隆寺店,奈良県生駒郡斑鳩町東福寺1-1-5,34.6129488,135.7439123
4338,"",イオンフードスタイル船堀店,東京都江戸川区船堀1-1-51 1F,35.6846877,139.8622373
4339,"",アクロスプラザ八尾店,大阪府八尾市都塚4丁目1018番地,34.6052269,135.6222618
4340,"",イオン入間店,埼玉県入間市上藤沢462-1 イオン入間1階,35.8220349,139.3949586
4341,"",南町田グランベリーパーク店,東京都町田市鶴間3-4-1,35.5084485,139.4714272
4342,"",所沢北中店,埼玉県所沢市北中１丁目218-4,35.8098717,139.4322214
4343,"",ヨークフーズ新宿富久店,東京都新宿区富久町17-2,35.6923912,139.7133063
4344,"",ららぽーとTOKYO-BAY,千葉県船橋市浜町2-1-1 ららぽーとTOKYO-BAY　西館１階,35.6827619,139.9928929
4345,"",第二阪和高石店,大阪府高石市西取石6-6-49,34.5177603,135.4444941
4346,"",江古田南口店,東京都練馬区旭丘1-73-2,35.7368681,139.6731943
4347,"",五日市街道北町店,東京都国分寺市北町２丁目24-1,35.717282,139.451903
4348,"",ビーンズ戸田公園店,埼玉県戸田市本町4-15-1,35.80798,139.678117
4349,"",ビバモール蕨錦町店,埼玉県蕨市錦町１-12-1,35.821794,139.677898
4350,"",中野五差路店,東京都中野区中央4-61-4,35.702725,139.665807
4351,"",新宿東宝ビル店,東京都新宿区歌舞伎町1-19-1,35.695293,139.701969
4352,"",イオンモール川口店,埼玉県川口市大字安行領根岸3180,35.837593,139.722916
4353,"",京王笹塚店,東京都渋谷区笹塚1-55-16,35.673606,139.666774
4354,"",千葉中央Mio店,千葉県千葉市中央区本千葉町15-1,35.607646,140.118159
4355,"",砧世田谷通り店,東京都世田谷区砧1-2-10,35.63659,139.620382
4356,"",武蔵浦和マーレ店,埼玉県さいたま市南区白幡5-19-19,35.844375,139.647733
4358,"",南大塚３丁目店,東京都豊島区南大塚3-11-1,35.728197,139.729195
4359,"",ホームズ新山下店,神奈川県横浜市中区新山下2-12-34 島忠ホームズ新山下１階,35.439915,139.660183
4360,"",初台店,東京都渋谷区本町1-2-5　初台AIビル1F,35.681124,139.685694
4361,"",サミット横浜岡野店,神奈川県横浜市西区岡野2-5-18　サミット横浜岡野内,35.459328,139.610831
4362,"",ピーコックストア東小金井店,東京都小金井市中町2丁目23-23,35.70106,139.521722
4363,"",小岩店,東京都江戸川区南小岩6-31-10　FIRSTA ll,35.731878,139.881128
4364,"",八王子めじろ台店,東京都八王子市椚田町560-20,35.637694,139.304604
4365,"",サミット戸塚踊場店,神奈川県横浜市戸塚区汲沢2-1,35.403072,139.520045
4366,"",南海難波駅店,大阪府大阪市中央区難波5-1-60,34.66406,135.501469
4367,"",千葉高品店,千葉県千葉市中央区祐光4-3-4,35.620121,140.131123
4369,"",赤羽スズラン通り店,東京都北区赤羽2-9-1,35.779646,139.725068
4370,"",近鉄布施駅前店,大阪府東大阪市長堂1-1-39,34.664256,135.565655
4371,"",稲田堤店,神奈川県川崎市多摩区菅2-1-27 2階,35.633979,139.532063
4372,"",サミット府中西原店,東京都府中市西原町1-3-1サミット府中西原店1階,35.6809,139.45982
4373,"",アオキスーパー日進店,愛知県日進市竹の山2-109,35.156174,137.036844
4374,"",町田街道森野店,東京都町田市森野4-17-19,35.555609,139.435597
4375,"",イオン高砂店,兵庫県高砂市緑丘2-1-40,34.768872,134.802414
4376,"",要町店,東京都豊島区要町1-1-9,35.73307,139.698427
4377,"",ヨシヅヤ名古屋名西店,愛知県名古屋市西区名西2-33-8,35.190016,136.878599
4378,"",ソコラ所沢店,埼玉県所沢市北秋津592番地,35.784221,139.478384
4379,"",東十条店,東京都北区東十条3-15-9,35.765862,139.728136
4380,"",アズパーク千音寺店,愛知県名古屋市中川区新家1丁目2421,35.156858,136.805885
4382,"",ポートウォークみなと店,愛知県名古屋市港区当知2丁目1501,35.109477,136.847622
4383,"",川越的場店,埼玉県川越市的場801-7,35.914962,139.432827
4384,"",阿佐ヶ谷店,東京都杉並区阿佐谷南1-34-6,35.701479,139.636166
4385,"",都立家政店,東京都中野区鷺宮1-17-6,35.722613,139.644448
4386,"",ヨシヅヤ清洲店,愛知県清須市西市場5丁目5-3,35.218865,136.828664
4387,"",浜田山駅前店,東京都杉並区浜田山三丁目30-10,35.682508,139.62732
4388,"",雑色駅前店,東京都大田区仲六郷2-42-17,35.549844,139.715357
4389,"",N.KLASS三国ヶ丘店,大阪府堺市堺区向陵中町2-7-1  N.KLASS 三国ヶ丘2階,34.565334,135.492776
4390,"",R26岸和田店,大阪府岸和田市八阪町1-10-47,34.4591516,135.3900919
4391,"",エキア竹ノ塚店,東京都足立区西竹の塚2-1-2,35.794016,139.790574
4392,"",大須観音駅前店,愛知県名古屋市中区大須2-22-31,35.160305,136.898599
4393,"",春日白山通り店,東京都文京区小石川1-13-11,35.712902,139.75213
4394,"",西船橋駅北口店,千葉県船橋市西船4-22-4,35.708416,139.958821
4395,"",蒲生四丁目店,大阪府大阪市城東区蒲生4丁目22-9,34.700125,135.545705
4396,"",遊座大山店,東京都板橋区大山東町58-1 大庄大山ビル,35.748932,139.703096
4397,"",西荻窪駅前店,東京都杉並区西荻北3-1-11,35.704019,139.599765
4398,"",中野新橋店,東京都中野区本町5-4-1,35.693629,139.674346
4399,"",東天満店,大阪府大阪市北区東天満1-3-10 南森町アーバンビル,34.696833,135.516931
440,"",北二十四条店,北海道札幌市北区北24条西4-4-15 猪村ビル,43.0914388,141.3429537
4400,"",Ｒ２４６三軒茶屋店,東京都世田谷区太子堂1-12-36 MODELLO三軒茶屋1F,35.644893,139.674363
4402,"",津田沼駅南口店,千葉県習志野市谷津7-8-1,35.691011,140.019328
444,"",琴似店,北海道札幌市西区琴似1条5-4-18 細川ビル,43.0757632,141.3031281
458,"",福岡赤坂店,福岡県福岡市中央区赤坂2-5-50,33.5837706,130.3856682
468,"",名護為又店,沖縄県名護市為又878-3,26.6076832,127.9814037
469,"",広島紙屋町店,広島県広島市中区紙屋町2-2-7,34.3942465,132.4570064
481,"",与次郎店,鹿児島県鹿児島市与次郎1-5-29,31.5673387,130.5610179
483,"",倉賀野バイパス店,群馬県高崎市下之城町字村北176-8,36.3113258,139.0307691
485,"",広尾店,東京都渋谷区広尾5-6-6 広尾プラザ内,35.6500983,139.7218732
488,"",サンピアザ店,北海道札幌市厚別区厚別中央2条5-7-2 サンピアザ2F,43.0376038,141.4722189
497,"",静岡店,静岡県静岡市葵区伝馬町3-1 深尾ビル内,34.9743283,138.3868934
5010,"",イオンモール白山店,石川県白山市横江町5001,36.545167,136.581798
5011,"",マチノマ大森店,東京都大田区大森西3-1-38,35.574451,139.725817
5014,"",熊本水前寺店,熊本県熊本市中央区水前寺6-51-18,32.792602,130.74481
502,"",中村公園店,愛知県名古屋市中村区豊国通1-10,35.1670421,136.8552112
504,"",富山インター店,富山県富山市太郎丸本町3-7-6,36.6747718,137.2109359
506,"",守山大森店,愛知県名古屋市守山区大森3-1811,35.2066732,137.0010659
509,"",西春店,愛知県北名古屋市中之郷北24,35.246239,136.8447914
51,"",向ヶ丘遊園店,神奈川県川崎市多摩区登戸2737-8,35.6165992,139.5639638
510,"",春日井店,愛知県春日井市梅ケ坪町100-1,35.2558833,136.9797136
515,"",野並店,愛知県名古屋市天白区野並3-494,35.1011193,136.9602959
518,"",白石店,北海道札幌市白石区南郷通1-南10-7 松下ビル,43.0454504,141.397608
519,"",刈谷店,愛知県刈谷市日高町4-609,35.0059732,136.9938313
520,"",宮崎花ケ島店,宮崎県宮崎市花ケ島町屋形1183-1,31.9506327,131.4333123
521,"",岐阜店,岐阜県岐阜市宇佐南3-9-8,35.39462,136.7322949
527,"",多治見店,岐阜県多治見市白山町3-115,35.3394323,137.1165011
529,"",プラザハウス店,沖縄県沖縄市久保田3-1-3,26.318974,127.7935987
530,"",東海店,愛知県東海市富木島町伏見2-20-1,35.0177756,136.9087923
532,"",松戸店,千葉県松戸市本町18-9 軍次屋ビル,35.7847495,139.8994784
533,"",一宮店,愛知県一宮市朝日2-3-5,35.3069299,136.8198893
535,"",大垣店,岐阜県大垣市安井町6-15,35.3547562,136.633383
539,"",熊本東バイパス店,熊本県熊本市東区下南部3-1-15,32.8197717,130.756284
540,"",河芸店,三重県津市河芸町上野240-7,34.7976382,136.5536527
544,"",豊川インター店,愛知県豊川市大堀町342-1,34.8354105,137.4029155
545,"",嵯峨野店,京都府京都市右京区太秦北路町26-2,35.0208005,135.7013545
546,"",半田店,愛知県半田市昭和町3-25,34.887766,136.9217864
549,"",熊本四方寄店,熊本県熊本市北区四方寄町1658-1,32.8611687,130.709144
557,"",高前バイパス店,群馬県高崎市中尾町1421-1,36.3748428,139.029679
559,"",安城店,愛知県安城市南町16-16,34.9501438,137.0887476
562,"",岐南店,岐阜県羽島郡岐南町大字八剣北4-105,35.3942446,136.7848721
566,"",尾西店,愛知県一宮市開明字流44,35.3114329,136.771521
567,"",小樽稲穂店,北海道小樽市稲穂2-7-11,43.1985935,140.9974739
569,"",竹越店,愛知県名古屋市千種区竹越二丁目8-20,35.18767,136.977756
57,"",伊丹店,兵庫県伊丹市中央1-4-4,34.7805737,135.4139713
570,"",檀溪通り店,愛知県名古屋市昭和区檀溪通り3-18-4,35.1443793,136.9461511
571,"",太平通り店,愛知県名古屋市中川区太平通り4-20,35.1342509,136.8688294
572,"",竜美ケ丘店,愛知県岡崎市竜美南1-1-33,34.9380764,137.1664786
575,"",相武台店,神奈川県座間市相武台1-19-28,35.5045089,139.4113279
577,"",倉敷笹沖店,岡山県倉敷市笹沖394-1-2,34.5728383,133.7692382
580,"",蒲郡店,愛知県蒲郡市竹谷町中野1-1,34.8280494,137.2104025
586,"",甚目寺店,愛知県あま市下萱津字平島8,35.1837,136.8375274
588,"",宮崎高千穂通り店,宮崎県宮崎市大橋1-5-1,31.9183638,131.4155939
590,"",長野川中島店,長野県長野市川中島町御厨堂野950-1,36.5977827,138.1582483
597,"",広島東雲店,広島県広島市南区東雲2-18-25,34.3791093,132.49022
598,"",春日店,福岡県春日市若葉台西2-4,33.5308963,130.4616699
6011,"",イオン北浦和店,埼玉県さいたま市浦和区常盤10-20-29,35.8715412,139.6381396
6021,"",イトーヨーカドー幕張店,千葉県千葉市花見川区幕張町4-417-25,35.656504,140.0512428
6023,"",イオン大井店,埼玉県ふじみ野市ふじみ野1丁目2番1号,35.859874,139.514435
6024,"",アリオ葛西店,東京都江戸川区東葛西9-3-3,35.652164,139.8813998
605,"",桐生店,群馬県桐生市末広町8-21,36.4108342,139.3369721
606,"",金沢工大前店,石川県金沢市三馬3-300,36.5296641,136.6306901
609,"",リコー通り店,静岡県沼津市北高島町21-36,35.1134487,138.8592112
61,"",藤井寺店,大阪府藤井寺市岡2-1-31,34.573796,135.593863
610,"",佐賀鍋島店,佐賀県佐賀市開成6-12-15,33.2718431,130.2725012
6102,"",生鮮市場TOP稲毛長沼店,千葉県千葉市稲毛区長沼原町731-17,35.656748,140.1273823
6105,"",イオン稲毛店,千葉県千葉市稲毛区小仲台1-4-20,35.6366903,140.0949736
611,"",富士店,静岡県富士市青島町266,35.1570982,138.674522
612,"",浜松幸町店,静岡県浜松市中央区幸1-15-45,34.7423932,137.7260734
614,"",佐鳴台店,静岡県浜松市中央区西伊場町57-21,34.699757,137.7008362
615,"",津南郊店,三重県津市高茶屋小森町水合403-1,34.6739189,136.5182428
619,"",大分今津留店,大分県大分市今津留3-4-30,33.2416058,131.6281048
62,"",蒲田店,東京都大田区西蒲田7-67-5,35.5621031,139.7147426
620,"",大和店,神奈川県大和市大和東1-4-1,35.4702889,139.4622083
622,"",東寺店,京都府京都市南区西九条川原城町96,34.9795345,135.7521359
625,"",草薙店,静岡県静岡市駿河区中吉田15-5,35.0005722,138.4339316
629,"",高崎小鳥店,群馬県高崎市下小鳥町67-6,36.3537544,138.992982
630,"",伊勢上地店,三重県伊勢市上地町北野773-1,34.4935498,136.6708622
631,"",長崎文教町店,長崎県長崎市文教町10-1,32.787778,129.8705292
634,"",焼津店,静岡県焼津市東小川2-17-12,34.8590987,138.3124955
640,"",円山店,北海道札幌市中央区大通西27-1-10,43.0554397,141.3161593
641,"",大倉山店,神奈川県横浜市港北区大倉山2-1-14,35.5218986,139.6295476
646,"",嘉手納店,沖縄県中頭郡嘉手納町兼久382-1,26.3525994,127.7457045
647,"",首里末吉店,沖縄県那覇市古島1-25-4,26.230777,127.7059744
650,"",パレット久茂地店,沖縄県那覇市久茂地1-1-1,26.2140595,127.6796311
652,"",札幌麻生店,北海道札幌市北区北40条西4-2-20 むらもとビル,43.108742,141.338509
653,"",札幌元町店,北海道札幌市東区北23条東20-5-19,43.0942482,141.3826681
654,"",伊勢崎店,群馬県伊勢崎市今泉町2-418-12,36.3120672,139.1954036
659,"",西尾店,愛知県西尾市寄住町州田44,34.863413,137.0622671
661,"",江別店,北海道江別市野幌町41-5 あおいビル,43.0949729,141.5270104
662,"",熊本健軍店,熊本県熊本市東区新生1-1-16,32.7799356,130.7557974
665,"",南郷18丁目店,北海道札幌市白石区栄通１９丁目４?１９,43.028261,141.4349192
666,"",金沢八景店,神奈川県横浜市金沢区瀬戸3-5,35.3314136,139.6215823
671,"",広島安古市店,広島県広島市安佐南区大町西3-3-22,34.467712,132.4600556
673,"",伊敷店,鹿児島県鹿児島市下伊敷1丁目42-38,31.6121099,130.5320329
674,"",御殿場店,静岡県御殿場市萩原72-1,35.3123317,138.9269294
675,"",湊高台店,青森県八戸市湊高台2-1-28,40.5042355,141.5368403
677,"",千歳店,北海道千歳市栄町7-1237,42.8301412,141.6484801
684,"",旭川豊岡店,北海道旭川市豊岡4条2丁目5番26号,43.7603114,142.3939218
688,"",久留米中央公園店,福岡県久留米市合川町字西屋敷1923-1,33.3187262,130.5299026
689,"",米子米原店,鳥取県米子市米原5-6-27,35.4452697,133.3292866
691,"",江南店,愛知県江南市古知野町熱田37,35.3433163,136.8685491
696,"",豊橋東店,愛知県豊橋市大岩町字岩田30,34.7246227,137.4315299
698,"",徳山城ケ丘店,山口県周南市城ケ丘1-1-13,34.0457794,131.8353519
7001,"",イオン札幌手稲駅前店,北海道札幌市手稲区前田一条11,43.1205217,141.2453379
7008,"",大阪ドーム店,大阪府大阪市西区千代崎3-中2-1 大阪ドーム216,34.6692932,135.4772803
702,"",金城店,愛知県名古屋市北区金城4-1-21,35.1929142,136.9037399
7021,"",イオンスーパーセンター横手南店,秋田県横手市大字婦気大堤字中田4-1,39.2951462,140.5522143
7024,"",イオン東根店,山形県東根市さくらんぼ駅前3-7-15,38.4271272,140.3874983
7025,"",OSC湘南店,神奈川県平塚市代官町33-1 D-104,35.3287841,139.3578044
7027,"",土浦ピアタウン店,茨城県土浦市真鍋新町18-13 カスミピアタウン1F,36.0919352,140.2092061
7028,"",イオンモール佐久平店,長野県佐久市佐久平駅南11-10,36.2752954,138.4642132
7031,"",イオン東海店,茨城県那珂郡東海村舟石川駅東四丁目1番1号 イオン東海店1F,36.4637348,140.5667275
7032,"",小倉競馬場店,福岡県北九州市小倉南区北方4-5-1,33.8435188,130.8748952
7033,"",イオン栃木店,栃木県栃木市箱森町37-9,36.3947831,139.7239438
7034,"",名寄店,北海道名寄市西4条南8  西條1F,44.3482895,142.4577772
7035,"",JRA京都競馬場店,京都府京都市伏見区葭島渡場島町32 京都競馬場内,34.907418,135.7255215
7036,"",イオン山形北店,山形県山形市馬見ヶ崎2-12-19,38.2828932,140.330836
7038,"",イオン白河店,福島県西白河郡西郷村小田倉字岩下11-1,37.12139,140.1768706
7039,"",シーナシーナ屯田店,北海道札幌市北区屯田8条3-5,43.1400712,141.3402514
7041,"",イトーヨーカドー甲府昭和店,山梨県中巨摩郡昭和町西条13-1,35.639777,138.5441793
7043,"",長崎ゆめサイト店,長崎県長崎市元船町10ー1,32.746438,129.8698767
7044,"",サンリブ古賀店,福岡県古賀市天神2-5-1,33.7341275,130.4663666
7046,"",イオン成田店,千葉県成田市ウィング土屋24番地,35.7949574,140.3199824
7052,"",シーナシーナ青森店,青森県青森市浜田1-14-1,40.8008146,140.7491108
7053,"",イオン北見店,北海道北見市北進町1丁目1番1号,43.8083861,143.8754936
7054,"",ダイナシティ店,神奈川県小田原市中里208-1ダイナシティ店内,35.2847244,139.1857082
7056,"",JR長崎店,長崎県長崎市尾上町1-1アミュプラザ171,32.7516252,129.8709304
7057,"",アピタ大仁店,静岡県伊豆の国市吉田字九十分153-1,35.000201,138.9361301
706,"",清水バイパス店,熊本県熊本市中央区坪井6-19-8,32.8175227,130.717237
7063,"",カラフルタウン岐阜店,岐阜県岐阜市柳津町丸野3-3-6,35.363589,136.7277073
7066,"",サンリブくりえいと宗像店,福岡県宗像市くりえいと1-5-2,33.8118609,130.5639632
7067,"",イオンモール札幌平岡店,北海道札幌市清田区平岡三条5-3-1,42.9976486,141.45864
7072,"",イオン釧路店,北海道釧路郡釧路町桂木1-1-7,43.0090772,144.4044658
7074,"",イオン札幌厚別店,北海道札幌市厚別区厚別西四条６?７００?１２６,43.0534529,141.4693175
7078,"",イオンモール四日市北店,三重県四日市市富州原町2-40,35.0079689,136.6572632
7080,"",アル・プラザ草津店,滋賀県草津市西渋川1-23-30 アル・プラザ草津　1F,35.0255006,135.9585163
7088,"",大和ハウスプレミストドーム店,北海道札幌市豊平区羊ヶ丘1,43.0095988,141.4195619
709,"",各務原店,岐阜県各務原市鵜沼川崎町2-162-1,35.4020044,136.8794716
7090,"",MEGAドン．キホーテ柏崎店,新潟県柏崎市東長浜町4-15,37.368368,138.5790636
7091,"",東舞鶴店,京都府舞鶴市南浜町27-5 らぽーる1F,35.4665827,135.3954382
7092,"",イオンモール三川店,山形県東田川郡三川町大字猪子字和田庫128-1,38.8159259,139.8349458
7094,"",イオンジェームス山店,兵庫県神戸市垂水区青山台7-7-1,34.6461514,135.0761791
7096,"",ラ・セラ青森東バイパス店,青森県青森市八重田4-2-1,40.8274981,140.8003605
710,"",中央林間店,神奈川県大和市中央林間4-6-3,35.5073715,139.4446887
7100,"",イオンモール富士宮店,静岡県富士宮市浅間町1-8,35.2207075,138.6126261
7103,"",イオン中野店,長野県中野市大字一本木字若宮252-1,36.7582743,138.3719551
7104,"",ビナウォーク店,神奈川県海老名市中央1-6-1ビナウォーク3番館1Ｆフードコート内,35.4525511,139.3936407
7106,"",アル･プラザ津幡店,石川県河北郡津幡町北中条1街区1,36.660922,136.7248398
7107,"",アピタ岡崎北店,愛知県岡崎市日名北町4-46,34.9750642,137.152681
7108,"",トキハインダストリー佐伯店,大分県佐伯市大字池田2064,32.9442456,131.9017435
7111,"",サンエーメインプレイス店,沖縄県那覇市おもろまち4-4-9,26.2258226,127.6949241
7114,"",石橋ヨークタウン店,栃木県下野市下古山3362-1,36.4683544,139.8683686
7115,"",アピタ東海荒尾店,愛知県東海市荒尾町山王前60番地　アピタ東海荒尾店１階,35.0394713,136.9057084
7116,"",到津店,福岡県北九州市小倉北区上到津3-3-29,33.8740144,130.850605
7119,"",ジョイフル本田千葉ニュータウン店,千葉県印西市牧の原2-1,35.8069453,140.1557019
712,"",小田原店,神奈川県小田原市栄町1-2-12,35.2550168,139.1574522
7122,"",足利コムファースト店,栃木県足利市朝倉町245-5,36.3202718,139.4496855
7123,"",アドバンスモール松阪店,三重県松阪市田村町235-1　アドバンスモール松阪1Fフードコート内,34.5557346,136.5133892
7124,"",イオンモール佐野新都市店,栃木県佐野市高萩町1324-1,36.2996654,139.6062056
7125,"",イトーヨーカドー流山店,千葉県流山市流山9-800-2,35.8501182,139.8995105
7126,"",マーサ21店,岐阜県岐阜市正木1599-1,35.4480307,136.7447467
7127,"",イオンモール札幌苗穂店,北海道札幌市東区東苗穂2条3丁目1,43.0800617,141.4034949
7130,"",FKDインターパーク店,栃木県宇都宮市インターパーク6丁目1番地1,36.4901093,139.907176
7131,"",イオン古河店,茨城県古河市旭町1-2-17 イオン古河内,36.1971356,139.7200985
7132,"",新田店,群馬県太田市新田市野井592-13ニコモール内,36.3038513,139.30177
7133,"",イオン熊谷店,埼玉県熊谷市本石2-135,36.1455183,139.3784978
7134,"",結城店,茨城県結城市新福寺6-11-4 とりせん結城店内,36.2872354,139.8689732
7137,"",イオン札幌藻岩店,北海道札幌市南区川沿2条2丁目1番1号,42.9993299,141.3367922
7138,"",サンエー西原店,沖縄県中頭郡西原町嘉手刈 117-2,26.2243907,127.7646642
7140,"",東寝屋川店,大阪府寝屋川市打上中町9番5号フレンドマート東寝屋川店内,34.759133,135.6548598
7142,"",北千住ﾐﾙﾃﾞｨｽ店,東京都足立区千住3-92ﾐﾙﾃﾞｨｽ1階ﾌｰﾄﾞｺｰﾄ内,35.7509923,139.8044482
7143,"",イトーヨーカドー大宮宮原店,埼玉県さいたま市北区宮原町1-854-1,35.9323914,139.6222772
7144,"",イオンモール旭川西店,北海道旭川市緑町23丁目2161番3,43.7937878,142.3262217
7147,"",アル・プラザ茨木店,大阪府茨木市上郡2-12-18　アル・プラザ茨木　1F,34.8383538,135.5555657
7148,"",イトーヨーカドー明石店,兵庫県明石市二見町西二見駅前1-18,34.7057611,134.8776796
7149,"",イオン岩見沢店,北海道岩見沢市大和4条8丁目1番地,43.184487,141.7410799
7152,"",垂水店,兵庫県神戸市垂水区神田町1-20,34.6294211,135.0531127
7153,"",アピタ四日市店,三重県四日市市安島1-3-31,34.9682575,136.6161558
7154,"",イトーヨーカドー四街道店,千葉県四街道市中央5番地,35.6677811,140.165139
7155,"",サンリブシティ小倉店,福岡県北九州市小倉南区上葛原2丁目14-1,33.8387458,130.9085624
7156,"",イオンモール苫小牧店,北海道苫小牧市柳町3丁目1番20号,42.6561717,141.6419261
7158,"",イオンモール宮崎店,宮崎県宮崎市新別府町江口862-1,31.9223947,131.4564065
7159,"",イトーヨーカドー三郷店,埼玉県三郷市ピアラシティ1-1-1,35.8430409,139.85494
7161,"",中標津店,北海道標津郡中標津町南町3番地10　東武サウスヒルズ1F,43.5356954,144.9776582
7164,"",カナート西神戸店,兵庫県神戸市西区竜が岡1-21-1,34.7106925,134.9402186
7165,"",鎌田リオンドール店,福島県福島市鎌田西船戸11-1,37.7913357,140.4865188
7166,"",アリオ札幌店,北海道札幌市東区北7条東9-2-20　2F,43.0711687,141.3701925
7168,"",カインズホーム嵐山店,埼玉県比企郡嵐山町大字平澤字遠道800-1,36.049891,139.308057
7172,"",イオンモール大日店,大阪府守口市大日東町100-1　イオンモール大日内　2F,34.7494267,135.5805003
7174,"",イオンモール高崎店,群馬県高崎市棟高町1400,36.3901972,139.007231
7175,"",イオンモール八幡東店,福岡県北九州市八幡東区東田3丁目　2-102,33.8706343,130.8117737
7176,"",ヨークベニマル石岡店,茨城県石岡市東大橋字中峰1937番地の1,36.198286,140.3056612
7178,"",イオン大宮店,埼玉県さいたま市北区櫛引町2-574-1,35.9233638,139.6095084
718,"",筑波学園店,茨城県つくば市小野崎174-1,36.0761883,140.104588
7180,"",イオン鹿児島店,鹿児島県鹿児島市東開町7,31.5273727,130.5362015
7181,"",ギャラリエアピタ知立店,愛知県知立市長篠町大山18-1　ギャラリエアピタ知立1F,34.9977414,137.0529678
7182,"",イオンモール羽生店,埼玉県羽生市川崎2-281-3,36.14256,139.5428911
7186,"",会津アピオ店,福島県会津若松市インター西116,37.5206158,139.9174437
7187,"",イオン上磯店,北海道北斗市七重浜4-44-1　イオン上磯店1F,41.8215482,140.7123356
7189,"",リオンドール船引店,福島県田村市船引町字船引川代78　リオンドール船引店内,37.4343351,140.5921816
719,"",清水インター店,静岡県静岡市清水区八坂東2-15-2,35.035893,138.4772986
7190,"",ベイシア安中店,群馬県安中市中宿2130,36.3339325,138.9245721
7193,"",イオンレイクタウン店,埼玉県越谷市レイクタウン3丁目1番地1,35.881749,139.8278505
7194,"",イオンモール大曲店,秋田県大仙市和合字坪立177番,39.4387126,140.5088891
7195,"",イオンモール小山店,栃木県小山市中久喜1467-1,36.320825,139.8402517
7196,"",イオンモール下妻店,茨城県下妻市堀籠972-1,36.1903135,139.9892675
7197,"",イオン滝川店,北海道滝川市東町2丁目25-3,43.5541384,141.9311378
72,"",フォーリス府中店,東京都府中市宮町1-41-1 フォレストサイドビル1F,35.6705026,139.4793232
720,"",鷺沼店,神奈川県川崎市宮前区鷺沼3-1-2,35.5790136,139.5730489
7200,"",イオンモール筑紫野店,福岡県筑紫野市大字立明寺434-1他,33.4808993,130.5267523
7202,"",イズミヤ神戸玉津店,兵庫県神戸市西区森友3丁目7-3,34.6635418,134.982746
7204,"",オリンピック新座店,埼玉県新座市中野2-1-38,35.8168434,139.5487996
7205,"",イオンモール土浦店,茨城県土浦市上高津367番地,36.080209,140.1806552
7206,"",ヨークベニマル矢板店,栃木県矢板市富田168-1　ヨークベニマル矢板店内,36.798512,139.9291786
7207,"",イオン赤穂店,兵庫県赤穂市中広字別所55-3,34.7552414,134.399892
7208,"",あびこショッピングプラザ店,千葉県我孫子市我孫子4-11-1,35.876246,140.0087193
7209,"",イオン三田ウッディタウン店,兵庫県三田市けやき台1-6-2,34.908937,135.1875212
7211,"",神戸ハーバーランド店,兵庫県神戸市中央区東川崎町1-8-1プロメナ神戸　B1,34.6795518,135.180909
7214,"",イオンモール新利府北館店,宮城県宮城郡利府町利府字新屋田前22,38.3267938,140.9724051
7215,"",イオンモール富谷店,宮城県富谷市大清水1-33-1,38.3644646,140.8751356
7216,"",イオンモール名取店,宮城県名取市杜せきのした5丁目3-1,38.1638093,140.8957653
7217,"",イオンモール石巻店,宮城県石巻市茜平4丁目104番地,38.447608,141.2652368
7219,"",笠間ポレポレシティー店,茨城県笠間市赤坂8番地,36.3915498,140.2516979
7220,"",アリオ西新井店,東京都足立区西新井栄町1-20-1　アリオモール内1F,35.7741547,139.7860657
7222,"",イオンモールつがる柏店,青森県つがる市柏稲盛幾世41,40.8026881,140.4167514
7225,"",津山ノースランド店,岡山県津山市上河原160-2,35.0809058,134.0043066
7226,"",港南台店,神奈川県横浜市港南区港南台3-1-2　イオンフードスタイル港南台店 １階,35.3758143,139.577294
7227,"",たまプラーザテラス店,神奈川県横浜市青葉区美しが丘1丁目1-2,35.5780003,139.5597907
7229,"",ベイシア前橋みなみモール店,群馬県前橋市新堀町893,36.3301596,139.0964301
723,"",フレッシュモールあらまき店,群馬県前橋市荒牧町1丁目10番地１,36.4247136,139.0577447
7231,"",イオンモール大牟田店,福岡県大牟田市岬町3-4,33.0305037,130.4262782
7232,"",イオンモール伊丹昆陽店,兵庫県伊丹市池尻4-1-1,34.7845041,135.3813481
7236,"",木の葉モール橋本店,福岡県福岡市西区橋本2-27-2　木の葉モール橋本1F,33.5553568,130.3229181
724,"",糸満店,沖縄県糸満市字兼城369-3,26.1412391,127.6722488
725,"",豊田元町店,愛知県豊田市土橋町1-58-1,35.0632257,137.1295736
729,"",宮の森店,北海道札幌市中央区宮の森2条10-5-10,43.0579309,141.3021628
73,"",市川駅北口店,千葉県市川市市川1-6-14 市川金子ビル,35.7295965,139.9086753
731,"",瀬戸店,愛知県瀬戸市西原町2-86,35.2089067,137.0652478
736,"",静岡SBS通り店,静岡県静岡市駿河区中田本町44-15,34.9548138,138.3955421
737,"",富士吉田店,山梨県富士吉田市新西原2-33-12,35.4803223,138.7843087
739,"",スカイプラザ柏店,千葉県柏市柏1-1-20 スカイプラザ柏B1,35.862283,139.97212
746,"",宇部店,山口県宇部市恩田町1-4-20,33.9430677,131.2638948
747,"",唐津店,佐賀県唐津市和多田本村1-11,33.4370105,129.974891
748,"",東刈谷店,愛知県刈谷市東刈谷町1-17-1,34.9767548,137.0397495
75,"",久米川店,東京都東村山市恩多町2-28-1,35.7482833,139.4808756
750,"",七ツ島店,鹿児島県鹿児島市南栄5-1-11,31.5048453,130.516071
751,"",堅田店,滋賀県大津市本堅田4-16-1,35.1199579,135.9171068
753,"",富士宮バイパス店,静岡県富士宮市東阿幸地688,35.2270912,138.6254614
754,"",福山蔵王店,広島県福山市南蔵王町5-17-46,34.5053028,133.4020203
756,"",鹿島街道いわき店,福島県いわき市鹿島町下矢田二反田9-1,37.0005089,140.9095792
757,"",佐賀南部バイパス店,佐賀県佐賀市西与賀町大字厘外970-1,33.2404742,130.2803201
762,"",土岐店,岐阜県土岐市泉寺下町2-15,35.362331,137.1802107
763,"",湯の山街道店,三重県四日市市高角町字境田2555-1,34.9809344,136.5575413
764,"",城西店,鹿児島県鹿児島市城西1-9-1,31.5930691,130.5418484
770,"",大垣北店,岐阜県大垣市林町9-102,35.3781402,136.6221798
771,"",橿原店,奈良県橿原市新賀町132-2,34.5197753,135.7976698
772,"",岡山高柳店,岡山県岡山市北区高柳東町14-22,34.6618837,133.9004939
780,"",岡崎北店,愛知県岡崎市井ノ口新町3-21,34.9909613,137.1657388
787,"",せんげん台店,埼玉県越谷市千間台西1-67 千間台駅ビル内,35.9355536,139.7741648
789,"",飯塚かやの森店,福岡県飯塚市柏ノ森56-1,33.6435363,130.7039836
790,"",美濃加茂店,岐阜県美濃加茂市中富町1-2395,35.4428288,137.023829
794,"",都城店,宮崎県都城市上川東4-5949-1,31.7473723,131.0786939
795,"",牡丹山店,新潟県新潟市東区牡丹山3-2-19,37.9230639,139.0927497
796,"",洛北店,京都府京都市左京区下鴨本町26-2,35.0437587,135.7711989
801,"",石垣店,沖縄県石垣市新栄町75-27,24.348297,124.147421
802,"",宇都宮西川田店,栃木県宇都宮市西川田町6-6-39,36.5092251,139.8548106
804,"",会津若松店,福島県会津若松市東千石1-1-16,37.4975475,139.943309
805,"",新潟三条店,新潟県三条市荒町2-25-2,37.6411779,138.9548829
806,"",太宰府店,福岡県太宰府市五条3-6-39,33.508406,130.5240648
807,"",中津川店,岐阜県中津川市手賀野字小向井437-6,35.4805737,137.496606
809,"",福島西インター店,福島県福島市大森字北島6-1,37.7398406,140.448529
81,"",川崎銀柳街店,神奈川県川崎市川崎区砂子2-2-1 薄井ビル,35.5295185,139.6993693
814,"",和合店,愛知県愛知郡東郷町大字和合字牛廻間166-1,35.1066332,137.0426057
815,"",熊本近見店,熊本県熊本市南区近見9-1-13,32.7622962,130.6987403
818,"",志木南口駅前店,埼玉県新座市東北2-38-2,35.8223021,139.5744802
819,"",川崎アゼリア店,神奈川県川崎市川崎区駅前本町26-2 川崎地下街アゼリア2023,35.5308701,139.6988213
821,"",磐田店,静岡県磐田市今之浦4-22-2,34.7221407,137.8579418
823,"",大橋店,福岡県福岡市南区向野2-18-5,33.5605792,130.4219442
824,"",西条店,広島県東広島市西条町大字寺家有吉5478-2,34.4316792,132.7270242
825,"",蟹江店,愛知県海部郡蟹江町源氏1-159,35.1302243,136.7814024
831,"",高岡西町店,富山県高岡市西町5-8,36.7502794,136.9965857
837,"",月寒店,北海道札幌市豊平区月寒中央通10-2-5,43.0259437,141.3985688
838,"",甲府東店,山梨県甲府市上阿原366-1,35.6457529,138.6074331
84,"",長居店,大阪府大阪市住吉区長居東4-1-12 パークサイド南栄ビル105号,34.6117258,135.5137597
842,"",片江店,福岡県福岡市城南区片江1-4-50,33.5524778,130.3785776
845,"",広島五日市店,広島県広島市佐伯区楽々園2-1-19,34.3642651,132.3542379
846,"",伊勢崎三郷店,群馬県伊勢崎市太田町976-1,36.3361617,139.1879349
850,"",芥見店,岐阜県岐阜市芥見南2,35.4557786,136.8499059
854,"",石堂店,青森県八戸市長苗代2-16-38,40.5253119,141.4713108
857,"",南宮崎店,宮崎県宮崎市中村東3-60-1,31.8954884,131.4174403
862,"",長崎時津店,長崎県西彼杵郡時津町元村郷字打坂1206-15,32.8136269,129.8453544
863,"",郡山荒井店,福島県郡山市安積北井1丁目20番地,37.3717101,140.3541472
865,"",苫小牧桜木店,北海道苫小牧市桜木町3丁目19番21号,42.6311539,141.552544
870,"",藤枝店,静岡県藤枝市瀬戸新屋字小池下361-1,34.8494292,138.2374902
875,"",諏訪インター店,長野県諏訪市大字四賀字赤沼1744-1,36.0195412,138.1233
876,"",佐野店,栃木県佐野市浅沼町字原602-2,36.306255,139.5918292
878,"",小松店,石川県小松市有明町127,36.3963436,136.4557636
88,"",長田中央大通店,大阪府東大阪市長田西1-5-31,34.6785206,135.5846217
880,"",大河原店,宮城県柴田郡大河原町字新南60-25,38.0536354,140.7310602
881,"",帯広白樺店,北海道帯広市西19条南2丁目29番16号,42.9186427,143.1528827
885,"",天文館店,鹿児島県鹿児島市呉服町1-6,31.5909519,130.5563996
886,"",荒川沖店,茨城県土浦市中村南4-7-15,36.0404463,140.1592206
890,"",釧路愛国店,北海道釧路市愛国西1-13-21,43.0103257,144.3851273
893,"",熊本大津店,熊本県菊池郡大津町室門出221,32.8757473,130.8641608
897,"",中間店,福岡県中間市蓮花寺2-2-15,33.8253957,130.720862
899,"",広島府中店,広島県広島市東区矢賀新町3-2-10,34.3923409,132.4980692
901,"",金沢文庫店,神奈川県横浜市金沢区谷津町384,35.3428516,139.6213866
903,"",南松本店,長野県松本市高宮南1-27,36.2109058,137.9600244
905,"",足利南店,栃木県足利市堀込町2481-1,36.3105144,139.4454039
906,"",久喜店,埼玉県久喜市中央2-1-1,36.0656293,139.6774842
909,"",宇都宮御幸町店,栃木県宇都宮市御幸町字道下289-12,36.5787502,139.9206912
910,"",防府店,山口県防府市高倉2-12-27,34.0532788,131.5567276
913,"",宇都宮宝木店,栃木県宇都宮市宝木町2-2575-1,36.5837359,139.8500177
916,"",新発田店,新潟県新発田市小舟町1-1-2,37.9632607,139.32711
917,"",藤岡店,群馬県藤岡市上大塚字一本木341-5,36.2420476,139.0614341
920,"",西京極店,京都府京都市右京区西京極新明町15,34.995577,135.7136275
926,"",和白店,福岡県福岡市東区和白丘1-5-3,33.6947026,130.4353527
927,"",松江乃木店,島根県松江市上乃木4-33-8,35.4438312,133.0591736
928,"",福岡南バイパス店,福岡県福岡市博多区立花寺1-7-28,33.5641873,130.466256
929,"",富岡店,群馬県富岡市一ノ宮1759-1,36.2528636,138.8616982
931,"",八軒店,北海道札幌市西区八軒1条西1-6-15,43.0824938,141.3098901
936,"",多摩センター店,東京都多摩市落合1-11-2,35.6249816,139.4245094
939,"",下関綾羅木店,山口県下関市綾羅木新町4-1,34.0093548,130.9246507
940,"",小郡店,山口県山口市小郡新町六丁目3番27号,34.1174927,131.4014394
941,"",牛久店,茨城県牛久市神谷1-6-5,35.9751632,140.1513019
943,"",大田原店,栃木県大田原市本町1-2695-7,36.8750139,140.0111098
944,"",近江八幡店,滋賀県近江八幡市鷹飼町529,35.122839,136.100345
946,"",敦賀店,福井県敦賀市三島町3-36,35.6474031,136.0651699
948,"",南陽通り店,愛知県名古屋市南区南陽通り5-1-2,35.1023162,136.9019289
951,"",函館本通店,北海道函館市本通4丁目17番33号,41.7989501,140.7756904
963,"",鳥取千代水店,鳥取県鳥取市安長字行水227-1,35.5129985,134.2036671
965,"",真岡店,栃木県真岡市長田2-34-12,36.4375627,139.9635881
967,"",丸亀店,香川県丸亀市山北町字原窪28-2,34.2683814,133.8023977
968,"",観音寺店,香川県観音寺市吉岡町字道上214-1,34.126266,133.6888315
97,"",横浜今宿店,神奈川県横浜市旭区今宿東町1658-1,35.4823903,139.5314303
972,"",札幌前田店,北海道札幌市手稲区前田四条10-2-8 タケシンビル,43.1228432,141.2503339
974,"",鳥栖店,佐賀県鳥栖市古賀町字天神339-1,33.3871428,130.4999746
976,"",福岡原バイパス店,福岡県福岡市早良区小田部5-8-12,33.5684336,130.3309157
979,"",沼田店,群馬県沼田市横塚町橋場1366-6,36.6549801,139.0727605
980,"",五香駅前店,千葉県松戸市常盤平5-17-15,35.7968238,139.9644189
982,"",宇治大久保店,京都府宇治市大久保町上ノ山32-4,34.8707155,135.7777822
985,"",岡山原尾島店,岡山県岡山市中区浜620-1,34.6729304,133.9440795
987,"",南守谷店,茨城県守谷市松ケ丘1-11-1,35.9419239,139.9940955
991,"",熊本浜線バイパス店,熊本県熊本市南区出仲間9-6-40,32.7707782,130.7218528
992,"",北九州徳力店,福岡県北九州市小倉南区守恒本町3-1-8,33.8347978,130.8706341
994,"",豊川八幡店,愛知県豊川市八幡町下天王11,34.8329178,137.3475347
998,"",弘前城東店,青森県弘前市高田3-1-9,40.5970477,140.506809
