store_id,pref_id,shop_name,address,lat,lon
4800,"",平塚四之宮店,神奈川県平塚市 四之宮2ｰ6ｰ21,35.3488173,139.3545892
4801,"",四街道店,千葉県四街道市 大日80ｰ2,35.6698099,140.1548628
4802,"",南越谷店,埼玉県越谷市 南越谷1ｰ13ｰ7 南越谷ハローマート2Ｆ,35.8745832,139.7912745
4803,"",松戸アネックス店,千葉県松戸市 本町20ｰ13 東進ビル2Ｆ,35.7851272,139.9001517
4806,"",越谷店,埼玉県越谷市 花田1ｰ12ｰ1,35.9092232,139.7969142
4808,"",青葉台店,神奈川県横浜市 青葉区青葉台2ｰ6ｰ2 山下ビル2Ｆ,35.5431687,139.5150541
4809,"",東千葉店,千葉県千葉市 中央区祐光4ｰ18,35.6180388,140.1316658
4819,"",三軒茶屋店,東京都世田谷区 三軒茶屋1ｰ33ｰ19 ケイオーハロービル1Ｆ,35.6422065,139.6717374
4823,"",阿佐ヶ谷北口店,東京都杉並区 阿佐谷北2ｰ1ｰ3 オリコ阿佐ヶ谷北ビル3Ｆ,35.705129,139.6355378
4825,"",宮野木店,千葉県千葉市 稲毛区園生町237ｰ7,35.6509487,140.1015919
4827,"",福生店,東京都福生市 北田園1ｰ20ｰ1,35.7338926,139.324052
4828,"",笹塚店,東京都渋谷区 笹塚1ｰ30ｰ11 中村ビルＢ1Ｆ,35.6732026,139.666598
4830,"",東十条店,東京都北区 東十条4ｰ5ｰ5 コスモプラザＨＩＮＯ1Ｆ,35.766372,139.7275249
4835,"",八柱店,千葉県松戸市 日暮2ｰ6ｰ1 清水ビル1Ｆ,35.7915327,139.9374097
4836,"",用賀店,東京都世田谷区 用賀4ｰ13ｰ2 メゾンドシルベスト1Ｆ,35.6279106,139.6352468
4837,"",さいたま東大宮店,埼玉県さいたま市 見沼区東大宮4ｰ6ｰ12,35.947698,139.6379442
4838,"",市川大野店,千葉県市川市 下貝塚3ｰ8ｰ18,35.7413945,139.9475467
4839,"",袖ヶ浦店,千葉県袖ケ浦市 蔵波台5ｰ19ｰ1,35.4390546,139.9974837
4840,"",京成大久保店,千葉県習志野市 大久保1ｰ23ｰ17 花園ビル2Ｆ,35.6861242,140.0485459
4845,"",市原国分寺台店,千葉県市原市 東国分寺台5ｰ8ｰ8,35.4973129,140.1240085
4846,"",岩槻店,埼玉県さいたま市 岩槻区上野1ｰ21ｰ8,35.9702929,139.7000521
4847,"",北本店,埼玉県北本市 東間1ｰ23ｰ1 ハリカビル1Ｆ,36.035459,139.5330105
4848,"",瀬谷店,神奈川県横浜市 瀬谷区橋戸2ｰ28ｰ8,35.4620071,139.4801331
4850,"",白井店,千葉県白井市 冨士153ｰ1,35.770929,140.0179942
4851,"",赤坂店,東京都港区 赤坂3ｰ12ｰ11 セントラル赤坂ビル2Ｆ,35.6700278,139.7411972
4852,"",相模大野店,神奈川県相模原市 南区相模大野3ｰ12ｰ6 ＶＩＡ2Ｆ,35.5318582,139.4361665
4854,"",品川店,東京都港区 港南2ｰ2ｰ1 ミナトビル5Ｆ,35.6293379,139.7419733
4855,"",綾瀬店,東京都足立区 綾瀬3ｰ3ｰ2 第一星ビル2Ｆ,35.7626385,139.8247056
4858,"",逆瀬川店,兵庫県宝塚市 伊孑志3ｰ8ｰ19 馬殿ビル1Ｆ,34.798356,135.354793
4859,"",市川鬼高店,千葉県市川市 鬼高3ｰ28ｰ16 市川ショッピングプラザ2Ｆ,35.709033,139.9366876
4860,"",藤沢柄沢店,神奈川県藤沢市 柄沢319ｰ1,35.3516772,139.500485
4861,"",千里丘店,大阪府摂津市 千里丘2ｰ13ｰ21,34.7910796,135.5484624
4862,"",八王子大和田店,東京都八王子市 大和田町5ｰ31ｰ24,35.6663821,139.3535883
4863,"",十三店,大阪府大阪市 淀川区十三東2ｰ9ｰ16 北川ビル2Ｆ,34.7202286,135.4833498
4864,"",中野新橋店,東京都中野区 弥生町2ｰ26ｰ9 カーサラネージュ2Ｆ,35.6923089,139.6742715
4865,"",五反田店,東京都品川区 東五反田2ｰ2ｰ2 松楽ビル2Ｆ,35.6255879,139.7250304
4866,"",松戸二十世紀が丘店,千葉県松戸市 二十世紀が丘丸山町84,35.7675932,139.9110045
4867,"",花見川店,千葉県千葉市 花見川区花島町481ｰ3,35.6833169,140.093939
4868,"",西千葉店,千葉県千葉市 中央区春日2ｰ25ｰ4 創建第六ビル1Ｆ,35.6227362,140.1025567
4869,"",籠原店,埼玉県熊谷市 拾六間763ｰ1 フェスティバルガーデンカゴハラ,36.1731467,139.3112759
4870,"",若葉台店,神奈川県川崎市 麻生区黒川562ｰ6 京王リトナード若葉台2Ｆ,35.6194665,139.4735975
4871,"",浦安店,千葉県浦安市 北栄1ｰ16ｰ30 浦安小徳ビル1Ｆ,35.665049,139.8945344
4872,"",大山店,東京都板橋区 大山町9ｰ5 一ノ瀬ビル1Ｆ,35.7478148,139.7020139
4875,"",赤羽店,東京都北区 赤羽1ｰ21ｰ3 メゾン・ド・ジュエル1Ｆ,35.7802893,139.720614
4878,"",練馬店,東京都練馬区 練馬1ｰ1ｰ9 ＳＴビル1Ｆ,35.7378899,139.6563266
4879,"",白楽店,神奈川県横浜市 神奈川区白幡町2ｰ3,35.4906856,139.6285669
4881,"",蒲田店,東京都大田区 西蒲田7ｰ61ｰ7 巽ビル2Ｆ,35.5619845,139.7121932
4882,"",保木間店,東京都足立区 保木間2ｰ24ｰ3,35.7946566,139.8079224
4887,"",鷺沼店,神奈川県川崎市 宮前区鷺沼3ｰ1ｰ27 ヘロンビル1Ｆ,35.5782848,139.5721483
4889,"",柏店,千葉県柏市 柏2ｰ8ｰ15 第2関口ビル1Ｆ,35.86231268839,139.97493260973
4891,"",高田馬場店,東京都新宿区 高田馬場3ｰ2ｰ14 ナカムラビル1Ｆ,35.7142462,139.7034346
4895,"",所沢店,埼玉県所沢市 日吉町8ｰ3 三上ビル1Ｆ,35.7886316,139.4715879
4896,"",追浜店,神奈川県横須賀市 追浜本町1ｰ39,35.31663,139.6275607
4897,"",津田沼店,千葉県習志野市 津田沼1ｰ11ｰ16 榊原ビル1Ｆ,35.6915727,140.0220675
4898,"",新百合ヶ丘店,神奈川県川崎市 麻生区万福寺1ｰ17ｰ1 小田急アコルデ新百合ヶ丘北館2Ｆ,35.6045161,139.507766
4899,"",八潮店,埼玉県八潮市 西袋1343ｰ1,35.8188032,139.8263007
4900,"",渋谷店,東京都渋谷区 宇田川町31ｰ9 ハナテイビル2Ｆ,35.6612022,139.6979178
4902,"",武蔵村山店,東京都武蔵村山市 学園3ｰ102 マンション田島1Ｆ,35.7419163,139.4044537
4903,"",一之江店,東京都江戸川区 一之江3ｰ1ｰ17 レイモンドビル2Ｆ,35.6861297,139.8844591
4904,"",亀戸店,東京都江東区 亀戸5ｰ5ｰ13 リコービル1Ｆ,35.6983534,139.8269698
4905,"",原宿店,東京都渋谷区 神宮前1ｰ13ｰ21 シャンゼール原宿1号館3Ｆ,35.6697402,139.7036782
4908,"",西葛西店,東京都江戸川区 西葛西6ｰ16ｰ1 ＢＰＲスクエア西葛西ビルＢ1Ｆ,35.6637059,139.8596091
4909,"",武蔵中原店,神奈川県川崎市 中原区上小田中6ｰ21ｰ5 ステーションプラザタツヤ2Ｆ,35.5809231,139.642099
4910,"",鴨宮店,神奈川県小田原市 前川120 フレスポ小田原シティーモール南館1Ｆ,35.2810794,139.1943117
4911,"",明大前店,東京都世田谷区 松原1ｰ36ｰ9 第二ＭＫビルＢ1Ｆ,35.6686721,139.6510773
4912,"",厚木妻田店,神奈川県厚木市 妻田北3ｰ1ｰ2,35.4653429,139.3553034
4914,"",妙典店,千葉県市川市 富浜2ｰ6ｰ1,35.690791,139.9240476
4915,"",新宿歌舞伎町店,東京都新宿区 歌舞伎町1ｰ21ｰ2 伊藤ビルＢ1Ｆ,35.6950466,139.7010729
4916,"",中山店,神奈川県横浜市 緑区中山1ｰ1ｰ2,35.5108417,139.5449806
4918,"",武蔵小杉店,神奈川県川崎市 中原区小杉町3ｰ69ｰ1 今井ビル2Ｆ,35.5730661,139.6567149
4919,"",住吉店,東京都江東区 住吉1ｰ12ｰ12 シャトースミヨシ1Ｆ,35.6886738,139.812974
4920,"",春日部小渕店,埼玉県春日部市 小渕215ｰ1,35.9924075,139.7587668
4921,"",小田原店,神奈川県小田原市 栄町1ｰ4ｰ9 尾崎ビル1Ｆ,35.2544902,139.1562123
4923,"",巣鴨店,東京都豊島区 巣鴨2ｰ3ｰ3 第二福島ビル2Ｆ,35.7342618,139.7386809
4925,"",町田鶴川店,東京都町田市 大蔵町337,35.5875727,139.4683848
4930,"",梅ヶ丘店,東京都世田谷区 梅丘1ｰ21ｰ4 采田ビル1Ｆ,35.6553183,139.6535636
4931,"",鶴ヶ島店,埼玉県鶴ヶ島市 富士見1ｰ10ｰ9,35.9478243,139.411607
4932,"",調布店,東京都調布市 布田1ｰ35ｰ3 ダイモンビル1Ｆ,35.6540168,139.5446124
4933,"",大泉学園店,東京都練馬区 東大泉3ｰ19ｰ5 第５中嶋ビル1階,35.7514501,139.5860047
4934,"",上野店,東京都台東区 上野6ｰ13ｰ5 小埜ビル2Ｆ,35.7106765,139.7751904
4935,"",池尻大橋店,東京都目黒区 東山3ｰ15ｰ2 ソナー第二ビル1Ｆ,35.6503809,139.6848693
4936,"",高砂店,東京都葛飾区 高砂5ｰ42ｰ1 さくらビル1Ｆ,35.7514737,139.8683106
4937,"",川崎店,神奈川県川崎市 川崎区砂子2ｰ4ｰ19 富永ビル2Ｆ,35.5302392,139.7004291
4939,"",ヒューマックス成田店,千葉県成田市 ｳｲﾝｸﾞ土屋80,35.793064,140.322238
4940,"",八街店,千葉県八街市 八街ほ33ｰ23,35.6672419,140.319693
4941,"",茅ヶ崎高田店,神奈川県茅ヶ崎市 高田4ｰ22ｰ1,35.3414924,139.4129156
4942,"",船堀店,東京都江戸川区 船堀3ｰ7ｰ13 ウ゛ァンテアンビル2Ｆ,35.6828984,139.8655498
4943,"",板橋店,東京都板橋区 板橋1ｰ21ｰ8 吉原ビル1・2Ｆ,35.7470351,139.7186763
4944,"",町田店,東京都町田市 原町田4ｰ10ｰ18 ＳｉｄｅＳ1Ｆ,35.5419371,139.44934
4946,"",新宿東口店,東京都新宿区 新宿3ｰ20ｰ8 ＷａＭａｌｌ8Ｆ,35.6928625,139.7030383
4947,"",市川店,千葉県市川市 市川1ｰ4ｰ17 アクティオーレ市川3Ｆ,35.7291213,139.908878
4948,"",大岡山店,東京都大田区 北千束1ｰ51ｰ6 ＰＳ大岡山ビル2Ｆ,35.6082304,139.6852928
4949,"",大宮東口店,埼玉県さいたま市 大宮区宮町2ｰ28 あじせんビル2Ｆ,35.9086784,139.6266734
4951,"",イオンタウン野田店,千葉県野田市 七光台4ｰ2 イオンタウン野田七光台Ｍ棟,35.9822859,139.8518062
4952,"",京急川崎駅前店,神奈川県川崎市 川崎区駅前本町10ｰ5 クリエ川崎ビル3F,35.5319529,139.6994319
4953,"",成増店,東京都板橋区 成増2ｰ17ｰ22 五曠第７ビル2Ｆ,35.7775953,139.6310244
4954,"",池袋明治通り店,東京都豊島区 南池袋1ｰ19ｰ3 第５中野ビルＢ1Ｆ,35.727323,139.7121414
4955,"",みはら店,埼玉県朝霞市 三原5ｰ11ｰ16,35.8120142,139.5762427
4957,"",旗の台店,東京都品川区 旗の台3ｰ12ｰ3 Ｊ．ＢＯＸビルＢ1Ｆ,35.6048869,139.7028135
4958,"",平塚店,神奈川県平塚市 紅谷町16ｰ4 ダイレクトパーク1Ｆ,35.3279139,139.3467241
4959,"",津田沼駅前通り店,千葉県習志野市 津田沼1ｰ2ｰ1 十三ビル4Ｆ,35.6903923,140.0222009
4960,"",立川店,東京都立川市 錦町1ｰ2ｰ4 日専連立川ビルＢ1Ｆ,35.697294,139.4161651
4961,"",多摩センター店,東京都多摩市 落合1ｰ11ｰ3 おちあい横丁102号,35.6251299,139.4253425
4962,"",秋津店,東京都清瀬市 野塩5ｰ298ｰ5 キッコーマス5ビル2Ｆ,35.7780532,139.4968943
4964,"",鶴ヶ峰店,神奈川県横浜市 旭区鶴ｹ峰1ｰ12ｰ3 寺内ビル2Ｆ,35.4748447,139.5476084
4965,"",港北ニュータウンセンター南店,神奈川県横浜市 都筑区茅ヶ崎南5ｰ1ｰ48,35.5424342,139.5702498
4966,"",小田急町田北口店,東京都町田市 中町1ｰ2ｰ3 新光中町ビル2Ｆ,35.5460728,139.4453652
4968,"",秩父店,埼玉県秩父市 上野町13ｰ9 2Ｆ,35.9955549,139.0865499
4969,"",館山店,千葉県館山市 北条1537ｰ4,34.9923923,139.8673322
4970,"",浅草国際通り店,東京都台東区 西浅草2ｰ13ｰ9 ＭＣビル2Ｆ,35.7125518,139.7919447
4971,"",新宿西口店,東京都新宿区 西新宿1ｰ15ｰ8 アトラス西新宿ビル3・4・5Ｆ,35.6888822,139.6971947
4972,"",浅草店,東京都台東区 浅草1ｰ32ｰ11 九十一ビルＢ1Ｆ,35.7123102,139.7970137
4974,"",木更津店,千葉県木更津市 文京2ｰ4ｰ5 夢遇館2Ｆ,35.3764772,139.9320536
4976,"",王子店,東京都北区 王子1ｰ6ｰ6 栗生ハイツ2Ｆ,35.7545375,139.7395578
4979,"",川越クレアモール店,埼玉県川越市 新富町2ｰ12ｰ8 榎本ビル4Ｆ,35.9116609,139.483094
4981,"",秋葉原電気街口店,東京都千代田区 外神田1ｰ15ｰ9 ＡＫビルディング8F,35.6980389,139.7724161
4982,"",池袋サンシャイン通り店,東京都豊島区 東池袋1ｰ21ｰ13 ＯＲＥ池袋6Ｆ,35.7304868,139.7159521
4983,"",入間武蔵藤沢店,埼玉県入間市 下藤沢3ｰ26ｰ1,35.8185627,139.4084785
4984,"",新小岩駅前店,東京都葛飾区 新小岩1ｰ44ｰ2 西友クッターナ新小岩8Ｆ,35.7165553,139.8579606
4985,"",新横浜店,神奈川県横浜市 港北区篠原町2865 新横浜ビル1Ｆ,35.507198708517,139.61770802884
4987,"",元石川店,神奈川県横浜市 青葉区元石川町5422ｰ13,35.5826562,139.5443698
4989,"",戸田店,埼玉県戸田市 新曽662 ＴーＦＲＯＮＴＥ1Ｆ,35.8174519,139.6683315
4991,"",久喜店,埼玉県久喜市 本町7ｰ5ｰ37,36.0750434,139.6707803
4992,"",吉川店,埼玉県吉川市 高富1ｰ13ｰ3,35.8726292,139.8445979
4994,"",池袋立教通り店,東京都豊島区 西池袋3ｰ29ｰ11 ファーストビル1Ｆ,35.731439,139.7067529
4996,"",水道橋店,東京都千代田区 神田三崎町2ｰ9ｰ5山下ﾋﾞﾙ2F 山下ビル2Ｆ,35.7007853,139.7547949
4997,"",鴨川店,千葉県鴨川市 横渚1052ｰ1,35.110362,140.103447
4999,"",野並店,愛知県名古屋市 天白区野並2ｰ251,35.1030001,136.9546653
5000,"",池上店,東京都大田区 池上6ｰ1ｰ3 三信池上ビル2Ｆ,35.5729107,139.7040769
5001,"",八重洲日本橋店,東京都中央区 日本橋3ｰ7ｰ7 小村ビル1Ｆ・Ｂ1Ｆ,35.67977,139.7734
5002,"",浦和店,埼玉県さいたま市 浦和区仲町1ｰ10ｰ7 尾張屋第一ビル3Ｆ,35.86026,139.6535399
5003,"",伊勢原店,神奈川県伊勢原市 桜台3ｰ6ｰ6,35.3935781,139.3161286
5005,"",山形桜田店,山形県山形市 桜田東1ｰ1ｰ1,38.2222082,140.3200711
5007,"",国分寺店,東京都国分寺市 本町2ｰ10ｰ1 藍プラザ2Ｆ,35.7010225,139.4816405
5008,"",横浜関内店,神奈川県横浜市 中区真砂町3ｰ32 ステーツサイドビル1Ｆ,35.4452882,139.6358201
5009,"",青砥店,東京都葛飾区 立石6ｰ30ｰ8 サンリブ青砥2Ｆ,35.7441831,139.8530873
5011,"",大船店,神奈川県鎌倉市 大船1ｰ6ｰ5 第45東京ビル2Ｆ,35.3543852,139.532613
5013,"",海老名店,神奈川県海老名市 中央3ｰ2ｰ48 スクエアービル2Ｆ,35.4510007,139.3902697
5014,"",菊名店,神奈川県横浜市 港北区菊名6ｰ1ｰ7 鈴木ビル3Ｆ,35.510581,139.631619
5015,"",上尾浅間台店,埼玉県上尾市 浅間台1ｰ21ｰ10,35.9816882,139.5754875
5016,"",あきる野店,東京都あきる野市 秋川1ｰ15ｰ6,35.731278,139.2893949
5017,"",日暮里店,東京都荒川区 東日暮里5ｰ51ｰ7 日暮里宝島ビル2Ｆ,35.727969,139.7720787
5018,"",初台店,東京都渋谷区 本町1ｰ2ｰ3 松海ビル2Ｆ,35.6811911,139.6858433
5021,"",山形桧町店,山形県山形市 桧町2ｰ3ｰ20,38.27567,140.3334268
5022,"",敦賀店,福井県敦賀市 木崎4号12ｰ1,35.6370478,136.0486308
5024,"",十和田店,青森県十和田市 穂並町12ｰ56,40.6025904,141.2231837
5025,"",江戸川大杉店,東京都江戸川区 大杉2ｰ16ｰ13,35.7054703,139.8803881
5026,"",東金店,千葉県東金市 東金549ｰ1,35.5540806,140.3733778
5028,"",日吉店,神奈川県横浜市 港北区日吉本町1ｰ19ｰ17 ちのせビル2Ｆ,35.5534141,139.6453667
5029,"",天童店,山形県天童市 糠塚1ｰ12ｰ8,38.366359,140.3811188
5030,"",新橋店,東京都港区 新橋3ｰ15ｰ3 ＴＫＫ第2新橋ビル2Ｆ,35.66492,139.7501741
5031,"",松戸北小金店,千葉県松戸市 東平賀381ｰ1,35.8317474,139.9363219
5033,"",由利本荘店,秋田県由利本荘市 一番堰194ｰ1,39.3805007,140.0595978
5034,"",渋谷3rd店,東京都渋谷区 神南1ｰ22ｰ9 サンクスビルＢ1Ｆ,35.6613078,139.7010453
5035,"",三沢店,青森県三沢市 大町2ｰ8ｰ1,40.6776646,141.3619326
5036,"",ひたちなか店,茨城県ひたちなか市 東石川3151ｰ1,36.4158436,140.5365613
5037,"",八戸ゆりの木通り店,青森県八戸市 鷹匠小路10 ゆりの木ボウル1Ｆ,40.5065931,141.4934343
5039,"",本庄南大通り店,埼玉県本庄市 緑1ｰ3ｰ3,36.2277768,139.1815223
5042,"",樽町店,神奈川県横浜市 港北区樽町3ｰ2ｰ28 ライフガーデン綱島Ｂ棟1Ｆ,35.5309372,139.6410372
5043,"",青森中央インター店,青森県青森市 浜田1ｰ1ｰ9,40.8035264,140.7457626
5044,"",自治医大店,栃木県下野市 緑1ｰ9ｰ8,36.3860646,139.8536664
5045,"",香取佐原店,千葉県香取市 佐原ｲ4151ｰ1,35.8977424,140.4978139
5047,"",白河店,福島県白河市 字昭和町165ｰ1,37.1302778,140.2002839
5049,"",愛知川店,滋賀県愛知郡 愛荘町長野318ｰ1,35.1887266,136.2141836
5050,"",会津若松店,福島県会津若松市 桧町1ｰ50,37.5017355,139.9432331
5052,"",錦糸町テルミナ店,東京都墨田区 江東橋2ｰ19ｰ1 テルミナ34Ｆ,35.6962868,139.8128851
5053,"",佐沼店,宮城県登米市 迫町佐沼字南佐沼1ｰ5ｰ10,38.6825181,141.194048
5054,"",横手店,秋田県横手市 安田字向田174ｰ1,39.2980528,140.5559049
5055,"",けやき台店,茨城県水戸市 酒門町3281ｰ6,36.3379284,140.4844374
5056,"",宮古店,岩手県宮古市 末広町8ｰ3,39.642147,141.94752
5057,"",岩沼店,宮城県岩沼市 たけくま2ｰ5ｰ6,38.1082496,140.8545501
5059,"",イオンタウン茨島店,秋田県秋田市 茨島4ｰ3ｰ23,39.69668345,140.1007609
5060,"",郡山なかまち夢通り店,福島県郡山市 中町11ｰ2 ロンデン中町ビル1Ｆ,37.3976494,140.3845205
5061,"",春日井店,愛知県春日井市 南下原町6ｰ18ｰ10,35.265133,136.972098
5062,"",いわき店,福島県いわき市 平字三倉63ｰ6,37.0513558,140.8978193
5063,"",河和田店,茨城県水戸市 河和田町3845ｰ2,36.3614663,140.4145791
5064,"",桂台店,神奈川県横浜市 青葉区桂台2ｰ4ｰ1 青葉ガーデン桂台2Ｆ,35.5463523,139.5000683
5065,"",綾瀬深谷店,神奈川県綾瀬市 深谷上1ｰ6ｰ9,35.4409025,139.426273
5067,"",福島鎌田店,福島県福島市 鎌田字下釜11ｰ2,37.7978779,140.4880229
5068,"",イオンモール桑名店,三重県桑名市 新西方1ｰ4ｰ1,35.0743699,136.6619604
5070,"",つるみ西口店,神奈川県横浜市 鶴見区豊岡町8ｰ20 諸岡ビル2Ｆ,35.5086259,139.6745015
5071,"",国際通り店,沖縄県那覇市 久茂地3ｰ2ｰ23 ザプラスビル2Ｆ・3Ｆ,26.214115,127.68122
5072,"",秋葉原昭和通り口店,東京都千代田区 神田佐久間町1ｰ24 ＧＡＴＯ秋葉原7Ｆ,35.69837,139.7751
5073,"",秋葉原3rd店,東京都千代田区 外神田1ｰ15ｰ18 奥山ビル7Ｆ,35.697806,139.771655
5074,"",渋川店,群馬県渋川市 行幸田323ｰ4,36.4731389,139.0016236
5075,"",一宮店,愛知県一宮市 末広2ｰ5ｰ21,35.2971986,136.786668
5076,"",天王洲アイル店,東京都品川区 東品川2ｰ2ｰ20 天王洲オーシャンスクエア1Ｆ,35.6221001,139.7499841
5077,"",いわき小名浜店,福島県いわき市 小名浜岡小名字反町3ｰ2,36.968149,140.904121
5078,"",ミューザ川崎店,神奈川県川崎市 幸区大宮町1310ｰ151,35.5310613,139.6946185
5079,"",守谷店,茨城県守谷市 立沢2059ｰ7,35.9596327,139.9842703
5080,"",泉北秋田店,秋田県秋田市 泉北2ｰ3ｰ17,39.7369055,140.104858
5081,"",名取店,宮城県名取市 美田園6ｰ1ｰ1,38.1607444,140.9122761
5083,"",西新宿店,東京都新宿区 西新宿7ｰ11ｰ16 1・2Ｆ,35.6941149,139.6978
5084,"",龍ヶ崎店,茨城県龍ケ崎市 寺後3471-8,35.930046,140.161619
5085,"",大森店,東京都大田区 山王2ｰ2ｰ7 八景坂ビル2Ｆ,35.5881258,139.7274069
5086,"",大館店,秋田県大館市 大町91ｰ1,40.271627,140.5584832
5087,"",川口店,埼玉県川口市 栄町3ｰ5ｰ15 2Ｆ,35.8037562,139.7184821
5088,"",仙台富沢店,宮城県仙台市 太白区富田字京ﾉ北72ｰ1 （53Ｂー51Ｌ）Ｆー1,38.213132,140.853203
5093,"",水戸渡里店,茨城県水戸市 渡里町2693ｰ1,36.4036063,140.4337983
5096,"",鹿沼店,栃木県鹿沼市 貝島町449ｰ1,36.5630839,139.7661832
5097,"",奈良橿原店,奈良県橿原市 新賀町143ｰ3,34.5206466,135.7963366
5098,"",飯田橋西口駅前店,東京都千代田区 富士見2ｰ11ｰ10 ＬＥＯ飯田橋ビルディング4Ｆ,35.699141,139.744879
5099,"",伊勢病院前店,三重県伊勢市 楠部町3190,34.4834295,136.7291537
5100,"",松阪店,三重県松阪市 中央町39ｰ5,34.578627,136.540751
5101,"",吹田上山手店,大阪府吹田市 上山手町27ｰ3,34.7775505,135.5174596
5102,"",今池店,愛知県名古屋市 千種区今池1ｰ9ｰ6 ワイドパークビル1Ｆ,35.1684772,136.9359428
5104,"",兵庫南店,佐賀県佐賀市 兵庫南4ｰ313,33.2607662,130.3189866
5105,"",川越霞ヶ関店,埼玉県川越市 霞ｹ関東1ｰ7ｰ2,35.9241319,139.4410204
5106,"",三宮西店,兵庫県神戸市 中央区北長狭通2ｰ5ｰ1 タイシンサンセットビル101,34.6918077,135.1902117
5107,"",八熊通店,愛知県名古屋市 中川区八熊3ｰ17ｰ3 サンメゾン八熊1Ｆ,35.1408367,136.8878893
5108,"",西尾店,愛知県西尾市 寄住町柴草3ｰ1,34.8708467,137.0625383
5109,"",鈴鹿サーキット通り店,三重県鈴鹿市 白子町3498ｰ3,34.8315571,136.5767547
5110,"",イオン新浦安店,千葉県浦安市 入船1ｰ4ｰ1 イオン新浦安4Ｆ,35.649059,139.914963
5111,"",東加古川店,兵庫県加古川市 平岡町二俣643ｰ1,34.7392493,134.8618537
5115,"",府中店,東京都府中市 宮町1ｰ9ｰ1 フェイスビル1Ｆ,35.6702234,139.480575
5116,"",渋谷センター街店,東京都渋谷区 宇田川町30ｰ1 蓬莱屋ビル4Ｆ,35.660816,139.698248
5117,"",松井山手ソフィアモール店,京都府八幡市 欽明台北ソフィアモール内,34.8400423,135.7158907
5118,"",筑波学園北店,茨城県つくば市 大曽根3838ｰ4,36.1358297,140.0792271
5119,"",岡崎羽根店,愛知県岡崎市 羽根北町2ｰ5ｰ5,34.9315137,137.1636311
5120,"",青森店,青森県青森市 本町2ｰ4ｰ10 田沼ビル1Ｆ,40.8230944,140.7498444
5121,"",羽水店,福井県福井市 羽水1ｰ607ｰ1,36.0425731,136.2331858
5123,"",館林店,群馬県館林市 富士原町940-1,36.254833,139.541365
5124,"",金沢桜田店,石川県金沢市 桜田町1ｰ43,36.5797,136.6185
5128,"",太子店,兵庫県揖保郡 太子町東出224ｰ5,34.832933,134.5962278
5129,"",高岡駅南店,富山県高岡市 東上関306ｰ1,36.7337153,137.0156499
5130,"",おもろまち駅前店,沖縄県那覇市 おもろまち4ｰ19ｰ23,26.225176,127.6989076
5131,"",草津店,滋賀県草津市 東草津1ｰ2ｰ51,35.0156255,135.9671213
5132,"",津島店,愛知県津島市 神尾町字蓮池3,35.1576591,136.7749642
5134,"",福知山店,京都府福知山市 字堀小字草木２３１１ー４,35.29160877,135.1346808
5135,"",奈良葛城店,奈良県葛城市 東室155ｰ1,34.4961142,135.7337739
5137,"",桂川街道店,京都府京都市 西京区桂朝日町169,34.9803437,135.7102597
5138,"",葛西店,東京都江戸川区 中葛西3ｰ36ｰ7 アセンズシティ2Ｆ,35.6654703,139.872697
5139,"",北谷店,沖縄県中頭郡 北谷町 字伊平２３８,26.3204296,127.7599365
5140,"",到津店,福岡県北九州市 小倉北区板櫃町16ｰ2 ウインズ到津1Ｆ,33.881301,130.8564728
5141,"",唐津店,佐賀県唐津市 和多田本村2862ｰ7,33.4355587,129.9790891
5142,"",半田店,愛知県半田市 南二ﾂ坂町1ｰ6ｰ26,34.8897172,136.9077142
5144,"",新宮店,福岡県糟屋郡 新宮町緑ｹ浜4ｰ10ｰ5,33.709225,130.4498667
5145,"",飯塚店,福岡県飯塚市 弁分159ｰ8,33.6230675,130.6670559
5146,"",滝ノ水店,愛知県名古屋市 緑区篠の風1ｰ1421,35.0945766,136.9756858
5147,"",郡山安積店,福島県郡山市 安積2ｰ347,37.3602501,140.3638682
5149,"",福岡キャナルシティ博多前店,福岡県福岡市 博多区住吉1ｰ1ｰ1 浮羽ビル2Ｆ,33.589613,130.412134
5152,"",京都R1下鳥羽店,京都府京都市 伏見区下鳥羽城ﾉ越町96,34.9418648,135.7449419
5153,"",弘前店,青森県弘前市 南大町1-1-1,40.5939813,140.48393
5154,"",大垣店,岐阜県大垣市 安井町3ｰ14ｰ1,35.3540436,136.6302177
5155,"",上飯野店,富山県富山市 上飯野41ｰ15,36.7149809,137.2495565
5156,"",石巻店,宮城県石巻市 大街道西1ｰ6ｰ25,38.4315547,141.2773494
5157,"",若松二島店,福岡県北九州市 若松区二島1ｰ4ｰ18,33.8904644,130.7423965
5159,"",荒江店,福岡県福岡市 早良区荒江3ｰ11ｰ36,33.5693449,130.3544529
5160,"",かのや店,鹿児島県鹿屋市 寿3ｰ4ｰ28,31.3870696,130.8681314
5161,"",伊勢佐木モール店,神奈川県横浜市 中区伊勢佐木町1ｰ6ｰ5 亀楽ビルＢ1Ｆ,35.4440522,139.6326148
5162,"",競輪場通り店,栃木県宇都宮市 戸祭町2093ｰ2,36.5752014,139.8737486
5163,"",神戸北店,兵庫県神戸市 北区谷上西町12ｰ22,34.761158,135.163927
5164,"",霧島店,鹿児島県霧島市 国分府中町34ｰ20ｰ2,31.745304,130.7642137
5165,"",和合153広場店,愛知県愛知郡 東郷町和合牛廻間41ｰ7,35.1076281,137.0418639
5167,"",衣笠店,京都府京都市 北区衣笠天神森町37,35.0355141,135.732504
5168,"",バークレーズコート店,沖縄県浦添市 当山２ー２ー６,26.2527383,127.7370499
5169,"",兵庫駅前店,兵庫県神戸市 兵庫区駅前通1ｰ3ｰ14 ブリックシャトー兵庫1Ｆ,34.6685985,135.162814
5170,"",上野広小路店,東京都文京区 湯島3ｰ39ｰ11 ライワビル6Ｆ,35.7079072,139.7720908
5174,"",小杉店,富山県射水市 戸破1655ｰ2,36.7142219,137.0959871
5175,"",銚子店,千葉県銚子市 松岸町3ｰ335ｰ1,35.742749,140.7920433
5176,"",古川店,宮城県大崎市 古川駅東1ｰ5ｰ18,38.5719559,140.9724786
5177,"",大田原店,栃木県大田原市 本町1ｰ2691ｰ1,36.8747446,140.0117831
5178,"",福大通り店,福岡県福岡市 城南区南片江2ｰ1ｰ1,33.5449622,130.3756133
5179,"",亀有南口店,東京都葛飾区 亀有3ｰ32ｰ13 ＨＦ7第一ビル,35.7653332,139.8496752
5180,"",北花田店,大阪府堺市 北区北花田町2ｰ27ｰ1 サンハイツ北花田1Ｆ,34.5806509,135.5166719
5181,"",天神西通り店,福岡県福岡市 中央区大名2ｰ1ｰ2 大福ビル3Ｆ,33.5887131,130.3961826
5183,"",津嘉山店,沖縄県島尻郡 南風原町字津嘉山1451ｰ1,26.189333,127.711042
5184,"",北上店,岩手県北上市 さくら通り2ｰ10ｰ45,39.2990548,141.1074188
5187,"",宇都宮鶴田店,栃木県宇都宮市 鶴田町3411ｰ3,36.5473572,139.8647367
5188,"",多賀城店,宮城県多賀城市 町前1ｰ4ｰ2,38.2845208,140.9994564
5189,"",名護店,沖縄県名護市 宮里874ｰ19,26.5975778,127.9700611
5190,"",門前仲町店,東京都江東区 富岡1ｰ6ｰ1 ＥＭＩＳＩＡ門前仲町3Ｆ,35.671204,139.796587
5192,"",富谷店,宮城県富谷市 大清水2ｰ22ｰ1,38.3656094,140.8818824
5193,"",和歌山ガーデンパーク店,和歌山県和歌山市 北島453ｰ1 コンプラベルデ1ーＡ,34.2380294,135.1552539
5194,"",貝塚店,大阪府貝塚市 脇浜1ｰ10ｰ2,34.4418915,135.350787
5195,"",国分町店,宮城県仙台市 青葉区一番町4ｰ4ｰ20 お里寿司ビル2・3Ｆ,38.2645377,140.870092
5196,"",布瀬けやき通り店,富山県富山市 布瀬町南1ｰ5ｰ7,36.676177,137.20154
5197,"",宇治槙島店,京都府宇治市 槇島町三十五46ｰ7,34.912541,135.78343
5198,"",安慶名店,沖縄県うるま市 安慶名1ｰ12ｰ29,26.3682028,127.8560583
5199,"",心斎橋店,大阪府大阪市 中央区南船場3ｰ5ｰ20 貴美ビルＢ1・1Ｆ・2Ｆ・3Ｆ,34.675826,135.501518
5200,"",つくばテクノパーク桜店,茨城県つくば市 柴崎16ｰ4,36.1096856,140.1084379
5201,"",萱島店,大阪府寝屋川市 下神田町16ｰ15,34.7493973,135.6089742
5202,"",和歌山橋本店,和歌山県橋本市 あやの台1ｰ2ｰ3,34.3370699,135.6497335
5203,"",足利店,栃木県足利市 朝倉町438,36.3187283,139.4473741
5204,"",有田川店,和歌山県有田郡 有田川町天満427ｰ1,34.0599045,135.2100656
5205,"",日立多賀店,茨城県日立市 多賀町5ｰ7ｰ7,36.5621855,140.636493
5206,"",津南店,三重県津市 高茶屋小森上野町1095ｰ2,34.6774029,136.5126514
5207,"",阪急三宮さんきた店,兵庫県神戸市 中央区北長狭通1ｰ3ｰ6 光陽ビル4Ｆ,34.6935853,135.1927225
5209,"",河口湖店,山梨県南都留郡 富士河口湖町船津6818ｰ1,35.4885506,138.7626829
5210,"",アクロスプラザ幸町店,宮城県仙台市 宮城野区大梶11ｰ2,38.27241,140.9033243
5211,"",取手店,茨城県取手市 新町4ｰ17ｰ15,35.8986417,140.0559068
5213,"",初生店,静岡県浜松市 中央区初生町1152ｰ23,34.773502,137.728684
5214,"",豊橋大岩店,愛知県豊橋市 大岩町字岩田23ｰ1,34.7239558,137.4336675
5215,"",能代店,秋田県能代市 芝童森7ｰ9,40.1925697,140.0223723
5216,"",河原町三条店,京都府京都市 中京区石橋町28番,35.008659,135.7684388
5217,"",【7月リニューアルオープン】牛角 梅田お初天神店,大阪府大阪市 北区曽根崎2ｰ14ｰ7 グランデ曽根崎ビル,34.7008842,135.5010788
5218,"",小倉南葛原店,福岡県北九州市 小倉南区葛原本町1ｰ8ｰ25,33.8416789,130.9212849
5219,"",垂水店,兵庫県神戸市 垂水区神田町4ｰ30 フレンドリー垂水,34.6303684,135.0541995
5220,"",伊勢崎韮塚店,群馬県伊勢崎市 韮塚町1216ｰ1,36.3090275,139.1755815
5221,"",小樽運河通り店,北海道小樽市 堺町1ｰ5,43.196511,141.00393
5222,"",松本中央店,長野県松本市 中央2ｰ1ｰ24 五幸本町ビル1Ｆ,36.233823,137.9694258
5223,"",なんば道頓堀えびす橋店,大阪府大阪市 中央区道頓堀1ｰ6ｰ10 ふるさとビル,34.6688627,135.5023019
5224,"",佐野店,栃木県佐野市 富岡町341,36.3127996,139.5897707
5225,"",神栖店,茨城県神栖市 大野原4ｰ474ｰ20,35.8986297,140.6411013
5226,"",美里店,沖縄県沖縄市 美里仲原町25ｰ7,26.3449596,127.8266643
5227,"",小諸店,長野県小諸市 御影新田2218,36.3014638,138.4649071
5229,"",宮の沢店,北海道札幌市 西区発寒六条9ｰ1ｰ10 ペルル宮の沢1Ｆ,43.088292,141.279075
5230,"",京橋駅前店,大阪府大阪市 都島区東野田町5ｰ2ｰ29 サンパティオビル2Ｆ,34.6989461,135.5336013
5231,"",むつ店,青森県むつ市 下北町1ｰ1,41.285008,141.187737
5234,"",梅田阪急東通り店,大阪府大阪市 北区小松原町1ｰ16 梅田モコビル1Ｆ,34.7024451,135.5008399
5235,"",真岡店,栃木県真岡市 上高間木3ｰ2ｰ6,36.440552,139.98795
5237,"",京都四条河原町店,京都府京都市 下京区西木屋町通四条上る 真町97イマージアムビル2Ｆ,35.0042648,135.7702432
5239,"",那珂町店,茨城県那珂市 菅谷2280,36.4418211,140.5018416
5240,"",太宰府西店,福岡県太宰府市 向佐野3ｰ2ｰ32,33.5064213,130.4963671
5241,"",浜松モール街店,静岡県浜松市 中央区千歳町72ｰ1 明治屋ビル1Ｆ,34.7043559,137.7306661
5242,"",四日市生桑通り店,三重県四日市 市生桑町863ｰ1,34.9803544,136.5984371
5243,"",仲原店,福岡県糟屋郡 粕屋町仲原1827ｰ5,33.6107699,130.4581305
5244,"",梅田はなれ阪急東通り店,大阪府大阪市 北区小松原町1ｰ26 1Ｆ・2Ｆ,34.702331,135.501437
5247,"",北24条駅前店,北海道札幌市 北区北二十四条西5ｰ1ｰ21 ノース24高砂ビル1Ｆ,43.090534,141.342601
5249,"",高宮店,長野県松本市 高宮東1ｰ37,36.2191963,137.9609855
5250,"",高槻店,大阪府高槻市 高槻町12ｰ15 高槻センター街ビル2Ｆ,34.85056,135.620121
5251,"",佐賀開成店,佐賀県佐賀市 開成6ｰ146ｰ1,33.2720944,130.274026
5252,"",燕三条店,新潟県燕市 井土巻2ｰ262,37.6520949,138.9320887
5254,"",長良店,岐阜県岐阜市 下土居2ｰ17ｰ2,35.4534748,136.7545895
5255,"",函館本通店,北海道函館市 本通4ｰ16ｰ14,41.799011,140.776512
5256,"",厚別店,北海道札幌市 厚別区厚別東五条3ｰ24ｰ30,43.048492,141.48018
5257,"",旭川パワーズ店,北海道旭川市 永山12条3ｰ122ｰ59 ウエスタンパワーズ2Ｆ,43.7792952,142.4134431
5258,"",釧路昭和店,北海道釧路市 昭和中央3ｰ44,43.0262472,144.3629848
5260,"",東舞鶴店,京都府舞鶴市 字森448ｰ1,35.4609719,135.3866469
5261,"",なんば千日前店,大阪府大阪市 中央区千日前2ｰ8ｰ23 パレ逢阪ビル2・3・4Ｆ,34.6661352,135.5034297
5262,"",上磯店,北海道北斗市 七重浜4ｰ44ｰ6,41.823331,140.711759
5264,"",尾張旭三郷店,愛知県尾張旭市 南原山町赤土324,35.21545,137.05015
5267,"",田辺店,和歌山県田辺市 明洋1ｰ19ｰ8,33.73551,135.360506
5268,"",沼津西店,静岡県沼津市 東椎路496ｰ1,35.116918,138.834941
5269,"",アグリしののい店,長野県長野市 篠ﾉ井布施五明3204,36.5812931,138.1301426
5271,"",新発田店,新潟県新発田市 富塚町2ｰ19ｰ4,37.9437752,139.3013302
5272,"",柏崎店,新潟県柏崎市 日吉町2ｰ46,37.3660758,138.5728359
5274,"",須坂店,長野県須坂市 高畑町１０８６,36.6725054,138.3152613
5275,"",市野店,静岡県浜松市 中央区天王町1981ｰ29,34.738682,137.7647997
5276,"",浜松有玉店,静岡県浜松市 中央区有玉北町760ｰ1,34.7665519,137.7567291
5277,"",焼津店,静岡県焼津市 西小川2ｰ5ｰ1,34.859976,138.310529
5278,"",袋井店,静岡県袋井市 堀越3ｰ19ｰ13 成都袋井ビル1Ｆ,34.75465,137.907656
5279,"",和合店,静岡県浜松市 中央区和合町193ｰ8,34.732779,137.722308
5280,"",上田原店,長野県上田市 神畑262ｰ1,36.3879293,138.2127201
5281,"",佐久平店,長野県佐久市 岩村田1489ｰ1,36.2723478,138.4653723
5282,"",菊川店,静岡県菊川市 本所1510ｰ1,34.749121,138.089129
5283,"",山口小郡店,山口県山口市 小郡前田町3ｰ3 イオンタウン小郡,34.08735,131.398418
5284,"",五日市城山店,広島県広島市 佐伯区五日市中央7ｰ12ｰ18,34.38364,132.355871
5285,"",黒埼店,新潟県新潟市 西区山田84,37.869747,139.0164639
5286,"",向宿店,静岡県浜松市 中央区向宿3丁目11ｰ3,34.702661,137.753908
5289,"",防府店,山口県防府市 佐波1ｰ1ｰ20,34.054505,131.563618
5292,"",湖西店,静岡県湖西市 鷲津5198,34.715041,137.544627
5293,"",熊本琴平店,熊本県熊本市 琴平2ｰ1ｰ38,32.786241,130.7077
5295,"",松永店,広島県福山市 松永町5ｰ5ｰ12,34.4426726,133.2588339
5296,"",萩店,山口県萩市 土原464ｰ1 土原味ビル1Ｆ,34.407938,131.403979
5297,"",松江上乃木店,島根県松江市 上乃木9ｰ2ｰ8 コスモス3ビル1Ｆ,35.442813,133.06275
5299,"",松山空港通店,愛媛県松山市 空港通5ｰ9ｰ7,33.8285327,132.7332158
5300,"",倉敷下庄店,岡山県倉敷市 下庄469ｰ1,34.639672,133.825297
5301,"",鹿児島中山バイパス店,鹿児島県鹿児島市 自由ｹ丘1ｰ1ｰ6,31.542276,130.514777
5302,"",浜街道丸亀店,香川県丸亀市 蓬莱町56ｰ1 パブリックプラザ内,34.2947348,133.78555
5303,"",岩見沢店,北海道岩見沢市 四条西1ｰ1ｰ1,43.2036455,141.7664805
5304,"",柳井店,山口県柳井市 古開作682ｰ1,33.96688864,132.1002447
5305,"",豊崎店,沖縄県豊見城市 字与根南浜崎原５１４,26.1611554,127.6636777
5306,"",松山樽味店,愛媛県松山市 樽味4ｰ10ｰ17 フィオーレ・ヒデ1Ｆ,33.8389386,132.7868678
5307,"",中城店,沖縄県中頭郡 中城村南上原730ｰ1,26.25032815,127.7718023
5308,"",岩国駅前店,山口県岩国市 麻里布町3ｰ1ｰ8,34.1719952,132.2228616
5309,"",倉吉店,鳥取県倉吉市 清谷町2ｰ45,35.47123,133.846528
5310,"",和歌山北店,和歌山県和歌山市 東旅籠町9番地,34.2383047,135.1765002
5311,"",山口湯田店,山口県山口市 湯田温泉6ｰ156ｰ1,34.166002,131.450647
5312,"",青木島店,長野県長野市 青木島町大塚147,36.6040834,138.1941224
5313,"",宇部厚南店,山口県宇部市 厚南中央1ｰ4ｰ33,33.9936654,131.219416
5314,"",下松店,山口県下松市 望町4ｰ11ｰ8,34.027017,131.853974
5316,"",宇部店,山口県宇部市 東梶返3ｰ17ｰ17,33.948751,131.264795
5317,"",広店,広島県呉市 広古新開6ｰ9ｰ7,34.2389896,132.6190279
5318,"",高知鴨部店,高知県高知市 鴨部高町5ｰ31,33.5523545,133.4951423
5319,"",宜野湾店,沖縄県宜野湾市 宇地泊3ｰ1ｰ1,26.2738112,127.7322158
5320,"",宮崎大島通線店,宮崎県宮崎市 大島町原ﾉ前1445ｰ109,31.9360328,131.4392568
5321,"",松江北店,島根県松江市 黒田町22ｰ1,35.485313,133.041869
5322,"",徳山店,山口県周南市 御幸通り1ｰ1,34.05374,131.8066122
5324,"",岡山新保店,岡山県岡山市 南区新保678ｰ3,34.630881,133.908304
5325,"",高松レインボー通り店,香川県高松市 松縄町289ｰ2 レインボータウン1Ｆ,34.3204492,134.0623546
5326,"",下関カモンワーフ店,山口県下関市 唐戸町6ｰ1,33.9563311,130.9439598
5328,"",高田店,新潟県上越市 東本町3ｰ1ｰ38,37.119107,138.2517131
5329,"",倉敷笹沖店,岡山県倉敷市 笹沖144ｰ1,34.570848,133.763568
5330,"",宮崎高鍋店,宮崎県児湯郡 高鍋町 大字北高鍋字樋渡２５２３,32.12050332,131.5223264
5332,"",大分森町店,大分県大分市 皆春1575ｰ3,33.235163,131.682693
5333,"",札幌元町店,北海道札幌市 東区北二十三条東21ｰ2ｰ5,43.0938179,141.3848163
5335,"",大分府内店,大分県大分市 府内町3ｰ5ｰ28 府内ビル1Ｆ,33.237375,131.609805
5339,"",札幌時計台通り店,北海道札幌市 中央区北二条西2ｰ38 不二家岡本ビル2Ｆ,43.0638012,141.3530666
5340,"",狸小路4丁目店,北海道札幌市 中央区南三条西4ｰ12ｰ1 アルシュビル5Ｆ,43.057074,141.352568
5343,"",平岸店,北海道札幌市 豊平区平岸二条7ｰ1ｰ15 第2豊水ビル1Ｆ,43.035335,141.366385
5345,"",南郷15丁目店,北海道札幌市 白石区南郷通15丁目北9ｰ28,43.034817,141.426249
5346,"",西条中央店,広島県東広島市 西条中央3ｰ4ｰ2,34.4193905,132.7445815
5347,"",長野石堂店,長野県長野市 北石堂町1412ｰ1 夏目ビル1Ｆ,36.646097,138.187082
5348,"",静岡SBS通り店,静岡県静岡市 駿河区中田本町17ｰ12,34.955334,138.396284
5349,"",佐和田店,新潟県佐渡市 窪田6ｰ2 佐渡セントラルタウン内,38.0053051,138.3147835
5350,"",野幌店,北海道江別市 野幌松並町9ｰ1,43.090511,141.52044
5351,"",伊那店,長野県伊那市 坂下区入舟町3330ｰ1尾張屋ﾋﾞﾙ2F,35.841313,137.960587
5352,"",長岡店,新潟県長岡市 古正寺3ｰ113,37.4594076,138.8216746
5353,"",甲府上石田店,山梨県甲府市 上石田3ｰ10ｰ8,35.6533218,138.5536727
5354,"",岡谷店,長野県岡谷市 塚間町2ｰ1ｰ17 ライフガーデン岡谷内,36.0648188,138.0526364
5355,"",すすきの店,北海道札幌市 中央区南四条西3ｰ1ｰ1 第3グリーンビルＢ1Ｆ,43.055421,141.354443
5356,"",稲葉バイパス店,長野県長野市 稲葉中千田2115ｰ1 2Ｆ,36.6333333,138.2063889
5358,"",赤道店,新潟県新潟市 東区上王瀬町2ｰ56,37.934006,139.089171
5359,"",三島南店,静岡県三島市 青木278ｰ1,35.1072276,138.920486
5360,"",藤枝青島店,静岡県藤枝市 上青島444,34.842866,138.220473
5361,"",清水店,静岡県静岡市 清水区真砂町5ｰ2 シャレーム清水1Ｆ,35.021942,138.488266
5362,"",響が丘店,山梨県甲斐市 龍地3571ｰ1,35.681964,138.505408
5363,"",掛川店,静岡県掛川市 上西郷518ｰ1 Ｃ棟,34.7911262,138.0131917
5364,"",諏訪インター店,長野県茅野市 ちの上原266ｰ1,36.0039127,138.1398617
5365,"",高知御座店,高知県高知市 海老ﾉ丸8ｰ14,33.564776,133.5655449
5366,"",小野田店,山口県山陽小野田市 高栄1ｰ11ｰ16,33.984665,131.173376
5368,"",旭川春光ドン・キホーテ店,北海道旭川市 春光1条8ｰ1ｰ65 ＭＥＧＡドン・キホーテ旭川店1Ｆ,43.7984831,142.3781969
5369,"",岡山駅前店,岡山県岡山市 北区錦町6ｰ17 アウルスタイル錦町2,34.66281131,133.9199306
5370,"",信州中野店,長野県中野市 吉田12ｰ7,36.7462848,138.3509049
5371,"",入野店,静岡県浜松市 中央区入野町6393,34.698351,137.687662
5373,"",米子しんまち店,鳥取県米子市 西福原2ｰ1ｰ1 ＹＮＴ第1０ビル1Ｆ,35.439434,133.341391
5374,"",米山店,新潟県新潟市 中央区米山６ー１８０ー１,37.901422,139.057817
5375,"",直江津店,新潟県上越市 下門前810,37.163976,138.249809
5376,"",都留店,山梨県都留市 田原2ｰ978ｰ4,35.540542,138.896432
5378,"",新居浜江口店,愛媛県新居浜市 江口町乙７５６ー１,33.9549954,133.2702926
5379,"",鳥取湖山店,鳥取県鳥取市 千代水4ｰ2,35.514366,134.19477
5380,"",田富リバーサイド店,山梨県中巨摩郡 昭和町河西1233ｰ3,35.6153602,138.5187072
5381,"",塩尻店,長野県塩尻市 広丘吉田字道西６４２ー２５,36.167497,137.954306
5382,"",中央通り店,広島県広島市 中区三川町2ｰ3 ＩＮＧビルＢ1Ｆ,34.390713,132.462297
5383,"",岡山平井店,岡山県岡山市 中区平井4ｰ24ｰ31,34.636078,133.9475158
5384,"",総社井手店,岡山県総社市 井手1059ｰ2,34.676797,133.764161
5385,"",海田店,広島県安芸郡 海田町窪町9ｰ19,34.370497,132.529847
5387,"",長束店,広島県広島市 安佐南区長束2ｰ1ｰ18 2Ｆ,34.431271,132.462292
5390,"",苫小牧店,北海道苫小牧市 木場町1ｰ10 苫小牧北口ビル1Ｆ,42.642678,141.596396
5392,"",津山店,岡山県津山市 山北404ｰ1,35.075145,134.003006
5430,"",甲府丸の内店,山梨県甲府市 丸の内1ｰ16ｰ14 松岡ビル,35.6581704,138.5527019
5431,"",安曇野店,長野県安曇野市 豊科南穂高1234 あづみ野インターパーク内,36.3019621,137.9088075
5432,"",宮崎大塚店,宮崎県宮崎市 大塚町池ﾉ内1075,31.925054,131.3262178
5435,"",宇都宮御幸町店,栃木県宇都宮市 御幸町277ｰ1,36.57961,139.9211431
5433,"",筑西店,茨城県筑西市 布川1213ｰ1,36.2932611,139.9275258
5436,"",リップス旭岡店,新潟県長岡市 旭岡1ｰ59,37.4236517,138.8550897
5475,"",彦根店,滋賀県彦根市 西今町字岩戸958ｰ1,35.255618,136.236189
5476,"",行橋店,福岡県行橋市 西宮市1ｰ13ｰ50,33.7285112,130.9662907
5439,"",横須賀モアーズシティ店,神奈川県横須賀市 若松町2ｰ30 モアーズシティ9Ｆ,35.2780442,139.6705338
5442,"",天王寺店,大阪府大阪市 阿倍野区阿倍野筋1ｰ1ｰ61 新宿ごちそうビル4Ｆ,34.6458349,135.5151792
5441,"",PLE葉WALK浜北店,静岡県浜松市 浜名区貴布祢1200 ＰＬＥ葉ＷＡＬＫ浜北,34.7971344,137.7775203
5443,"",磐田店,静岡県磐田市 鳥之瀬82,34.7132173,137.8617118
5449,"",栃木店,栃木県栃木市 平柳町2ｰ16ｰ10,36.3912513,139.745983
5445,"",渋谷道玄坂店,東京都渋谷区 道玄坂2ｰ28ｰ5 秀永ビルＢ1Ｆ,35.65891905,139.6972825
5444,"",横須賀汐入店,神奈川県横須賀市 本町2ｰ1ｰ12 Ｃ棟,35.2799028,139.6648
5456,"",藤沢店,神奈川県藤沢市 南藤沢3ｰ4 湘南薬品ビル3Ｆ,35.3347194,139.4920889
5452,"",君津店,千葉県君津市 南子安3ｰ26ｰ15,35.3253233,139.9155369
5464,"",亀岡店,京都府亀岡市 千代川町小林植田21,35.040334,135.546345
7634,"",溝の口店,神奈川県川崎市 高津区溝口2ｰ6ｰ32 ベルファースト1Ｆ,35.6006648,139.6100429
7638,"",長浜店,滋賀県長浜市 八幡中山町120ｰ7,35.3947047,136.2812799
7751,"",新宿大ガード店,東京都新宿区 西新宿7ｰ10ｰ18 小滝橋パシフィカビルＢ1Ｆ,35.69553494,139.6985732
7902,"",大曲店,秋田県大仙市 東川字屋敷後144,39.45036641,140.4981748
7920,"",ブランチ仙台店,宮城県仙台市 泉区長命ヶ丘2ｰ21ｰ1 ブランチ仙台ＷＥＳＴ2Ｆ,38.3105699,140.8460246
7942,"",川越岸町店,埼玉県川越市 岸町2ｰ9ｰ4,35.897354,139.4905889
7944,"",相模原淵野辺店,神奈川県相模原市 中央区高根2ｰ1ｰ3,35.5632462,139.3906988
7981,"",南本宿店,神奈川県横浜市 旭区南本宿町35ｰ5 ファミリーハイツ南本宿1Ｆ,35.46014552,139.5412781
7980,"",平塚旭店,神奈川県平塚市 根坂間214ｰ1,35.33605793,139.3078254
7982,"",足柄開成町店,神奈川県足柄上郡 開成町 宮台240ｰ1,35.32860536,139.1225107
7983,"",横浜北幸店,神奈川県横浜市 西区北幸2ｰ2ｰ6 ファミリーマート2Ｆ,35.46578425,139.6168878
7984,"",横浜ムービル店,神奈川県横浜市 西区南幸2ｰ1ｰ22 相鉄南幸第2ビル1Ｆ,35.46403566,139.6189275
7986,"",千葉プライム8店,千葉県千葉市 中央区富士見2ｰ9ｰ2 千葉プライム86Ｆ,35.61080572,140.1182136
7987,"",東戸塚店,神奈川県横浜市 戸塚区品濃町548ｰ1 日栄ビル2Ｆ,35.43183346,139.5580103
7995,"",練馬谷原店,東京都練馬区 谷原2ｰ5ｰ14 ソレイユ谷原1Ｆ,35.74987768,139.6152767
7992,"",北習志野店,千葉県船橋市 習志野台2ｰ4ｰ12 ＹＵＫＩＷＯＢＵＩＬＤＩＮＧ2Ｆ,35.7223861,140.0422554
7996,"",逗子店,神奈川県逗子市 逗子5ｰ2ｰ48 キングプラザ2Ｆ,35.2961751,139.5795037
7998,"",錦糸町北口店,東京都墨田区 錦糸３ー４ー１１ エクセレントガーデン2Ｆ,35.6981446,139.8143935
7999,"",草加駅前店,埼玉県草加市 氷川町2126ｰ5 第3ケイユービル1Ｆ,35.82922435,139.8031409
8005,"",中野北口店,東京都中野区 中野5ｰ65ｰ5 ＳＫビル3Ｆ,35.70745393,139.6654486
8006,"",橋本店,神奈川県相模原市 緑区橋本3ｰ17ｰ3 マイランド1Ｆ・2Ｆ,35.59542548,139.3466731
8007,"",吉祥寺北口店,東京都武蔵野市 吉祥寺本町1ｰ2ｰ7 吉祥寺アルファビル4Ｆ,35.7039667,139.5788679
8001,"",横浜鶴屋町店,神奈川県横浜市 神奈川区鶴屋町2ｰ16ｰ6 レスポアール295ビル2Ｆ,35.4683076,139.6227619
8008,"",プレナ幕張店,千葉県千葉市 美浜区ひび野2ｰ4 プレナ幕張4Ｆ,35.64804732,140.0404786
8009,"",成城学園前,東京都世田谷区成城６−１４−３ 成城建物３Ｆ,35.64119109,139.5992583
8012,"",千葉NT南店,千葉県印西市 中央南2ｰ5,35.79843743,140.112493
8016,"",浜松町店,東京都港区 芝大門2ｰ1ｰ2 山口ビル2・3Ｆ,35.6567822,139.753213
8014,"",船橋店,千葉県船橋市 本町4ｰ3ｰ19 錦屋ビル4Ｆ,35.70059323,139.9863547
8015,"",塩山店,山梨県甲州市 塩山下塩後899ｰ1,35.69580509,138.718886
8017,"",北千住駅前店,東京都足立区 千住2ｰ61 ビックリヤ北千住西口ビル2Ｆ,35.74971235,139.804221
8327,"",宮城大河原店,宮城県柴田郡 大河原町字新東26ｰ24,38.0586,140.7351
8413,"",酒田バイパス店,山形県酒田市 松原南24ｰ12,38.89915986,139.8554341
8433,"",魚津店,富山県魚津市 上村木487ｰ1,36.82233234,137.4132177
8534,"",気仙沼店,宮城県気仙沼市 中みなと町10ｰ12,38.9187635,141.5822405
8577,"",亀田インター店,新潟県新潟市 中央区姥ｹ山60ｰ1,37.88337812,139.0749521
8587,"",自由が丘店,東京都目黒区 自由が丘2ｰ17ｰ8 カームヒルズ自由が丘Ｂ1Ｆ,35.60946633,139.6672565
8588,"",鴨居店,神奈川県横浜市 緑区鴨居1ｰ9ｰ5 1・2Ｆ,35.51053751,139.5669307
8589,"",久里浜佐原店,神奈川県横須賀市 佐原5丁目2ｰ11 グリーランド別館1Ｆ,35.2372732,139.6929399
8590,"",フォレオ菖蒲店,埼玉県久喜市 菖蒲町菖蒲6006ｰ1,36.07119215,139.6169573
8591,"",吉祥寺公園口店,東京都武蔵野市 吉祥寺南町1-1-10 ＭＡビルＢ1Ｆ,35.7029196,139.5775875
8592,"",秦野店,神奈川県秦野市 平沢382ｰ3,35.37278139,139.1992666
8593,"",上大岡西口店,神奈川県横浜市 港南区上大岡西1-10-9 桂ビル3Ｆ,35.4104453,139.5963216
8594,"",聖蹟桜ヶ丘店,東京都多摩市 関戸2-39-2 エトワールビル2Ｆ,35.6508008,139.4563719
8595,"",町田木曽町店,東京都町田市 木曽東4丁目1ｰ8,35.5621181,139.428283
8596,"",狛江店,東京都狛江市 東和泉1-19-7 細井ビル1Ｆ,35.6318509,139.5777412
8597,"",青梅店,東京都青梅市 東青梅5-13-2,35.7886764,139.2822763
8598,"",坂戸店,埼玉県坂戸市 伊豆の山町3-3,35.969815,139.3914657
8605,"",安謝店,沖縄県那覇市 字安謝619ｰ28,26.23964842,127.6945469
9244,"",泡瀬店,沖縄県沖縄市 比屋根1-8-10,26.3173565,127.823971
9245,"",高崎問屋町店,群馬県高崎市 問屋町2-3-4,36.3478101,139.0098921
9269,"",さいたま新都心店,埼玉県さいたま市 大宮区吉敷町4丁目59-1 新都心Ｓビル2階,35.89324842,139.6346632
9322,"",うるま石川店,沖縄県うるま市 石川1-16-18,26.430901,127.824645
9358,"",福井大和田店,福井県福井市 大和田1ｰ1505,36.0901999,136.2499653
9381,"",箕輪店,長野県上伊那郡 箕輪町 中箕輪11299ｰ1,35.9037887,137.9936624
9401,"",茂原店,千葉県茂原市 長尾2500ｰ1,35.4488588,140.2966147
9447,"",岐阜宇佐南店,岐阜県岐阜市 宇佐南2ｰ6ｰ14,35.39403228,136.7343406
9481,"",庚午店,広島県広島市 西区庚午中4丁目5ｰ25 第5原本ビル2Ｆ,34.3825914,132.4144558
9484,"",八丁堀店,広島県広島市 中区八丁堀11ｰ10 ＫＳビルＢ1Ｆ,34.3949836,132.4624984
9485,"",出雲渡橋店,島根県出雲市 渡橋町820ｰ1,35.366576,132.746124
9487,"",岡山津島店,岡山県岡山市 北区伊島北町21ｰ1,34.679953,133.903719
9488,"",石和店,山梨県笛吹市 石和町広瀬1195ｰ62,35.64466717,138.6208779
9524,"",綱島店,神奈川県横浜市 港北区綱島西1丁目14-5 ジョイビル1Ｆ,35.537295,139.6327565
9558,"",イオンモール大日店,大阪府守口市 大日東町1ｰ18 イオンモール大日4Ｆ,34.74931769,135.5803867
