store_id,pref_id,shop_name,address,lat,lon
44393,"",あすみが丘東店,千葉県千葉市緑区あすみが丘東２丁目１−１,35.5268764,140.273344
44851,"",いなべ大泉店,三重県いなべ市員弁町大泉２５４０,35.0944257,136.57105
44013,"",いなべ松之木店,三重県いなべ市員弁町松之木１５９−１,35.1071648,136.5721764
44305,"",いなべ阿下喜店,三重県いなべ市北勢町阿下喜１８７４,35.1543771,136.5161002
47420,"",いわき下湯長谷店,福島県いわき市常磐下湯長谷町町下３７−１,36.9901621,140.8518322
47338,"",いわき平長橋町店,福島県いわき市平長橋町２９,37.053055,140.884548
47228,"",いわき植田駅前店,福島県いわき市植田町中央３丁目３−１,36.9215562,140.7985523
46242,"",いわき泉町５丁目店,福島県いわき市泉町５丁目６−１３,36.948165,140.854225
47419,"",いわき泉黒須野店,福島県いわき市泉町黒須野早稲田８０−１７１,36.933666,140.828763
47425,"",いわき玉川店,福島県いわき市小名浜玉川町南２５−１,36.9841448,140.8861916
47221,"",いわき駅前店,福島県いわき市平白銀町１−１１,37.0571279,140.8932125
47400,"",いわき鹿島店,福島県いわき市鹿島町下矢田仲沖３７,37.004021,140.907934
45329,"",さいたま上大久保店,埼玉県さいたま市桜区上大久保７００,35.8665224,139.6133747
44564,"",さいたま上小店,埼玉県さいたま市大宮区上小町９８７,35.8972794,139.610429
46928,"",さいたま吉野町店,埼玉県さいたま市北区吉野町２丁目２４８−１２,35.9608159,139.610162
26442,"",さいたま奈良町店,埼玉県さいたま市北区奈良町９２−１１,35.9470823,139.6003668
44547,"",さいたま宮本店,埼玉県さいたま市緑区宮本１丁目１９−３,35.8899674,139.6945465
45392,"",さいたま岩槻諏訪店,埼玉県さいたま市岩槻区諏訪４丁目１−３,35.9672451,139.705141
46070,"",さいたま岩槻飯塚店,埼玉県さいたま市岩槻区飯塚１０３４−３,35.9402228,139.7191541
46326,"",さいたま新中里４丁目店,埼玉県さいたま市中央区新中里４丁目１８−１４,35.880063,139.633227
45103,"",さいたま見沼島町店,埼玉県さいたま市見沼区島町４３２,35.9464807,139.6489287
46111,"",すずかけセントラル病院店,静岡県浜松市中央区区田尻町１２０−１,34.6807826,137.7259076
43748,"",せんげん台駅前店,埼玉県越谷市千間台西１丁目１０−１９,35.9359624,139.7730603
51840,"",つくばみどりの店,茨城県つくば市みどりのＡ５１街区３４区画,36.032079,140.0516631
44631,"",つくば今鹿島店,茨城県つくば市今鹿島４２４９−１,36.1109764,140.0382422
45508,"",つくば市天久保店,茨城県つくば市天久保３丁目３−３,36.1051598,140.0984502
46213,"",つくば春風台店,茨城県つくば市上野４６６,36.1142024,140.1203866
44657,"",つくば栗原店,茨城県つくば市栗原３４８１−４,36.11739,140.11029
46912,"",つくば研究学園店,茨城県つくば市学園の森２丁目１,36.090533,140.0755583
44065,"",つくば稲岡店,茨城県つくば市稲岡７９３−１５,36.0353732,140.140036
45853,"",つくば西大橋店,茨城県つくば市西大橋５８１−１,36.0719613,140.0849436
51809,"",つくば酒丸店,茨城県つくば市中東１６８−１,36.1030857,140.0586288
45129,"",つくば高野台店,茨城県つくば市高野台３丁目１７−１,36.0216008,140.1229604
44571,"",ひたちなかマラソン通り店,茨城県ひたちなか市東石川３０８５−２８,36.4183808,140.5316041
51808,"",ひたちなか東石川店,茨城県ひたちなか市東石川２丁目１１−６,36.3973453,140.5350625
44383,"",ひたちなか武田店,茨城県ひたちなか市武田９２４−２−４,36.3872333,140.5199896
45592,"",ひたちなか笹野町店,茨城県ひたちなか市笹野町２丁目１０−７,36.395879,140.5461649
46108,"",ひたちなか長砂店,茨城県ひたちなか市長砂字宿屋敷２３,36.4168147,140.6027527
45876,"",ひたちなか青葉店,茨城県ひたちなか市青葉町９−１２,36.3870167,140.5307373
43766,"",ひたちなか馬渡店,茨城県ひたちなか市馬渡字西並木下1144-1,36.386035,140.5779465
43747,"",みどり台駅前店,千葉県千葉市稲毛区緑町２丁目１６−５,35.624462,140.0967279
46713,"",みやき原古賀店,佐賀県三養基郡みやき町原古賀１９０２−２,33.3563835,130.4418379
45869,"",むつ市役所店,青森県むつ市中央１丁目８−３１,41.2933933,141.1822511
45847,"",むつ旭町店,青森県むつ市旭町５−９,41.2854661,141.1787893
45821,"",むつ横迎町店,青森県むつ市横迎町１丁目５−９,41.2931671,141.2175023
51767,"",むつ金曲２丁目店,青森県むつ市金曲２丁目１２−１,41.2728834,141.2170007
45099,"",よこはま吉田町店,神奈川県横浜市中区吉田町６５,35.446924,139.631716
46258,"",イオンタワーアネックス店,千葉県千葉市美浜区中瀬１丁目４,35.6500172,140.0404891
27138,"",イオンタワー店,千葉県千葉市美浜区中瀬1-5-1,35.6518058,140.0381335
44353,"",イオンレイクタウン店,埼玉県越谷市レイクタウン４丁目２−２ イオンレイクタウンkaze C102,35.8765228,139.8227849
44044,"",ウインクあいち店,愛知県名古屋市中村区名駅４丁目４−３８ ウインクあいち １階,35.1706789,136.8864905
51824,"",オーギヤ磐田店,静岡県磐田市上万能２６２−１,34.7239843,137.8270805
45555,"",シティタワーズ東京ベイ店,東京都江東区有明２丁目１−１ シティタワーズ東京ベイ ＷＥＳＴ ＴＯＷＥＲ ２階,35.6367491,139.7927686
47432,"",ダイエー鷲宮店,埼玉県久喜市八甫２７６３−１,36.107264,139.670825
46508,"",フレスポ郡山店,福島県郡山市南２丁目１９,37.3681899,140.372058
46269,"",プレイアトレ土浦店,茨城県土浦市有明町１−３０,36.0782074,140.2056559
45415,"",プレナ幕張店,千葉県千葉市美浜区ひび野２丁目４,35.647366,140.040536
29241,"",ペリエ海浜幕張店,千葉県千葉市美浜区ひび野２丁目１１０,35.648445,140.0416165
44616,"",メイプルイン幕張店,千葉県千葉市花見川区幕張本郷１丁目１２−１,35.6719731,140.0403367
46480,"",メガガイア岩槻店,埼玉県さいたま市岩槻区府内３丁目６−３９,35.9444943,139.7184526
44879,"",メガガイア青森中央店,青森県青森市東大野２丁目１３−１,40.797802,140.7462683
46734,"",メガフェイス座間店,神奈川県座間市ひばりが丘４丁目１２−３,35.4793161,139.432005
45596,"",メガフェイス田川店,福岡県田川市弓削田３６４６−１,33.642387,130.7688465
45679,"",メガフェイス飯塚店,福岡県飯塚市若菜１９５−１,33.6278762,130.6721937
46286,"",メトロ清見台店,千葉県木更津市清見台南５丁目１−３５,35.3801823,139.9596822
45848,"",ランドポート高槻店,大阪府高槻市芝生町１丁目５２−１,34.8227578,135.6109626
47206,"",一宮三条店,愛知県一宮市三条北平４２−１,35.3026265,136.7608042
44017,"",一宮串作店,愛知県一宮市萩原町串作東沖３６,35.2758539,136.7605495
44046,"",一宮競輪場前店,愛知県一宮市泉３丁目２−５,35.3030774,136.812804
44032,"",一宮篭屋店,愛知県一宮市篭屋１丁目１−１５,35.310611,136.7658229
45343,"",一宮西インター店,愛知県一宮市大和町毛受浜田１４,35.2973396,136.7789886
44647,"",一社駅前店,愛知県名古屋市名東区高社２丁目１１３,35.1684967,136.9962127
47290,"",七ヶ浜汐見台店,宮城県宮城郡七ヶ浜町汐見台５丁目２−１,38.3013784,141.0519798
47195,"",七ヶ浜遠山店,宮城県宮城郡七ヶ浜町遠山５丁目３−９４,38.3034487,141.0404537
44630,"",七宝下之森店,愛知県あま市七宝町下之森七反田４４−２,35.1508487,136.7982105
44355,"",七宝下田店,愛知県あま市七宝町下田堂中３−２,35.172212,136.792015
46498,"",七本松花屋町店,京都府京都市下京区西七条東八反田町２,34.9930149,135.7390418
46298,"",七条高倉店,京都府京都市下京区材木町４８４,34.9894679,135.7628422
44050,"",三ケ日都筑店,静岡県浜松市浜名区三ケ日町都筑２１７４−１,34.7934595,137.5773621
44576,"",三ツ沢下町店,神奈川県横浜市神奈川区松本町６丁目４５−１,35.4764261,139.6166076
45881,"",三加茂中庄店,徳島県三好郡東みよし町中庄１２２８,34.0363656,133.9525641
44034,"",三好松葉池浦店,愛知県みよし市明知町立山２７−１,35.0587237,137.0775073
44395,"",三島北沢店,静岡県三島市北沢６７−１０,35.100813,138.935856
44351,"",三島梅名店,静岡県三島市梅名４４７−１４,35.0942439,138.9264429
46095,"",三戸川守田店,青森県三戸郡三戸町大字川守田字西張渡３０−２,40.3873859,141.2569812
51821,"",三春上舞木店,福島県田村郡三春町上舞木戸ノ内４８−３,37.4199848,140.4397556
46673,"",三春町バイパス店,福島県田村郡三春町貝山岩田６１−１,37.4357916,140.4860061
46280,"",三段池公園前店,京都府福知山市猪崎６９０,35.3050601,135.135238
44041,"",三河安城東町店,愛知県安城市三河安城東町２丁目４−８,34.9655323,137.0696277
45794,"",三浦池代店,神奈川県三浦市南下浦町上宮田２０５３−１,35.191496,139.6475514
44072,"",三浦海岸店,神奈川県三浦市南下浦町上宮田１０９７−３,35.1909362,139.6606887
46441,"",三田けやき台店,兵庫県三田市けやき台６丁目３,34.916378,135.193975
47291,"",三豊豊中町店,香川県三豊市豊中町笠田笠岡２１２３−１,34.1567042,133.7063276
44311,"",三郷小谷堀店,埼玉県三郷市小谷堀３４７−１,35.86574,139.887795
47398,"",三郷幸房店,埼玉県三郷市中央５丁目３５−６,35.8322576,139.8779347
44302,"",三郷彦音店,埼玉県三郷市彦音２丁目２２−１,35.8561149,139.8456138
45825,"",三鷹駅北口店,東京都武蔵野市中町１丁目１７−４,35.7044711,139.5615044
43803,"",上井草店,東京都杉並区上井草２丁目１−１５,35.719278,139.610614
43961,"",上大岡店,神奈川県横浜市港南区大久保１丁目１−５,35.4108817,139.595133
46056,"",上尾原市南店,埼玉県上尾市原市１−３５,35.9546448,139.6312406
43805,"",上平間店,神奈川県川崎市中原区上平間１８３,35.5604504,139.6747036
44285,"",上新屋楽園店,静岡県浜松市中央区上新屋町1-5,34.731886,137.7582902
44560,"",上星川店,神奈川県横浜市保土ケ谷区上星川１丁目４−３,35.468355,139.580306
44055,"",上板橋店,東京都板橋区上板橋２丁目３７,35.7643058,139.6738388
44029,"",上池袋店,東京都豊島区上池袋４丁目３−５,35.7398075,139.7211902
46380,"",上白水店,福岡県春日市上白水１丁目６,33.5219679,130.4449445
46466,"",上里三軒西店,埼玉県児玉郡上里町七本木１２５７−５,36.2455104,139.1491687
44829,"",上野台店,愛知県東海市富木島町大清水２４,35.0120835,136.9350684
45079,"",上野平野店,三重県伊賀市平野西町５３,34.772937,136.136024
46055,"",上野池之端店,東京都台東区池之端１丁目４−２２,35.7124538,139.7683601
45358,"",上野長田店,三重県伊賀市長田８９６−１,34.769787,136.106748
46482,"",上須恵店,福岡県糟屋郡須惠町上須惠８０５−１,33.587647,130.5123972
45792,"",下丸子１丁目店,東京都大田区下丸子１丁目１２−６,35.5677065,139.6894856
44920,"",下矢切栄町店,千葉県松戸市下矢切６８−２,35.7589134,139.8995097
45132,"",下米田町店,岐阜県美濃加茂市下米田町今３１９−４,35.4599121,137.0624373
44000,"",下谷店,東京都台東区下谷２丁目２３−８,35.722866,139.785272
51839,"",下野下古山店,栃木県下野市文教１丁目１−１１,36.4405771,139.8638452
44826,"",下野大沢駅前店,栃木県日光市土沢５５７−１３５,36.687257,139.732803
45375,"",下野小金井店,栃木県下野市小金井１丁目３４−１,36.382487,139.8396422
46211,"",下長８丁目店,青森県八戸市下長八丁目22番12号,40.538408,141.486273
47010,"",与謝野町岩滝店,京都府与謝郡与謝野町字岩滝２３９６−１,35.5610866,135.1538296
47277,"",中原下新城３丁目店,神奈川県川崎市中原区下新城３丁目１５−２０,35.5779029,139.630228
45828,"",中央１丁目店,東京都江戸川区中央１丁目１８−１６,35.7065292,139.8704811
46255,"",中山寺駅前店,兵庫県宝塚市中筋５丁目１０−２３,34.816374,135.3739633
46384,"",中山駅南口店,神奈川県横浜市緑区寺山町７１−１０,35.5142143,139.5389969
44822,"",中川根町店,静岡県榛原郡川根本町徳山３５５−３,35.0768076,138.1065941
51773,"",中新田赤塚店,宮城県加美郡加美町赤塚３６７−１,38.560401,140.860329
44591,"",中村日赤前店,愛知県名古屋市中村区鳥居通３丁目２６,35.1733823,136.8625879
44603,"",中板橋駅前店,東京都板橋区弥生町３０−６,35.7552567,139.6948312
46511,"",中津隈店,佐賀県三養基郡みやき町中津隈５１−３,33.3241298,130.4291069
47003,"",中田町石森店,宮城県登米市中田町石森古舘８２−１,38.707259,141.216659
44423,"",中田町萩丸店,神奈川県横浜市泉区中田西３丁目２７−４５,35.4052321,139.5013332
45823,"",中百舌鳥駅前店,大阪府堺市北区中百舌鳥町５丁６６８,34.5549006,135.5049072
46302,"",中舞鶴余部店,京都府舞鶴市余部下１１８３−５,35.476888,135.36894
44349,"",中葛西７丁目店,東京都江戸川区中葛西７丁目３−８,35.65645,139.8640123
45651,"",中野鍋横店,東京都中野区本町４丁目４４−２３,35.696902,139.670146
46209,"",中野駅北口店,東京都中野区中野５丁目３６−３ タカデン中野ビル 1F,35.7073827,139.6668731
44020,"",中野５丁目店,東京都中野区中野５丁目１−１,35.7062728,139.6725963
46277,"",中間徳若店,福岡県中間市東中間１丁目１−１,33.818459,130.714316
47270,"",中間蓮花寺店,福岡県中間市蓮花寺２丁目１３−１,33.8252388,130.7223296
43815,"",串崎新田店,千葉県松戸市串崎新田３７−２,35.777841,139.964531
45859,"",丸亀城西店,香川県丸亀市城西町２丁目７−２５,34.2866832,133.7949221
46038,"",丸亀飯山店,香川県丸亀市飯山町下法軍寺２８−１,34.255096,133.86197
46029,"",丸亀飯野店,香川県丸亀市飯野町東二２３０−１,34.2692281,133.835348
47348,"",丹原今井店,愛媛県西条市丹原町今井３６１−１,33.9018519,133.0567901
44894,"",久喜本町店,埼玉県久喜市本町４丁目１０−１７,36.0703149,139.6614131
46221,"",久御山町田井店,京都府久世郡久御山町田井新荒見７０−１,34.884954,135.7409127
47356,"",久慈大川目店,岩手県久慈市大川目町第１地割１１４−２２,40.1890586,141.7431714
46503,"",久慈田屋町店,岩手県久慈市田屋町第１地割３８−２,40.195421,141.776666
46330,"",久留米津福今町店,福岡県久留米市津福今町３６１−７,33.295055,130.505028
47028,"",久留米田主丸店,福岡県久留米市田主丸町秋成８５１−１,33.345444,130.71819
46693,"",久留米荒木店,福岡県久留米市荒木町白口１８５７−３,33.2777145,130.5051734
46997,"",久留米荘島町店,福岡県久留米市荘島町１２−５,33.3142387,130.5049434
46308,"",久米池店,香川県高松市新田町甲２０９４−１,34.3125298,134.104396
45114,"",久里浜４丁目店,神奈川県横須賀市久里浜４丁目１７−１,35.2294944,139.7021671
45118,"",九段南１丁目店,東京都千代田区九段南１丁目５−５,35.6948245,139.7518698
46216,"",九段南４丁目店,東京都千代田区九段南４丁目２−９,35.6909779,139.7395588
44314,"",亀山PA下り店,三重県亀山市布気町９４２−２,34.8671923,136.4167427
44273,"",亀山井田川店,三重県亀山市井田川町６６０−２,34.869113,136.490442
44375,"",亀山関木崎店,三重県亀山市関町木崎８０−１０,34.8501051,136.3993913
46484,"",亀岡大井町土田店,京都府亀岡市大井町土田３丁目４−１１,35.0361369,135.5490225
46379,"",亀岡運動公園前店,京都府亀岡市曽我部町穴太大塚５４,35.0138737,135.5464696
44915,"",亀戸９丁目店,東京都江東区亀戸９丁目１１−１,35.6958899,139.8453294
45149,"",亀有駅東店,東京都葛飾区亀有３丁目４４−９,35.7674688,139.8505264
43733,"",二宮駅前店,神奈川県中郡二宮町二宮８７８−２７,35.299597,139.257256
47387,"",二本松向原店,福島県二本松市向原９８−９,37.5847356,140.4246187
47226,"",二本松渋川店,福島県二本松市渋川５１−１,37.6289293,140.4614922
47418,"",二本松郭内店,福島県二本松市郭内１丁目１４−１,37.597934,140.4377329
43995,"",五霞原宿台店,茨城県猿島郡五霞町原宿台４丁目１８−１３,36.094955,139.736526
43988,"",井田南店,愛知県岡崎市井田南町１０−１,34.9746402,137.1624771
44625,"",京急川崎駅西口店,神奈川県川崎市川崎区駅前本町２０−１１ 本町ビル 1F,35.5331729,139.7002469
45134,"",京成稲毛駅前店,千葉県千葉市稲毛区稲毛３丁目１−１５,35.637714,140.0853
45349,"",京浜トラックターミナル店,東京都大田区平和島２丁目１−１,35.5854418,139.7468941
47376,"",京都原谷店,京都府京都市北区大北山原谷乾町202番地の5,35.0454674,135.7188113
51802,"",京都室町通万寿寺店,京都府京都市下京区長刀切町２１８−３−２,34.9977742,135.7580704
46432,"",京都嵯峨明星町店,京都府京都市右京区嵯峨明星町１７−６,35.0140663,135.6896395
45314,"",京都東寺前店,京都府京都市南区西九条比永城町１１９,34.9791405,135.7490977
46059,"",京都水族館前店,京都府京都市下京区上之町４３９−１,34.9880071,135.7490292
47416,"",京都静市店,京都府京都市左京区静市市原町６３１,35.0787298,135.7644265
47248,"",仙台みやぎ台店,宮城県仙台市青葉区芋沢横向山７７−１,38.3044806,140.7763938
47001,"",仙台上飯田店,宮城県仙台市若林区上飯田１丁目９−６０,38.22138,140.913626
47359,"",仙台中央３丁目店,宮城県仙台市青葉区中央３丁目３−３,38.2601455,140.8766019
47202,"",仙台中田６丁目店,宮城県仙台市太白区中田６丁目７−２５,38.1924308,140.8857043
47414,"",仙台伊在店,宮城県仙台市若林区荒井５丁目２−１,38.248336,140.943278
47386,"",仙台八木山緑町店,宮城県仙台市太白区八木山緑町７−３２,38.244499,140.8630038
47011,"",仙台六丁の目店,宮城県仙台市若林区六丁の目中町２７−４０,38.2515878,140.9455036
47423,"",仙台北中山店,宮城県仙台市泉区南中山５丁目４−３５,38.309422,140.8121751
47016,"",仙台南インター店,宮城県名取市高舘熊野堂余方上２６−２,38.2149906,140.8146352
46722,"",仙台南中山店,宮城県仙台市泉区南中山２丁目１−１７,38.3105288,140.8295305
47374,"",仙台卸町中央店,宮城県仙台市宮城野区萩野町３丁目８−２２,38.2571082,140.9198432
46993,"",仙台坪沼店,宮城県仙台市太白区坪沼相ノ原６６,38.2126405,140.7556115
45510,"",仙台富沢西店,宮城県仙台市太白区富沢西１丁目７−７,38.2132272,140.8608868
47169,"",仙台富沢駅東口店,宮城県仙台市太白区大野田４丁目１９−４,38.213396,140.873949
47188,"",仙台山田店,宮城県仙台市太白区山田新町９２−４,38.2159236,140.8333578
47427,"",仙台岩切店,宮城県仙台市宮城野区岩切分台３丁目５−１０,38.3091023,140.9568587
47239,"",仙台川平店,宮城県仙台市青葉区川平３丁目４０−４,38.306648,140.836232
47339,"",仙台市名坂店,宮城県仙台市泉区市名坂沖１０２−６,38.3174077,140.9035636
47342,"",仙台新寺１丁目店,宮城県仙台市若林区新寺１丁目２−２６,38.2565348,140.8837896
47026,"",仙台新港店,宮城県仙台市宮城野区中野３丁目４−１１,38.270787,140.9910511
47363,"",仙台新田東店,宮城県仙台市宮城野区新田東５丁目１５−２,38.281102,140.935606
47289,"",仙台東インター店,宮城県仙台市若林区六丁の目東町７−１０,38.2498714,140.9524485
26441,"",仙台東七番丁店,宮城県仙台市宮城野区名掛丁２０６−２２,38.2627105,140.8854422
47000,"",仙台榴ヶ岡店,宮城県仙台市宮城野区榴ケ岡１０５−１０,38.2601711,140.8922009
47284,"",仙台泉七北田店,宮城県仙台市泉区市名坂町５３,38.321208,140.8891329
47286,"",仙台泉中央１丁目店,宮城県仙台市泉区泉中央１丁目３６−４,38.3240263,140.8773197
51769,"",仙台泉大沢店,宮城県仙台市泉区北高森３３−１,38.3479366,140.8622495
47379,"",仙台泉崎１丁目店,宮城県仙台市太白区泉崎１丁目１８−３０,38.2210894,140.8677741
47283,"",仙台泉松森店,宮城県仙台市泉区松森前田１−４,38.307658,140.901811
47171,"",仙台泉福岡店,宮城県仙台市泉区福岡阿弥陀前１４−１,38.3562097,140.7827431
45312,"",仙台生出店,宮城県仙台市太白区茂庭二丁目６番の１,38.2315823,140.7869924
46030,"",仙台田子店,宮城県仙台市宮城野区田子２丁目４１−１８,38.2833038,140.9585757
47014,"",仙台芋沢店,宮城県仙台市青葉区芋沢大竹中２４−４,38.2804639,140.7887041
47401,"",仙台落合店,宮城県仙台市青葉区落合２丁目１６−２２,38.2733526,140.7853103
46094,"",仙台薬師堂駅前店,宮城県仙台市若林区大和町１丁目１−１０,38.2492137,140.907203
46933,"",仙台郷六店,宮城県仙台市青葉区郷六舘３９−１１,38.2646106,140.8175687
45883,"",仙台鈎取４丁目店,宮城県仙台市太白区鈎取４丁目１７−３２,38.2254849,140.8398878
47244,"",仙台錦ケ丘店,宮城県仙台市青葉区錦ケ丘７丁目２１−７,38.2576779,140.7590997
47389,"",仙台長嶺店,宮城県仙台市太白区長嶺８−６,38.2366457,140.8675291
47262,"",仙台長町１丁目店,宮城県仙台市太白区長町１丁目２−１２,38.2347603,140.888044
45422,"",仙台長町４丁目店,宮城県仙台市太白区長町４丁目７−２８,38.2291744,140.8808004
47343,"",仙台高松２丁目店,宮城県仙台市青葉区高松２丁目１１−７２,38.279789,140.8906
47236,"",伊丹昆陽東１丁目店,兵庫県伊丹市昆陽東１丁目４−６,34.7779339,135.4046082
46759,"",伊丹鴻池店,兵庫県伊丹市鴻池３丁目３−１６,34.7945799,135.3868512
43960,"",伊勢上地町店,三重県伊勢市上地町４８２２−２,34.4902895,136.6565806
45069,"",伊勢円座町店,三重県伊勢市円座町１８５４−４,34.4371685,136.6474265
44818,"",伊勢宮後店,三重県伊勢市宮後３丁目８−５３,34.498838,136.709611
43942,"",伊勢小俣店,三重県伊勢市小俣町相合４６３−１,34.508849,136.67262
46305,"",伊勢小俣町本町店,三重県伊勢市小俣町本町３４１−６２,34.5031342,136.6700989
45360,"",伊勢崎今井店,群馬県伊勢崎市赤堀今井町２丁目１２８０−１,36.3804973,139.2162934
47333,"",伊勢崎境百々店,群馬県伊勢崎市境百々２５５,36.2815622,139.2546143
47190,"",伊勢崎太田町店,群馬県伊勢崎市太田町９７４−１,36.336519,139.187367
46215,"",伊勢崎市場町店,群馬県伊勢崎市市場町２丁目８４４−２,36.3636741,139.2208554
46989,"",伊勢崎田中町店,群馬県伊勢崎市田中町８５−１,36.3134432,139.1604596
46664,"",伊勢崎豊城町店,群馬県伊勢崎市豊城町１９６０−６,36.330604,139.2213943
45784,"",伊勢崎除ヶ町店,群馬県伊勢崎市除ケ町２４７−１,36.2813908,139.1975014
45116,"",伊勢辻久留店,三重県伊勢市辻久留３丁目５−６６,34.484022,136.686218
43945,"",伊勢黒瀬町店,三重県伊勢市黒瀬町５１１−１,34.497689,136.732742
44403,"",伊奈中央店,埼玉県北足立郡伊奈町中央１－４６,35.9987727,139.6150096
44656,"",伊奈本町店,埼玉県北足立郡伊奈町本町２丁目５３−１,35.9948867,139.6289845
44619,"",伊東富戸店,静岡県伊東市富戸１０２０−４８８,34.8958501,139.1193901
45862,"",伊賀畑村店,三重県伊賀市畑村８７１−１,34.7678192,136.2079362
51831,"",伊達上台店,福島県伊達市上台２９−１,37.826986,140.503801
45797,"",伊達保原高子店,福島県伊達市保原町上保原大久保２２−５,37.8044988,140.5263474
45554,"",伊達梁川土橋店,福島県伊達市梁川町西土橋１８３−１,37.8501344,140.5919087
46087,"",伏見横大路店,京都府京都市伏見区横大路六反畑９−１,34.9184064,135.7302562
44356,"",佐倉インター店,千葉県佐倉市小篠塚１１５３−９,35.6879067,140.2301714
47231,"",佐沼中江店,宮城県登米市迫町佐沼中江４丁目１２−１３,38.6883878,141.1858144
46675,"",佐賀大財２丁目店,佐賀県佐賀市大財２丁目９−２１,33.2599878,130.3106951
46656,"",佐賀本庄町店,佐賀県佐賀市本庄町３９３−１,33.2344326,130.3019027
46477,"",佐賀江北町店,佐賀県杵島郡江北町下小田３３６６−１,33.2171508,130.1374667
45143,"",佐賀田代２丁目店,佐賀県佐賀市田代２丁目６−１５,33.2495642,130.3137802
47219,"",佐賀高木瀬店,佐賀県佐賀市高木瀬町１８２１−１,33.2979786,130.2859915
44316,"",佐野大橋店,栃木県佐野市大橋町３２３６−１２,36.3113096,139.5652786
45806,"",佐野馬門店,栃木県佐野市馬門町北原１８４０,36.2901307,139.600254
44327,"",信濃町駅北口店,東京都新宿区信濃町３１,35.6810745,139.719627
45333,"",信濃町駅南口店,東京都新宿区南元町１９,35.679706,139.7201335
45357,"",修善寺大平店,静岡県伊豆市大平７００−１,34.9565908,138.9361595
44890,"",元八王子２丁目店,東京都八王子市元八王子町２丁目１１５１−４,35.658395,139.282253
44361,"",元浅草３丁目店,東京都台東区元浅草３丁目２２−８,35.7085294,139.7879419
44874,"",光明寺店,愛知県一宮市光明寺北道手８６,35.353577,136.796706
45421,"",入谷２丁目店,東京都台東区入谷２丁目３９−１１,35.7223485,139.789283
45576,"",入間小谷田店,埼玉県入間市小谷田３丁目８−２９,35.829054,139.3753288
45810,"",入間市下藤沢店,埼玉県入間市大字下藤沢４３８−１,35.8218684,139.4067563
43955,"",入間市駅前店,埼玉県入間市河原町１−３,35.8409453,139.3898179
46773,"",八千代工業団地入口店,千葉県八千代市大和田新田７５８−２,35.729517,140.08556
44866,"",八千代米本店,千葉県八千代市米本２４３１−８,35.7560673,140.1218396
45115,"",八千代緑ヶ丘店,千葉県八千代市大和田新田１０８８−１０,35.723942,140.067609
43780,"",八千代高津店,千葉県八千代市高津６９７−１,35.71811,140.085138
46225,"",八太郎蓮沼店,青森県八戸市八太郎５丁目１−３１,40.540858,141.495097
46323,"",八女山内店,福岡県八女市山内７３３−１,33.2231366,130.6135421
46475,"",八女本店,福岡県八女市本１２３２−１,33.2271495,130.5757637
46666,"",八女鈍土羅店,福岡県八女市馬場３１−１,33.212135,130.5717624
47019,"",八尾太田店,大阪府八尾市太田２丁目９０,34.5927296,135.5918747
47252,"",八幡八千代店,福岡県北九州市八幡西区南八千代町３−１,33.8622879,130.7726921
46027,"",八幡八枝店,福岡県北九州市八幡西区八枝３丁目８−１２,33.844524,130.7273255
46941,"",八幡大蔵店,福岡県北九州市八幡東区大蔵２丁目７−６,33.8621756,130.8216472
46962,"",八幡穴生店,福岡県北九州市八幡西区陣原２丁目１６−７,33.8647657,130.7395376
46951,"",八幡竹下町店,福岡県北九州市八幡東区竹下町１０−２３,33.8633731,130.8374855
46923,"",八幡陣原店,福岡県北九州市八幡西区陣原３丁目１−２６,33.8668524,130.7427954
46088,"",八戸ニュータウン中央店,青森県八戸市南白山台２丁目６−１７,40.4818705,141.4608545
45884,"",八戸小中野店,青森県八戸市小中野４丁目６−１６,40.5204261,141.5115026
46332,"",八戸工業大学前店,青森県八戸市妙大開５−２２７,40.4821284,141.5618271
46333,"",八戸田向店,青森県八戸市田向２丁目４−１,40.4973188,141.5124246
45872,"",八戸高専前店,青森県八戸市田面木美濃助平１８−１,40.4898784,141.4515568
46281,"",八戸鮫町西子沢店,青森県八戸市鮫町西子沢１５−６５,40.5205006,141.5719188
46971,"",八潮伊勢野店,埼玉県八潮市伊勢野２１７−１,35.808041,139.8539735
44635,"",八潮木曽根店,埼玉県八潮市木曽根１３０８−１,35.8179075,139.8589313
47396,"",八潮柳之宮店,埼玉県八潮市緑町４丁目１１−１,35.8241548,139.8252344
44611,"",八潮８丁目店,埼玉県八潮市八潮８丁目２２−８,35.8128234,139.8284942
45583,"",八王子北野台店,東京都八王子市北野台５丁目５０−７,35.6334115,139.351395
37350,"",八王子子安町店,東京都八王子市子安町2丁目5番16,35.651087,139.344093
47009,"",八王子小比企町店,東京都八王子市小比企町３５００−４,35.6334189,139.3203521
46035,"",八王子明神町店,東京都八王子市明神町２丁目１−１３,35.6557472,139.3494835
51811,"",八王寺１丁目店,大阪府池田市八王寺１丁目５−１０,34.813948,135.4348587
45603,"",八街おおぎ店,千葉県八街市大木６７３−４５,35.6553755,140.3236122
46684,"",八鹿大森店,兵庫県養父市八鹿町八鹿字大森１７９－１,35.4103055,134.7769378
46314,"",円座店,香川県高松市円座町字西村211番地1,34.2896922,134.0047305
46909,"",函南町仁田店,静岡県田方郡函南町仁田１４９−１,35.0831491,138.9455557
46097,"",函南町塚本店,静岡県田方郡函南町塚本３９８−３,35.0779041,138.9289038
44299,"",刈谷丸田町店,愛知県刈谷市丸田町４丁目５−１,35.0010673,137.0051149
46267,"",刈谷井ケ谷町店,愛知県刈谷市井ケ谷町丸岡１０５−１,35.0480584,137.0549189
45085,"",刈谷今川町店,愛知県刈谷市今川町山ノ神１５８−１,35.028901,137.011985
44033,"",刈谷板倉町店,愛知県刈谷市板倉町２丁目３−１,34.9816224,137.0397864
44294,"",刈谷泉田町店,愛知県刈谷市泉田町城前１４１−４,35.0270497,137.0090908
44350,"",刈谷西境町店,愛知県刈谷市西境町本郷７７−１,35.0494659,137.0297583
47008,"",利府中インター店,宮城県宮城郡利府町春日山崎１８−４,38.3377018,140.9953243
47288,"",利府中央店,宮城県宮城郡利府町利府堀切前１５−１,38.32931,140.972817
45595,"",前原東３丁目店,千葉県船橋市前原東３丁目１０−９,35.6943276,140.0279472
45867,"",前原西４丁目店,千葉県船橋市前原西４丁目１８−１８,35.696572,140.016976
45152,"",前原西６丁目店,千葉県船橋市前原西６丁目４−２９,35.7035411,140.0256802
44880,"",前橋上泉町店,群馬県前橋市上泉町１０１２−１,36.4029493,139.1055313
44541,"",前橋下新田店,群馬県前橋市下新田町２４４−１,36.357361,139.063162
44270,"",前橋交通公園前店,群馬県前橋市西片貝町５丁目６−２,36.3912299,139.0862665
45878,"",前橋市高井店,群馬県前橋市総社町高井１０４−１,36.4160667,139.0236261
44850,"",前橋本町店,群馬県前橋市本町３丁目１５−１,36.3841242,139.0767876
47352,"",前橋荒子町店,群馬県前橋市荒子町１５５１,36.3882059,139.1616801
43953,"",前橋荒牧店,群馬県前橋市荒牧町２丁目５１−１９,36.428931,139.05216
45635,"",前橋鶴光路店,群馬県前橋市鶴光路町３４１−４,36.334358,139.097315
45610,"",勝田駅西口店,茨城県ひたちなか市勝田本町２−４,36.3930994,140.5229105
47349,"",北上上江釣子店,岩手県北上市上江釣子１６地割１５４−１,39.3002338,141.0779812
47249,"",北上本通り店,岩手県北上市本通り１丁目７−２０,39.2873941,141.1160715
46052,"",北区赤羽南２丁目店,東京都北区赤羽南２丁目９−６０,35.7735366,139.7223942
43786,"",北千住店,東京都足立区千住３丁目５６,35.752315,139.8034291
44634,"",北品川５丁目店,東京都品川区北品川５丁目９−１１ 大崎ＭＴビル １階,35.6185519,139.7348015
47345,"",北堀江店,大阪府大阪市西区北堀江２丁目１−６,34.675175,135.492629
45790,"",北山田駅前店,神奈川県横浜市都筑区北山田１丁目９−３,35.56152,139.5928773
46459,"",北島新喜来店,徳島県板野郡北島町新喜来砂原３５−２,34.1316434,134.5395656
45868,"",北島町江尻店,徳島県板野郡北島町北島町江尻妙蛇池３３−１,34.1194857,134.5484662
45098,"",北府中駅前店,東京都府中市晴見町２丁目１７−１,35.6810266,139.4721882
44837,"",北新宿４丁目店,東京都新宿区北新宿４丁目１２−４,35.707031,139.692599
44918,"",北方町芝原中町店,岐阜県本巣郡北方町芝原中町３丁目１９,35.444879,136.693955
44334,"",北方町高屋白木店,岐阜県本巣郡北方町高屋白木１丁目６２−１,35.4185989,136.6921252
45369,"",北本朝日店,埼玉県北本市朝日２丁目３０４−２,36.0390559,139.5590479
45300,"",北浦和東口店,埼玉県さいたま市浦和区北浦和３丁目４−１４,35.8725812,139.6465981
44586,"",北浦和西口店,埼玉県さいたま市浦和区北浦和４丁目１−１４,35.8712952,139.6457184
44307,"",北砂６丁目店,東京都江東区北砂６丁目２７−２１,35.6803276,139.8383148
46253,"",北茂安町店,佐賀県三養基郡みやき町白壁２２５０,33.3295496,130.4760722
44864,"",北茨城インター店,茨城県北茨城市華川町臼場１７４−５,36.80379,140.7323408
46224,"",北茨城上桜井店,茨城県北茨城市中郷町上桜井２１８３−２,36.7841201,140.7355464
46774,"",北野町今山店,福岡県久留米市北野町今山８１６−１,33.3449214,130.5805001
45799,"",十和田三本木店,青森県十和田市三本木本金崎１２４−１,40.6099958,141.1733414
46033,"",十和田中央店,青森県十和田市稲生町１７−２１,40.6129365,141.2135845
37354,"",十和田北里大学店,青森県十和田市東二十三番町２７−５,40.6240233,141.2346447
43801,"",千住仲町店,東京都足立区千住仲町１８−６,35.7465717,139.8000816
44267,"",千早町４丁目店,東京都豊島区千早４－１−３,35.7361682,139.6838131
45578,"",千本丸太町店,京都府京都市中京区聚楽廻東町３−１,35.018151,135.741983
44916,"",千葉みつわ台店,千葉県千葉市若葉区みつわ台５丁目３０−７,35.646704,140.138592
45871,"",千葉ニュータウン南山店,千葉県白井市南山２丁目１１−３,35.7847507,140.0640563
46090,"",千葉ニュータウン原山店,千葉県印西市高花１丁目２６,35.8008064,140.1328882
47368,"",千葉ニュータウン白井店,千葉県白井市谷田８４７−１,35.789975,140.092507
44276,"",千葉三角町店,千葉県千葉市花見川区三角町６７９−１,35.6742271,140.1176558
44282,"",千葉仁戸名店,千葉県千葉市中央区仁戸名町９３−５,35.5949629,140.1594121
45356,"",千葉今井店,千葉県千葉市中央区今井３丁目１７−１４,35.577289,140.1303694
46054,"",千葉北高校前店,千葉県千葉市花見川区犢橋町２１９２−３,35.6635649,140.1146437
45380,"",千葉千種町店,千葉県千葉市花見川区千種町３４６−１０,35.6825307,140.1216865
47272,"",千葉市神明町店,千葉県千葉市中央区神明町２４−１６,35.6019242,140.1165939
44862,"",千葉幕張西店,千葉県千葉市美浜区幕張西２丁目６−１,35.666037,140.036571
43788,"",千葉幸町店,千葉県千葉市美浜区幸町２丁目１９−３０,35.6248325,140.0851778
46460,"",千葉新港店,千葉県千葉市美浜区新港１６７,35.6195512,140.0815905
45146,"",千葉星久喜店,千葉県千葉市中央区星久喜町９０４,35.598609,140.1481633
45866,"",千葉末広３丁目店,千葉県千葉市中央区末広３丁目１２−３,35.593508,140.126603
47305,"",千葉桜木６丁目店,千葉県千葉市若葉区桜木６丁目１９−６０,35.630273,140.1588696
45130,"",千葉検見川２丁目店,千葉県千葉市花見川区検見川町２丁目２０４−１,35.6508772,140.0671541
45549,"",千葉横戸町店,千葉県千葉市花見川区横戸町１１３２−１−２,35.7031939,140.1190499
46036,"",千葉真砂店,千葉県千葉市美浜区真砂２丁目２４−１,35.641877,140.07019
45117,"",千葉轟町店,千葉県千葉市稲毛区轟町２丁目２−９,35.6290893,140.1060274
45826,"",千葉都公園前店,千葉県千葉市中央区都町２丁目２−１０,35.6118647,140.1382257
46481,"",千葉都町店,千葉県千葉市中央区都町８丁目２−３７,35.615606,140.151953
44620,"",千葉長洲店,千葉県千葉市中央区長洲１丁目１０−２０,35.602912,140.124081
44332,"",千駄ヶ谷駅前店,東京都渋谷区千駄ケ谷１丁目３０−８ ダヴィンチ千駄ヶ谷 101,35.6809162,139.7101699
44842,"",千駄ヶ谷３丁目店,東京都渋谷区千駄ケ谷３丁目１６−５,35.6757155,139.7068138
44378,"",半田亀崎店,愛知県半田市亀崎町１０丁目５,34.9113002,136.9595082
44878,"",半田宮本町店,愛知県半田市宮本町３丁目２１７−２１,34.881896,136.914291
43772,"",半田平井町店,愛知県半田市平井町５丁目８７−１,34.9083817,136.8955036
45344,"",半田有楽町店,愛知県半田市有楽町３丁目２０１,34.8776931,136.922099
46743,"",南三陸さんさん商店街店,宮城県本吉郡南三陸町志津川字五日町51番地C棟,38.6777916,141.4483612
51771,"",南光台東店,宮城県仙台市泉区南光台東１丁目５４−１７,38.2961651,140.9092283
45644,"",南台５丁目店,東京都中野区南台５丁目２１−４,35.6818594,139.6619602
44283,"",南大塚２丁目店,東京都豊島区南大塚２丁目２６−１５,35.7281528,139.729585
37348,"",南大沢店,東京都八王子市南大沢２丁目２２６−１,35.6044427,139.3858305
43744,"",南幸町店,神奈川県川崎市幸区南幸町１丁目３１−１,35.535035,139.689959
45122,"",南気仙沼店,宮城県気仙沼市幸町４丁目２−１３,38.8975267,141.5752864
44364,"",南水元４丁目店,東京都葛飾区南水元４丁目２６−１１,35.7789372,139.8668059
46261,"",南池袋２丁目店,東京都豊島区南池袋２丁目３−１,35.7243844,139.7170635
44815,"",南砂町駅前店,東京都江東区南砂３丁目１４−１ コーシャハイム南砂駅前,35.668777,139.831742
47193,"",南船場店,大阪府大阪市中央区南船場４丁目１４−３,34.6776883,135.4979818
46320,"",南花畑２丁目店,東京都足立区南花畑２丁目１４−１６,35.789245,139.820431
44397,"",南荻窪３丁目店,東京都杉並区南荻窪３丁目３４−１,35.704076,139.609324
51815,"",南越谷ラクーン店,埼玉県越谷市南越谷１丁目１５−１,35.8754051,139.7933002
43757,"",南阿佐ヶ谷店,東京都杉並区成田東４丁目３９−１０ 1F,35.6991088,139.6356243
44592,"",南青山４丁目店,東京都港区南青山４丁目２６−１６,35.6622375,139.718065
45574,"",南青山６丁目店,東京都港区南青山６丁目６−２２,35.6600843,139.7175193
46914,"",博多吉塚３丁目店,福岡県福岡市博多区吉塚３丁目５−５２,33.6006346,130.4287185
46486,"",博多寿町店,福岡県福岡市博多区寿町１丁目２−３４,33.543135,130.457253
47002,"",博多板付４丁目店,福岡県福岡市博多区板付４丁目７−３１,33.561595,130.45281
29238,"",博多榎田２丁目店,福岡県福岡県福岡市博多区榎田2丁目1番70号,33.5927188,130.4365238
46451,"",博多諸岡店,福岡県福岡市博多区諸岡３丁目７−７,33.5613836,130.446752
46715,"",博多駅前３丁目店,福岡県福岡市博多区博多駅前３丁目１５−１０,33.58819,130.4137033
44053,"",印西 小林店,千葉県印西市小林４３８,35.8336564,140.1981177
44543,"",印西草深店,千葉県印西市草深２１５８−３,35.7986705,140.1590998
51766,"",厚木妻田北４丁目店,神奈川県厚木市妻田北４丁目１−１,35.4660094,139.3544368
44889,"",厚木旭町店,神奈川県厚木市旭町４丁目７−１,35.433322,139.367185
46749,"",原町大木戸店,福島県南相馬市原町区大木戸松島３３６−８,37.6244481,140.944819
47357,"",原町本町店,福島県南相馬市原町区本町１丁目７３−１,37.638747,140.95817
46738,"",原町桜井町店,福島県南相馬市原町区桜井町１丁目２７３,37.6389236,140.9782809
46752,"",原町石神店,福島県南相馬市原町区石神坂下１５５−１,37.6425818,140.9352603
45397,"",友部湯崎店,茨城県笠間市湯崎１２４３−３３６,36.3207858,140.328982
47233,"",古川駅前大通店,宮城県大崎市古川駅前大通６丁目２−３,38.5782613,140.9665123
47287,"",古河仁連店,茨城県古河市仁連８２６−５,36.1862103,139.8010931
44622,"",古河大山店,茨城県古河市大山１６５０,36.157996,139.718462
46510,"",古河女沼店,茨城県古河市女沼１５２１−１,36.1829372,139.7343863
47300,"",古河西牛谷店,茨城県古河市西牛谷４６２,36.2012857,139.7414097
44632,"",可児くくり店,岐阜県可児市久々利８３２−１,35.408827,137.10038
51834,"",可児塩河店,岐阜県可児市塩河2756番地1,35.3968007,137.0443263
44672,"",可児瀬田店,岐阜県可児市瀬田字四ツ辻1714-1,35.4299592,137.0876757
44820,"",台東３丁目店,東京都台東区台東区台東３丁目１８−４,35.7049577,139.7775922
43965,"",各務原前渡東町店,岐阜県各務原市前渡東町３丁目３５８,35.3840943,136.8867832
44382,"",各務原新栄町２丁目店,岐阜県各務原市蘇原新栄町２丁目９２−１,35.4079221,136.8667301
47199,"",吉兆東名川崎店,神奈川県川崎市宮前区犬蔵１丁目８−１０,35.5881417,139.5667593
43764,"",吉川店,埼玉県吉川市吉川１丁目２２−５,35.8899119,139.8434774
43740,"",吉根店,愛知県名古屋市守山区桔梗平１丁目２５０７,35.23057,136.996135
44669,"",吉根深沢店,愛知県名古屋市守山区平池東314番地2号,35.2373033,137.0075274
43806,"",吉田町川尻北店,静岡県榛原郡吉田町川尻９１４−１,34.7762637,138.2664751
51835,"",吉祥寺本町店,東京都武蔵野市吉祥寺本町１丁目３３−２４,35.7038989,139.5829904
45121,"",吉良上横須賀店,愛知県西尾市吉良町上横須賀雑役免１１２−３,34.819754,137.071883
43763,"",吉良吉田店,愛知県西尾市吉良町吉田松木田９３,34.797837,137.067173
45641,"",吉見下細谷店,埼玉県比企郡吉見町下細谷１２５４,36.0445208,139.4534331
46284,"",吉野ヶ里鳥ノ隈店,佐賀県神埼郡吉野ヶ里町吉田１２５２−１,33.3265588,130.3925564
44070,"",吉野町店,神奈川県横浜市南区山王町３丁目２３−２,35.4361812,139.6183403
47005,"",名取せきのした店,宮城県名取市杜せきのした２丁目４−１,38.1664595,140.8961556
47240,"",名取インター店,宮城県名取市小塚原西中塚７−１,38.178306,140.929809
47247,"",名取愛島郷店,宮城県名取市愛島郷１丁目２−２,38.1598079,140.8595618
44352,"",名古屋つつじが丘店,愛知県名古屋市名東区つつじが丘４１０,35.180975,136.994123
43997,"",名古屋みなとコンコルド店,愛知県名古屋市港区遠若町二丁目５９番２,35.0999794,136.863093
44289,"",名古屋ガーデンふ頭店,愛知県名古屋市港区入船１丁目８−２１,35.0924449,136.8822385
44043,"",名古屋供米田店,愛知県名古屋市中川区供米田１丁目６０２,35.1366558,136.8178563
44542,"",名古屋城南町店,愛知県名古屋市守山区城南町１５−２２,35.201234,136.969406
44671,"",名古屋宝神店,愛知県名古屋市港区宝神３丁目１３１５,35.0887543,136.8517146
44337,"",名古屋小塚店,愛知県名古屋市中川区小塚町６２−１,35.1386731,136.8640709
44010,"",名古屋山花町店,愛知県名古屋市昭和区山花町１２９,35.152911,136.953269
44292,"",名古屋幸心店,愛知県名古屋市守山区幸心１丁目１３０１,35.2054165,136.9447505
44357,"",名古屋康生通店,愛知県名古屋市西区児玉３丁目３６−３４,35.1960441,136.881812
44275,"",名古屋廿軒家店,愛知県名古屋市守山区更屋敷１３−１,35.1937751,136.9599166
44037,"",名古屋戸田店,愛知県名古屋市中川区戸田明正１丁目９３０,35.1453981,136.8090906
44057,"",名古屋新川店,愛知県名古屋市港区新川町３丁目地先,35.1148549,136.8774253
44052,"",名古屋曽根店,愛知県名古屋市緑区曽根２丁目２４５,35.0737384,136.9568296
44291,"",名古屋東山元町店,愛知県名古屋市千種区東山元町５丁目６３−１７,35.148792,136.974458
47225,"",名古屋梅森坂２丁目店,愛知県名古屋市名東区梅森坂２丁目１０１,35.143198,137.0150045
45308,"",名古屋清水山店,愛知県名古屋市緑区桶狭間神明２６１８,35.050644,136.965724
44006,"",名古屋猪之越町店,愛知県名古屋市中村区猪之越町１丁目３−１８,35.185733,136.863958
44348,"",名古屋稲上町店,愛知県名古屋市中村区稲上町３丁目１３,35.171129,136.844503
44266,"",名古屋第一赤十字病院店,愛知県名古屋市中村区道下町３丁目３５,35.1717621,136.8625293
43957,"",名古屋第二赤十字病院店,愛知県名古屋市昭和区妙見町２−９,35.1453252,136.9649434
46259,"",名古屋若鶴町店,愛知県名古屋市北区若鶴町３１５−２,35.2324963,136.9181508
44326,"",名古屋荒子店,愛知県名古屋市中川区荒子２丁目２３,35.140186,136.860122
46045,"",名古屋菊井町店,愛知県名古屋市西区那古野２丁目１０−１８,35.1777207,136.8874358
44084,"",名古屋西茶屋店,愛知県名古屋市港区西茶屋３丁目５６,35.101202,136.8269003
44577,"",名古屋豊田３丁目店,愛知県名古屋市南区豊田３丁目１７−１３,35.103424,136.917771
44648,"",名古屋金城町店,愛知県名古屋市北区金城町４丁目２３,35.2089901,136.9056864
29237,"",名古屋駅西店,愛知県名古屋市中村区椿町１６−１６ ナゴヤ大和ビル,35.1682741,136.8812238
44016,"",名古屋黒沢台店,愛知県名古屋市緑区黒沢台４丁目１６０５−１,35.096604,136.9950945
44578,"",名四川越店,三重県三重郡川越町当新田５２０−１,35.0296197,136.6854043
46289,"",名島２丁目店,福岡県福岡市東区名島２丁目４０,33.6440925,130.4280825
46053,"",名川店,青森県三戸郡南部町虎渡西山３−１,40.4334877,141.3267657
44264,"",名張富貴ヶ丘店,三重県名張市蔵持町１２１６−１,34.6246515,136.1205258
51798,"",名張桔梗が丘店,三重県名張市桔梗が丘５番町２−５１−６５,34.6429438,136.1265975
45682,"",名鉄常滑駅前店,愛知県常滑市鯉江本町５丁目１４０,34.8898895,136.8354534
44812,"",名阪関インター店,三重県亀山市関町萩原９２,34.8405732,136.4007032
45550,"",名駅南１丁目店,愛知県名古屋市中村区名駅南１丁目１８−７,35.1670089,136.8880332
45155,"",名駅椿町店,愛知県名古屋市中村区椿町５−１０ CORE meiekiビル 1階,35.1699848,136.8790091
45135,"",名駅２丁目店,愛知県名古屋市西区名駅２丁目２１−１４,35.1763654,136.8809693
47391,"",向日寺戸町店,京都府向日市寺戸町西野辺7番,34.94829,135.6993365
44637,"",君津三直店,千葉県君津市三直５３０−１,35.3139794,139.9337327
45334,"",君津北子安店,千葉県君津市北子安５丁目１−２,35.3321286,139.9168807
44614,"",君津大井戸店,千葉県君津市大井戸９５５−２,35.2923098,139.990093
43752,"",君津笹店,千葉県君津市笹１７６５−１,35.1971381,140.0679555
43739,"",吹上富士見店,埼玉県鴻巣市吹上富士見４丁目３−１,36.0988161,139.4527142
46331,"",吹田佐井寺１丁目店,大阪府吹田市佐井寺１丁目２９−２９,34.786096,135.520272
46974,"",吹田南金田店,大阪府吹田市南金田１丁目１３−９,34.753224,135.508975
46493,"",吹田清水店,大阪府吹田市清水９−９,34.8024191,135.5429984
45410,"",吾妻橋３丁目店,東京都墨田区吾妻橋３丁目１−３,35.7084017,139.8045568
45091,"",和光オリンピック通り店,埼玉県和光市下新倉３丁目２２−４５,35.785925,139.624172
45126,"",和光下新倉店,埼玉県和光市丸山台３丁目１５−１２ ヴェルシェ,35.7827681,139.618457
45834,"",和泉多摩川駅前店,東京都狛江市元和泉１丁目２４−１,35.6288749,139.5742251
47227,"",和泉池田下町店,大阪府和泉市池田下町１４７５−１,34.4774698,135.4580738
46303,"",和田山寺谷店,兵庫県朝来市和田山町寺谷３４０−１,35.346837,134.8437693
46112,"",和田山枚田店,兵庫県朝来市和田山町枚田７６８,35.3248879,134.8525098
46322,"",和田山桑原店,兵庫県朝来市和田山町桑原５２０−１,35.329067,134.868795
45310,"",品川シーサイド店,東京都品川区東品川４丁目１２−１,35.6083507,139.7481003
46021,"",嘉麻大隈店,福岡県嘉麻市大隈町１０５６,33.54837,130.7423194
47020,"",四国中央妻鳥町店,愛媛県四国中央市妻鳥町５４２,33.9927252,133.5683284
47186,"",四国中央金生町店,愛媛県四国中央市金生町下分９８−１,34.0034349,133.5751515
43970,"",四日市中里店,三重県四日市市中里町２８−２,34.9302633,136.6170793
45829,"",四日市和無田町店,三重県四日市市和無田町８０９−２,34.9380701,136.5174055
44555,"",四日市垂坂店,三重県四日市市垂坂町２０２５,35.0074424,136.6221112
44384,"",四日市大井手店,三重県四日市市大井手２丁目４−１７,34.974049,136.591916
43978,"",四日市天カ須賀店,三重県四日市市天カ須賀４丁目３−２,35.014429,136.6712956
44088,"",四日市末永店,三重県四日市市末永１０８４−１,34.9826499,136.6114999
46110,"",四日市水沢町店,三重県四日市市水沢町４０４８−２,34.9707951,136.5038395
45341,"",四日市河原田店,三重県四日市市河原田町１２８６−２,34.9149407,136.6058209
44910,"",四日市泊小柳店,三重県四日市市泊小柳町３−３２,34.9406071,136.6060002
44830,"",四日市浜田町店,三重県四日市市浜田町９−３,34.9640071,136.6211703
44323,"",四日市蒔田２丁目店,三重県四日市市蒔田２丁目１４−６,35.017509,136.649459
45812,"",四日市赤水町店,三重県四日市市赤水町１３７７−２,35.0131568,136.555191
43793,"",四日市高角店,三重県四日市市高角町６９９−１,34.9833654,136.5662253
46650,"",四條畷田原台店,大阪府四條畷市田原台８丁目３−１,34.7186324,135.6874889
45602,"",四街道市大日店,千葉県四街道市大日４６６−４７,35.6779856,140.1618701
46114,"",四街道御成街道店,千葉県四街道市吉岡１８２７−４,35.6296056,140.1858734
45613,"",四街道栗山店,千葉県四街道市栗山９４７−２,35.6778931,140.1738148
45100,"",四街道物井店,千葉県四街道市物井５９０,35.6811805,140.197015
47007,"",四谷３丁目店,東京都新宿区四谷３丁目２−２,35.6882064,139.723014
28748,"",国分寺南町２丁目店,東京都国分寺市南町２丁目１７−１,35.6997854,139.4841003
44406,"",国分寺戸倉店,東京都国分寺市戸倉３丁目４４−８,35.7113197,139.4526678
45147,"",国分寺日吉店,東京都国分寺市日吉町３丁目２−２,35.704491,139.458141
45406,"",国府店,三重県鈴鹿市国府町３６９４−１,34.8532024,136.5070209
46335,"",国立さくら通り店,東京都国立市富士見台２丁目３−６,35.6858422,139.4455516
44345,"",国立府中インター店,東京都国立市泉１丁目６−２,35.675452,139.433948
45783,"",国立谷保店,東京都国立市谷保７丁目２４−２,35.6728737,139.4510763
46728,"",国見あつかしの郷店,福島県伊達郡国見町藤田日渡二１８−１,37.8725091,140.546372
46468,"",園部町宮町店,京都府南丹市園部町宮町西9番地11,35.1098947,135.4712477
51810,"",土呂駅前店,埼玉県さいたま市北区土呂町１丁目１８−６,35.9329216,139.6306979
45072,"",土岐下石町店,岐阜県土岐市下石町２１０１−２,35.3215846,137.2070633
45309,"",土岐口南町店,岐阜県土岐市土岐口南町４丁目３６,35.337824,137.181455
44026,"",土岐泉定林寺店,岐阜県土岐市泉町９６２−５３,35.386432,137.1900284
47022,"",土浦大畑店,茨城県土浦市大畑笠師前８７６－７,36.1252499,140.1917023
45340,"",土浦宍塚店,茨城県土浦市宍塚３１９−４,36.0748445,140.1637876
51794,"",土浦白鳥店,茨城県土浦市白鳥町１０９６−４０,36.1071456,140.2580764
45690,"",土浦神立中央店,茨城県土浦市神立中央５丁目４５３８−３,36.1223505,140.2311099
46776,"",坂出高屋町店,香川県坂出市高屋町１１４３−１,34.3398116,133.9058935
45565,"",坂東逆井店,茨城県坂東市逆井５８８７−６,36.135195,139.856974
44868,"",坂祝町店,岐阜県加茂郡坂祝町黒岩１５１６−７,35.449422,136.976734
45066,"",垂井町店,岐阜県不破郡垂井町宮代１０８８−１５,35.3518307,136.5393928
45355,"",城山原宿南店,神奈川県相模原市緑区原宿南２丁目２−１,35.59584,139.313428
44380,"",埼玉平成高校前店,埼玉県入間郡毛呂山町市場３２３,35.9395197,139.3440591
43956,"",堀切菖蒲園店,東京都葛飾区堀切３丁目６−１,35.7467716,139.8273647
46285,"",堀切８丁目店,東京都葛飾区堀切８丁目２３−２５,35.757662,139.831153
44601,"",堀江４丁目店,千葉県浦安市堀江４丁目３６−５０,35.6594106,139.8910071
45062,"",堀津町店,岐阜県羽島市堀津町１０７９−１,35.2941588,136.6795747
47350,"",堺北野田店,大阪府堺市東区北野田５５２−２,34.5275549,135.5475756
46057,"",堺大庭寺店,大阪府堺市南区大庭寺８６６,34.5006614,135.4885321
46444,"",堺津久野町店,大阪府堺市西区津久野町３丁８−２２,34.5464697,135.4722232
46429,"",堺福田店,大阪府堺市中区福田８６６−１,34.5251609,135.5256938
46321,"",堺美木多上店,大阪府堺市南区美木多上１０２３−１,34.4659876,135.4927592
47246,"",塙大町店,福島県東白川郡塙町塙大町１丁目２１−３,36.957637,140.410134
44347,"",塚田駅前店,千葉県船橋市前貝塚町５６５−１１,35.7222904,139.9827586
47293,"",塩釜玉川店,宮城県塩釜市玉川3丁目8番19号,38.3120398,141.0032561
47358,"",塩釜魚市場前店,宮城県塩釜市新浜町二丁目３−１３,38.331018,141.04049
46230,"",壬生おもちゃのまち店,栃木県下都賀郡壬生町おもちゃのまち３丁目２−１７,36.4627418,139.842728
45882,"",夕陽ヶ丘店加賀徳酒店,大阪府大阪市浪速区下寺２丁目６−２６,34.6589247,135.5105417
46968,"",多久古賀宿店,佐賀県多久市東多久町大字別府３４００−１,33.281187,130.1564787
45844,"",多度津店,香川県仲多度郡多度津町東新町３４６−１,34.279538,133.75451
44869,"",多度町店,三重県桑名市多度町下野代５７４−１,35.1143735,136.6527511
45778,"",多摩センター駅前店,東京都多摩市落合１丁目３９−２ マグレブビル,35.6245591,139.4254642
46061,"",多摩平３丁目店,東京都日野市多摩平３丁目１３−１,35.6628131,139.3765655
43760,"",多摩永山店,東京都多摩市永山３丁目２１−２,35.624273,139.4425136
47264,"",多気町店,三重県多気郡多気町相可１００９−４,34.502956,136.5418142
45104,"",多気相可店,三重県多気郡多気町相可１５０８−１,34.4966923,136.5498407
44824,"",多治見上野町店,岐阜県多治見市上野町５丁目28番地の2,35.3417044,137.1264073
45092,"",多治見旭ヶ丘店,岐阜県多治見市旭ケ丘１０丁目６−２３,35.3665026,137.1150244
45621,"",多治見錦町店,岐阜県多治見市錦町１丁目１５,35.329369,137.125683
46430,"",多賀城城南店,宮城県多賀城市城南１丁目１１−３８,38.2983828,140.9895186
47266,"",多賀城高崎店,宮城県多賀城市高崎１丁目１−３,38.299735,141.0016638
46325,"",夜須四三嶋店,福岡県朝倉郡筑前町四三嶋１６３３−１,33.4312257,130.5856339
45336,"",大井川吉永店,静岡県焼津市吉永１３０４−４,34.7946705,138.2999844
43771,"",大仁神島店,静岡県伊豆の国市中島４０−７,35.0039597,138.9410467
46456,"",大今里西２丁目店,大阪府大阪市東成区大今里西２丁目７−８,34.670306,135.540963
46315,"",大刀洗下高橋店,福岡県三井郡大刀洗町下高橋３４６９−１,33.3933411,130.5913698
51807,"",大刀洗店,福岡県三井郡大刀洗町冨多８３１−１,33.3721751,130.6233604
46674,"",大刀洗本郷店,福岡県三井郡大刀洗町本郷４４０５−１,33.3873375,130.6190689
43762,"",大原店,東京都世田谷区大原２丁目２３−１５,35.6722733,139.660346
43943,"",大口コンコルド店,愛知県丹羽郡大口町上小口３丁目２０３−１,35.3428744,136.9227908
43790,"",大口入江町店,神奈川県横浜市神奈川区入江２丁目１１−４,35.4915837,139.648443
46649,"",大和インター店,宮城県黒川郡大和町まいの１丁目２−７,38.439977,140.905441
46964,"",大和代官２丁目店,神奈川県大和市代官２丁目６−６,35.4406628,139.4582492
44674,"",大和柳橋店,神奈川県大和市柳橋２丁目１５−５,35.4575589,139.4643433
46763,"",大和町小野店,宮城県黒川郡大和町小野前沢１４−３,38.366493,140.859174
45141,"",大和町店,愛知県一宮市大和町妙興寺地蔵恵７８,35.282342,136.805803
46934,"",大和鶴巣店,宮城県黒川郡大和町鶴巣北目大崎南大崎３−１,38.4218163,140.9349106
43998,"",大垣外花店,岐阜県大垣市外花３丁目３５−３,35.3342496,136.6078087
45584,"",大垣池尻町店,岐阜県大垣市池尻町１２２３,35.384963,136.597785
43964,"",大垣波須店,岐阜県大垣市波須２丁目５１−１,35.365692,136.649232
44642,"",大垣綾野店,岐阜県大垣市綾野６丁目１８９−３,35.338276,136.591491
44018,"",大垣羽衣町店,岐阜県大垣市羽衣町５丁目７,35.3573673,136.6298764
44849,"",大垣荒尾町店,岐阜県大垣市荒尾町田畑５１８,35.36811,136.579307
43981,"",大垣青野町店,岐阜県大垣市青野町９５０−１,35.382608,136.556832
43799,"",大宝店,愛知県海部郡飛島村大宝６丁目１−３,35.0907423,136.7755043
44565,"",大宮内野本郷店,埼玉県さいたま市西区内野本郷５６２−１,35.935379,139.5949951
46080,"",大宮南山ノ前店,京都府京都市北区大宮南山ノ前町１,35.0568468,135.741433
44861,"",大宮東口店,埼玉県さいたま市大宮区宮町１丁目５９,35.9078214,139.6251975
44840,"",大宮西口店,埼玉県さいたま市大宮区桜木町２丁目４−１０,35.9062413,139.6210796
45407,"",大宮銀座通り店,埼玉県さいたま市大宮区大門町１丁目９２−１,35.9072167,139.6250457
43730,"",大島１丁目店,東京都江東区大島１丁目３４−１５,35.687789,139.826298
46100,"",大川中古賀店,福岡県大川市中古賀３５０−１,33.229465,130.3874593
51823,"",大川向島店,福岡県大川市大字向島１５５２−４,33.2118736,130.3737377
46926,"",大川市下木佐木店,福岡県大川市下木佐木３６−１,33.2106487,130.4070345
45384,"",大府横根町店,愛知県大府市横根町名高山９５−１,35.0255096,136.9733788
46448,"",大手門３丁目店,福岡県福岡市中央区大手門３丁目４−３,33.5903876,130.3797477
46504,"",大木町横溝店,福岡県三潴郡大木町横溝５０−５,33.224562,130.441114
45624,"",大栄町吉岡店,千葉県成田市吉岡１１２５−１５５,35.8068818,140.4032563
43768,"",大池店,愛知県岡崎市羽根町大池１０４,34.925056,137.172469
45564,"",大河原町金ケ瀬店,宮城県柴田郡大河原町金ケ瀬中川原９４−１,38.0408907,140.7074849
44566,"",大泉学園店,東京都練馬区大泉学園町１丁目３１−８,35.7632797,139.5881716
46438,"",大津唐崎店,滋賀県大津市唐崎１丁目２−２５,35.0469201,135.8730997
46297,"",大津大萱店,滋賀県大津市大萱６丁目５−１,34.9933726,135.9151856
46433,"",大津大門通店,滋賀県大津市大門通１６−５２,35.0142239,135.8579072
46990,"",大津石山寺３丁目店,滋賀県大津市石山寺３丁目２５−１,34.9555183,135.9064901
37347,"",大田中央店,東京都大田区中央４丁目３３−３,35.5789024,139.7183033
45403,"",大田原富士見店,栃木県大田原市富士見１丁目１７６７−１５,36.8514573,140.0204328
45064,"",大胡樋越店,群馬県前橋市樋越町７１９−１,36.4120904,139.1778363
51795,"",大蓮東３丁目店,大阪府東大阪市大蓮東３丁目１３−６,34.6365073,135.5829629
46764,"",大野城仲畑２丁目店,福岡県大野城市仲畑２丁目１３−４２,33.5572119,130.4686952
46483,"",大野城山田店,福岡県大野城市山田１丁目１−３６,33.546737,130.469719
46292,"",大野城御笠川２丁目店,福岡県大野城市御笠川２丁目９−１３,33.5405224,130.4835641
45165,"",大野町稲富店,岐阜県揖斐郡大野町稲富１１２７−１,35.4877184,136.6525811
46755,"",大阪ビジネスパーク店,大阪府大阪市中央区城見１丁目３−７ 松下IMPビル 1F,34.6917948,135.5317962
47017,"",大阪今津北５丁目店,大阪府大阪市鶴見区今津北５丁目１−２２,34.6965065,135.5801883
47355,"",大阪浜２丁目店,大阪府大阪市鶴見区浜２丁目２−５６,34.70785,135.5828778
46507,"",大阪狭山東野店,大阪府大阪狭山市東野西３丁目７００−１,34.523838,135.5572198
46288,"",大阪船場センタービル店,大阪府大阪市中央区船場中央1丁目4番3-B202号,34.6819061,135.5071323
46031,"",大飯運動公園前店,福井県大飯郡おおい町成和２−１−１１２,35.4822703,135.6095427
44660,"",大鳥居駅前店,東京都大田区西糀谷３丁目３７−１３,35.5527037,139.7400052
45874,"",天王町駅前店,神奈川県横浜市保土ケ谷区天王町２丁目４５−８ 伊勢政ビル 1F,35.4537381,139.6028292
46953,"",天理備前町店,奈良県天理市備前町２７−１,34.5734981,135.8177599
44819,"",天白半ノ木店,愛知県名古屋市天白区一本松２丁目１１１２,35.1366627,136.9842287
46692,"",太宰府坂本店,福岡県太宰府市坂本２丁目９−８,33.51654,130.504269
46967,"",太田内ケ島南店,群馬県太田市内ケ島町７１６−１,36.281184,139.3926721
45877,"",太田南矢島町店,群馬県太田市南矢島町６４２−３,36.2598621,139.3810834
44816,"",太田浜町店,群馬県太田市浜町１９−２０,36.2915222,139.3719654
46436,"",太田細谷町店,群馬県太田市細谷町２８１−１,36.2709177,139.3497571
46652,"",太秦一ノ井町店,京都府京都市右京区太秦一ノ井町１,35.0149905,135.709595
47278,"",太秦帷子ノ辻駅前店,京都府京都市右京区太秦帷子ノ辻町２３−１,35.0148015,135.6999716
44835,"",夷隅大原店,千葉県いすみ市大原９２３５,35.2500241,140.3956272
44075,"",夷隅弥正店,千葉県いすみ市弥正１３７−１,35.2855104,140.3063078
46720,"",奈良登美ヶ丘駅前店,奈良県奈良市中登美ヶ丘６丁目３−３,34.7261227,135.7524194
46318,"",奥州水沢真城店,岩手県奥州市水沢真城杉山下３−１,39.1275156,141.1459154
45339,"",奥条店,愛知県常滑市奥条４丁目１０５,34.8832967,136.8483865
43767,"",女子大前店,東京都武蔵野市吉祥寺東町２丁目４５−１４,35.7091602,139.5906629
43954,"",姉ヶ崎迎田店,千葉県市原市迎田４３,35.4670946,140.0448513
43999,"",嬉野ふるさと会館前店,三重県松阪市嬉野権現前町３９０−５,34.6228647,136.4840944
43774,"",季美の森店,千葉県東金市山田１１３３−１２２,35.5609551,140.2948399
47215,"",宇多津町店,香川県綾歌郡宇多津町浜五番丁６７−１,34.3037461,133.8117257
45094,"",宇都宮大学店,栃木県宇都宮市峰町３５０,36.5506961,139.9150005
44919,"",宇都宮大学陽東キャンパス店,栃木県宇都宮市陽東７丁目１−３６,36.5526389,139.9286533
44575,"",宇都宮川俣店,栃木県宇都宮市川俣町５９−２５,36.6059268,139.9164512
44661,"",宇都宮川田町店,栃木県宇都宮市川田町１００１−１,36.5357348,139.8889593
46254,"",宇都宮平松本町南店,栃木県宇都宮市平松本町１１２５−１４,36.5432207,139.9042697
45861,"",宇都宮平松本町店,栃木県宇都宮市平松本町327-6,36.5448581,139.9081859
45396,"",宇都宮御幸本町店,栃木県宇都宮市御幸本町４８８０−８,36.5821237,139.9256492
44319,"",守谷中央店,茨城県守谷市中央１丁目２−１,35.9543406,139.9881204
44061,"",安八氷取店,岐阜県安八郡安八町氷取２３９−１,35.33224,136.667485
44667,"",安城和泉町店,愛知県安城市和泉町庄司作４−２３,34.923101,137.053384
43968,"",安城城ヶ入町店,愛知県安城市城ヶ入町本割１−１,34.901157,137.04853
44054,"",安城新田町店,愛知県安城市新田町宮町５−５,34.9638423,137.0935162
44921,"",安城碧海桜井店,愛知県安城市桜井町桜井6番地15,34.917302,137.089653
44078,"",安城里町店,愛知県安城市里町東山ノ田１２７−１,35.0025088,137.0887406
46736,"",宗像稲元店,福岡県宗像市稲元４丁目２２−５,33.809307,130.5585708
47362,"",宝町駅前店,東京都中央区京橋２丁目１３−１０,35.6753833,139.7721776
45608,"",宝町２丁目店,東京都葛飾区宝町２丁目２２−１７,35.7470747,139.8375601
47238,"",宮城もみじヶ丘１丁目店,宮城県黒川郡大和町大和町もみじケ丘１丁目２５−２,38.3746951,140.8623289
46658,"",宮城亘理店,宮城県亘理郡亘理町逢隈高屋堂田１９７−１,38.0403907,140.8727161
47218,"",宮城柴田剣崎店,宮城県柴田郡柴田町下名生剣水５８,38.0641249,140.8030492
46998,"",宮城田尻店,宮城県大崎市田尻沼部道祖神８３−１,38.6185179,141.0433802
47006,"",宮城築館店,宮城県栗原市築館宮野中央２丁目２−６,38.7464981,141.0175761
47012,"",宮城美里店,宮城県遠田郡美里町新妻の神６９−１,38.5328712,141.0721884
51841,"",宮城船岡中央店,宮城県柴田郡柴田町船岡中央三丁目18番10号,38.0539073,140.7711381
46966,"",宮城高清水店,宮城県栗原市高清水松の木沢田５６−２４,38.6422924,141.0021404
47405,"",宮城鹿島台店,宮城県大崎市鹿島台平渡杉ケ崎３２−２,38.4677245,141.0939598
46648,"",宮若倉久店,福岡県宮若市倉久１９１８,33.7687259,130.638035
47229,"",宮若本城店,福岡県宮若市本城７１３,33.7291771,130.6723322
51800,"",富加町大平賀店,岐阜県加茂郡富加町大平賀２３３,35.4994429,136.9584384
44324,"",富士中島店,静岡県富士市中島１０５−１,35.1663032,138.6494411
44855,"",富士中里店,静岡県富士市中里８８−１,35.1587082,138.7330029
45553,"",富士今泉店,静岡県富士市今泉４丁目５−１１,35.1699255,138.6987371
43979,"",富士厚原店,静岡県富士市厚原字横道下1244-1,35.190581,138.662212
45840,"",富士原田南店,静岡県富士市原田３８９−１３,35.1662407,138.7089358
45379,"",富士宮大岩店,静岡県富士宮市大岩１６７７−７,35.229835,138.640406
45398,"",富士宮宮原店,静岡県富士宮市宮原３３３−１６,35.2517767,138.610115
45789,"",富士宮島店,静岡県富士市宮島１８３−１,35.1419151,138.6491396
45460,"",富士宮市役所前店,静岡県富士宮市弓沢町１９８,35.2234858,138.6215433
44559,"",富士宮杉田店,静岡県富士宮市杉田１０４９−１,35.218925,138.65066
46753,"",富士宮青木店,静岡県富士宮市外神１１７６−１,35.245759,138.5959835
45320,"",富士岩本店,静岡県富士市岩本８１９−１,35.1914597,138.6331768
45561,"",富士岩渕店,静岡県富士市岩淵７７７−２,35.148641,138.621192
44899,"",富士市立中央病院店,静岡県富士市高島町５０,35.1582676,138.6706828
45807,"",富士広見店,静岡県富士市広見本町２−１,35.185459,138.685374
46236,"",富士弥生店,静岡県富士市弥生２３−５,35.1733671,138.6558586
46680,"",富士横割１丁目店,静岡県富士市横割１丁目１９−１３,35.1478,138.650608
44386,"",富士津田町店,静岡県富士市津田町１４６,35.1545609,138.6839285
46991,"",富士田子の浦店,静岡県富士市中丸１６１−１,35.135257,138.679645
46068,"",富士石坂店,静岡県富士市石坂７９−２,35.176036,138.682082
46994,"",富士総合運動公園店,静岡県富士市中野字西三ツ倉４１３番５,35.1980397,138.6815716
45802,"",富士若松町店,静岡県富士市大淵６６−２,35.1891477,138.6925212
46768,"",富士見鶴瀬東店,埼玉県富士見市鶴瀬東１丁目２−２１,35.8477347,139.5404271
46270,"",富士見鶴瀬西店,埼玉県富士見市鶴瀬西２丁目８−３１,35.8456047,139.5343093
45120,"",富士錦町店,静岡県富士市錦町１丁目１２−１８,35.1565271,138.6776251
47394,"",富士青葉町店,静岡県富士市青葉町９５,35.159921,138.661241
45819,"",富津佐貫店,千葉県富津市佐貫２１３−１,35.26181,139.884597
46785,"",富田林須賀店,大阪府富田林市須賀1丁目4番6号,34.4768861,135.5697125
46301,"",富里市両国店,千葉県富里市十倉４８８−１,35.715818,140.3652264
45645,"",富里根木名店,千葉県富里市大和６９６−３,35.7455074,140.3466157
45831,"",富里獅子穴店,千葉県富里市七栄６４６−６５１,35.739101,140.332314
46700,"",寒川倉見店,神奈川県高座郡寒川町倉見７７４−１,35.399631,139.385039
46217,"",寒川石田東店,香川県さぬき市寒川町石田東９１６−１,34.265654,134.205183
46718,"",寝屋川三井南町店,大阪府寝屋川市三井南町１７−５,34.775775,135.635566
45786,"",寝屋川上神田店,大阪府寝屋川市上神田１丁目３０−１１,34.7563407,135.6124953
46981,"",寝屋川中木田町店,大阪府寝屋川市中木田町２−１,34.758569,135.621593
46501,"",寝屋川菅相塚町店,大阪府寝屋川市菅相塚町３−１２,34.784366,135.643741
45298,"",寺島町店,岐阜県各務原市蘇原寺島町２丁目１０１,35.413615,136.86379
47210,"",小倉三郎丸店,福岡県北九州市小倉北区三郎丸３丁目１５−１７,33.8659663,130.8899232
46777,"",小倉徳吉西店,福岡県北九州市小倉南区徳吉西3丁目6番9号,33.8105304,130.8553611
45611,"",小倉朽網東店,福岡県北九州市小倉南区朽網東１丁目４,33.8046855,130.9543495
46682,"",小名浜岡小名店,福島県いわき市小名浜岡小名２丁目４−６,36.9612054,140.9087489
44413,"",小山出井店,栃木県小山市出井８０５−２２,36.333103,139.8435203
44562,"",小山城東２丁目店,栃木県小山市城東２丁目３５−１５,36.3129306,139.8182616
45607,"",小山本郷店,栃木県小山市本郷町２丁目１−１,36.317568,139.802781
46239,"",小山東城南店,栃木県小山市東城南３丁目２１−４,36.2899179,139.8125391
44658,"",小川町南店,埼玉県比企郡小川町小川３５８−１,36.055011,139.2661325
44579,"",小川角山店,埼玉県比企郡小川町角山７７８−３,36.0701123,139.2517014
45637,"",小平たかの街道店,東京都小平市小川町１丁目９７３−１,35.7252743,139.4576839
45743,"",小平小川店,東京都小平市小川町２丁目１８１２−３,35.7308504,139.4782896
46295,"",小村町店,香川県高松市小村町２４０−５,34.2836324,134.0977036
46919,"",小松島町店,徳島県小松島市小松島町新港３１−３,34.0118031,134.5864289
46742,"",小浜伏原店,福井県小浜市伏原２８−１−１,35.4901,135.744166
46915,"",小浜木崎店,福井県小浜市多田９−１,35.4850513,135.7668121
45323,"",小牧原新田店,愛知県小牧市小牧原新田１２５０−３,35.3004252,136.9248113
45127,"",小田原下大井店,神奈川県小田原市下大井４８７−１,35.3153038,139.1611647
45623,"",小田原曽我原店,神奈川県小田原市曽我原５４３−３,35.3049575,139.1863711
45556,"",小田原東インター店,神奈川県小田原市飯泉４８４−１,35.2841714,139.1700693
47415,"",小田原飯泉店,神奈川県小田原市飯泉８５７−１,35.2762031,139.1677246
46470,"",小郡上岩田店,福岡県小郡市上岩田１０９７−２,33.399738,130.580319
46929,"",小郡二森店,福岡県小郡市二森上栄２６６－１,33.378752,130.559523
46672,"",小野インター店,福島県田村郡小野町飯豊坂東内前２３−１,37.2981337,140.6180154
47273,"",小野新町店,福島県田村郡小野町小野新町中通２９−１,37.2795678,140.6316851
43947,"",小金井東町店,東京都小金井市東町４丁目３７−２４,35.6987797,139.5241421
45299,"",小金井梶野町店,東京都小金井市梶野町４丁目１９−２０,35.7084627,139.5253767
46750,"",尼崎口田中店,兵庫県尼崎市口田中１丁目２０−３０,34.755024,135.432714
47189,"",尼崎東難波４丁目店,兵庫県尼崎市東難波町４丁目１７−２２,34.7255457,135.4146566
46954,"",尼崎武庫之荘店,兵庫県尼崎市武庫之荘７丁目１−２７,34.7614218,135.3919864
44810,"",尾島粕川店,群馬県太田市粕川町３２７−９,36.2675764,139.3074848
44328,"",屏風山ＰＡ上り店,岐阜県瑞浪市土岐町３２８２−１５,35.3972688,137.2754376
44584,"",山之手店,愛知県豊田市山之手１丁目９−１,35.0598717,137.1446072
46385,"",山南町村森店,兵庫県丹波市山南町村森７００−１,35.0754734,135.0186453
46509,"",山川町湯立店,徳島県吉野川市山川町湯立２７２−２,34.0572008,134.2316323
45558,"",岐南町三宅店,岐阜県羽島郡岐南町三宅１丁目２２１,35.3956872,136.7900403
45303,"",岐南町徳田店,岐阜県羽島郡岐南町徳田３丁目３０３,35.3833588,136.7741458
45777,"",岐阜ベガビック店,岐阜県岐阜市東鶉１丁目２１−２ ベガス1200岐阜六条店内,35.3875614,136.7427482
45636,"",岐阜一日市場店,岐阜県岐阜市一日市場１丁目１８４−１,35.4227422,136.7152269
43746,"",岐阜下磯店,岐阜県揖斐郡大野町大字下磯字宮前２０４−２,35.430936,136.627309
44015,"",岐阜加納上本町店,岐阜県岐阜市加納上本町４丁目１９−１,35.4052185,136.756584
44643,"",岐阜北野南店,岐阜県岐阜市北野南２７８−１,35.500863,136.830748
44014,"",岐阜城東通店,岐阜県岐阜市城東通５丁目４−１,35.3944683,136.7653639
44286,"",岐阜大学店,岐阜県岐阜市柳戸１−１,35.4625042,136.7362798
45587,"",岐阜大洞団地店,岐阜県岐阜市芥見南山３丁目４−７,35.4569803,136.8625027
43969,"",岐阜敷島町店,岐阜県岐阜市敷島町９丁目１４−１,35.408306,136.730019
45075,"",岐阜東栄町店,岐阜県岐阜市東栄町３丁目２１,35.4143858,136.778696
44831,"",岐阜水海道店,岐阜県岐阜市水海道４丁目２５−５,35.4078682,136.814585
44066,"",岐阜西川手店,岐阜県岐阜市西川手６丁目２１,35.386092,136.763294
47434,"",岐阜西荘店,岐阜県岐阜市西荘３丁目５−１,35.4083939,136.722747
45612,"",岐阜西鏡島店,岐阜県岐阜市鏡島西２丁目１１−１５,35.4085812,136.714413
44027,"",岐阜鷺山店,岐阜県岐阜市下土居３丁目４−５,35.454813,136.753178
44335,"",岡垣百合ヶ丘店,福岡県遠賀郡岡垣町東松原２丁目４−４,33.8459171,130.6268013
83195,"",岡崎コンコルド店,愛知県岡崎市欠町野添１４－１,34.9511749,137.1871743
44367,"",岡崎ダジュール店,愛知県岡崎市上和田町町北天白４３−１,34.9342079,137.1470697
44359,"",岡崎下和田店,愛知県岡崎市下和田町神宮司１９−１,34.9079952,137.1441756
43749,"",岡崎伝馬通店,愛知県岡崎市伝馬通２丁目３６,34.9582982,137.1693663
43777,"",岡崎大門店,愛知県岡崎市大門５丁目８−１７,34.985216,137.155092
44051,"",岡崎小呂町店,愛知県岡崎市小呂町マヤシリ−２５−８,34.9660427,137.1876858
44636,"",岡崎洞町店,愛知県岡崎市洞町宮ノ腰２１−４,34.9455186,137.2016606
47216,"",岡崎牧平町店,愛知県岡崎市牧平町荒井野３１−１,34.9148874,137.2850591
43959,"",岡崎矢作南店,愛知県岡崎市大和町荒田３７−１,34.9497559,137.1308972
44298,"",岡崎美合町店,愛知県岡崎市美合町地蔵野４−３,34.9172189,137.1942767
44602,"",岡部榛沢店,埼玉県深谷市榛沢新田１１６１−１,36.203828,139.22144
44381,"",岩本町２丁目店,東京都千代田区岩本町２丁目６−１０,35.6935687,139.7765996
45297,"",岩槻徳力店,埼玉県さいたま市岩槻区徳力７１７−５,35.973202,139.719587
44315,"",岩瀬羽黒駅入口店,茨城県桜川市友部字関田９７３−１,36.3576183,140.1441393
46772,"",岸和田包近町店,大阪府岸和田市包近町１５８−１,34.447054,135.43609
46665,"",岸和田摩湯町店,大阪府岸和田市摩湯町３３１−１,34.4625132,135.4298375
46313,"",岸和田星和台店,大阪府岸和田市上松町４５７−１,34.4442655,135.3988639
45374,"",島田中央店,静岡県島田市新町通５−５,34.830973,138.177571
46079,"",島田野田店,静岡県島田市野田１０４７−１,34.848984,138.18319
45376,"",嵐山川島店,埼玉県比企郡嵐山町大字川島１６０３−１,36.0481239,139.3299665
46222,"",嵐山駅前店,京都府京都市西京区嵐山西一川町８−１,35.0102423,135.6811465
45154,"",川井町店,愛知県岩倉市川井町二千町２８,35.2672024,136.8653589
51827,"",川俣大清水店,福島県伊達郡川俣町大清水４−１,37.6647146,140.6103201
44318,"",川口上青木店,埼玉県川口市上青木１丁目５−１４,35.8232525,139.7174541
47435,"",川口新堀店,埼玉県川口市新堀町１０−２４,35.8258972,139.781656
45108,"",川口江戸店,埼玉県川口市江戸２丁目１６−２２,35.819227,139.75053
45070,"",川口西立野店,埼玉県川口市西立野８０５−２,35.8590473,139.7453816
44876,"",川口赤井店,埼玉県川口市赤井１丁目１５−２５,35.8252945,139.7470515
45293,"",川口長蔵店,埼玉県川口市長蔵２丁目１５−１２,35.8595214,139.7579944
45401,"",川合大橋店,岐阜県可児市川合北１丁目５,35.4435796,137.0568
44923,"",川崎ドラゴン店,神奈川県川崎市宮前区犬蔵３丁目７−１,35.5895075,139.5560526
46218,"",川崎井田店,神奈川県川崎市中原区井田中ノ町３０−１２,35.5636053,139.6458141
43734,"",川崎大師前店,神奈川県川崎市川崎区大師本町１−１５,35.535283,139.729132
45095,"",川崎旭町店,神奈川県川崎市川崎区旭町２丁目１−１,35.5308873,139.7144905
51813,"",川田４丁目店,大阪府東大阪市川田４丁目６−２２,34.6880926,135.629612
46485,"",川西西多田店,兵庫県兵庫県川西市西多田2丁目2番8号,34.8535547,135.4060618
46327,"",川西見野２丁目店,兵庫県川西市見野２丁目１９−１７,34.8915869,135.4085246
45627,"",川越上戸店,埼玉県川越市上戸２５３−１,35.929701,139.447791
45119,"",川越石田店,埼玉県川越市石田１６２−１,35.9415223,139.4866784
44398,"",川間駅前店,千葉県野田市尾崎８４０−３,35.9793055,139.8337301
43974,"",巣南町店,岐阜県瑞穂市古橋１８９−４,35.3947137,136.650213
45301,"",市原今津朝山店,千葉県市原市今津朝山３２５−５,35.4914819,140.0463848
45313,"",市原君塚店,千葉県市原市君塚５丁目２６−２３,35.5228778,140.098592
44839,"",市原桜台店,千葉県市原市椎津２７４０−１,35.4428893,140.0443935
46237,"",市原潤井戸店,千葉県市原市潤井戸６０４−４,35.5144477,140.178943
44304,"",市原犬成店,千葉県市原市犬成１０６１,35.477472,140.191991
47223,"",市原田尾店,千葉県市原市田尾２７８−１,35.365171,140.18508
43795,"",市原白塚店,千葉県市原市千種３丁目５−１,35.4924002,140.0610029
44004,"",市原能満店,千葉県市原市能満３４６−１,35.5208593,140.137135
46220,"",市島町上竹田店,兵庫県丹波市市島町上竹田１１２２−１,35.2290992,135.1291363
44595,"",市川富浜店,千葉県市川市富浜２丁目１７−８,35.6871997,139.9241024
45433,"",市川東高校前店,千葉県市川市北方町４丁目２１５９−１,35.7355837,139.9576774
44888,"",市川若宮店,千葉県市川市若宮３丁目５４−４,35.7260048,139.9516861
45145,"",市立半田病院店,愛知県半田市東洋町２丁目２９,34.8921601,136.9397628
46076,"",帝塚山６丁目店,奈良県奈良市帝塚山６丁目１−９ 帝塚山センチュリーアネックス 1F,34.686609,135.7289716
45609,"",常滑インター店,愛知県常滑市飛香台１丁目３−６,34.89652,136.847497
46023,"",常総杉山店,茨城県常総市杉山１８３３−１,36.1173211,139.9514656
44654,"",常陸大宮栄町店,茨城県常陸大宮市栄町１２９８−１１,36.537579,140.421898
45809,"",幕張スカイウェイ店,千葉県千葉市美浜区ひび野２−４,35.6478381,140.040425
45545,"",幕張ベイパーク店,千葉県千葉市美浜区若葉３丁目１−３５,35.646089,140.0512886
45388,"",平和島店,東京都大田区大森北６丁目２５−１５ 協和ビル,35.5785472,139.7318842
46716,"",平塚中原２丁目店,神奈川県平塚市中原２丁目６−６１,35.3485177,139.3362468
43751,"",平塚南原店,神奈川県平塚市南原２丁目１−２０,35.338679,139.329845
46252,"",平塚御殿店,神奈川県平塚市御殿１丁目２６−２９,35.3420881,139.3294163
47258,"",平泉正法店,岩手県西磐井郡平泉町平泉正法１−１,38.9633842,141.125157
45795,"",平野瓜破西店,大阪府大阪市平野区瓜破西２丁目８−４,34.6035245,135.5455339
46317,"",平野町３丁目店,大阪府大阪市中央区平野町３丁目１−２,34.6878412,135.5035365
46278,"",平野長吉川辺店,大阪府大阪市平野区長吉川辺３丁目４−８０,34.5972163,135.5791594
44379,"",幸手下川崎店,埼玉県幸手市下川崎１４−５,36.0868398,139.7040566
44626,"",幸田大草店,愛知県額田郡幸田町大草赤石２４−１,34.8747179,137.1769378
44858,"",幸田深溝店,愛知県額田郡幸田町深溝西金ヶ崎１８−１,34.843772,137.167493
44901,"",広台太田店,神奈川県横浜市神奈川区広台太田町５−１,35.4780637,139.6286425
44342,"",広尾１丁目店,東京都渋谷区広尾１丁目１４−１５,35.6481585,139.7149229
46265,"",広川日吉店,福岡県八女郡広川町日吉７９１−３,33.2566279,130.5516999
46958,"",広陵町みささぎ台店,奈良県北葛城郡広陵町みささぎ台５−５０,34.5334028,135.7364846
46474,"",庄内有安店,福岡県飯塚市有安１０１６,33.6433629,130.7248842
44668,"",庄和町米崎店,埼玉県春日部市米崎２６９−２,35.9740942,139.8057022
44617,"",府中四谷店,東京都府中市四谷５丁目１０−１２,35.6653857,139.4418287
46754,"",府中天神町２丁目店,東京都府中市天神町２丁目２３−１,35.68123,139.4929499
44596,"",府中宮町店,東京都府中市宮町１丁目２７−１,35.6701748,139.4826423
44080,"",府中是政店,東京都府中市是政２丁目３−１５,35.6588509,139.4919225
44539,"",府中西原町店,東京都府中市西原町２丁目１−６１,35.6804682,139.4586936
44885,"",座間座架依橋店,神奈川県座間市座間１丁目２９９２,35.4868931,139.3905136
46276,"",弘前土手町店,青森県弘前市土手町３８,40.6025417,140.4723628
46447,"",弘前高田店,青森県弘前市高田１丁目７,40.600225,140.4998286
29239,"",御堂筋本町店,大阪府大阪市中央区安土町３丁目４−１０,34.684591,135.501767
44321,"",御嵩古屋敷店,岐阜県可児郡御嵩町古屋敷７５０−２,35.429592,137.112267
46290,"",御殿場はぎわら店,静岡県御殿場市萩原５７６−３,35.3068476,138.9295411
44644,"",御殿場新橋店,静岡県御殿場市新橋８４２−２,35.2947902,138.9421013
45414,"",御殿場東山店,静岡県御殿場市東山４６２−３,35.2938641,138.9557281
45875,"",御領１丁目店,大阪府大東市御領１丁目４−２０２−１,34.7198658,135.615265
51818,"",徳島北沖洲店,徳島県徳島市北沖洲３丁目６−３５,34.0670091,134.5904641
46732,"",徳島南二軒屋町店,徳島県徳島市南二軒屋町１丁目１−８,34.0538727,134.5459437
47375,"",徳島川内町富吉店,徳島県徳島市川内町富吉２３６−１,34.099608,134.584733
46499,"",徳島川内町榎瀬店,徳島県徳島市川内町榎瀬７２０−８,34.1051125,134.5552329
46756,"",徳島応神店,徳島県徳島市応神町西貞方字仁徳169番1,34.1174,134.5062686
46653,"",徳島末広店,徳島県徳島市末広２丁目１−３９−１,34.0657479,134.5755615
46927,"",徳島竜王店,徳島県徳島市国府町６−２０,34.0920265,134.4532372
46293,"",志免東３丁目店,福岡県糟屋郡志免町志免東３丁目１−１,33.582453,130.489636
46246,"",志木市中宗岡１丁目店,埼玉県志木市中宗岡１丁目５−２１,35.8388683,139.5833561
47177,"",志村坂上駅前店,東京都板橋区板橋区志村１丁目１４−１４,35.7760229,139.6948089
44618,"",志茂駅前店,東京都北区志茂３丁目１４−１ カザルススクエア 1F,35.7776417,139.7330491
46996,"",愛宕１丁目店,東京都港区愛宕１丁目３−４,35.665891,139.749308
44036,"",愛知大学店,愛知県名古屋市中村区平池町４丁目６０−６,35.1614619,136.8843051
44649,"",成城通店,東京都世田谷区上祖師谷４丁目６−７,35.6538746,139.5965036
44838,"",成田吉倉店,千葉県成田市吉倉２８０,35.7833163,140.3326318
44313,"",成田土屋店,千葉県成田市土屋５９８−４,35.7933256,140.3200871
45151,"",成田玉造店,千葉県成田市玉造７丁目２２−２,35.7929172,140.2900048
46106,"",成田空港第１ターミナル店,千葉県成田市三里塚御料牧場１－１,35.7518342,140.3943618
45338,"",成田赤十字病院店,千葉県成田市飯田町９０−１ 成田赤十字病院内,35.765184,140.3039356
45315,"",我孫子古戸店,千葉県我孫子市古戸１７７−２３,35.8673293,140.0893425
46730,"",戸田笹目４丁目店,埼玉県戸田市笹目４丁目２１−１,35.8203159,139.6472473
46723,"",戸畑天籟寺店,福岡県北九州市戸畑区天籟寺１丁目４−１５,33.889539,130.834738
45331,"",戸越駅前店,東京都品川区平塚１丁目７−６,35.615152,139.716307
46908,"",所沢三ケ島３丁目店,埼玉県所沢市三ケ島３丁目８８７−２,35.7901057,139.4095554
45836,"",所沢上新井店,埼玉県所沢市上新井２丁目６１−７,35.7941967,139.4443592
44331,"",所沢糀谷店,埼玉県所沢市糀谷１７６７−１,35.790824,139.389238
44599,"",所沢美原町店,埼玉県所沢市美原町１丁目２９１２−１,35.808244,139.4612336
46227,"",折爪ＳＡ上り店,岩手県九戸郡軽米町山内第４地割１１１−６２−１,40.2972854,141.4239553
46273,"",折爪ＳＡ下り店,岩手県九戸郡軽米町大字山内第４地割１１１−６２−２,40.2971219,141.4220352
44069,"",指扇店,埼玉県さいたま市西区指扇４２４−１,35.9124596,139.5808107
44320,"",掛川下俣南店,静岡県掛川市下俣南３丁目１−５,34.7621076,137.9998612
44042,"",掛川城西店,静岡県掛川市城西１丁目５−１０,34.774841,138.0080809
44598,"",掛川大渕店,静岡県掛川市大渕３６５４−１,34.6636577,138.0162781
44278,"",掛川宮脇店,静岡県掛川市宮脇２丁目１１−２８,34.781182,138.027721
47412,"",摂津鳥飼本町店,大阪府摂津市鳥飼本町５丁目９−９,34.7756182,135.5775626
46062,"",敦賀古田刈店,福井県敦賀市古田刈１丁目３−４,35.632391,136.0691942
46446,"",敦賀金山店,福井県敦賀市金山７８−１２−１,35.628291,136.0486794
43980,"",新利根中山店,茨城県稲敷市中山１９６９,35.9103022,140.2806807
46024,"",新前橋南店,群馬県前橋市古市町１丁目６２−４,36.3730181,139.0500766
46042,"",新取手店,茨城県取手市寺田４７１８−１５,35.9170514,140.0423906
44306,"",新大久保駅東口店,東京都新宿区大久保２丁目３２−４,35.7014037,139.7023776
43958,"",新大塚店,東京都文京区大塚６丁目１０−６,35.7261529,139.7267588
46686,"",新宮下府店,福岡県糟屋郡新宮町夜臼５丁目１−２７,33.698691,130.446705
45808,"",新宿大京町店,東京都新宿区大京町２４,35.6855227,139.7161348
44279,"",新宿左門町店,東京都新宿区左門町２０,35.6853623,139.7202757
44550,"",新宿歌舞伎町店,東京都新宿区歌舞伎町２丁目２２−１ ホテルシェーナ,35.6959892,139.7042937
46324,"",新宿花園通り店,東京都新宿区新宿１丁目３０−１６ ルネ新宿御苑タワ 1階,35.6899462,139.7132608
45850,"",新小岩４丁目店,東京都葛飾区新小岩４丁目３３−１１,35.7199188,139.8670471
46984,"",新居浜喜光地町店,愛媛県新居浜市喜光地町１丁目４−３０,33.9334563,133.2982684
47340,"",新居浜松原町店,愛媛県新居浜市松原町１−３１,33.9424397,133.2977201
43800,"",新川崎店,神奈川県川崎市幸区北加瀬１丁目３３−１０,35.5492181,139.6699809
44640,"",新川１丁目店,東京都中央区新川１丁目２５−１２,35.6762175,139.7847066
45321,"",新座新堀店,埼玉県新座市新堀１丁目１３−２,35.77068,139.532698
43967,"",新座栗原店,埼玉県新座市栗原５丁目８−８,35.7563442,139.5487915
43952,"",新栄町店,神奈川県茅ヶ崎市新栄町１３−３ ヴァンティアン茅ヶ崎,35.3315731,139.4039917
45393,"",新横浜１丁目店,神奈川県横浜市港北区新横浜１丁目２３−６,35.5038886,139.6093242
44338,"",新橋１丁目店,東京都港区新橋１丁目１８−１,35.669047,139.755425
45128,"",新水戸駅前通り店,茨城県水戸市元吉田町字一本松315-27,36.3545833,140.4727434
43985,"",新狭山店,埼玉県狭山市新狭山３丁目１１−２,35.8729502,139.4328332
45138,"",新田上田中町店,群馬県太田市新田上田中町６０１−１,36.3025602,139.2774196
46735,"",新白岡駅東口店,埼玉県白岡市新白岡４丁目９−１,36.038567,139.6738233
46654,"",新船橋駅店,千葉県船橋市山手１丁目３−２,35.7111101,139.9798007
46661,"",新飯塚店,福岡県飯塚市新飯塚２１−２４,33.6446637,130.6894636
46240,"",日吉台２丁目店,千葉県富里市日吉台２丁目２０−９,35.769802,140.321046
46425,"",日本大学三島店,静岡県三島市文教町１丁目９−１８,35.1276077,138.911392
47341,"",日本大学商学部店,東京都世田谷区砧５丁目２−１,35.635567,139.609302
45658,"",日本大学松戸歯学部売店,千葉県松戸市栄町西２丁目８７０−１,35.8089789,139.8995964
46077,"",日本平ＰＡ下り店,静岡県静岡市駿河区国吉田 字西原坪,34.9852974,138.435734
45318,"",日本橋本石町店,東京都中央区日本橋本石町３丁目２−４,35.6875959,139.7705021
44912,"",日本橋蛎殻町店,東京都中央区日本橋蛎殻町１丁目２８−５,35.6830108,139.783231
44590,"",日本橋馬喰町２丁目店,東京都中央区日本橋馬喰町２丁目２−６,35.6953634,139.7827247
46274,"",日田下井手町店,大分県日田市下井手町６１,33.3050014,130.948299
47292,"",日田光岡店,大分県日田市友田１３５６−１,33.3288627,130.9197239
51772,"",日田本庄町店,大分県日田市本庄町４−９,33.319187,130.9320063
46930,"",日立多賀町１丁目店,茨城県日立市多賀町１丁目８−３２,36.5547203,140.6341334
45780,"",日立東滑川４丁目店,茨城県日立市東滑川町４丁目１９−１０,36.6228603,140.6756367
44852,"",日立水木町店,茨城県日立市水木町２丁目４１−６,36.5158895,140.6255374
45803,"",日立諏訪店,茨城県日立市諏訪町１丁目２−２０,36.5654847,140.63593
44372,"",日進折戸町店,愛知県日進市折戸町孫三ケ入８４−３,35.1203373,137.0436747
44303,"",日野栄町店,東京都日野市栄町１丁目２−３,35.6810974,139.3926877
46102,"",日高久田谷店,兵庫県豊岡市日高町久田谷５８,35.4641578,134.7439002
46037,"",日高南平沢店,埼玉県日高市南平沢２１１−１,35.903091,139.3339787
46453,"",日高西芝店,兵庫県豊岡市日高町池上２２４−１,35.4938413,134.8005875
46093,"",旭江ヶ崎店,千葉県旭市江ケ崎１５７５,35.734754,140.645335
44281,"",明和金剛坂店,三重県多気郡明和町金剛坂７７６−１,34.5322077,136.6055059
44886,"",明和馬之上店,三重県多気郡明和町馬之上９４８−４,34.5487879,136.6277267
46472,"",明石ゆりのき通店,兵庫県明石市大久保町ゆりのき通２丁目４−２,34.6814371,134.935423
47013,"",明石二見町店,兵庫県明石市二見町西二見１３２７−１,34.7034145,134.8746823
53000,"",明石大久保町店,兵庫県明石市大久保町３丁目１１−１１,34.6931655,134.9353499
45589,"",明石清水店,兵庫県明石市魚住町清水２０５９−２,34.7160046,134.8984147
46911,"",明石魚住町店,兵庫県明石市魚住町清水４６３−２,34.7055654,134.9092267
45548,"",明石鷹匠町店,兵庫県明石市鷹匠町２−２４,34.6551538,134.9889778
45577,"",星川駅北口店,神奈川県横浜市保土ケ谷区川辺町６−３,35.4598947,139.5948372
43775,"",春日井下原町店,愛知県春日井市下原町２１６９−４,35.2741887,136.9863544
45150,"",春日井勝川店,愛知県春日井市松新町４丁目８−５,35.2312267,136.9591776
45101,"",春日井大手町店,愛知県春日井市大手町１丁目１７６,35.265327,136.956818
47245,"",春日井西本町店,愛知県春日井市西本町３丁目１３１,35.2362647,136.9330423
46727,"",春日大和町店,福岡県春日市大和町３丁目２７,33.5357584,130.4593494
44860,"",春日部前田店,埼玉県春日部市小渕３８０−１,35.99309,139.75494
46085,"",春日部医療センター店,埼玉県春日部市中央６丁目７−１,35.9747634,139.7511403
46260,"",春日部増戸店,埼玉県春日部市増戸８７１−１,35.9584975,139.72937
46074,"",春日部大枝店,埼玉県春日部市大枝４９８−２,35.9422604,139.7760775
46103,"",春日部藤の花店,埼玉県春日部市牛島９６６−６,35.986684,139.775428
45071,"",春日部豊春店,埼玉県春日部市上蛭田４３９−１３,35.9680111,139.730359
47366,"",春日ＰＡ上り店,宮城県宮城郡利府町春日筆沢５−３,38.3484785,141.0092627
47426,"",春日ＰＡ下り店,宮城県宮城郡利府町春日二ツ石３９−８,38.3500033,141.0091774
45087,"",昭島緑町３丁目店,東京都昭島市緑町３丁目４−１７,35.706622,139.349118
46423,"",月隈店,福岡県福岡市博多区浦田１丁目２−２０,33.5780547,130.4746688
45560,"",朝倉インター店,福岡県朝倉市多々連４１１−１,33.377418,130.721637
45417,"",朝明店,三重県四日市市朝明町５０８−１,35.0414968,136.5876596
46039,"",木更津中里１丁目店,千葉県木更津市中里１丁目８−１,35.3944871,139.9196981
44568,"",木更津富士見店,千葉県木更津市富士見３丁目１−７,35.3806526,139.9180575
45642,"",木更津小浜店,千葉県木更津市小浜１２−５,35.3593814,139.9134643
46096,"",木更津文京店,千葉県木更津市文京３丁目１−２５,35.3754837,139.9344807
43738,"",木更津朝日店,千葉県木更津市朝日２丁目７−２１,35.386376,139.93332
45081,"",木更津潮見店,千葉県木更津市潮見４丁目１３−１,35.3699214,139.9153039
44639,"",木更津畑沢南店,千葉県木更津市畑沢南４丁目１−１８,35.3401132,139.9062041
45800,"",木更津羽鳥野店,千葉県木更津市羽鳥野２丁目１−１,35.3459953,139.9453128
47259,"",木更津請西南店,千葉県木更津市請西南３丁目１−１,35.357966,139.942341
45629,"",木更津請西３丁目店,千葉県木更津市請西３丁目１０−９,35.3732861,139.9529431
47411,"",木更津金田インター店,千葉県木更津市中島１５４０,35.4341674,139.9231537
45325,"",木曽川町外割田店,愛知県一宮市木曽川町外割田字前堀田３６,35.337081,136.771283
46022,"",本宮市本宮店,福島県本宮市本宮欠下４−１,37.5213723,140.3907359
47295,"",本宮高木店,福島県本宮市高木平内５−１,37.5154325,140.4080613
44062,"",本巣軽海店,岐阜県本巣市軽海１３２３−１,35.427441,136.662352
45133,"",本庄若泉店,埼玉県本庄市若泉１丁目１１−２３,36.2454938,139.1894916
45385,"",本野町店,愛知県豊川市本野町北貝津３６,34.8388831,137.3801723
44277,"",杉並和泉町店,東京都杉並区和泉２丁目２１−３６,35.6724674,139.6514138
44572,"",杉並和田店,東京都杉並区和田１丁目１０−１２,35.688703,139.661609
45131,"",杉並成田西店,東京都杉並区成田西３丁目２−７,35.6919044,139.632648
45860,"",杉並消防署前店,東京都杉並区成田東５丁目３５−１４,35.7000721,139.6332837
45394,"",杉戸高野台東店,埼玉県北葛飾郡杉戸町大字茨島７５４−１,36.0519876,139.7171544
47436,"",村田沼辺店,宮城県柴田郡村田町沼辺二丁町２６−１,38.0815732,140.7316498
51793,"",東三国店,大阪府大阪市淀川区東三国５丁目４−１,34.7430391,135.4975445
44368,"",東上野２丁目店,東京都台東区東上野２丁目１−１１,35.7092891,139.782176
45631,"",東上野６丁目店,東京都台東区東上野６丁目２−１,35.7113079,139.7837643
46257,"",東久留米前沢店,東京都東久留米市前沢１丁目９−２０,35.7457048,139.5156598
46913,"",東久留米柳新田通店,東京都東久留米市前沢３丁目１５−１５,35.739355,139.519043
46275,"",東予周布店,愛媛県西条市周布１０４８,33.9113719,133.0848603
51804,"",東仙台駅前店,宮城県仙台市宮城野区東仙台２丁目１５−１１,38.2768739,140.9193927
46973,"",東北電力前店,宮城県仙台市青葉区本町１丁目１２−１２ ＧＭビルディング 1F,38.266349,140.8783658
43991,"",東十条店,東京都北区東十条１丁目１１−４,35.7615353,139.731402
45579,"",東向島５丁目店,東京都墨田区東向島５丁目１８−１,35.7257351,139.8216529
45785,"",東和２丁目店,東京都足立区東和２丁目２−１,35.766406,139.841716
45326,"",東四つ木店,東京都葛飾区東四つ木４丁目４７−６,35.7339586,139.8427016
44589,"",東大和仲原１丁目店,東京都東大和市仲原１丁目８−７,35.742889,139.443072
46266,"",東大和芋窪店,東京都東大和市芋窪３丁目１５８２−１,35.7514591,139.4153905
46975,"",東大阪宝持店,大阪府東大阪市宝持３丁目２−２２,34.6548495,135.5897555
46307,"",東大阪若江北町店,大阪府東大阪市若江北町３丁目５−１５,34.6549291,135.602337
44404,"",東山２丁目店,東京都目黒区東山２丁目２０−１１,35.6457574,139.6873207
46075,"",東川口３丁目店,埼玉県川口市東川口３丁目２−１,35.8769341,139.743667
44073,"",東日本橋３丁目店,東京都中央区東日本橋３丁目７−１,35.6908841,139.7843025
45619,"",東村山野口町店,東京都東村山市野口町１丁目２４−３１,35.7584134,139.4645588
45140,"",東松山上野本店,埼玉県東松山市上野本１８７１−２,36.027375,139.405162
45851,"",東松山六反町店,埼玉県東松山市六反町１５−１０,36.035344,139.417015
47390,"",東松島鳴瀬店,宮城県東松島市牛網新下西５７,38.396465,141.169978
46801,"",東松戸駅東口店,千葉県松戸市東松戸１丁目２−１６,35.7715676,139.9454952
45557,"",東橋本２丁目店,神奈川県相模原市緑区東橋本２丁目２３−１６,35.5953892,139.3549926
45074,"",東浦和店,埼玉県さいたま市緑区大間木１６０２−１,35.860735,139.707471
44814,"",東海二軒茶屋店,茨城県那珂郡東海村大字舟石川字往還西８６６−１０,36.4764281,140.5531429
43973,"",東海大橋店,愛知県愛西市藤ケ瀬町西沼1 7,35.225783,136.690128
45798,"",東海船場店,茨城県那珂郡東海村船場５８３−１,36.4483639,140.5465279
45865,"",東淀川豊里４丁目店,大阪府大阪市東淀川区豊里４丁目１１−１９,34.7401416,135.5418012
46427,"",東福間店,福岡県福津市津丸１２００−２,33.7723868,130.506274
46668,"",東習志野５丁目店,千葉県習志野市東習志野５丁目３０−３,35.695125,140.0795414
46047,"",東舞鶴インター店,京都府舞鶴市堂奥３０３−１４,35.4633696,135.4102003
46729,"",東舞鶴三本木店,京都府舞鶴市森１４６−９,35.4604771,135.3784207
47353,"",東舞鶴勘尻店,京都府舞鶴市森町２１５,35.4601502,135.3818175
46945,"",東舞鶴鹿原店,京都府舞鶴市鹿原１３−１,35.4812118,135.4349485
44897,"",東菅野２丁目店,千葉県市川市東菅野２丁目１３−２１,35.73314,139.92844
51768,"",東越谷３丁目店,埼玉県越谷市東越谷３丁目３−２０,35.892448,139.798362
45793,"",東郷諸輪店,愛知県愛知郡東郷町諸輪中木戸西１７０−６,35.1098619,137.0719146
46440,"",東金北之幸谷店,千葉県東金市不動堂飛地８６７−１２,35.5521081,140.3869231
43783,"",東阿知和町店,愛知県岡崎市東阿知和町屋下１０２−２,34.9890991,137.1806184
46479,"",松島団地店,青森県五所川原市大字漆川袖掛１５９−６,40.8094252,140.4603706
45830,"",松戸千駄堀店,千葉県松戸市千駄堀１６０５,35.7997026,139.9267663
45352,"",松戸小金原店,千葉県松戸市小金原５丁目２９−２,35.8197887,139.9435741
45328,"",松戸市大橋店,千葉県松戸市大橋１１２４−１,35.7710275,139.919768
44961,"",松戸金ヶ作店,千葉県松戸市金ヶ作９５−１３,35.804453,139.947034
46769,"",松戸駅前店,千葉県松戸市根本４６５−１,35.7856137,139.9024315
45332,"",松本町３丁目店,神奈川県横浜市神奈川区松本町３丁目２４−１,35.4759158,139.622582
44546,"",松阪インター店,三重県松阪市伊勢寺町５７９−２５,34.5790417,136.4783217
43784,"",松阪上ノ庄店,三重県松阪市上ノ庄町２１５２−１,34.5984028,136.4974646
43798,"",松阪丹生寺町店,三重県松阪市丹生寺町１５８６,34.5457588,136.4870613
47403,"",松阪松ヶ崎駅前店,三重県松阪市塚本町１５０−１,34.5965641,136.5197202
45616,"",板橋トラックターミナル店,東京都板橋区高島平６丁目１,35.7952075,139.6464961
51801,"",板橋中丸店,東京都板橋区中丸町１１−２,35.7396384,139.7051314
45144,"",板橋区役所前店,東京都板橋区板橋３丁目９−７,35.7517411,139.7101581
45622,"",板橋四葉店,東京都板橋区四葉２丁目７−１０,35.7802406,139.6504998
46060,"",板橋日大病院前店,東京都板橋区板橋区大谷口上町２５−１,35.7489972,139.6942252
43996,"",板橋本町駅前店,東京都板橋区大和町１７−８,35.76138,139.704669
47234,"",枚方ベガビック店,大阪府枚方市招提大谷２丁目２５−１,34.8311074,135.6977032
46710,"",枚方出口６丁目店,大阪府枚方市出口６丁目１０−３０,34.791406,135.6179679
46424,"",枚方村野高見台店,大阪府枚方市村野高見台10番3号,34.807834,135.674971
46916,"",柏しこだ店,千葉県柏市篠籠田１３７４−１,35.8693263,139.9494838
37357,"",柏マルイ店,千葉県柏市柏１丁目１−１１,35.8617637,139.9711446
44538,"",柏増尾店,千葉県柏市増尾１０２５−１,35.8325222,139.9881899
45886,"",柏大井店,千葉県柏市大井９０,35.8462313,139.9926037
45090,"",柏手賀の杜入口店,千葉県柏市若白毛１２６１−３,35.841831,140.015823
46073,"",柏明原２丁目店,千葉県柏市明原２丁目９−３８,35.8682278,139.9659658
44300,"",柏逆井店,千葉県柏市逆井１３００−３,35.8125633,139.976413
45416,"",柏酒井根店,千葉県柏市酒井根２丁目３７−７,35.8207096,139.9717748
46233,"",柏里２丁目店,大阪府大阪市西淀川区柏里２丁目１２−３,34.7089758,135.4654434
46699,"",柳川三橋店,福岡県柳川市三橋町棚町４９６−５,33.1522968,130.448461
51832,"",柴田東船迫店,宮城県柴田郡柴田町東船迫２丁目１−２,38.0676944,140.7837255
46312,"",栃木インター店,栃木県栃木市吹上町字中井ノ内１１８６－１,36.4102939,139.7073448
46041,"",桂川寿命店,福岡県嘉穂郡桂川町寿命６２番１,33.5904421,130.6734115
45093,"",桑原町店,岐阜県羽島市桑原町八神２６９４−１,35.2699055,136.6800769
44607,"",桑名はりま店,三重県桑名市播磨３１６６,35.082995,136.6580082
44903,"",桑名インター店,三重県桑名市蓮花寺１５９８−１,35.0674421,136.6482423
44317,"",桑名多度柚井店,三重県桑名市多度町柚井２０５,35.1413793,136.6460622
44825,"",桑名星見ヶ丘店,三重県桑名市星見ヶ丘３丁目１０３,35.077024,136.631643
46935,"",桜井三輪店,奈良県桜井市三輪１３５,34.5250405,135.8433844
46952,"",桜井大福店,奈良県桜井市大福９１９−１,34.5193768,135.8242948
44633,"",桜台本町店,三重県四日市市桜台本町２９,34.9901702,136.5385376
43802,"",桝塚店,愛知県岡崎市北野町二番訳１０３−１,34.9978114,137.1388347
46051,"",桶川小針領家店,埼玉県桶川市小針領家２−１,36.0097848,139.5814563
43944,"",業平橋店,東京都墨田区押上２丁目２−１,35.7112065,139.8095303
45630,"",横浜入管店,神奈川県横浜市金沢区鳥浜町１０−７,35.387821,139.64865
46747,"",横浜市大センター病院店,神奈川県横浜市南区浦舟町4丁目57番地 横浜市大,35.4340738,139.6249149
45302,"",横浜戸塚下郷店,神奈川県横浜市戸塚区戸塚町１５５２−１,35.3840235,139.5245031
45856,"",横須賀内川店,神奈川県横須賀市内川２丁目５−３５,35.2323163,139.6966901
45586,"",横須賀大矢部店,神奈川県横須賀市大矢部３丁目１７−１,35.2406301,139.6771032
45774,"",横須賀東浦賀店,神奈川県横須賀市東浦賀２丁目２−１,35.244613,139.721571
47207,"",横須賀森崎店,神奈川県横須賀市森崎１丁目１９−２２,35.2447843,139.6825015
45348,"",横須賀浦賀店,神奈川県横須賀市浦賀７丁目１５−４１,35.243278,139.717836
46232,"",横須賀米が浜店,神奈川県横須賀市米が浜通１丁目１７−１,35.2775554,139.6746947
44663,"",横須賀野比店,神奈川県横須賀市野比１丁目４−７,35.2169271,139.6827244
45306,"",横須賀長坂店,神奈川県横須賀市長坂４丁目２−７,35.2288925,139.6210861
45551,"",橋本東店,神奈川県相模原市緑区東橋本２丁目１９−７,35.5931142,139.3526322
46478,"",橿原曲川店,奈良県橿原市曲川町６丁目７−１８,34.5079872,135.7649781
46235,"",檀紙店,香川県高松市檀紙町２０６０−１,34.3111693,133.9985924
45601,"",歌舞伎町２丁目店,東京都新宿区歌舞伎町２丁目３０−１３,35.697329,139.703744
45080,"",正木町店,岐阜県羽島市正木町曲利１０５４−１,35.32402,136.715309
46704,"",武蔵小杉店,神奈川県川崎市中原区小杉町３丁目１５０１−１ プラウドタワー,35.5764189,139.6573096
46081,"",武蔵村山大南店,東京都武蔵村山市大南１丁目１４１−１４,35.738109,139.3952545
45818,"",武蔵村山学園店,東京都武蔵村山市学園３丁目４０−３,35.7471373,139.4063476
46311,"",武蔵野緑町店,東京都武蔵野市緑町２丁目１−１,35.7145875,139.5645325
44005,"",武豊梨子ノ木店,愛知県知多郡武豊町鹿ノ子田２丁目１,34.8695533,136.9056072
47275,"",気仙沼本吉店,宮城県気仙沼市本吉町後田１０−１,38.8277246,141.5764788
47431,"",気仙沼松川店,宮城県気仙沼市切通２４７−１,38.9122514,141.5439166
47351,"",水戸内原店,茨城県水戸市内原町1404番6,36.365465,140.36083
44645,"",水戸常磐町店,茨城県水戸市常磐町２丁目２−３２,36.3764959,140.4588343
44891,"",水戸水府店,茨城県水戸市水府町１５６２−２,36.3802199,140.4884843
46279,"",水戸河和田町店,茨城県水戸市河和田町４６１１−４,36.3557839,140.3912208
46936,"",水戸浜田町店,茨城県水戸市浜田町５７−２,36.3606599,140.4944083
46084,"",水戸笠原店,茨城県水戸市笠原町１７５０−４,36.3431083,140.4383612
46251,"",水戸見川２丁目店,茨城県水戸市見川２丁目２１−６,36.3761824,140.4443693
45083,"",水戸見川３丁目店,茨城県水戸市見川３丁目６５５−５,36.3655532,140.4380795
46457,"",水戸金町店,茨城県水戸市金町２丁目６−２１,36.3844539,140.4657857
44064,"",水戸駅南店,茨城県水戸市城南３丁目１−５,36.366368,140.481205
44567,"",水海道坂手町店,茨城県常総市坂手町５５４５−３,36.014248,139.950584
45088,"",永福町駅前店,東京都杉並区和泉３丁目５−４ 嶋田ビル 1F,35.6763639,139.6440429
51784,"",江南厚生病院店,愛知県江南市高屋町大松原１３７,35.3554085,136.8783269
44898,"",江南高屋町店,愛知県江南市高屋町八幡８−２,35.347482,136.879741
44293,"",江戸川中央３丁目店,東京都江戸川区中央３丁目２２−７,35.7108412,139.8741894
45615,"",江戸川千葉街道店,東京都江戸川区中央３丁目２−７,35.7119306,139.8709254
47057,"",江戸川南小岩６丁目店,東京都江戸川区南小岩６丁目７−１５,35.7274509,139.8782244
45378,"",江東千石店,東京都江東区千石１丁目８−４,35.678289,139.81331
45382,"",江東枝川１丁目店,東京都江東区枝川１丁目９−６,35.6570246,139.8018606
45419,"",池田町八幡店,岐阜県揖斐郡池田町八幡１３２２−１,35.427649,136.576093
44096,"",池田町本郷店,岐阜県揖斐郡池田町本郷９２５−１,35.4493595,136.5639073
43741,"",河内町役場前店,茨城県稲敷郡河内町源清田５９６２−１,35.884102,140.244488
43735,"",河内金江津店,茨城県稲敷郡河内町金江津４３２８−１,35.8867328,140.343033
46938,"",河内長野加賀田店,大阪府河内長野市加賀田２６０−１,34.4287577,135.5702056
43949,"",河芸上野店,三重県津市河芸町上野６９９−１,34.7954196,136.5511004
45571,"",河芸西町千里店,三重県津市河芸町西千里１３５６−６,34.8115505,136.5519124
45570,"",治田店,三重県いなべ市北勢町東村３２２−１,35.1405041,136.5158987
44556,"",沼津きせがわ店,静岡県沼津市大岡９０−１,35.107468,138.885869
45568,"",沼津リコー通り店,静岡県沼津市北高島町４−８,35.111902,138.859589
46105,"",沼津内浦店,静岡県沼津市内浦小海９１−１０,35.028056,138.8931417
46496,"",沼津千本街道店,静岡県沼津市原１５０−１０,35.1223816,138.7993548
51830,"",沼津根古屋店,静岡県沼津市根古屋１５４−２,35.1347537,138.8033425
51826,"",沼田バイパス店,群馬県沼田市薄根町３４００−２８,36.6445929,139.0292859
51820,"",沼田北小前店,群馬県沼田市高橋場町２０７２−１１,36.6539342,139.0648744
51828,"",沼田天狗プラザ店,群馬県沼田市材木町１９５−１,36.646072,139.048146
45295,"",泉中田東店,神奈川県横浜市泉区中田東３丁目２２−１１,35.412384,139.508301
46497,"",泉崎北平山店,福島県西白河郡泉崎村北平山滝田下８０,37.142757,140.3095889
45381,"",泉新橋店,神奈川県横浜市泉区新橋町８６３,35.434995,139.501376
45346,"",波崎宝山店,茨城県神栖市太田４６４４,35.8441154,140.711682
45096,"",波崎砂山店,茨城県神栖市砂山１０１４−１９３,35.8649399,140.7112386
46228,"",波志江ＰＡ下り店,群馬県伊勢崎市波志江町２６７８−２,36.3547167,139.1891167
44388,"",津大古曽店,三重県津市一身田大古曽６８７−３,34.755901,136.495414
44909,"",津安濃店,三重県津市安濃町曽根５６６−２,34.7504181,136.4616229
44385,"",津島昭和町店,愛知県津島市昭和町１丁目３０,35.1792605,136.7273936
44827,"",津島神尾町店,愛知県津島市神尾町東之割５２−２,35.1562639,136.7834135
44665,"",津島鹿伏兎町店,愛知県津島市鹿伏兎町上子守１２６−２,35.139084,136.758567
44021,"",津栗真町屋店,三重県津市栗真町屋町１６９５−１,34.7458067,136.5192129
44394,"",津田沼駅北口店,千葉県船橋市前原西２丁目１５−２３,35.692131,140.020223
45342,"",津白塚店,三重県津市栗真小川町７５０,34.7753169,136.530338
44025,"",津県総合文化センター前店,三重県津市一身田上津部田１１５６−１,34.7444568,136.5063956
46957,"",津野田店,三重県津市野田１３６１−１,34.7180208,136.4652073
44585,"",津長岡店,三重県津市河辺町２６０９−３,34.739545,136.483499
44082,"",津雲出島貫店,三重県津市雲出島貫町７８１−１,34.6525032,136.5202194
45113,"",流山中野久木店,千葉県流山市中野久木５３７−１,35.897103,139.902098
53002,"",流山市野谷店,千葉県流山市おおたかの森西２丁目１−２,35.8682409,139.9203072
44612,"",流山平和台店,千葉県流山市流山９丁目５００−３７,35.8477365,139.9014926
44063,"",浅草橋１丁目店,東京都台東区浅草橋１丁目２７−５,35.698292,139.784868
47208,"",浅草駅北口店,東京都台東区花川戸１丁目９−１,35.7126615,139.7985882
46206,"",浅虫温泉店,青森県青森市大字浅虫字坂本9番地68,40.8973247,140.860525
51812,"",浜松三方原町店,静岡県浜松市中央区三方原町１８９９番４,34.7832443,137.6990357
44022,"",浜松元浜町店,静岡県浜松市中区元浜町６９−３,34.714012,137.732797
44039,"",浜松入野町店,静岡県浜松市中央区入野町１６１０２番地７,34.70115,137.671754
45367,"",浜松北寺島町店,静岡県浜松市中央区北寺島町２０８番地６,34.70323,137.7436
44370,"",浜松北島町店,静岡県浜松市中央区北島町７５２番地,34.727729,137.782212
45776,"",浜松増楽店,静岡県浜松市中央区増楽町１８０３番地の６,34.6911779,137.6924616
44325,"",浜松天王町店,静岡県浜松市中央区天王町１６５８番地,34.7327231,137.7668314
46489,"",浜松於呂店,静岡県浜松市浜名区於呂１９５８−１,34.8333652,137.7982225
44911,"",浜松曳馬店,静岡県浜松市中央区曳馬６丁目１４−３９,34.7353722,137.7360376
44399,"",浜松根洗町店,静岡県浜松市中央区区根洗町１２９０−１,34.795697,137.714484
46249,"",浜松白羽町店,静岡県浜松市中央区白羽町１９−１,34.6853785,137.7389116
44405,"",浜松細江町店,静岡県浜松市浜名区細江町中川７１７２番地の２５５５,34.795064,137.690453
44297,"",浜松西丘町店,静岡県浜松市中央区西丘町３５９番２,34.770926,137.697834
44662,"",浜松西山町店,静岡県浜松市中央区西山町５８０−２,34.7369836,137.686225
44587,"",浜松豊保店,静岡県浜松市浜名区豊保１５３−１３,34.8247989,137.8016032
44339,"",浜松貴布祢店,静岡県浜松市浜名区貴布祢２０４１番,34.7978394,137.7885204
44333,"",浜松鶴見町店,静岡県浜松市中央区鶴見町２３６番地の１,34.7106497,137.7886013
43962,"",浜松鹿谷町店,静岡県浜松市中央区鹿谷町２１−９,34.716356,137.721178
43811,"",浦和木崎店,埼玉県さいたま市浦和区木崎５丁目３７−１２,35.883385,139.6678504
45359,"",浦安猫実２丁目店,千葉県浦安市猫実２丁目１１−２０,35.6592696,139.9020176
46688,"",浮羽中千足店,福岡県うきは市浮羽町朝田４０８−４,33.333699,130.790354
46283,"",海南病院店,愛知県弥富市前ケ須町南本田３９６,35.1082784,136.7226487
44884,"",海神３丁目店,千葉県船橋市海神３丁目２４−２１ フレアサポート 1F,35.7091341,139.9766421
45604,"",海老名大谷店,神奈川県海老名市大谷南５丁目１３−５,35.432554,139.404845
46099,"",海老名本郷店,神奈川県海老名市本郷４０３７−２,35.4146206,139.402388
45363,"",深大寺東町店,東京都調布市深大寺東町３丁目３９−１,35.671116,139.564429
45845,"",深谷小前田店,埼玉県深谷市小前田２８９９−１,36.1381195,139.2371174
45804,"",深谷桜ヶ丘店,埼玉県深谷市桜ケ丘１０８,36.1851908,139.2849109
47371,"",深谷畠山店,埼玉県深谷市畠山１８０９−１,36.125989,139.2791081
44083,"",深谷矢島店,埼玉県深谷市矢島３４３,36.2163322,139.2549689
46299,"",清水南矢部店,静岡県静岡市清水区南矢部５６２−２,34.9984032,138.4758338
45065,"",清水押切店,静岡県静岡市清水区押切９８４−１３,35.027439,138.454368
43808,"",清水町柿田店,静岡県駿東郡清水町柿田147-4,35.1039731,138.8982943
44371,"",清水町湯川店,静岡県駿東郡清水町湯川４４−１,35.094201,138.90385
44295,"",清水草薙一里山店,静岡県静岡市清水区草薙一里山１６−７,35.0041409,138.4499944
46219,"",清水高橋店,静岡県静岡市清水区高橋３丁目４−６,35.02903,138.469268
45097,"",清水鶴舞町店,静岡県静岡市清水区鶴舞町７−１８,35.0161174,138.4711633
47407,"",清瀬下宿店,東京都清瀬市下宿１丁目２３０−１,35.7943643,139.5353732
44272,"",清須西内堀店,愛知県清須市清洲２６１１−１,35.2129048,136.8414946
47194,"",済生会宇都宮病院店,栃木県宇都宮市竹林町９１１−１,36.5788183,139.898057
46986,"",渋川四ツ角店,群馬県渋川市渋川２１３６−７４,36.4969598,139.0028546
45089,"",渋谷本町６丁目店,東京都渋谷区本町６丁目３５−４,35.6800511,139.676904
45294,"",渋谷桜丘店,東京都渋谷区桜丘町６−６,35.6542895,139.7029695
46706,"",港北日吉本町店,神奈川県横浜市港北区日吉本町２丁目４４番２７,35.551717,139.636345
45327,"",港東通り店,愛知県名古屋市南区北頭町３丁目７,35.091444,136.91818
44280,"",湖西岡崎店,静岡県湖西市岡崎５００−３,34.7268276,137.5096071
44917,"",湘南みずき店,神奈川県茅ヶ崎市みずき２丁目２３−２,35.3626193,139.4008442
44024,"",湘南台３丁目店,神奈川県藤沢市湘南台３丁目１５−５ 小泉ビル,35.392588,139.463688
45345,"",滑川月輪店,埼玉県比企郡滑川町月輪１５１９−８,36.043412,139.355151
44833,"",潮見駅前店,東京都江東区潮見２丁目６−１,35.659083,139.8165204
47027,"",瀬戸原山町店,愛知県瀬戸市原山町１３０−３,35.2140898,137.0959149
44892,"",瀬戸品野町店,愛知県瀬戸市品野町１丁目１９８−１４,35.2390183,137.1183538
47276,"",瀬戸広之田町店,愛知県瀬戸市広之田町１８２−１,35.2615979,137.1308072
45418,"",瀬戸本郷町店,愛知県瀬戸市本郷町６６８,35.2516807,137.066178
45572,"",瀬戸赤重東店,愛知県瀬戸市赤重町８−１,35.2105802,137.0810815
45136,"",瀬戸陶原町店,愛知県瀬戸市陶原町２丁目１７−２,35.2231943,137.0908178
44548,"",焼津大住店,静岡県焼津市大住１０９１−１,34.846421,138.290899
45640,"",焼津祢宜島店,静岡県焼津市祢宜島１３０−３,34.8429719,138.3075593
45137,"",焼津西小川店,静岡県焼津市西小川４丁目１６−８,34.853897,138.304825
45588,"",熊ノ前店,愛知県名古屋市緑区亀が洞１丁目６１２,35.0971739,137.0084298
44330,"",熊谷上之店,埼玉県熊谷市上之３８８５−１,36.1515442,139.413039
45330,"",熊谷久下店,埼玉県熊谷市久下４丁目１０６,36.1186166,139.4319497
44867,"",熊谷小島店,埼玉県熊谷市小島７３２−１,36.15756,139.350852
47263,"",熊谷市中奈良店,埼玉県熊谷市中奈良１０６２−２,36.1881493,139.3777506
45567,"",熊谷池上店,埼玉県熊谷市池上６６３−２,36.1558267,139.4249199
44865,"",熱池町店,愛知県西尾市熱池町古新田８,34.8374735,137.0459682
44360,"",熱海梅園店,静岡県熱海市梅園町１８１５−１５,35.100453,139.0553768
46943,"",片平店,宮城県仙台市青葉区片平１丁目４−１５,38.2573269,140.8668114
46223,"",牛久ひたち野東店,茨城県牛久市ひたち野東１丁目２５−１０,36.0067988,140.1622298
45354,"",牛久ひたち野西店,茨城県牛久市ひたち野西２丁目２３−１１,36.009313,140.155349
46083,"",牟礼町原店,香川県高松市牟礼町原１１５６,34.328992,134.148303
45614,"",牧之原インター店,静岡県牧之原市東萩間２６２７,34.765097,138.139493
47274,"",牧之原細江南店,静岡県牧之原市細江１６１−３９,34.7420979,138.2367651
45563,"",牧之原細江店,静岡県牧之原市細江２４５１−２,34.7589418,138.249389
44821,"",狛江和泉本町店,東京都狛江市和泉本町１丁目８−６,35.6366531,139.5794981
43773,"",狛江岩戸北店,東京都狛江市岩戸北４丁目１７−９,35.6332199,139.5894584
44012,"",玉城玉川店,三重県度会郡玉城町玉川６５４−１,34.5025247,136.6223019
43813,"",王子本町店,東京都北区王子本町２丁目２３−９,35.7550158,139.7318111
45817,"",瑞江店,東京都江戸川区瑞江２丁目１９−７,35.6953571,139.8975687
44038,"",瑞穂只越店,岐阜県瑞穂市只越９１４−１,35.398314,136.689198
44312,"",瑞穂宝江店,岐阜県瑞穂市宝江２４８−５,35.3724112,136.6673597
44329,"",瑞穂朝日大学前店,岐阜県瑞穂市穂積１９４７,35.380936,136.691965
45832,"",瑞穂町和田店,京都府船井郡京丹波町和田垣内３０−２,35.1823759,135.3723782
46449,"",甘木小田店,福岡県朝倉市小田１１１９−１,33.3986413,130.6654643
45796,"",生田駅南口店,神奈川県川崎市多摩区生田７丁目１−４,35.614565,139.540822
47337,"",田原保美町店,愛知県田原市保美町仲新古６９−２,34.6230529,137.0947501
44001,"",田原神戸町店,愛知県田原市神戸町天白７８−２,34.6633717,137.2776082
44841,"",田名葛輪店,神奈川県相模原市中央区田名２８４３−３,35.566414,139.340469
43983,"",田川川宮店,福岡県田川市川宮８２０−１,33.6405759,130.7901992
46987,"",田川川崎店,福岡県田川郡川崎町川崎１０８６−１,33.5970076,130.8196224
45402,"",田川川崎田原店,福岡県田川郡川崎町田原１１４７−１,33.6065626,130.8093129
47269,"",田川番田町店,福岡県田川市番田町７−３７,33.6440638,130.8155616
46046,"",田川香春町店,福岡県田川郡香春町中津原１８８２−１,33.6548884,130.8308861
43982,"",田村店,三重県亀山市田村町１１２５−５,34.8747349,136.4855549
46495,"",田辺中央店,京都府京田辺市田辺中央５丁目１−１６,34.8223092,135.76992
45855,"",甲子園口５丁目店,兵庫県西宮市甲子園口５丁目１６−２５,34.73477,135.367696
43726,"",町方新田店,愛知県愛西市町方町松川１７９−２,35.18968,136.717298
43792,"",町田和光学園前店,東京都町田市真光寺町１３３９−５,35.5968651,139.4600762
45846,"",町田小山ヶ丘店,東京都町田市小山ヶ丘１丁目３−１,35.5966074,139.385462
44008,"",町田小川店,東京都町田市小川６丁目１３−７,35.5195412,139.4724383
45835,"",町田小川２丁目店,東京都町田市小川２丁目２７−１,35.530032,139.470798
46988,"",町田山崎団地店,東京都町田市山崎町１３１４−１,35.5757791,139.4337631
45788,"",町田市役所店,東京都町田市森野２丁目２−２２ 町田市役所 １階,35.5468281,139.4392189
45594,"",町田旭町店,東京都町田市旭町１丁目２５−１６,35.5544905,139.4434967
44900,"",町田根岸店,東京都町田市根岸町１００１−２６,35.5762363,139.4082075
45639,"",町田街道旭店,東京都町田市旭町１丁目２０−１５,35.5560816,139.4402451
46066,"",登米米山店,宮城県登米市米山町西野四軒見通３３−２,38.635817,141.1879587
46471,"",白井冨士店,千葉県白井市冨士１４７−１１,35.7693154,140.0177338
44343,"",白井河原子店,千葉県白井市河原子２２４−１,35.8180092,140.0587398
46694,"",白川通上高野店,京都府京都市左京区上高野大湯手町１−１,35.0641071,135.7918951
47424,"",白河厚生病院前店,福島県白河市豊地弥次郎８１−１,37.1447973,140.2176545
47280,"",白河桜岡店,福島県白河市大桜岡前１１３−１,37.127119,140.246896
46711,"",白河西大沼店,福島県白河市西大沼１−９,37.1164274,140.2020147
47173,"",白石半沢屋敷前店,宮城県白石市半沢屋敷前２３−１,38.0100621,140.6226865
46937,"",白石羽山店,宮城県白石市白川犬卒都婆羽山１４−１,38.006867,140.669067
44401,"",白糸台３丁目店,東京都府中市白糸台３丁目３８−１６,35.666786,139.518366
45073,"",白金６丁目店,東京都港区白金６丁目６−２,35.6443366,139.7257866
47410,"",百合ヶ丘店,神奈川県川崎市麻生区高石１丁目２２−８,35.6091305,139.5154684
46268,"",百舌鳥陵南町店,大阪府堺市北区百舌鳥陵南町２丁６６４,34.545807,135.4907587
47222,"",直方感田店,福岡県直方市湯野原１丁目１０−１,33.7696968,130.7460144
37352,"",相模原上鶴間本町店,神奈川県相模原市南区上鶴間本町２丁目１４−１８,35.5417802,139.4429067
45386,"",相模原星が丘店,神奈川県相模原市中央区星が丘２丁目１−１,35.5638014,139.3717112
37353,"",相模原橋本台店,神奈川県相模原市緑区橋本台１丁目４−１,35.586097,139.341945
46048,"",相模原橋本１丁目店,神奈川県相模原市緑区橋本１丁目７−６,35.5913614,139.3453919
46663,"",相模原橋本４丁目店,神奈川県相模原市緑区橋本４丁目１７−１,35.5973246,139.3482462
46082,"",相模原矢部店,神奈川県相模原市中央区矢部２丁目２５−１２,35.5726689,139.3839339
47413,"",相馬沖ノ内店,福島県相馬市沖ノ内１丁目１５−７,37.80535,140.928298
46040,"",県立図書館前店,香川県高松市上林町５００番１,34.2924107990494,134.06717803377762
46049,"",真菅オカモト酒店,奈良県橿原市中曽司町１９１−３,34.5198608,135.7723742
47197,"",矢吹中畑店,福島県西白河郡矢吹町中畑１４０−２,37.1748205,140.3497353
47232,"",矢吹大町店,福島県西白河郡矢吹町大町２２４−１,37.199954,140.319277
47344,"",知多南粕谷店,愛知県知多市南粕谷東坂１丁目１６１−３,34.93582,136.8571209
44060,"",知多日長店,愛知県知多市日長東田２丁目３０−１,34.9687253,136.850489
43742,"",知多浦浜店,愛知県知多市八幡浦浜１−１４,35.0046828,136.8739059
47422,"",知立コンコルド店,愛知県知立市上重原町花立３０−１,34.9968117,137.0202269
44288,"",知立広見店,愛知県知立市広見１丁目９３番地,34.9998422,137.0466523
45833,"",知立西中町店,愛知県知立市西中町跡落１３７,34.9877403,137.0282244
51814,"",石井藍畑店,徳島県名西郡石井町藍畑高畑１０８７−５,34.0898646,134.4402011
43794,"",石岡北店,茨城県石岡市正上内３０−１３,36.2148232,140.2725333
37355,"",石岡鹿の子店,茨城県石岡市鹿の子１－１４－２５,36.2030844,140.2601863
46946,"",石川町野木沢店,福島県石川郡石川町中野矢ノ内５７−３,37.182096,140.418875
47397,"",石巻南境店,宮城県石巻市美園３丁目１−４,38.4563027,141.3021112
47285,"",石巻大橋３丁目店,宮城県石巻市大橋３丁目２−２,38.4437489,141.3107441
47417,"",石巻大街道北店,宮城県石巻市大街道北２丁目２−２０,38.4301807,141.2833763
47174,"",石巻新下沼店,宮城県石巻市蛇田新下沼２５−１,38.447751,141.284913
47384,"",石巻新千刈店,宮城県石巻市渡波新千刈４３−１,38.4221024,141.3526779
45857,"",石巻新立野店,宮城県石巻市のぞみ野３丁目１−１,38.4487075,141.2629117
47192,"",石巻渡波店,宮城県石巻市新成１丁目２１−１５,38.4246402,141.3625854
46959,"",石巻蛇田西店,宮城県石巻市恵み野６丁目１−１,38.440679,141.27198
44883,"",石神井町５丁目店,東京都練馬区石神井町５丁目１４−９,35.7368337,139.6016821
44011,"",石薬師店,三重県鈴鹿市石薬師町２４３４−１,34.9147315,136.5351371
45319,"",磐田平松店,静岡県磐田市平松５３４−１２,34.806767,137.847114
44322,"",磐田西高前店,静岡県磐田市中泉２８５５−１,34.715634,137.842825
44003,"",祖父江桜方店,愛知県稲沢市祖父江町桜方上切８−１,35.2515049,136.7273574
44905,"",神代植物公園前店,東京都調布市深大寺元町５丁目３９−１４,35.6724,139.545056
46696,"",神埼千代田町店,佐賀県神埼市千代田町直鳥８１４,33.2727902,130.3638632
47334,"",神宮前１丁目店,東京都渋谷区渋谷区神宮前１丁目８−８,35.6699323,139.7063657
44354,"",神宮前２丁目店,東京都渋谷区神宮前２丁目１２−２,35.6740836,139.7124199
44887,"",神宮西駅前店,愛知県名古屋市熱田区旗屋町４０１−１,35.128118,136.9061259
46319,"",神屋町サンパレス前店,福岡県福岡市博多区神屋町９−２１,33.602217,130.403582
45593,"",神崎町郡店,千葉県香取郡神崎町郡１５１−２,35.8937372,140.4198819
45873,"",神戸住吉店,兵庫県神戸市東灘区住吉宮町３丁目１６−３,34.7179414,135.2606953
47336,"",神戸大原店,兵庫県神戸市北区大原１丁目２０,34.7464575,135.1433674
46210,"",神戸大津和店,兵庫県神戸市西区大津和２丁目６−４,34.6700863,135.0300236
46494,"",神戸森友店,兵庫県神戸市西区森友２丁目２２,34.6638479,134.9793119
46979,"",神戸玉津町店,兵庫県神戸市西区玉津町今津６４６−１,34.6714122,134.9891154
45373,"",神戸町前田店,岐阜県安八郡神戸町前田１２９−２,35.405255,136.6106122
45370,"",神戸町北一色店,岐阜県安八郡神戸町北一色５８８−３０,35.4265847,136.595725
43728,"",神戸町店,岐阜県安八郡神戸町神戸町新屋敷１３１−１,35.4159809,136.6205651
46271,"",神戸舞子坂店,兵庫県神戸市垂水区舞子坂１丁目２−７,34.6433664,135.0330747
46955,"",神戸藤原台南町店,兵庫県神戸市北区藤原台南町３丁目18番3号,34.8118342,135.2041743
43787,"",神栖日川店,茨城県神栖市日川字日向２３５,35.8646472,140.6862816
46071,"",神栖知手中央店,茨城県神栖市知手中央１丁目７−３１,35.8782487,140.7023365
47254,"",神栖知手店,茨城県神栖市知手砂３４２０-９２,35.8832417,140.7143622
46437,"",神栖賀店,茨城県神栖市賀２１０８−１９２,35.9031315,140.6222038
47025,"",神栖鰐川店,茨城県神栖市鰐川３００−１９３,35.925144,140.628718
46069,"",神田神保町１丁目店,東京都千代田区神田神保町１丁目２−５,35.6963735,139.7601039
45413,"",神田美土代町店,東京都千代田区神田美土代町９−１,35.6936539,139.7653788
44002,"",神田錦町１丁目店,東京都千代田区神田錦町１丁目１ 帝都神田ビル 1F,35.6923441,139.764654
29314,"",神田錦町３丁目店,東京都千代田区神田錦町３丁目５−１,35.692701,139.7595014
46445,"",神田鍛冶町店,東京都千代田区鍛冶町１丁目８−８ 神田鍛冶町ビル,35.691106,139.773316
46651,"",福山通運阪神店,兵庫県尼崎市西長洲町３丁目２−１,34.727618,135.417702
46778,"",福岡今宿１丁目店,福岡県福岡市西区今宿１丁目９−３,33.581344,130.2726398
46287,"",福岡八田１丁目店,福岡県福岡市東区八田１丁目１２−１４,33.6355728,130.4589773
47170,"",福岡土井２丁目店,福岡県福岡市東区土井２丁目４９−１,33.6322063,130.4676762
46435,"",福岡多の津５丁目店,福岡県福岡市東区多の津５丁目４８−２５,33.6198929,130.4515857
47015,"",福岡大岳店,福岡県福岡市東区大岳１丁目１１−１,33.651985,130.344662
47261,"",福岡大楠２丁目店,福岡県福岡市南区大楠２丁目１１−１８,33.5724358,130.4110096
46689,"",福岡大橋１丁目店,福岡県福岡市南区大橋１丁目９−１０,33.5577579,130.4276903
46977,"",福岡女原店,福岡県福岡市西区西都２丁目４−１６,33.5764368,130.2644845
46956,"",福岡屋形原店,福岡県福岡市南区屋形原１丁目２−３７,33.54166,130.407633
47185,"",福岡愛宕４丁目店,福岡県福岡市西区愛宕４丁目１４−１,33.587196,130.340204
46961,"",福岡有田店,福岡県福岡市早良区有田２丁目１６−１５,33.5632235,130.3348344
46733,"",福岡渡辺通３丁目店,福岡県福岡市中央区渡辺通３丁目６−１５,33.5858645,130.4035072
46506,"",福岡田村３丁目店,福岡県福岡市早良区田村３丁目２−５,33.5405049,130.3255588
47282,"",福岡福重２丁目店,福岡県福岡市西区福重２丁目１３−１９,33.5657368,130.3227897
47370,"",福岡箱崎３丁目店,福岡県福岡市東区箱崎３丁目２４−５,33.621563,130.421107
46491,"",福岡羽根戸店,福岡県福岡市西区羽根戸３８６−１,33.5434148,130.3146927
47268,"",福岡長尾３丁目店,福岡県福岡市城南区長尾３丁目２３−３,33.556459,130.385022
46679,"",福岡香椎浜４丁目店,福岡県福岡市東区香椎浜４丁目１１−１,33.6579033,130.436277
46067,"",福岡香椎６丁目店,福岡県福岡市東区香椎６丁目２−２１,33.6498623,130.4528608
47354,"",福岡馬出４丁目店,福岡県福岡市東区馬出４丁目９−１,33.6160604,130.4163321
46771,"",福島二本松店,福島県二本松市向作田６３−１,37.5838453,140.4403497
46724,"",福島八木田店,福島県福島市八木田井戸上１０３,37.7512812,140.4457896
51790,"",福島北沢又店,福島県福島市南沢又上番匠田７−１,37.7837327,140.434429
46669,"",福島南向台店,福島県福島市南向台３丁目１８−１,37.7249657,140.4863842
51803,"",福島南矢野目店,福島県福島市南矢野目中谷地３０−７,37.7884084,140.4549252
46208,"",福島太平寺店,福島県福島市太平寺坿屋敷３５−３５,37.7289758,140.4524092
46492,"",福島小鳥の森店,福島県福島市渡利八寺沢下１４−１,37.7617773,140.4908191
46760,"",福島川俣店,福島県伊達郡川俣町東福沢熊ノ宮２２−２,37.662242,140.595449
47251,"",福島平野店,福島県福島市飯坂町平野上前田６−１,37.805806,140.44714
46960,"",福島庭坂店,福島県福島市町庭坂笠松２２−１,37.7764214,140.3881392
47377,"",福島新浜店,福島県福島市新浜町２−９,37.759592,140.468382
46645,"",福島桑折町店,福島県伊達郡桑折町本町４２−１,37.843974,140.51832
46703,"",福島梁川店,福島県伊達市梁川町広瀬町３０,37.850654,140.603626
47373,"",福島瀬上店,福島県福島市瀬上町象ヶ鼻６,37.7982406,140.5002136
46714,"",福島西インター店,福島県福島市上名倉猫田２−１,37.7355593,140.4050847
46681,"",福島野田２丁目店,大阪府大阪市福島区野田２丁目１−７２,34.685512,135.477877
46931,"",福島鎌田店,福島県福島市鎌田中家３２−３,37.7977802,140.471705
46659,"",福知山インター店,京都府福知山市土師１７７６−２９０,35.2870816,135.1520686
46662,"",福知山羽合店,京都府福知山市篠尾１３７−６,35.2961093,135.1121444
45841,"",福通越中島店,東京都江東区越中島３丁目６−１５,35.6650594,139.7999814
43759,"",秦野尾尻店,神奈川県秦野市尾尻９４９,35.3672425,139.2259809
44268,"",秦野松原町店,神奈川県秦野市松原町２−１,35.3754157,139.1869055
46434,"",種市中野店,岩手県九戸郡洋野町中野第１３地割１９−５,40.299221,141.775691
45889,"",稲城矢野口店,東京都稲城市矢野口１２５７−１,35.638882,139.5173789
29240,"",稲毛東３丁目店,千葉県千葉市稲毛区稲毛東３丁目１７−８,35.6376158,140.0910845
44914,"",稲毛駅東口店,千葉県千葉市稲毛区小仲台２丁目２−９,35.6369056,140.0932259
44028,"",稲沢コンコルド店,愛知県稲沢市大矢町高松１１−１,35.2225455,136.7944916
44646,"",稲沢旗屋町店,愛知県稲沢市赤池旗屋町６２−１,35.2721902,136.8153761
43770,"",稲沢日下部店,愛知県稲沢市日下部北町５丁目８６−４,35.2299136,136.8204887
46676,"",穂波椿店,福岡県飯塚市椿１６２−３,33.619271,130.665595
43994,"",穴川店,千葉県千葉市稲毛区穴川３丁目５−４,35.636285,140.108915
43753,"",立川砂川町店,東京都立川市砂川町５丁目５４−１,35.726522,139.409616
47393,"",立川緑町店,東京都立川市緑町７−１ アーバス立川高松駅前ビル,35.7092203,139.4124408
43755,"",竜ケ崎大徳町店,茨城県龍ケ崎市大徳町５１９−１,35.904943,140.204174
45112,"",竜ヶ崎北方店,茨城県龍ケ崎市北方町１５５８−２,35.8823663,140.1500594
44265,"",笠原向島店,岐阜県多治見市笠原町向島区２４５５−１００,35.3168214,137.1661614
44856,"",笠懸阿左美店,群馬県みどり市笠懸町阿左美２５９５−２,36.3988103,139.2973135
46291,"",笠間下郷店,茨城県笠間市下郷９９２−９１,36.3090152,140.2938047
46766,"",笠間美原店,茨城県笠間市美原３丁目１−１４,36.3448593,140.3150225
46028,"",笠間鯉淵店,茨城県笠間市鯉淵６６７９−１０,36.348629,140.3290812
46685,"",筑後久富店,福岡県筑後市大字久富１２５１−３０,33.2194448,130.4962389
47178,"",筑後野町北店,福岡県筑後市野町６１１−１,33.2008771,130.5031207
51796,"",筑波学園病院店,茨城県つくば市上横場２５７３－１,36.0391802,140.0987842
46306,"",筑紫野原店,福岡県筑紫野市原４０８−１,33.516454,130.546458
46965,"",筑紫野塔原店,福岡県筑紫野市塔原東４丁目５−１４,33.4990605,130.5097615
45734,"",筑西菅谷店,茨城県筑西市菅谷１５６６,36.307719,139.9675892
46203,"",篠山細工所店,兵庫県丹波篠山市細工所３７−１,35.0908293,135.3156291
43758,"",篠崎町１丁目店,東京都江戸川区篠崎町１丁目６−２８,35.7094138,139.9040289
46737,"",糸島篠原西店,福岡県糸島市篠原西１丁目１６−１,33.5528948,130.2033267
44610,"",細川町店,愛知県岡崎市細川町雨戸３３−６,35.0297706,137.1781277
43778,"",経堂店,東京都世田谷区経堂５丁目３１−５ 城山ハイツ,35.6480422,139.634695
43737,"",綱島店,神奈川県横浜市港北区綱島東２丁目１−５,35.5371916,139.6360484
51805,"",綾南町店,香川県綾歌郡綾川町萱原８１９−１,34.2500691,133.9301069
51836,"",綾川陶店,香川県綾歌郡綾川町陶１０９２−６,34.2659465,133.9358384
45617,"",綾瀬上土棚店,神奈川県綾瀬市上土棚南５丁目３−１１,35.4096342,139.4471291
46204,"",綾瀬並塚店,神奈川県綾瀬市上土棚中３丁目４−６,35.4195851,139.4530291
46116,"",綾瀬大上店,神奈川県綾瀬市大上４丁目１−４３,35.4599938,139.4303967
46757,"",綾部井倉店,京都府綾部市井倉町西田５−２,35.3079199,135.2474106
45125,"",緑２丁目店,東京都墨田区緑２丁目２１−１２,35.695552,139.8026658
44925,"",練馬上石神井３丁目店,東京都練馬区上石神井３丁目１５−６,35.7297735,139.5961254
45316,"",練馬北町２丁目店,東京都練馬区北町２丁目３５−４,35.7685818,139.6591417
102453,"",練馬富士見台２丁目店,東京都練馬区富士見台2丁目17ｰ19,35.7358643,139.6253975
46646,"",練馬谷原１丁目店,東京都練馬区練馬区谷原１丁目４−２９,35.750329,139.623848
43776,"",美濃インター店,岐阜県美濃市中央９丁目１９,35.5300143,136.9055093
44263,"",美濃加茂深田町店,岐阜県美濃加茂市深田町３丁目１１−１,35.4379374,137.0034934
46454,"",美馬青石橋店,徳島県美馬市美馬町中通１３７−１,34.047842,134.024087
44389,"",羽島尾濃大橋店,岐阜県羽島市正木町森１４丁目３０−１,35.3350417,136.7354314
44068,"",羽島福寿町店,岐阜県羽島市福寿町千代田６３,35.319576,136.684874
47201,"",羽島竹鼻町店,岐阜県羽島市竹鼻町丸の内９丁目６−１,35.32688,136.694715
45148,"",羽村双葉町店,東京都羽村市双葉町２丁目９−１５,35.7563952,139.3334408
44392,"",羽村市役所前店,東京都羽村市緑ヶ丘５丁目３−１,35.767362,139.31181
43977,"",羽生西店,埼玉県羽生市西３丁目２−７,36.1656106,139.533485
45111,"",能見台６丁目店,神奈川県横浜市金沢区能見台６丁目２−４,35.3524732,139.6144361
51833,"",脇町店,徳島県美馬市脇町大字脇町４７１−１,34.067854,134.144666
37356,"",自治医大駅西店,栃木県下野市笹原３５,36.3962583,139.8531103
46976,"",船引店,福島県田村市船引町船引舘柄前９３,37.4358696,140.5912884
44907,"",船橋三咲町店,千葉県船橋市三咲町１３２−１６,35.757616,140.043387
44873,"",船橋二和西店,千葉県船橋市二和西３丁目１８−１５,35.7465674,140.0192113
45387,"",船橋夏見台店,千葉県船橋市夏見台４丁目８−２０,35.726129,139.995292
45618,"",船橋山野町店,千葉県船橋市山野町４０−３,35.7043675,139.9618256
46086,"",船橋滝台店,千葉県船橋市滝台２丁目６−２６,35.70518,140.033388
44641,"",船橋米ヶ崎店,千葉県船橋市米ヶ崎町４０６−１,35.7153704,140.0078475
44558,"",船橋行田店,千葉県船橋市行田３丁目２−２１,35.7184018,139.9707546
45585,"",船橋豊富店,千葉県船橋市豊富町６５８−１,35.7648172,140.0735575
45569,"",船橋駿河台店,千葉県船橋市駿河台１丁目２−２,35.703492,140.0062878
45465,"",芝久保２丁目店,東京都西東京市芝久保町２丁目２２−３２,35.726229,139.520586
46272,"",芥川町３丁目店,大阪府高槻市芥川町３丁目１２−４,34.8506414,135.6117471
46019,"",花の宮２丁目店,香川県高松市花ノ宮町２丁目５−１,34.3249239,134.0502556
44067,"",花月園店,神奈川県横浜市鶴見区生麦５丁目１４−７,35.499573,139.6743728
46992,"",花泉涌津店,岩手県一関市花泉町涌津五輪堂６０−１,38.8143683,141.199193
43950,"",芸濃椋本店,三重県津市芸濃町椋本５２０５−５,34.8140302,136.4270939
47257,"",苅田京町店,福岡県京都郡苅田町京町１丁目９−６,33.7803099,130.9802812
47260,"",若松花野路店,福岡県北九州市若松区花野路１丁目１−３,33.9085044,130.6849654
45870,"",若柳川北店,宮城県栗原市若柳川北元町裏５２−１,38.7767346,141.1329478
46467,"",若狭美浜店,福井県三方郡美浜町久々子７２−１−４,35.6026617,135.9283293
47241,"",茂原北インター店,千葉県茂原市大沢１３８８−１,35.4900222,140.2676292
44274,"",茂原粟生野店,千葉県茂原市粟生野３０２７,35.4865428,140.3592042
45296,"",茂原鷲巣店,千葉県茂原市鷲巣７０２−４,35.4252649,140.2818345
46243,"",茂原ＪＤＩ前店,千葉県茂原市下永吉４４５−１,35.4154149,140.3069245
45405,"",茅ヶ崎堤店,神奈川県茅ヶ崎市堤８１６−１,35.3671341,139.4330769
44843,"",茅ヶ崎本村店,神奈川県茅ヶ崎市本村５丁目２−５,35.3390613,139.4107636
44893,"",茅ヶ崎駅前店,神奈川県茅ヶ崎市元町１８−２,35.3314455,139.4071688
45304,"",茎崎高見原店,茨城県つくば市高見原５丁目４−１,35.9947755,140.1305028
44877,"",茗荷谷店,東京都文京区春日２丁目１０−１６ エニス小石川ウエスト 1F,35.7130833,139.7421151
46725,"",茨城大学前店,茨城県水戸市袴塚３丁目１０−３２,36.3989119,140.4411765
44863,"",茨城町海老沢店,茨城県東茨城郡茨城町海老沢１５１−１,36.263812,140.459193
45849,"",茨木彩都あさぎ店,大阪府茨木市彩都あさぎ１丁目３−１７,34.8520963,135.522323
46487,"",茨木春日店,大阪府茨木市春日４丁目４−２２,34.8230933,135.5661269
46701,"",茨木藤の里店,大阪府茨木市藤の里１丁目１７−１９,34.8402521,135.5438118
47023,"",草加小山２丁目店,埼玉県草加市小山２丁目１−２３,35.8367143,139.7821705
44653,"",草加新里町店,埼玉県草加市新里町１２１０−１,35.8153334,139.7774518
51817,"",草加松原店,埼玉県草加市栄町３丁目１−３９,35.8444797,139.803708
46671,"",草加瀬崎店,埼玉県草加市瀬崎２丁目４６−６,35.8130594,139.8071445
44828,"",草加青柳店,埼玉県草加市青柳７丁目６３−１３,35.8558329,139.82569
44551,"",草加青柳２丁目店,埼玉県草加市青柳２丁目１６−１,35.847797,139.82267
46702,"",草加青柳３丁目店,埼玉県草加市青柳３丁目１２−１２,35.846188,139.829125
45652,"",荒川１丁目店,東京都荒川区荒川１丁目１８−１４,35.7356868,139.7875512
47385,"",荒巻ワンダープラザ店,宮城県仙台市青葉区荒巻本沢３丁目７−１,38.2913555,140.8560213
44931,"",菊川半済店,静岡県菊川市半済６６５,34.7397961,138.0961272
44593,"",菊川堀之内店,静岡県菊川市堀之内８０−６,34.7585811,138.084269
45399,"",菰野店,三重県三重郡菰野町菰野１３９２−２,35.0131035,136.5116645
43990,"",菰野町小島店,三重県三重郡菰野町小島４６３０,35.0672077,136.5193339
43984,"",菰野町川北店,三重県三重郡菰野町川北１９８１−１８,35.0366118,136.553811
45552,"",菰野町庁舎前店,三重県三重郡菰野町潤田１１８７−１,35.0211702,136.5076538
47200,"",葉山御用邸前店,神奈川県三浦郡葉山町下山口１４９４−１７,35.2600977,139.580331
45324,"",葛西トラックターミナル店,東京都江戸川区臨海町４丁目３−１,35.64672,139.864959
45086,"",葛西店,東京都江戸川区東葛西６丁目１４−３,35.6618742,139.8752944
44344,"",葛飾スポーツセンター前店,東京都葛飾区奥戸７丁目７−１,35.735757,139.8633695
43807,"",蒲郡三谷北通店,愛知県蒲郡市三谷北通６丁目２２４,34.821484,137.238767
44846,"",蒲郡八百富町店,愛知県蒲郡市八百富町3丁目106番,34.8259072,137.2347537
43791,"",蒲郡緑町店,愛知県蒲郡市緑町６丁目１０,34.8297748,137.2199048
46932,"",蓮田東３丁目店,埼玉県蓮田市東３丁目５−４１,35.981998,139.6574809
44606,"",蓮田黒浜店,埼玉県蓮田市黒浜２８０８−１５,35.9945251,139.6643567
51765,"",蔵前３丁目店,東京都台東区蔵前３丁目５−１５ カールビル ５Ｆ,35.7037609,139.7912175
47429,"",蕨中央２丁目店,埼玉県蕨市中央２丁目５−５,35.8242842,139.6907239
46300,"",藤井寺４丁目店,大阪府藤井寺市藤井寺４丁目１９−１５,34.5629186,135.5916504
47265,"",藤岡中栗須店,群馬県藤岡市中栗須２８１−４,36.2623939,139.0767602
45412,"",藤岡本動堂店,群馬県藤岡市本動堂８３３−１,36.2644042,139.0491013
44629,"",藤崎６丁目店,千葉県習志野市藤崎６丁目１６−６,35.6906017,140.0403934
44844,"",藤枝上当間店,静岡県藤枝市上当間７５２−３,34.880757,138.287539
51799,"",藤枝水守店,静岡県藤枝市水守1丁目2番地14号,34.8789728,138.2713583
46969,"",藤枝谷稲葉インター前店,静岡県藤枝市堀之内１丁目２−２,34.8705804,138.2288063
44928,"",藤枝駅北店,静岡県藤枝市青木２丁目３４−２３,34.8561913,138.2518262
45409,"",藤沢善行駅前店,神奈川県藤沢市善行１丁目２８−２,35.3625474,139.4729691
46502,"",藤沢城南店,神奈川県藤沢市城南２丁目２−３,35.3471306,139.4481554
45372,"",藤沢大平店,神奈川県藤沢市菖蒲沢８９４−２,35.4006546,139.4424485
45590,"",藤沢宮前店,神奈川県藤沢市宮前３７５−１４,35.334349,139.509355
44369,"",藤沢石川店,神奈川県藤沢市石川４丁目８−３,35.3807,139.449155
45657,"",藤沢石川１丁目店,神奈川県藤沢市石川１丁目１４−１４,35.3792519,139.4513726
44902,"",虹ヶ丘店,神奈川県川崎市麻生区虹ケ丘２丁目３−３０,35.5790588,139.526792
46921,"",行徳駅前１丁目店,千葉県市川市行徳駅前１丁目１１−１,35.6821633,139.9177887
46431,"",行橋行事店,福岡県行橋市行事２丁目５−１３,33.740421,130.9770601
43750,"",行田城西店,埼玉県行田市城西２丁目１−５６,36.1364532,139.4509277
45888,"",行田真名板店,埼玉県行田市真名板２００６−１,36.1383866,139.5227718
44908,"",行田長野店,埼玉県行田市長野５丁目８−１,36.137632,139.4798031
43992,"",衣笠駅前店,神奈川県横須賀市衣笠栄町２丁目２０,35.2582663,139.6614043
47395,"",袋井堀越寺前店,静岡県袋井市堀越字寺前814番3,34.7587503,137.9094547
44045,"",袋井楽園店,静岡県袋井市川井１１９０−１,34.7464014,137.9107724
44857,"",袖ヶ浦神納店,千葉県袖ケ浦市神納１１５１−４,35.4199392,139.9577036
46708,"",袖ヶ浦福王台３丁目店,千葉県袖ヶ浦市福王台３丁目１−５,35.426985,139.9634415
46942,"",西ユーカリが丘５丁目店,千葉県佐倉市西ユーカリが丘５丁目１０−８,35.7280725,140.1499895
46296,"",西中島４丁目店,大阪府大阪市淀川区西中島４丁目７−３,34.7263089,135.4970701
46748,"",西中田七丁目店,宮城県仙台市太白区西中田７丁目２７−１,38.1903212,140.8736857
43743,"",西八王子南口店,東京都八王子市散田町３丁目１−４,35.6560255,139.3124242
43946,"",西可児店,岐阜県可児市長坂１丁目２２０,35.4006086,137.0089961
46231,"",西宝町店,香川県高松市西宝町２丁目７−４４,34.3418579,134.0289555
46948,"",西宮マリナパーク店,兵庫県西宮市西宮浜３丁目６−２,34.7171988,135.333507
46717,"",西宮中前田町店,兵庫県西宮市中前田町７−５,34.7418235,135.3435025
43989,"",西小岩１丁目店,東京都江戸川区西小岩１丁目３０−２２,35.73529,139.884629
45598,"",西小岩５丁目店,東京都江戸川区西小岩５丁目１９−２,35.7427246,139.8818234
44049,"",西尾久店,東京都荒川区西尾久７丁目２５−１ ＪＫビル,35.747755,139.755114
46309,"",西尾久２丁目店,東京都荒川区西尾久２丁目３０−１３,35.748322,139.7622202
45838,"",西尾高河原町店,愛知県西尾市高河原町鎮守１０,34.8581404,137.0835687
45404,"",西尾鵜ケ池町店,愛知県西尾市鵜ケ池町天神前５７−４,34.8423077,137.0638775
45153,"",西新宿３丁目店,東京都新宿区西新宿３丁目２−１１,35.6865216,139.6931436
44832,"",西日置店,愛知県名古屋市中川区西日置１丁目３−８,35.1572887,136.8916767
47211,"",西条高田店,愛媛県西条市高田６６８−１,33.9510257,133.0793205
44924,"",西水元２丁目店,東京都葛飾区西水元２丁目２１−１６,35.785853,139.8529597
44376,"",西池袋５丁目店,東京都豊島区西池袋５丁目５−２１,35.7320527,139.7053904
51819,"",西浅草２丁目店,東京都台東区西浅草２丁目２７−７,35.7138609,139.7916295
45659,"",西郷小田倉店,福島県西白河郡西郷村小田倉稗返３１４−５,37.1115872,140.1463615
51770,"",西郷熊倉店,福島県西白河郡西郷村真船壱里塚２−４,37.1376126,140.158295
44540,"",要町３丁目店,東京都豊島区要町３丁目４６−１２ ヴィラ高安,35.7397749,139.6889922
44809,"",覚王山駅前店,愛知県名古屋市千種区末盛通１丁目１７−４,35.1668116,136.9546749
47255,"",観音寺木之郷店,香川県観音寺市木之郷町７６７−３,34.1031333,133.6822106
46765,"",観音寺池之尻店,香川県観音寺市池之尻町１２００−１,34.1124001,133.6875583
47204,"",角田梶賀店,宮城県角田市梶賀一里壇１５１−７,37.9836983,140.7816403
47250,"",角田藤田店,宮城県角田市藤田目角田９３−１,37.9698623,140.8323003
44287,"",調布多摩川１丁目店,東京都調布市多摩川１丁目５２−１,35.6485085,139.5319702
47402,"",調布東つつじケ丘店,東京都調布市東つつじケ丘２丁目５−５,35.6568,139.5770802
45634,"",調布染地店,東京都調布市染地２丁目３９−７,35.641222,139.555214
46455,"",調布駅前店,東京都調布市布田１丁目４４−３,35.651898,139.5452386
47242,"",調布駅小島町店,東京都調布市小島町１丁目３６−１６ グレーシア調布 1F,35.652541,139.5429156
44570,"",谷和原福岡店,茨城県つくばみらい市福岡２９９５−２,36.031696,140.031292
51816,"",谷塚駅前店,埼玉県草加市谷塚町６５０,35.8143942,139.8009202
47253,"",豊中利倉１丁目店,大阪府豊中市利倉１丁目２−２４,34.7632808,135.4608706
46744,"",豊中少路店,大阪府豊中市少路２丁目１０−１０,34.8054607,135.4717072
46740,"",豊中新千里南町店,大阪府豊中市新千里南町２丁目７−５,34.7966434,135.4910478
46426,"",豊岡戸牧店,兵庫県豊岡市戸牧２１３−７,35.535429,134.8081845
46461,"",豊岡木内店,兵庫県豊岡市木内５２,35.525061,134.8401047
46044,"",豊岡正法寺店,兵庫県豊岡市正法寺５９９−１,35.5411726,134.8101021
46043,"",豊崎５丁目店,大阪府大阪市北区豊崎５丁目６−１０ 商業ビル,34.7123108,135.4982958
47335,"",豊川コンコルド店,愛知県豊川市本野ケ原5丁目26番地,34.8398213,137.4014898
44009,"",豊川ベガビック店,愛知県豊川市伊奈町南山新田１８６−１,34.8053339,137.354383
44047,"",豊川森店,愛知県豊川市森２丁目４０−２,34.8269,137.3269588
44881,"",豊川稲荷店,愛知県豊川市豊川栄町１,34.8229943,137.3963513
44365,"",豊川馬場町店,愛知県豊川市馬場町郷前２６,34.8195273,137.4012711
44621,"",豊明新栄町６丁目店,愛知県豊明市新栄町６丁目７,35.054853,136.985522
44895,"",豊明栄町店,愛知県豊明市栄町梶田１４−１２,35.043753,137.001335
44604,"",豊橋前田南町店,愛知県豊橋市前田南町２丁目８−３,34.755054,137.3934915
43781,"",豊橋北山町店,愛知県豊橋市北山町１−１,34.7399969,137.3941324
43804,"",豊橋技科大前店,愛知県豊橋市天伯町東天伯５８−４,34.7006539,137.4148078
44269,"",豊橋曙町店,愛知県豊橋市曙町測点１４９−１,34.727981,137.400859
44296,"",豊橋杉山町店,愛知県豊橋市杉山町外張６５−３,34.688719,137.323253
44301,"",豊橋東幸町店,愛知県豊橋市東幸町東明８２−１４,34.7315388,137.4195798
43732,"",豊橋牛川町店,愛知県豊橋市牛川町西側６６−１,34.7817752,137.4148515
44056,"",豊橋神ノ輪町店,愛知県豊橋市神ノ輪町５６−３,34.7426818,137.3682982
44600,"",豊橋駒形町店,愛知県豊橋市駒形町海中７３−１,34.727965,137.364412
74282,"",豊田コンコルド店,愛知県豊田市深田町２－２７－１,35.066226,137.1242595
45605,"",豊田上丘町店,愛知県豊田市上丘町海老池４−２,35.0606094,137.100552
44019,"",豊田上野町店,愛知県豊田市上野町５丁目３−２,35.088825,137.184548
44373,"",豊田保見町店,愛知県豊田市保見町権堂坊１０９−２,35.1375997,137.1352131
44023,"",豊田八草町店,愛知県豊田市八草町石坂７８６−１,35.1772764,137.1062472
44605,"",豊田本郷店,神奈川県平塚市豊田本郷１７４５−１１,35.358195,139.326576
44284,"",豊田柿本町店,愛知県豊田市柿本町８丁目２２−１,35.0707751,137.1255986
45311,"",豊田浄水町店,愛知県豊田市浄水町伊保原６７６,35.1183951,137.136377
44079,"",豊田田中町店,愛知県豊田市田中町１丁目１１８−６,35.0695099,137.1137545
43993,"",豊田石飛店,愛知県豊田市石飛町高堤３１８−２,35.2049754,137.2059341
44836,"",豊田西岡町店,愛知県豊田市西岡町長土井１０,35.0432087,137.0670266
44664,"",赤羽東口店,東京都北区赤羽１丁目６−７ Jpt赤羽ビル 1F,35.7785178,139.7224676
45361,"",越中島通り店,東京都江東区越中島３丁目６−１５,35.6648318,139.7980431
45805,"",越谷レイクタウン東店,埼玉県越谷市東町３丁目９−２,35.8803842,139.8307496
46745,"",越谷大道店,埼玉県越谷市大道８４９,35.9269352,139.7625268
44872,"",越谷川柳店,埼玉県越谷市川柳町２丁目５１７−１,35.8661281,139.8115118
45854,"",越谷駅西口店,埼玉県越谷市赤山本町５−５,35.887316,139.785868
45632,"",足利堀込店,栃木県足利市堀込町2735-1,36.3159196,139.4404188
45779,"",足立トラックターミナル店,東京都足立区入谷６丁目１−１,35.7989036,139.7659709
46980,"",足立梅島１丁目店,東京都足立区梅島１丁目１１−１０ グランデュオガーデン深水 1F,35.7726614,139.7989016
47329,"",足立竹の塚７丁目店,東京都足立区竹の塚７丁目１−１５,35.799391,139.7975385
46329,"",足立綾瀬１丁目店,東京都足立区綾瀬１丁目３４−７ 綾瀬プルミエ 1階,35.7613183,139.8215503
45063,"",足立鹿浜店,東京都足立区鹿浜５丁目１５−１０,35.785489,139.75217
45420,"",車道店,愛知県名古屋市東区筒井３−２６,35.1739398,136.928372
44058,"",辰沼店,東京都足立区辰沼２丁目１５−７,35.790828,139.833495
46248,"",造田宮西店,香川県さぬき市造田宮西８３８−１,34.2846406,134.1756037
44071,"",道の駅藤川宿店,愛知県岡崎市藤川町東沖田４４,34.9140711,137.2171965
44396,"",道玄坂２丁目店,東京都渋谷区道玄坂２丁目６−１１,35.6587778,139.6985778
46949,"",邑楽町中野店,群馬県邑楽郡邑楽町中野４４９６−１,36.2616952,139.4751388
43789,"",那加日新店,岐阜県各務原市那加日新町５丁目１１,35.394212,136.818466
44363,"",那珂堤店,茨城県那珂市堤２０３−３,36.450143,140.514906
46089,"",那珂川道善店,福岡県那珂川市道善５丁目２,33.514132,130.4206965
45123,"",那須塩原二つ室店,栃木県那須塩原市二つ室３５−９,36.8668617,139.9816387
46207,"",那須塩原唐杉店,栃木県那須塩原市唐杉古屋敷２３９４,36.950851,140.0049085
44574,"",那須塩原東三島店,栃木県那須塩原市東三島６丁目３９６−３０,36.906808,139.9744181
46647,"",郡山久保田店,福島県郡山市富久山町久保田太郎殿前２−７,37.4080345,140.3971897
47279,"",郡山久留米店,福島県郡山市久留米６丁目８６−１,37.378356,140.347252
46726,"",郡山亀田店,福島県郡山市下亀田９−５,37.4088096,140.3501424
47243,"",郡山八山田店,福島県郡山市八山田２丁目１７７−２,37.429243,140.37407
46939,"",郡山南インター店,福島県郡山市三穂田町川田２丁目２４２−１,37.3632136,140.324539
46922,"",郡山喜久田店,福島県郡山市東原２丁目１２６,37.4323669,140.3526104
46660,"",郡山安子島店,福島県郡山市熱海町安子島出シ−３５−１０,37.4711489,140.310973
47184,"",郡山富田店,福島県郡山市富田東５丁目１３２,37.4232033,140.3711108
47428,"",郡山麓山店,福島県郡山市麓山２丁目１２−２５,37.395099,140.370294
46963,"",都筑荏田南４丁目店,神奈川県横浜市都筑区荏田南４丁目１０−２１,35.551544,139.560931
44561,"",野塩橋店,東京都清瀬市野塩５丁目２５９−１,35.7743915,139.4990442
46107,"",野田中野台店,千葉県野田市中野台５２４−８,35.9406264,139.8533117
46078,"",野田堤台店,千葉県野田市堤台１３２−１,35.9494766,139.848705
46442,"",野田次木店,千葉県野田市なみき３丁目３−２,36.0374681,139.8237179
47004,"",野田総合病院店,千葉県野田市横内２９−１ 野田総合病院 本棟1階,35.9522285,139.8791705
45068,"",野田鶴奉店,千葉県野田市目吹１３６１−１,35.960856,139.888526
45782,"",金ヶ作並木前店,千葉県松戸市金ケ作２７４−７３,35.8063526,139.9624034
45317,"",金谷町店,静岡県島田市島８６６−１,34.83951,138.121733
44310,"",鈴鹿安塚店,三重県鈴鹿市安塚町６６４−２,34.867994,136.573213
44554,"",鈴鹿平田店,三重県鈴鹿市大池１丁目１−８,34.8700352,136.542264
43951,"",鈴鹿庄野町店,三重県鈴鹿市庄野町８３５,34.880274,136.5331983
43754,"",鈴鹿西条店,三重県鈴鹿市西条４丁目４７,34.8795773,136.5726853
44030,"",鈴鹿野町店,三重県鈴鹿市野町中３丁目１−１０,34.850129,136.5635872
46282,"",鉄道博物館前店,埼玉県さいたま市大宮区大成町３丁目２８３−１,35.921172,139.616837
46758,"",鉾田谷口店,茨城県鉾田市徳宿２３３６−６,36.1848491,140.4981956
44416,"",銚子小浜店,千葉県銚子市小浜町２０８３,35.7147077,140.7718562
43727,"",錦橋店,愛知県名古屋市中区錦１丁目１６−２,35.1693422,136.8927792
45620,"",錦糸公園店,東京都墨田区錦糸３丁目４−７,35.6981642,139.8147794
47203,"",鎌倉十二所店,神奈川県鎌倉市十二所９３１,35.3192037,139.5777218
46746,"",鎌倉手広店,神奈川県鎌倉市手広２丁目２６−１７,35.3267712,139.5092104
47237,"",鏡石パーキングエリア店,福島県岩瀬郡鏡石町岡ノ内１０−１０,37.255813,140.335062
45638,"",鏡石ＰＡ上り店,福島県岩瀬郡鏡石町岡ノ内７２−３,37.2551934,140.3361643
46229,"",長久手下山店,愛知県長久手市下山２−１,35.1874455,137.0238626
47347,"",長久手岩作店,愛知県長久手市岩作宮前１２６,35.1840182,137.0497981
46264,"",長尾谷町１丁目店,大阪府枚方市長尾谷町１丁目１０１−１,34.8333667,135.6990831
46428,"",長泉町竹原店,静岡県駿東郡長泉町竹原３３５−１,35.120163,138.900034
46104,"",長田東１丁目店,大阪府東大阪市長田東１丁目２−１５,34.678385,135.592867
46697,"",長町店,宮城県仙台市太白区長町３丁目６−１,38.2293092,140.8846616
43769,"",長須賀店,愛知県名古屋市中川区長須賀３丁目１２０１,35.145344,136.826552
46678,"",門司ウエストコースト店,福岡県北九州市門司区大里本町３丁目１０−２９,33.902829,130.927753
47181,"",門司港レトロ店,福岡県北九州市門司区浜町３−３０,33.9490012,130.9666543
51791,"",門真上野口町店,大阪府門真市上野口町９−４,34.742614,135.605612
46775,"",門真柳田町店,大阪府門真市柳田町２６−８,34.7310842,135.5926455
43756,"",関内店,神奈川県横浜市中区扇町２丁目４−２,35.4409069,139.6389425
43972,"",関東田原店,岐阜県関市東田原１５１,35.4546984,136.958264
46443,"",関町南２丁目店,東京都練馬区関町南２丁目４−１４,35.7211748,139.5886575
43797,"",関稲口店,岐阜県関市稲口５２４−１,35.473121,136.916207
44609,"",関ＳＡ上り店,岐阜県関市小瀬１５３５−４,35.4900389,136.8961136
45102,"",阪東橋店,神奈川県横浜市南区高根町３丁目１８−１８ アコルデ横浜阪東橋 1F,35.4361832,139.6257372
44613,"",阿久比福住店,愛知県知多郡阿久比町福住中峯４５−４,34.948501,136.922113
46719,"",阿波久原店,徳島県阿波市阿波町久原１００−８,34.0841435,134.2379757
46101,"",阿波山川店,徳島県吉野川市山川町堤外２０−１,34.0609964,134.2533199
44336,"",阿見君島店,茨城県稲敷郡阿見町君島１３９０−１４,35.997701,140.275989
46263,"",階上店,青森県三戸郡階上町道仏耳ケ吠３３−１３８,40.453633,141.617743
46247,"",青戸５丁目店,東京都葛飾区青戸５丁目７−３,35.7510602,139.8525216
44545,"",青梅今寺店,東京都青梅市新町１丁目４１−１４,35.7913572,139.2982858
47220,"",青森油川岡田店,青森県青森市油川岡田３０,40.8447358,140.7080152
46505,"",青葉たちばな台店,神奈川県横浜市青葉区たちばな台２丁目１４−１,35.5569841,139.5131167
46741,"",青葉堂浪速元町店,大阪府大阪市浪速区元町２丁目３−１９,34.6626412,135.4959721
46731,"",青葉荏田町店,神奈川県横浜市青葉区荏田町４９０−１,35.5544907,139.5552674
47360,"",静岡がんセンター店,静岡県駿東郡長泉町下長窪１００７,35.1567126,138.8842931
44650,"",静岡下川原店,静岡県静岡市駿河区下川原南９−２３,34.933242,138.3831997
47421,"",静岡中村町店,静岡県静岡市駿河区中村町２１５,34.9524068,138.3914993
44362,"",静岡中田店,静岡県静岡市駿河区中田４丁目１０−３５,34.9574771,138.397648
45897,"",静岡宮川店,静岡県静岡市駿河区宮川４０−１,34.9597162,138.4265233
45843,"",静岡山崎店,静岡県静岡市葵区山崎１丁目２２−１,34.9773638,138.3528102
45411,"",静岡御幸町店,静岡県静岡市葵区御幸町１１−８ 山口駅前ビル 1F,34.973631,138.3899495
46034,"",静岡瀬名南店,静岡県静岡市葵区瀬名川１丁目３０−１５,35.006787,138.424274
45591,"",静岡瀬名川店,静岡県静岡市葵区瀬名川２丁目３９−２７,35.0096489,138.4297028
45082,"",静岡若松町店,静岡県静岡市葵区若松町１１６−１,34.9817226,138.3658909
44913,"",静岡西島店,静岡県静岡市駿河区西島５４６−１,34.9421411,138.4038448
45562,"",静岡谷田店,静岡県静岡市駿河区谷田３２−３,34.99622,138.441475
46999,"",静岡豊原町店,静岡県静岡市駿河区豊原町８−１０,34.976376,138.400763
46918,"",鞍手中山店,福岡県鞍手郡鞍手町中山２１０２−１,33.7809896,130.6913962
46473,"",鞍手木月店,福岡県鞍手郡鞍手町木月１９８９,33.8090189,130.6757852
44823,"",韮山南條店,静岡県伊豆の国市南條１４９−５,35.036917,138.949313
44871,"",音貝店,愛知県愛知郡東郷町涼松１丁目８−７,35.0972429,137.028164
46712,"",須恵植木店,福岡県糟屋郡須惠町植木１７１７−１,33.5991523,130.4912512
47408,"",須賀川上北町店,福島県須賀川市上北町３９−１,37.2930387,140.3754808
46698,"",須賀川未来大橋店,福島県須賀川市中宿１５５,37.301432,140.377236
47212,"",飯塚下三緒店,福岡県飯塚市下三緒７５−４,33.6296359,130.7092984
46439,"",飯塚平塚店,福岡県飯塚市平塚３０４,33.5774327,130.6625064
46422,"",飯塚東伊川店,福岡県飯塚市伊川５４７−１,33.6507012,130.6529007
46159,"",飯塚柳橋店,福岡県飯塚市柳橋２８２−１,33.6693812,130.6906969
46488,"",飯塚横田店,福岡県飯塚市横田４４−１,33.6450983,130.6734301
46655,"",飯塚菰田西店,福岡県飯塚市菰田西２丁目８−２０,33.6311472,130.6872404
45628,"",飯田橋駅西口店,東京都千代田区富士見２丁目１１−９,35.6990508,139.7447137
46214,"",養父上野店,兵庫県養父市上野１０００,35.3763615,134.7850074
44074,"",養老一色店,岐阜県養老郡養老町一色１３４２−１５,35.263103,136.559093
43963,"",養老押越店,岐阜県養老郡養老町押越１０１９−１,35.3043104,136.5583316
45078,"",養老石畑店,岐阜県養老郡養老町石畑４２８,35.3063444,136.5467191
44341,"",養老船附店,岐阜県養老郡養老町船附６０３−１,35.2884851,136.6040593
44040,"",香良洲店,三重県津市香良洲町２８４６−１,34.6569537,136.5385308
45351,"",駒沢１丁目店,東京都世田谷区駒沢１丁目２−２５ 駒沢１・２ビル,35.6315201,139.6616832
44594,"",高井戸東３丁目店,東京都杉並区高井戸東３丁目２８−２６,35.6880746,139.6175777
53026,"",高井田本通店,大阪府東大阪市高井田本通7丁目7番22号,34.6786282,135.5715878
46238,"",高井田駅南口店,大阪府東大阪市高井田中５丁目７−１４,34.6781166,135.5721045
44906,"",高円寺南２丁目店,東京都杉並区高円寺南２丁目１４−１３,35.6994782,139.6494633
43729,"",高富東深瀬店,岐阜県山県市東深瀬１７５−３,35.519219,136.789118
45400,"",高崎ハナミズキ通り店,群馬県高崎市上並榎町４８,36.3466874,138.9922849
44659,"",高崎上並榎店,群馬県高崎市上並榎町２４８−１,36.3428103,138.9872606
44848,"",高崎中居店,群馬県高崎市中居町１丁目５−３８,36.3216116,139.0375074
45547,"",高崎大八木店,群馬県高崎市大八木町５６２−１,36.3632362,139.0006183
46256,"",高崎岩押町店,群馬県高崎市岩押町１２０−５,36.3217018,139.0215778
46917,"",高崎片岡町店,群馬県高崎市片岡町２丁目２−２,36.3174041,138.995989
45139,"",高崎矢中店,群馬県高崎市矢中町３１１−１,36.317729,139.047306
46072,"",高崎菅谷町店,群馬県高崎市菅谷町７４６−１,36.373605,139.015124
46316,"",高松元山町店,香川県高松市元山町９８８−９,34.3096715,134.0841235
47182,"",高松多肥下町店,香川県高松市多肥下町１５４７−５,34.301528,134.062097
46985,"",高松大池南店,香川県高松市木太町５０９３−６,34.3258448,134.0746357
45822,"",高松木太町店,香川県高松市木太町５５５−３,34.3116288,134.0738681
46970,"",高松牟礼町店,香川県高松市牟礼町牟礼２１０６−１,34.343408,134.128671
47176,"",高松築地町店,香川県高松市築地町２−８,34.3430653,134.057798
46109,"",高松駅前店,香川県高松市西の丸町６−１,34.349713,134.0474509
44813,"",高棚町店,愛知県安城市高棚町大道７５,34.9413308,137.0316841
47180,"",高槻寿町１丁目店,大阪府高槻市寿町１丁目１２−９,34.8289327,135.5985456
45544,"",高槻柳川町店,大阪府高槻市柳川町２丁目２１−２,34.8221275,135.5936461
46721,"",高殿５丁目店,大阪府大阪市旭区高殿５丁目１１−２２,34.7203614,135.538682
44666,"",高洲２丁目店,千葉県千葉市美浜区高洲２丁目３−１３,35.6232385,140.0790931
46751,"",高浜町日置店,福井県大飯郡高浜町青第１７号１０番地４,35.486336,135.509774
44048,"",高浜神明町店,愛知県高浜市神明町６丁目６−６２,34.932924,137.007686
45575,"",高畑駅前店,愛知県名古屋市中川区高畑２丁目１５１,35.1397567,136.8536607
45820,"",高砂駅南口店,東京都葛飾区高砂３丁目９−９,35.7500196,139.8690627
45546,"",高輪３丁目店,東京都港区高輪３丁目１０−７,35.6318957,139.7320845
44882,"",高野尾店,三重県津市高野尾町１８９０−８０,34.7995373,136.4571503
46683,"",鳥栖藤木町店,佐賀県鳥栖市藤木町３−１９,33.370623,130.5261545
46205,"",鴨島知恵島店,徳島県吉野川市鴨島町知恵島４６１−７,34.0804491,134.3484821
43971,"",鴨田町店,愛知県豊橋市鴨田町１６,34.750085,137.3862701
44563,"",鴻巣寺谷店,埼玉県鴻巣市寺谷８３２−１,36.088462,139.493596
45775,"",鴻巣松原店,埼玉県鴻巣市松原１丁目３−１４,36.0433512,139.5205937
44834,"",鵜沼西町店,岐阜県各務原市鵜沼西町１丁目６３２−１,35.4037292,136.9341781
44581,"",鶴ヶ島脚折４丁目店,埼玉県鶴ヶ島市脚折町４丁目１４−１,35.9459522,139.3917044
46158,"",鹿島神宮駅前店,茨城県鹿嶋市宮下４丁目６−２,35.9714438,140.626098
44808,"",鹿嶋宮津台店,茨城県鹿嶋市宮津台４７２６−２０,35.9810476,140.6449845
45067,"",鹿沼万町店,栃木県鹿沼市万町5002番地2,36.5571585,139.7531313
46982,"",鹿沼樅山店,栃木県鹿沼市樅山町５４８,36.5367891,139.7439829
45322,"",鹿浜４丁目店,東京都足立区鹿浜４丁目２８−２,35.7833008,139.7591028
44588,"",鹿野店,岐阜県海津市海津町鹿野１２７０−１,35.222847,136.6490599
45307,"",麻生店,茨城県行方市麻生１４７−３,35.986008,140.484789
44615,"",麻生田店,三重県いなべ市北勢町麻生田１４６６−１,35.1357672,136.5397209
45391,"",黄金橋店,神奈川県横浜市中区末吉町１丁目２１,35.4419914,139.6266731
46978,"",龍ケ崎寺後店,茨城県龍ケ崎市寺後３６２０,35.9097167,140.1833639
47018,"",龍ケ崎白羽店,茨城県龍ケ崎市白羽１丁目７−３７,35.9221549,140.2165655
51822,"",ＡコープｗｉｔｈＭＳ大山店,大分県日田市大山町西大山３４８７番地,33.2584588,130.964658
51838,"",ＨＹ店（阪和病院）,大阪府大阪市住吉区南住吉３丁目５－８,34.6037596,135.503686
43725,"",Ｍ＆Ｋ岡崎店,愛知県岡崎市羽根西３丁目２−１,34.9295259,137.155644
51825,"",ＮＥＯＰＡＳＡ浜松上り店,静岡県浜松市浜名区大平３６,34.9905768,138.2985169
44031,"",ＮＥＯＰＡＳＡ浜松下り店,静岡県浜松市浜名区都田町７８２２−７,34.8406618,137.7485042
46058,"",ＮＥＯＰＡＳＡ清水店,静岡県静岡市清水区小河内８８５−１５,35.1315562,138.512634
46328,"",ＮＥＯＰＡＳＡ駿河湾沼津下り店,静岡県沼津市根古屋９１９−１,35.1519025,138.8113894
44557,"",Ｐａｓａｒ幕張下り店,千葉県千葉市花見川区幕張町２丁目２６５１−１,35.6714046,140.0536754
46925,"",ＱＶＣスクエア店,千葉県千葉市美浜区ひび野２丁目１−１,35.6469279,140.03916
46032,"",ＶＺＯＮＥ我孫子店,千葉県我孫子市柴崎４６−１,35.877921,140.0301608
43731,"",ＷＡＮＺＡ有明店,東京都江東区有明３丁目６−１１,35.6305023,139.7902247
45852,"",かすみがうら稲吉南店,茨城県かすみがうら市稲吉南３丁目１−４４,36.1270993,140.2430176
45084,"",ベイスターズ通り店,神奈川県横浜市中区弁天通２丁目２１ アトム関内ビル 1F,35.447238,139.639823
44271,"",三重大学店,三重県津市栗真町屋町１５７７,34.7426514,136.5252264
44007,"",上野中瀬インター店,三重県伊賀市荒木５３７−１,34.7719688,136.1587666
44569,"",下妻店,茨城県下妻市本宿町２−６０,36.1874407,139.9688575
51787,"",丸之内ヘリオス１０００丸亀店,香川県丸亀市金倉町１７６番地１０,34.2593836,133.7797914
75571,"",五百川ＰＡ上り店,福島県郡山市熱海町玉川字牧場山１番地９０号（磐越自動車道 五百川上りＰＡ内）,37.4868375,140.3169566
75572,"",五百川ＰＡ下り店,福島県郡山市熱海町玉川字牧場山１番地８４号（磐越自動車道 五百川下りＰＡ内）,37.484879,140.3152883
45864,"",加納８丁目店,大阪府東大阪市加納８丁目６−３,34.6978791,135.6186683
46657,"",売市２丁目店,青森県八戸市売市二丁目1番9号,40.5077378,141.4770124
46452,"",大阪諸口５丁目店,大阪府大阪市鶴見区諸口５丁目浜１４番２号,34.7041891,135.5844595
51788,"",守谷板戸井店,茨城県守谷市板戸井１７５１−３０,35.9706712,139.9478256
111107,"",小川御林店,愛知県安城市小川町金政606番地17,34.909521561167175,137.08452821651855
51843,"",岸和田尾生町店,大阪府岸和田市尾生町537-1,34.4426655,135.4123825
53004,"",日田鎌手店,大分県日田市大山町西大山５８８６番地１,33.2283053,130.9821965
46500,"",東大阪衣摺店,大阪府東大阪市衣摺6丁目13番9号,34.6384846,135.5665161
93665,"",江東橋２丁目店,東京都墨田区江東橋2-2-8,35.6935914,139.8131077
37359,"",甲子園六番町店,兵庫県西宮市甲子園六番町１６−５,34.7244253,135.3637526
37349,"",町田忠生店,東京都町田市忠生２丁目１−１,35.5742438,139.4254898
46026,"",相模原協同病院店,神奈川県相模原市緑区橋本台４丁目３−１,35.5892153,139.3247643
47367,"",福島大笹生インター店,福島県福島市大笹生字細柳4--1,37.797936,140.4104526
51789,"",福島黒岩店,福島県福島市田部屋２１−１,37.7266571,140.4647085
46677,"",都島友渕町店,大阪府大阪市都島区友渕町２丁目１１−１３,34.7148903,135.5293252
47230,"",静岡済生会総合病院店,静岡県静岡市駿河区小鹿一丁目1番1号 静岡済生会総合病院内,34.9755611,138.4135675
51842,"",館林近藤町店,群馬県館林市近藤町５７１−１,36.2406357,139.4990646
75679,"",Ｍ＆Ｋ西尾店,愛知県西尾市上町南又七山４１,34.872243,137.046106
45395,"",ＭＳ＆コスモ佐倉生谷店,千葉県佐倉市生谷７８９−１,35.707885,140.184222
46476,"",ＮＥＯＰＡＳＡ駿河湾沼津上り店,静岡県沼津市根古屋９９８−２７,35.1545275,138.8056584
