store_id,pref_id,shop_name,address,lat,lon
0000001054,"",イオンモール新利府南館,宮城県宮城郡利府町新中道3-1-1,38.321361,140.976448
0000001055,"",ビバモール蕨錦町,埼玉県蕨市錦町1-12-1,35.818062,139.681398
0000001057,"",東京スカイツリータウン・ソラマチ店,東京都墨田区押上1-1-2　イーストヤード１階,35.70728,139.815628
0000001058,"",イオンモール川口店,埼玉県川口市安行領根岸３１８０,35.834502,139.727656
0000001059,"",池袋サンシャインシティアルタ店,東京都豊島区東池袋3-1-3　サンシャインシティワールドインポートマートビルB1,35.725719,139.723159
0000001060,"",イオンモール白山店,石川県白山市横江町5001番地,36.541499,136.584979
0000001061,"",ピエリ守山店,滋賀県守山市今浜町2620-5　ピエリ守山2階フードテラス内,35.119571,135.94733
0000001062,"",則武新町店,愛知県名古屋市西区則武新町3丁目1番17号,35.176745,136.883436
0000001063,"",京王クラウン街笹塚店,東京都渋谷区笹塚1-56-1８,35.670935,139.670936
0000001064,"",SOCOLA南行徳店,千葉県市川市南行徳2丁目20番25号,35.66526,139.909011
0000001065,"",セブンパーク天美店,大阪府松原市天美東三丁目500番,34.587633,135.544071
0000001066,"",石神井公園北口店,東京都練馬区石神井町2-14-1,35.740628,139.61063
0000001067,"",イオン飯田店,長野県飯田市上郷飯沼1575,35.520111,137.853811
0000001068,"",To Go アトレヴィ三鷹店,東京都三鷹市下連雀三丁目46-4,35.699271,139.564175
0000001069,"",イオンタウン能代,秋田県能代市鰄渕字古屋布1番,40.185556,140.085967
0000001070,"",アリオ加古川店,兵庫県加古川市別府町緑町2,34.725429,134.852054
0000001071,"",ららぽーと福岡店,福岡県福岡市博多区那珂6-23-1,33.561628,130.441882
0000001072,"",ジョイフル本田瑞穂店,東京都西多摩郡瑞穂町殿ケ谷442,35.757777,139.361144
0000001073,"",カメイドクロック店,東京都江東区亀戸6-31-6,35.69286,139.832358
0000001074,"",本厚木ミロード店,神奈川県厚木市泉町1-1,35.436107,139.367471
0000001075,"",THE OUTLETS KITAKYUSHU店,福岡県北九州市八幡東区東田4-1-1,33.869863,130.814016
0000001076,"",和光イトーヨーカドー店,埼玉県和光市丸山台1-9-3 イトーヨーカドー和光店,35.783252,139.615608
0000001077,"",武蔵浦和マーレ店,埼玉県さいたま市南区白幡5-19-19,35.841232,139.65085
0000001078,"",アル・プラザ ベル店,福井県福井市花堂南2-16-1,36.030107,136.215053
0000001079,"",MEGAドン・キホーテ函館店,北海道函館市美原1-7-1,41.81095,140.759857
0000001080,"",To Go 明大前店,東京都世田谷区松原2-45-1,35.665227,139.653605
0000001081,"",シーナシーナ花巻店,岩手県花巻市下小舟渡118-1,39.390271,141.121343
0000001083,"",ディアモール大阪店,大阪府大阪市北区梅田1丁目大阪駅前ダイヤモンド地下街3,34.697768,135.501151
0000001084,"",新潟万代シテイ店,新潟県新潟市中央区万代1-6-1　バスセンタービル2階,37.913449,139.058666
0000001085,"",マリンコープDORA店,岩手県宮古市小山田2-2-1,39.629476,141.945568
0000001086,"",イオンモール土岐店,岐阜県土岐市土岐津町　土岐口1372-1,35.342478,137.156973
0000001087,"",さんちか店,兵庫県神戸市中央区三宮町1-10-1,34.689277,135.197494
0000001088,"",イオン天王町ショッピングセンター店,神奈川県横浜市保土ケ谷区川辺町3-5,35.454633,139.602929
0000001089,"",ららぽーと堺店,大阪府堺市美原区黒山22-1,34.537374,135.563526
0000001090,"",千音寺店,愛知県名古屋市中川区千音寺土地区画整理組合78街区の1,35.160855,136.810879
0000001091,"",アトレ川崎店,神奈川県川崎市川崎区駅前本町26-1 アトレ川崎3階,35.527749,139.700491
0000001092,"",南砂町SUNAMO店,東京都江東区新砂3-4-31,35.661898,139.838481
0000001093,"",エスパル仙台店,宮城県仙台市青葉区中央1-1-1　エスパル仙台東館2階,38.25677,140.886753
0000001094,"",To Go ビーンズ阿佐ヶ谷店,東京都杉並区阿佐谷南3-58-1 　2階2-1,35.70161,139.638338
0000001095,"",名駅地下街サンロード店,愛知県名古屋市中村区名駅4-7-25,35.166229,136.887832
0000001096,"",To Go 新宿ミロード店,東京都新宿区西新宿1-1-3 小田急新宿ミロード1階,35.685791,139.702652
0000001097,"",To Go らびすた新杉田店,神奈川県横浜市磯子区杉田1-1-1　2階,35.382596,139.622331
0000001098,"",To Go 大和プロス店,神奈川県大和市大和東1-1-1　大和プロス1階,35.466633,139.464897
0000001099,"",イオンなかま店,福岡県中間市上蓮花寺1-1-1,33.820041,130.725557
0000001100,"",カトレヤプラザ伊勢佐木店,神奈川県横浜市中区伊勢佐木町1-5-4,35.441665,139.636156
0000001101,"",イオンモール豊川店,愛知県豊川市白鳥町兎足1-16,34.822061,137.353956
0000001102,"",イオンタウン四日市泊店,三重県四日市市泊小柳町4-5-1,34.934729,136.604119
0000001103,"",ららぽーと門真店,大阪府門真市松生町1-11　ららぽーと門真1階,34.728206,135.587065
0000001106,"",ジ アウトレット湘南平塚店,神奈川県平塚市大神字一ノ堰605,35.388222,139.366359
0000001108,"",ジョイホンパーク吉岡店,群馬県北群馬郡吉岡町大久保（大字）364-1,36.426493,139.023869
0000001109,"",御堂筋本町店,大阪府大阪市中央区安土町3-5-6,34.681321,135.504294
0000001110,"",鹿沼ロードサイド店,栃木県鹿沼市西茂呂1-4-12,36.55283,139.769569
0000001111,"",新宿サブナード店,東京都新宿区歌舞伎町1丁目 サブナード1号,35.690467,139.70358
0000001112,"",EKIZO神戸三宮店,兵庫県神戸市中央区加納町4-2-1,34.689854,135.195527
0000001114,"",ゆめタウン飯塚店,福岡県飯塚市菰田西3-6-1,33.629338,130.687938
0000001115,"",ヒタチエ店,茨城県日立市幸町1-16-1,36.588678,140.662305
0000001116,"",アミュプラザ鹿児島店,鹿児島県鹿児島市中央町1-1　アミュプラザ鹿児島本館B1,31.580334,130.544069
0000001117,"",有明ガーデン店,東京都江東区有明2-1-8,35.635329,139.796072
0000001118,"",東山動植物園ZOOASISイースト店,愛知県名古屋市千種区田代町字瓶杁1?42東山動植物園ZOOASISイースト内,35.155288,136.976504
0000001119,"",ユアエルム八千代台店,千葉県八千代市八千代台東1-1-10,35.697018,140.094711
0000001120,"",パワーモール前橋みなみ店,群馬県前橋市新堀町991番地,36.326124,139.102843
0000001121,"",大宮ラクーン店,埼玉県さいたま市大宮区宮町1-60,35.904558,139.628891
0000001122,"",To Go 高円寺店,東京都杉並区高円寺南4-48-2,35.702146,139.653529
0000001123,"",西神プレンティ店,兵庫県神戸市西区糀台5-2-3 プレンティ専門店1番館,34.716165,135.022258
0000001124,"",To Go sononそのだ店,兵庫県尼崎市東園田町9-48-1,34.748929,135.450226
0000001125,"",アトレ浦和店,埼玉県さいたま市浦和区高砂1-16-12,35.856202,139.660238
0000001126,"",ふかや花園プレミアム・アウトレット店,埼玉県深谷市花園1番地（705区画）,36.129793,139.252778
0000001127,"",JR玉造駅店,大阪府大阪市天王寺区玉造元町1-40,34.670665,135.535745
0000001128,"",ビエラ野田店,大阪府大阪市福島区吉野3-1-12,34.685735,135.477669
0000001129,"",To Go 柏高島屋ステーションモール店,千葉県柏市末広町1-1　柏高島屋ステーションモールS館2階202区画,35.859277,139.974
0000001130,"",高知高須ロードサイド店,高知県高知市高須新町4-1-4,33.553204,133.580908
0000001131,"",デイリーカナート天下茶屋店,大阪府大阪市西成区岸里1-1-95,34.634318,135.498638
0000001132,"",ToGoエキア越谷店,埼玉県越谷市弥生町4-44,35.885668,139.788706
0000001133,"",ToGoフレスト寝屋川店,大阪府寝屋川市早子町16-10,34.760362,135.623252
0000001134,"",新座ロードサイド店,埼玉県新座市野火止6-3-35,35.798432,139.563149
0000001135,"",ららテラス HARUMI FLAG 店,東京都中央区晴海5-2-31,35.647588,139.777811
0000001136,"",ルクア大阪店,大阪府大阪市北区梅田３丁目１-３ B2  LUCUA FOOD HALL,34.699865,135.497799
0000001137,"",シャポー小岩店,東京都江戸川区南小岩7-24-15,35.729741,139.884924
0000001138,"",アル・プラザ八日市店,滋賀県東近江市八日市　浜野町3-1,35.111623,136.199968
0000001139,"",To Go 新綱島店,神奈川県横浜市港北区綱島東1丁目9-9,35.532878,139.638991
0000001140,"",To Go 大宮駅店,埼玉県さいたま市大宮区錦町630 JR大宮駅北口改札内,35.903235,139.627521
0000001141,"",クロス向ヶ丘店,神奈川県川崎市多摩区登戸2779-1,35.61211,139.569228
0000001142,"",To Goリトナード高井戸店,東京都杉並区高井戸西2-1-26,35.680107,139.618274
0000001143,"",いこらもーる泉佐野店,大阪府泉佐野市下瓦屋2-868-1,34.418835,135.329897
0000001144,"",To Go ラ・パーク瑞江店,東京都江戸川区瑞江2-1-2,35.689557,139.899964
0000001145,"",しずてつストア藤枝駅南店,静岡県藤枝市田沼1-18-1,34.844899,138.256898
0000001146,"",渋谷サクラステージ店,東京都渋谷区桜丘町1-4　渋谷サクラステージSHIBUYAサイド1階,35.653899,139.705144
0000001147,"",イオンフードスタイル港南台店,神奈川県横浜市港南区港南台3-1-2,35.372477,139.580375
0000001148,"",SOCOLA所沢店,埼玉県所沢市北秋津592番,35.781057,139.484393
0000001149,"",三田店,東京都港区芝5-14-15,35.645143,139.748094
0000001150,"",アピタ知立店,愛知県知立市長篠町大山18-1,34.994556,137.055987
0000001151,"",エキア竹ノ塚店,東京都足立区西竹の塚2-1-2,35.791359,139.793833
0000001152,"",あびこ駅前店,大阪府大阪市住吉区苅田7-12-34,34.596148,135.516057
0000001153,"",To Go 大森ララ店,東京都大田区山王2-1-5　大森ララビル1階,35.586857,139.731411
0000001155,"",セントシティ北九州店,福岡県北九州市小倉北区京町3-1-1,33.881793,130.884937
0000001156,"",To Go 戸塚モディ店,神奈川県横浜市戸塚区戸塚町10,35.398218,139.537798
0000001157,"",ラスカ平塚店,神奈川県平塚市宝町1-1　1階1611号,35.325018,139.353625
0000001158,"",小田急マルシェ狛江店,東京都狛江市元和泉1-2-2,35.629387,139.580993
0000001159,"",西中島南方店,大阪府大阪市淀川区西中島3-23-26,34.724535,135.501977
0000001160,"",横浜ワールドポーターズ店,神奈川県横浜市中区新港2-2-1,35.451188,139.641623
0000001161,"",大和高田ロードサイド店,奈良県大和高田市神楽253-1,34.521176,135.746335
0000001162,"",ゆめが丘ソラトス店,神奈川県横浜市泉区ゆめが丘31番地,35.401872,139.485969
0000001163,"",MEGAドン・キホーテ西帯広店,北海道帯広市西21条南4-1,42.909572,143.147666
0000001164,"",To Go 江古田駅前店,東京都練馬区旭丘1-78-5,35.734085,139.676336
0000001165,"",ToGo阪急茨木市駅店,大阪府茨木市永代町1-5,34.813526,135.578555
0000001166,"",三田ロードサイド店,兵庫県三田市対中町12-5,34.875896,135.230351
0000001167,"",アミュプラザくまもと店,熊本県熊本市西区春日3-15-26,32.78542,130.690951
0000001168,"",エミテラス所沢店,埼玉県所沢市東住吉10-1,35.782489,139.4738
0000001169,"",センテラス天文館店,鹿児島県鹿児島市千日町1-1,31.586696,130.556918
0000001170,"",横浜ポルタ店,神奈川県横浜市西区高島2-16,35.460116,139.623113
0000001171,"",仙台一番町stear店,宮城県仙台市青葉区一番町3-8-8　一番町Stear2階,38.258157,140.875513
0000001172,"",大蔵谷ロードサイド店,兵庫県神戸市西区伊川谷町有瀬638-1,34.65878,135.025791
0000001174,"",レイリア久留米店,福岡県久留米市東町上天神田316-2,33.30929,130.523438
0000001175,"",河内小阪駅店,大阪府東大阪市小阪1-8-6,34.660796,135.584522
0000001176,"",To Go 駒沢大学駅店,東京都世田谷区上馬4?3,35.630832,139.664866
0000001177,"",あべのHoop店,大阪府大阪市阿倍野区阿倍野筋1-2-30,34.641993,135.516474
0000001178,"",LICOPA東大和店,東京都東大和市桜が丘2-142-1,35.732638,139.427411
0000001179,"",マリンピア神戸店,兵庫県神戸市垂水区海岸通12?2 マリンピア神戸2階フードコート,34.622859,135.051809
0000001180,"",シャポー船橋店,千葉県船橋市本町7-1-1　シャポー船橋本館1階,35.698376,139.988452
0000001181,"",イオンタウン湖南店,滋賀県湖南市岩根4580,34.991861,136.111216
0000001182,"",大和八木駅店,奈良県橿原市内膳町5-1-2,34.509746,135.794463
0000001183,"",イオンタウン楽々園店,広島県広島市佐伯区楽々園4-14-25,34.359098,132.353945
0000001184,"",茗荷谷駅前店,東京都文京区小日向4-6-18,35.714193,139.740208
0000001185,"",To Go アルビ住道店,大阪府大東市住道2-3-1,34.703024,135.623948
0000001186,"",山陽垂水駅店,兵庫県神戸市垂水区神田町1-20,34.626026,135.056591
0000001187,"",TXアベニュー八潮店,埼玉県八潮市大瀬6-5-1,35.804129,139.847655
0000001188,"",シャポー本八幡店,千葉県市川市八幡2-130-2,35.718226,139.930331
0000001189,"",仙川島忠ホームズ店,東京都調布市若葉町2-1-7,35.655662,139.589997
0000001190,"",香芝ロードサイド店,奈良県香芝市上中269-1,34.554443,135.70316
0000001191,"",イオン上磯店,北海道北斗市七重浜4-44-1,41.819341,140.714463
0000001192,"",鶴見西口店,神奈川県横浜市鶴見区豊岡町2番3号 ツルミフーガ3-103号,35.50565,139.678208
0000001193,"",フレスト松井山手店,京都府京田辺市山手中央2-2,34.829703,135.72961
0000001194,"",浜松和田店,静岡県浜松市中央区和田町672,34.720418,137.776269
0000001195,"",宝塚小林店,兵庫県宝塚市小林4-7-54,34.788998,135.35928
0000001196,"",浅草駅前店,東京都台東区雷門2-18-16,35.706921,139.799894
0000001197,"",多治見店,岐阜県多治見市白山町4-6-1,35.337711,137.119977
0000001198,"",菊川駅前店,東京都墨田区菊川3-7-4,35.684996,139.809488
0000001199,"",そよら海老江店,大阪府大阪市福島区海老江1-5-52,34.694485,135.479052
0000001200,"",水天宮前店,東京都中央区日本橋蛎殻町1-39-7,35.680207,139.787783
0000001201,"",巣鴨駅前店,東京都豊島区巣鴨1-18-9,35.729196,139.742658
0000001202,"",立川髙島屋S.C.店,東京都立川市曙町2-39-3,35.69771,139.416391
0000001203,"",マリエとやま店,富山県富山市桜町1-1-61,36.697357,137.216922
0000001204,"",イオンマリナタウン店,福岡県福岡市西区豊浜3-1-10,33.586056,130.336168
0000001205,"",甲東園店,兵庫県西宮市松籟荘11-18　アプリーニョ103,34.763246,135.361702
0000001206,"",蘇我島忠ホームズ店,千葉県千葉市中央区川崎町55-3　ホームズ蘇我店1階,35.581627,140.126778
0000001207,"",青山店,東京都渋谷区神宮前5-52-2　青山オーバルビル B1F,35.659571,139.712242
0000001208,"",イオン旭川春光ショッピングセンター店,北海道旭川市春光町10-2,43.790634,142.360065
0000001209,"",minanoba相模原店,神奈川県相模原市南区南台3-1-27,35.517653,139.427522
0000001210,"",イオンスタイル松山店,愛媛県松山市天山町13-5,33.820364,132.778996
0000001211,"",町田パリオ店,東京都町田市森野1-15-13,35.539992,139.447165
0000001212,"",十条駅前店,東京都北区上十条2-27-1,35.756907,139.724797
0000001215,"",コロワ甲子園店,兵庫県西宮市甲子園高潮町3－3,34.720629,135.364738
0000000001,"",グレンデール麻布店,東京都港区南麻布4-5-2　ナショナル麻布スーパー内,35.648063,139.727358
0000000004,"",吉祥寺店,東京都武蔵野市吉祥寺本町1-4-18,35.700066,139.582299
0000000007,"",布施店,大阪府東大阪市長堂3-1-1-27,34.661045,135.570485
0000000009,"",船橋イトーヨーカドー店,千葉県船橋市本町7-6-1　イトーヨーカドー内,35.700022,139.987585
0000000010,"",鶴見東口店,神奈川県横浜市鶴見区鶴見中央1-2-4　GSプラザ 1F,35.505238,139.680361
0000000011,"",君津店,千葉県君津市東坂田2-7-3,35.331913,139.896781
0000000012,"",聖蹟桜ヶ丘店,東京都多摩市関戸 1-1-5,35.648598,139.449119
0000000013,"",秋田駅前店,秋田県秋田市中通2-8-1　フォンテAKITA 2階,39.71355,140.131035
0000000015,"",小田原店,神奈川県小田原市栄町1-2-7,35.251911,139.160177
0000000016,"",六甲店,兵庫県神戸市灘区日尾町3-1-8,34.713619,135.239288
0000000017,"",矢口店,東京都大田区多摩川1-7-8,35.560284,139.702915
0000000018,"",赤羽アピレ店,東京都北区赤羽西1-5-1　赤羽アピレ1F,35.774097,139.723724
0000000019,"",湘南台ロードサイド店,神奈川県藤沢市湘南台7-36-6,35.389711,139.475069
0000000020,"",平塚ロードサイド店,神奈川県平塚市四之宮2-24-35,35.350428,139.359566
0000000022,"",熊本東バイパス店,熊本県熊本市東区健軍1-1-15,32.781683,130.749379
0000000023,"",瀬戸ロードサイド店,愛知県瀬戸市西原町1-82-1,35.208297,137.071233
0000000024,"",刈谷ロードサイド店,愛知県刈谷市日高町2-203,35.00246,136.999302
0000000026,"",宮前平店,神奈川県川崎市宮前区宮崎6-9-5,35.58639,139.581606
0000000027,"",新下関ロードサイド店,山口県下関市一の宮町2-14,33.99889,130.953092
0000000028,"",佐野ロードサイド店,栃木県佐野市植上町1584,36.301088,139.588744
0000000029,"",福井ロードサイド店,福井県福井市幾代2-1401-1,36.084372,136.230384
0000000030,"",富山ロードサイド店,富山県富山市太郎丸本町3-7-6,36.671843,137.213973
0000000031,"",館林ロードサイド店,群馬県館林市緑町2-23-1,36.234524,139.540386
0000000032,"",野田店,千葉県野田市中根36-1　野田ショッピングセンターノア内,35.944372,139.879043
0000000033,"",伊豆高原店,静岡県伊東市八幡野1180,34.876002,139.108328
0000000034,"",鹿児島宇宿店,鹿児島県鹿児島市宇宿2-1-8,31.541809,130.544371
0000000035,"",倉敷笹沖ロードサイド店,岡山県倉敷市笹沖362-7　ナンバホームセンター倉敷店,34.568115,133.772143
0000000036,"",八代店,熊本県八代市大手町2-4-25,32.504184,130.614092
0000000037,"",ゆめタウン南岩国店,山口県岩国市南岩国町1-20-30,34.131098,132.205388
0000000038,"",八戸ラピア店,青森県八戸市江陽2-14-1,40.519061,141.507058
0000000039,"",鳥取店,鳥取県鳥取市安長211-1,35.507841,134.205253
0000000040,"",久留米大善寺店,福岡県久留米市大善寺町宮本51-13,33.280403,130.488031
0000000041,"",備前店,岡山県備前市香登西167-1,34.724575,134.120929
0000000042,"",瑞浪ロードサイド店,岐阜県瑞浪市北小田町2-134,35.354664,137.247016
0000000043,"",岸和田ロードサイド店,大阪府岸和田市西之内町63-20,34.460774,135.397762
0000000046,"",神辺店,広島県福山市神辺町川南413-1,34.53505,133.370405
0000000047,"",土佐道路店,高知県高知市朝倉甲511-5,33.538364,133.498007
0000000048,"",那珂川ロードサイド店,福岡県那珂川市今光4-72,33.512172,130.432392
0000000049,"",西尾ロードサイド店,愛知県西尾市住崎町出崎 8-1,34.858713,137.043508
0000000050,"",高岡店,富山県高岡市木町5-29,36.758763,137.014888
0000000051,"",めじろ台ロードサイド店,東京都八王子市椚田町592-10,35.635058,139.311804
0000000052,"",羽村ロードサイド店,東京都羽村市神明台1-3-11,35.753236,139.322619
0000000053,"",児島店,岡山県倉敷市児島駅前1-84　ホームセンターナンバ児島店内,34.459312,133.805612
0000000054,"",桜新町店,東京都世田谷区新町2-25-16,35.628363,139.650113
0000000056,"",イオン大村店,長崎県大村市幸町25-200,32.898293,129.956513
0000000057,"",御殿場ロードサイド店,静岡県御殿場市萩原86-6,35.308396,138.929918
0000000058,"",プラザハウス店,沖縄県沖縄市久保田3-1-7,26.315443,127.795566
0000000059,"",イオンタウン茅野店,長野県茅野市大字米沢303　イオンタウン茅野店内,36.009204,138.177382
0000000060,"",ビバシティ彦根店,滋賀県彦根市竹ケ鼻町43-1　ビバシティ彦根正面入口横,35.240555,136.253255
0000000062,"",金沢久安店,石川県金沢市久安2-326,36.531444,136.635207
0000000063,"",富山アピタ店,富山県富山市上袋100,36.657694,137.214533
0000000064,"",宇都宮竹林店,栃木県宇都宮市竹林町416,36.576343,139.911881
0000000065,"",沼津インター店,静岡県沼津市岡一色197,35.121316,138.882378
0000000066,"",南松本店,長野県松本市野溝西1-6-27　1F,36.201021,137.95523
0000000067,"",溝口店,神奈川県川崎市高津区溝口1-4-1　丸井溝口店1F,35.59571,139.616119
0000000068,"",鶴川店,東京都町田市能ケ谷1-6-11　小田急マルシェ鶴川内,35.580182,139.484637
0000000069,"",ラクア緑井店,広島県広島市安佐南区緑井5-22-1　ラクア緑井1Ｆ,34.463653,132.480533
0000000070,"",飯塚かやの森店,福岡県飯塚市柏の森56-1,33.64026,130.706033
0000000071,"",イオン穂波店,福岡県飯塚市枝国長浦666-48,33.633651,130.675938
0000000072,"",イオンモール宇城店,熊本県宇城市小川町河江1-1,32.593362,130.710153
0000000073,"",五所川原エルム店,青森県五所川原市大字唐笠柳字藤巻517-1　エルムの街1Ｆ,40.796359,140.457412
0000000074,"",ニューポートひたちなか店,茨城県ひたちなか市新光町34-1　ジョイフル本田フードコート内,36.404845,140.589545
0000000077,"",昭島店,東京都昭島市代官山2-3-1　モリタウン昭島SC東館2F,35.710569,139.365132
0000000078,"",練馬関町ロードサイド店,東京都練馬区関町北4-35-25,35.728106,139.58039
0000000079,"",水戸堀町店,茨城県水戸市堀町1133-35,36.393118,140.43432
0000000080,"",袋井パティオ店,静岡県袋井市上山梨4丁目1-2,34.782243,137.905792
0000000081,"",石井バイパス店,徳島県名西郡石井町高川原字桜間273-9,34.081443,134.464939
0000000082,"",マンボウ小松店,石川県小松市長田町口4-1　マンボウ1F,36.417681,136.478978
0000000083,"",備中高松店,岡山県岡山市北区小山531番地　ナンバホームセンター内,34.691368,133.813361
0000000084,"",南宮崎店,宮崎県宮崎市中村西3-4-14,31.89254,131.419068
0000000085,"",イオンモール日吉津店,鳥取県西伯郡日吉津村日吉津1160-1　イオンモール日吉津　2階フードコート,35.442714,133.389537
0000000086,"",ゆめタウン福山店,広島県福山市入船町3-1-60　ゆめタウン福山店1階フードコート,34.483671,133.381237
0000000088,"",横須賀モアーズシティ店,神奈川県横須賀市若松町2-30-0122,35.274993,139.673271
0000000089,"",アメリカンワールド北上店,岩手県北上市北鬼柳32-44,39.283318,141.10817
0000000090,"",イオン豊科店,長野県安曇野市豊科4272-10,36.298228,137.910794
0000000091,"",イオン古川店,宮城県大崎市古川旭2-2-1,38.564221,140.976436
0000000092,"",リップス長岡川崎店,新潟県長岡市川崎町1436-5,37.455532,138.880313
0000000093,"",MEGAドン・キホーテUNY佐原東店,茨城県稲敷市西代1480　MEGAドン・キホーテUNY佐原東店1階,35.915161,140.490666
0000000094,"",帯広イーストモール店,北海道帯広市東5条南16-3-1,42.91263,143.218813
0000000095,"",青森浪館店,青森県青森市浪館前田4-10-36,40.807836,140.721376
0000000096,"",イオン高萩店,茨城県高萩市安良川239-2,36.702455,140.712847
0000000098,"",出雲ドーム店,島根県出雲市平野町408　ナンバホームセンター店内,35.381621,132.745677
0000000099,"",港南台ロードサイド店,神奈川県横浜市港南区港南台5-9-6,35.365235,139.583487
0000000100,"",イオン仙台中山店,宮城県仙台市泉区南中山1-35-40　イオン仙台中山店 3Fフードコート内,38.294934,140.830618
0000000101,"",糀谷店,東京都大田区萩中2-9-1,35.548191,139.733067
0000000102,"",大仁アピタ店,静岡県伊豆の国市吉田字九十分153-1,34.996538,138.939329
0000000103,"",フジグラン東広島店,広島県東広島市西条町御薗宇4405　フジグラン1F,34.405058,132.752177
0000000104,"",静岡高松ロードサイド店,静岡県静岡市駿河区高松2-5-6,34.951449,138.423055
0000000105,"",富士エンチョー店,静岡県富士市永田北町4-5　エンチョー富士店1階,35.161356,138.681858
0000000106,"",米子店,鳥取県米子市西福原9丁目1287-6　ラ・ムー米子北店内,35.45192,133.341802
0000000107,"",水沢店,岩手県奥州市水沢区佐倉河字川原田80-1,39.142612,141.153542
0000000108,"",江南ロードサイド店,愛知県江南市野白町葭場62,35.343091,136.87397
0000000109,"",田無アスタ店,東京都西東京市田無町2-1-1,35.724983,139.543948
0000000110,"",新安城ロードサイド店,愛知県安城市住吉町3-6,34.977895,137.084088
0000000111,"",アクタ西宮店,兵庫県西宮市北口町1-1　アクタ西宮　西棟2F,34.744075,135.360186
0000000112,"",くりえいと宗像店,福岡県宗像市くりえいと1-6-3,33.810098,130.566958
0000000114,"",八潮店,埼玉県八潮市伊草1丁目4番地18,35.828186,139.832833
0000000115,"",篠ノ井店,長野県長野市篠ノ井布施五明292-3,36.575456,138.138321
0000000117,"",神栖カスミ店,茨城県神栖市大野原4-1-41　カスミ神栖内,35.893906,140.644618
0000000118,"",諫早ロードサイド店,長崎県諫早市小川町90-1,32.828431,130.057428
0000000119,"",東川口店,埼玉県川口市東川口3丁目5番35号　ベルグランデ101,35.875031,139.748128
0000000120,"",金沢元町店,石川県金沢市元町2丁目197番地,36.578076,136.667669
0000000121,"",プレ葉ウォーク浜北店,静岡県浜松市浜名区貴布祢1200　プレ葉ウォーク浜北2Fフードコート,34.79439,137.782391
0000000122,"",伊丹ロードサイド店,兵庫県伊丹市瑞ヶ丘1-41,34.789723,135.402169
0000000123,"",津駅チャム店,三重県津市羽所町官有地　チャム1F,34.730427,136.513691
0000000124,"",海老名ビナウォーク店,神奈川県海老名市中央1-6-1丸井1F,35.449547,139.396704
0000000125,"",重信フジグラン店,愛媛県東温市野田3-1-13　フジグラン重信1F,33.792335,132.836166
0000000126,"",浜松高丘店,静岡県浜松市中央区高丘西3-51-1,34.759032,137.701308
0000000128,"",おのだサンパーク店,山口県山陽小野田市中川6-4-1,33.982161,131.173092
0000000129,"",イオン中野店,長野県中野市大字一本木字若宮252-1,36.755635,138.375329
0000000130,"",パークプレイス大分店,大分県大分市公園通り西2-1　パークプレイス大分内,33.191952,131.660359
0000000131,"",八女店,福岡県八女市馬場54-4　ハリカ八女店内,33.209843,130.572957
0000000132,"",松原三宅ロードサイド店,大阪府松原市三宅中1-12-3,34.582696,135.553461
0000000133,"",小杉店,富山県射水市三ケ2457-3,36.712543,137.092663
0000000135,"",茨木清水ロードサイド店,大阪府茨木市南清水町1-6,34.832911,135.537638
0000000136,"",池袋店,東京都豊島区東池袋1-2-11,35.726632,139.717103
0000000137,"",メッセアミューズモール店,千葉県千葉市美浜区ひび野1-8,35.646634,140.045738
0000000138,"",ゆめタウン高松店,香川県高松市三条町字中所608-1　1階中央広場前,34.31288,134.044139
0000000139,"",イオンモール釧路昭和店,北海道釧路市昭和中央4-18-1　イオンモール釧路昭和 2Fフードコート,43.024447,144.364293
0000000140,"",ゆめタウン博多店,福岡県福岡市東区東浜1-1-1　本館2F,33.608273,130.414013
0000000141,"",連島店,岡山県倉敷市亀島1-32-11リカーボンバーズ連島店内,34.536761,133.730873
0000000142,"",浜松西店,静岡県浜松市中央区入野町6038-1,34.69591,137.696341
0000000143,"",四条河原町店,京都府京都市中京区河原町通四条上ル米屋町388　四条河原町上ル東側,35.00101,135.772298
0000000144,"",大田原東武店,栃木県大田原市美原1-3537-2,36.859041,140.012615
0000000145,"",相模原横山店,神奈川県相模原市中央区横山台2-6-1,35.562893,139.363905
0000000146,"",イオンモール高岡店,富山県高岡市下伏間江383　イオンモール高岡,36.720606,137.020378
0000000148,"",平針店,愛知県名古屋市天白区平針2-706,35.120743,137.010717
0000000149,"",鶴岡 S-MALL店,山形県鶴岡市錦町2-21,38.736044,139.835254
0000000151,"",富山天正寺店,富山県富山市秋吉亀田割59-1,36.675675,137.253507
0000000153,"",イオンモール札幌平岡店,北海道札幌市清田区平岡3条5-3-1　イオンモール札幌平岡 1Fフードコート内,42.995474,141.462726
0000000154,"",シーナシーナ弘前店,青森県弘前市大字駅前3-2-1　シーナシーナ弘前店1F,40.596813,140.484533
0000000155,"",高槻別所店,大阪府高槻市古曽部町2-22-20,34.855226,135.627737
0000000156,"",松山フジグラン店,愛媛県松山市宮西1-2-1　フジグラン松山1F,33.841754,132.75534
0000000157,"",松江田和山店,島根県松江市田和山町85番地,35.436841,133.053996
0000000158,"",イオンモール成田店,千葉県成田市ウイング土屋24,35.792563,140.320867
0000000159,"",イオンモール富谷店,宮城県富谷市大清水1丁目33番地1　イオンモール富谷1F,38.362149,140.878858
0000000160,"",モラージュ佐賀店,佐賀県佐賀市巨勢町大字牛島730-111,33.249134,130.320895
0000000161,"",武蔵中原マルエツ店,神奈川県川崎市中原区下小田中1-28-1,35.576017,139.642338
0000000162,"",MEGAドン・キホーテUNY福井店,福井県福井市飯塚町第11号111　MEGAドン・キホーテUNY福井店内1F,36.063221,136.186059
0000000163,"",南古谷ウニクス店,埼玉県川越市泉町3-1,35.902696,139.515633
0000000164,"",ゆめタウン夢彩都店,長崎県長崎市元船町10-1　ゆめタウン夢彩都BFフードコート,32.742903,129.872461
0000000165,"",枚方ベルパルレ店,大阪府枚方市宮之阪4-28-12,34.808719,135.666559
0000000166,"",二俣川西友店,神奈川県横浜市旭区二俣川2-52-1　西友二俣川店1F,35.458207,139.536767
0000000167,"",ゆめタウン筑紫野店,福岡県筑紫野市針摺東3-3-1　ゆめタウン本館1Fフードコート,33.480906,130.540771
0000000169,"",イオンモール札幌苗穂店,北海道札幌市東区東苗穂2条3-1-1　イオンモール札幌苗穂1F,43.077543,141.407444
0000000170,"",須坂店,長野県須坂市墨坂3-7-27,36.645534,138.306226
0000000171,"",FKDインターパーク店,栃木県宇都宮市インターパーク6-1-1　宇都宮インターパーク1F,36.487493,139.909851
0000000172,"",光が丘IMA店,東京都練馬区光が丘5-1-1　IMA専門店街2階,35.755661,139.631919
0000000173,"",フレスポ静岡店,静岡県静岡市清水区鳥坂860,35.010043,138.437413
0000000174,"",イオンモール盛岡店,岩手県盛岡市前潟4-7-1,39.708808,141.102661
0000000175,"",イオンモール扶桑店,愛知県丹羽郡扶桑町大字南山名字高塚5-1,35.358021,136.902316
0000000177,"",イオン札幌藻岩店,北海道札幌市南区川沿2条2-1-1　イオン札幌藻岩店 1Fフードコート,42.996826,141.340216
0000000178,"",イオンモール津田沼店,千葉県習志野市津田沼1-23-1　イオンモール津田沼1Fフードコート内,35.687188,140.027896
0000000179,"",イオン唐津店,佐賀県唐津市鏡字立神4671イオン唐津SC1F,33.433631,130.014611
0000000182,"",ゆめタウンはません店,熊本県熊本市南区田井島町1-2-1　ゆめタウンはません1F　1Fエレベーターホール横,32.768289,130.728659
0000000183,"",アピタ阿久比店,愛知県知多郡阿久比町椋岡徳吉1-12,34.917802,136.923672
0000000184,"",イオン市川妙典店,千葉県市川市妙典5-3-1　イオン市川妙典店1F,35.689712,139.931176
0000000185,"",岡崎竜美ケ丘店,愛知県岡崎市竜美南1-1-33,34.934958,137.169364
0000000186,"",ゆめタウン武雄店,佐賀県武雄市武雄町大字武雄4992　ゆめタウン武雄1 F ゆめ広場,33.185472,130.027197
0000000187,"",わらび店,埼玉県川口市芝新町4-28,35.826004,139.695505
0000000188,"",北千住店,東京都足立区千住3-92　北千住マルイ 1Fフードコート,35.747752,139.807589
0000000190,"",トキハわさだタウン店,大分県大分市玉沢字楠本755-1,33.18481,131.583092
0000000191,"",イオンモール下田店,青森県上北郡おいらせ町中野平40-1　イオンモール下田1F,40.599178,141.421198
0000000192,"",ステラタウン店,埼玉県さいたま市北区宮原町1-854-1　ステラモール1Ｆ,35.929915,139.626252
0000000193,"",MEGAドン・キホーテ長野店,長野県長野市高田1758　MEGAドン・キホーテ長野店1F,36.639296,138.219091
0000000194,"",大分D-Plaza店,大分県大分市新川西1-1-1　D-Plaza 1F,33.242933,131.608531
0000000195,"",アピタ大府店,愛知県大府市明成町4-133,35.018163,136.954551
0000000196,"",津久野イトーヨーカドー店,大阪府堺市西区下田町20-1,34.537928,135.467072
0000000197,"",エコールマミ店,奈良県香芝市真美ケ丘6-10　エコールマミ南館2階,34.541348,135.727135
0000000198,"",ゆめタウン行橋店,福岡県行橋市西宮市3-8-1,33.717095,130.970144
0000000200,"",キャナルシティ博多店,福岡県福岡市博多区住吉1-2　キャナルシティOPA B1F,33.586481,130.413473
0000000201,"",鎌倉店,神奈川県鎌倉市小町1-6-17,35.316199,139.554462
0000000202,"",和歌山国体ロードサイド店,和歌山県和歌山市三葛391-1,34.191281,135.188506
0000000205,"",日田IC店,大分県日田市大字渡里71-1　サニー日田SC別棟,33.332098,130.93759
0000000206,"",アル・プラザ鹿島店,石川県鹿島郡中能登町井田と部1-1,36.966876,136.910758
0000000207,"",イオン山形北店,山形県山形市馬見ケ崎2-12-19　イオン山形北店1F,38.279946,140.334233
0000000208,"",ゆめタウン光の森店,熊本県菊池郡菊陽町光の森7丁目33番地1　ゆめタウン光の森 本館1F,32.856883,130.786877
0000000209,"",ゆめタウン柳井店,山口県柳井市南町4-5-7　ゆめタウン1Fフードコート,33.95828,132.108126
0000000210,"",イオンモール木曽川店,愛知県一宮市木曽川町黒田字南八ツヶ池25-1　イオンモール木曽川3F,35.346053,136.776805
0000000211,"",吹田五月が丘店,大阪府吹田市五月が丘北2-2,34.786738,135.527936
0000000213,"",イオン上田ショッピングセンター店,長野県上田市常田2-12-18　イオン上田SC店2F,36.389266,138.260664
0000000214,"",パビリオンシティ田辺店,和歌山県田辺市稲成町新江原3165パビリオンシティC棟1F,33.740628,135.379743
0000000215,"",ロマンシティ御坊店,和歌山県御坊市湯川町財部181,33.894298,135.151563
0000000216,"",ゆめタウン浜田店,島根県浜田市港町227-1　ゆめタウン浜田3階フードコート,34.897474,132.074011
0000000217,"",厚木林相鉄ローゼン店,神奈川県厚木市林1-16-1,35.452141,139.354701
0000000218,"",ゆめタウン大川店,福岡県大川市上巻野口430-1　ゆめタウン大川1F,33.199437,130.39029
0000000220,"",ゆめタウン呉店,広島県呉市宝町5-10　ゆめタウン呉1階,34.238883,132.558648
0000000221,"",イオン多賀城店,宮城県多賀城市町前4-1-1,38.279437,141.008085
0000000222,"",イオン室蘭店,北海道室蘭市東町2-4-32　イオン室蘭店 1F,42.342682,141.02987
0000000224,"",明石イトーヨーカドー店,兵庫県明石市二見町西二見駅前1-18　イトーヨーカドー1Fフードコート内,34.702306,134.881126
0000000225,"",イオン茅ヶ崎中央ショッピングセンター店,神奈川県茅ヶ崎市茅ヶ崎3-5-16　イオン茅ヶ崎中央SC店3F,35.332766,139.405901
0000000226,"",倉吉店,鳥取県倉吉市東昭和町262シャディショップサンフラワー内,35.435863,133.844268
0000000227,"",イオン山崎店,兵庫県宍粟市山崎町中井字城下10　咲ランド イオン山崎1F,34.999069,134.546041
0000000229,"",イオンモール姫路大津店,兵庫県姫路市大津区大津町2-5　イオンモール姫路大津2Fフードコート,34.803512,134.609315
0000000230,"",イオンモール北戸田店,埼玉県戸田市美女木東1-3-1　イオンモール北戸田2Fフードコート内,35.823571,139.655583
0000000231,"",イオンスーパーセンター本荘店,秋田県由利本荘市石脇字田中138　イオン本荘SC内,39.388817,140.030448
0000000232,"",大和鶴間イトーヨーカドー店,神奈川県大和市下鶴間1-3-1　イトーヨーカドー大和鶴間店1F,35.487132,139.460129
0000000233,"",国領イトーヨーカドー店,東京都調布市国領町8-2-64　イトーヨーカドー国領店1F,35.643837,139.567447
0000000234,"",イオン岩見沢店,北海道岩見沢市大和4条8-1　イオン岩見沢店　1Fフードコート,43.182085,141.744926
0000000235,"",ヨークタウン野田店,福島県福島市野田町4-1-2,37.758113,140.457403
0000000236,"",イオンモールりんくう泉南店,大阪府泉南市りんくう南浜3-1　イオンモール2階フードコート内,34.377492,135.271678
0000000237,"",境長井戸店,茨城県猿島郡境町長井戸301-1,36.120324,139.804455
0000000238,"",イオンモール姫路リバーシティー店,兵庫県姫路市飾磨区細江2560番地,34.795271,134.671126
0000000239,"",イオン江別店,北海道江別市幸町35　イオン江別店 1F,43.094475,141.537194
0000000242,"",綾瀬東急ストア店,東京都足立区綾瀬3-1-2,35.758992,139.827611
0000000243,"",イオンモール与野店,埼玉県さいたま市中央区本町西5-2-9　イオンモール与野1F フードコート内,35.886963,139.618361
0000000244,"",刈谷オアシス店,愛知県刈谷市東境町吉野55　ハイウエイオアシス中央棟1F,35.037368,137.051759
0000000245,"",大森イトーヨーカドー店,東京都大田区大森北2-13-1　イトーヨーカドー大森店3F,35.583528,139.735929
0000000246,"",イオンタウン天理店,奈良県天理市東井戸堂町381,34.587621,135.827805
0000000248,"",半田ロードサイド店,愛知県半田市昭和町2-15,34.886603,136.925901
0000000249,"",オークワ南紀店,和歌山県新宮市佐野3-11-19,33.671803,135.972507
0000000250,"",アピタ刈谷店,愛知県刈谷市南桜町2-56-1,34.987778,137.007702
0000000251,"",土岐プレミアム・アウトレット店,岐阜県土岐市土岐ヶ丘1丁目2番地655区画,35.336994,137.168759
0000000252,"",くずはモール店,大阪府枚方市楠葉花園町15-1　くずはモール本館1F,34.857355,135.680901
0000000253,"",ゆめタウン大竹店,広島県大竹市晴海1-6-1　ゆめタウン大竹1階ゆめ広場前,34.23791,132.226024
0000000254,"",イオンモール苫小牧店,北海道苫小牧市柳町3-1-20　イオンモール苫小牧1階,42.654104,141.646775
0000000255,"",イオンモール新発田店,新潟県新発田市住吉町5-11-5　イオンモール新発田2F,37.939643,139.313184
0000000256,"",府中くるる店,東京都府中市宮町1-50　くるる1F,35.668312,139.484761
0000000257,"",ひなた山そうてつローゼン店,神奈川県横浜市泉区上飯田町4702-1,35.444349,139.486541
0000000259,"",イオンモール高知店,高知県高知市秦南町1-4-8　イオンモール高知1階,33.572038,133.544973
0000000260,"",アピタ高蔵寺店,愛知県春日井市中央台2-5　アピタ高蔵寺1F,35.27963,137.051864
0000000262,"",イオンモール宮崎店,宮崎県宮崎市新別府町江口862-1　イオンモール宮崎2F,31.919262,131.458642
0000000263,"",三郷スーパービバホーム店,埼玉県三郷市ピアラシティ1丁目1-140,35.838181,139.860418
0000000264,"",イオンタウン千種店,愛知県名古屋市千種区千種2-16-13　イオンタウン千種1F,35.158278,136.927161
0000000265,"",ラパーク成東店,千葉県山武市成東1808-1,35.592536,140.401174
0000000266,"",フレスポ東大阪店,大阪府東大阪市稲田新町3-9-64　不二家レストラン内,34.687328,135.594218
0000000268,"",立場イトーヨーカドー店,神奈川県横浜市泉区中田西1-1-15　イトーヨーカドー1階,35.410069,139.503515
0000000269,"",ゆめタウン八代店,熊本県八代市建馬町3-1　ゆめタウン八代1F,32.502644,130.587479
0000000271,"",イオンモール浜松市野店,静岡県浜松市中央区天王町字諏訪1981-3　イオンモール浜松市野2Fフードコート,34.737004,137.766374
0000000272,"",ゆめタウン山口店,山口県山口市大内千坊六丁目9番1号　ゆめタウン山口1Fフードコート,34.157074,131.494096
0000000273,"",アイ・モール高砂店,兵庫県高砂市米田町島83-1,34.782105,134.809881
0000000274,"",東武サウスヒルズ店,北海道標津郡中標津町南町3-10,43.533206,144.981842
0000000275,"",丸亀南店,香川県丸亀市川西町南808,34.240846,133.834814
0000000276,"",豊中ロマンチック街道店,大阪府豊中市少路2-10-1,34.801392,135.474318
0000000277,"",湘南モールフィル店,神奈川県藤沢市辻堂新町4-1-1　湘南モールフィル1F・プラスマーケット内,35.335572,139.468077
0000000278,"",イオン八事店,愛知県名古屋市昭和区広路町字石坂2-1　イオン八事1F,35.133558,136.966061
0000000279,"",イオンモール熊本店,熊本県上益城郡嘉島町大字上島字長池2232,32.733877,130.74731
0000000280,"",ブルメールHAT神戸店,兵庫県神戸市中央区脇浜海岸通2-2-2　ブルメールHAT神戸店2F,34.696426,135.217104
0000000281,"",イオン気仙沼店,宮城県気仙沼市赤岩舘下6-1　イオン気仙沼店1F,38.88602,141.576964
0000000282,"",熊本清水バイパス店,熊本県熊本市中央区坪井6-38-1,32.818656,130.72373
0000000283,"",静岡アピタ店,静岡県静岡市駿河区石田1-5-1,34.956241,138.404186
0000000284,"",イオンモール浜松志都呂店,静岡県浜松市中央区志都呂町5605　2階レストラン街,34.693379,137.654327
0000000285,"",コープデイズ豊岡店,兵庫県豊岡市加広町7-32　コープデイズ豊岡店1階,35.547714,134.819139
0000000286,"",ゆめタウン長府店,山口県下関市ゆめタウン1-1　ゆめタウン1Ｆ,34.027,131.015279
0000000287,"",イオンタウン須賀川店,福島県須賀川市古河105,37.295011,140.388168
0000000288,"",アル・プラザ金沢店,石川県金沢市諸江町30-1,36.58805,136.64606
0000000289,"",宇土シティ店,熊本県宇土市善道寺町綾織95　宇土シティ専門店街1Ｆフードコート横,32.679988,130.670522
0000000290,"",イオンモール水戸内原店,茨城県水戸市内原2丁目1番地　イオンモール水戸内原1Ｆ,36.371576,140.362992
0000000291,"",和歌山岩出ロードサイド店,和歌山県岩出市中島858-1　岩出パイパス幸の湯駐車場内,34.257103,135.300618
0000000292,"",さがみ野マルエツ店,神奈川県海老名市東柏ヶ谷5-14-6,35.466599,139.434631
0000000293,"",イオン喜連瓜破店,大阪府大阪市平野区瓜破2-1-13　イオン3階フードコート,34.605109,135.554692
0000000294,"",イオン東根店,山形県東根市さくらんぼ駅前三丁目7番15号　イオン新東根店,38.424111,140.390728
0000000296,"",一宮ロードサイド店,愛知県一宮市花池3-9-10,35.284267,136.79767
0000000297,"",olinas錦糸町店,東京都墨田区太平4-1-2　オリナスモール3Ｆ,35.697296,139.819269
0000000300,"",アル・プラザ京田辺店,京都府京田辺市田辺中央5-2-1　アル・プラザ京田辺店1階センターコート,34.818397,135.772118
0000000301,"",イズミヤ神戸玉津店,兵庫県神戸市西区森友3-7-3,34.660296,134.985564
0000000302,"",ザ・モール仙台長町店,宮城県仙台市太白区長町7-20-3,38.222794,140.88022
0000000303,"",アクロスプラザ三芳店,埼玉県入間郡三芳町大字藤久保字北新埜855-403　アクロスプラザ三芳2Ｆ,35.835248,139.52842
0000000304,"",足利コムファースト店,栃木県足利市朝倉町245,36.317116,139.452923
0000000305,"",川崎イトーヨーカドー店,神奈川県川崎市川崎区小田栄2-2-1　イトーヨーカドー川崎1階フードコート,35.511248,139.711924
0000000306,"",イオンモール八千代緑が丘店,千葉県八千代市緑が丘2-1-3　イオンモール八千代緑が丘4F,35.724732,140.076203
0000000307,"",イオンモール福岡伊都店,福岡県福岡市西区北原一丁目2-1　イオンモール福岡伊都3Fフードコート,33.574182,130.260337
0000000308,"",アピタ向山店,愛知県豊橋市向山町字中畑1-1　アピタ向山SC1F,34.751831,137.404378
0000000309,"",イオン県央店,新潟県燕市井土巻3-65,37.648243,138.938166
0000000312,"",アル・プラザ敦賀店,福井県敦賀市白銀町11-5　アル・プラザ敦賀1Ｆスナックプラザ,35.645023,136.074654
0000000314,"",イオンモールナゴヤドーム前店,愛知県名古屋市東区矢田南4-102-3　イオンモールナゴヤドーム前内,35.184051,136.948177
0000000315,"",ときわ台店,東京都板橋区前野町2-17-6　カリーノときわ台2階,35.760876,139.690392
0000000317,"",MEGAドン・キホーテUNY会津若松店,福島県会津若松市幕内南町9-10,37.480494,139.907663
0000000318,"",モレラ岐阜店,岐阜県本巣市三橋1100　モレラ岐阜1Ｆ,35.450772,136.675657
0000000319,"",イオンモール浦和美園店,埼玉県さいたま市緑区美園五丁目50番地1　イオンモール浦和美園3F,35.88776,139.734391
0000000320,"",イオンモール千葉ニュータウン店,千葉県印西市中央北3-2　モール棟3Fフードコート,35.799002,140.116414
0000000321,"",イオンタウンさくら店,栃木県さくら市桜野1551,36.686081,139.982969
0000000322,"",イオン加古川店,兵庫県加古川市平岡町新在家615-1　イオン加古川1Ｆ食品レジ前,34.745891,134.865066
0000000323,"",つかしん店,兵庫県尼崎市塚口本町4-8-1　ひがしまち南館1Fフードコート前,34.757843,135.422243
0000000324,"",イオンタウン真岡店,栃木県真岡市台町2668　イオンタウン真岡店内,36.429504,140.005045
0000000325,"",ゆめタウンサンピアン店,熊本県熊本市東区上南部2-2-2　ゆめタウンサンピアン1階食品売場前,32.823787,130.765734
0000000326,"",福岡高取店,福岡県福岡市早良区高取1-1-28　サニー高取店横,33.578231,130.354557
0000000327,"",イオンスーパーセンター鈎取店,宮城県仙台市太白区鈎取本町1-21-1,38.216681,140.840958
0000000328,"",ベイシアひだかモール店,埼玉県日高市大字森戸新田字藤久保88-5,35.910372,139.375611
0000000329,"",イオンスーパーセンター手稲山口店,北海道札幌市手稲区明日風6丁目1番1号,43.139515,141.237504
0000000330,"",イオン長浜店,滋賀県長浜市山階町271-1　イオン長浜店1F,35.393454,136.292706
0000000332,"",イオンモール奈良登美ヶ丘店,奈良県生駒市鹿畑町2501-1,34.722688,135.753232
0000000333,"",元住吉ブレーメン通り店,神奈川県川崎市中原区木月3-6-23,35.562204,139.653871
0000000334,"",豊橋牛川店,愛知県豊橋市南牛川2-8-15,34.770852,137.42429
0000000335,"",豊川南大通店,愛知県豊川市南大通5-5,34.814525,137.377058
0000000336,"",帯屋町アベニュー店,高知県高知市帯屋町1-13-23　帯屋町アーケード内アベニュー1階,33.556905,133.541479
0000000337,"",豊田下市場店,愛知県豊田市前田町5-6-3,35.059613,137.162829
0000000338,"",イオンモール新居浜店,愛媛県新居浜市前田町8-8　イオンモール新居浜店内,33.951064,133.270688
0000000341,"",小金井貫井南町店,東京都小金井市貫井南町2-2-29,35.688891,139.501047
0000000342,"",堺福田ロードサイド店,大阪府堺市中区福田1079-5,34.525661,135.526227
0000000343,"",都城店,宮崎県都城市吉尾町767-1,31.752228,131.084305
0000000344,"",はだの河原町店,神奈川県秦野市河原町3-48,35.365524,139.239618
0000000345,"",北岡崎店,愛知県岡崎市井田西町1-8,34.970472,137.161925
0000000346,"",イオンタウン金沢示野店,石川県金沢市戸板西1-55,36.577676,136.6195
0000000347,"",大船イトーヨーカドー店,神奈川県鎌倉市大船6-1-1　イトーヨーカドー大船店 1Fフードコート,35.350803,139.541563
0000000348,"",イオン光吉店,大分県大分市大字光吉825-1　イオン光吉店1階食品レジ前,33.196193,131.608755
0000000349,"",イオンモール大日店,大阪府守口市大日東町1-18　2Fフードコート,34.745342,135.583049
0000000350,"",カラフルタウン岐阜店,岐阜県岐阜市柳津町丸野3-3-6　カラフルタウン岐阜1Ｆ,35.360827,136.73043
0000000351,"",イオンモール盛岡南店,岩手県盛岡市本宮7-1-1　イオンモール盛岡南店内 3階フードコート,39.680776,141.132284
0000000353,"",イオンモール直方店,福岡県直方市湯野原2-1-1　イオンモール直方1階,33.765415,130.752088
0000000354,"",イオンモール高崎店,群馬県高崎市棟高町1400　イオンモール高崎 1Ｆ,36.387246,139.009989
0000000356,"",イオンモール佐賀大和店,佐賀県佐賀市大和町尼寺3535-1　イオンモール佐賀大和1階 正面中央入口横,33.301073,130.283043
0000000357,"",アリオ八尾店,大阪府八尾市光町2-3　アリオ八尾1Fフードコート,34.628233,135.608235
0000000358,"",南国サニーアクシス店,高知県南国市大そね乙1009-1　サニーアクシス南国店1階フードコート,33.562803,133.651151
0000000359,"",イオンモール札幌発寒店,北海道札幌市西区発寒8条12丁目　イオンモール札幌発寒内3階フードコート,43.093933,141.281416
0000000360,"",イオンモール鶴見緑地店,大阪府大阪市鶴見区鶴見4-17　イオンモール鶴見緑地3Fフードコート,34.700286,135.569794
0000000361,"",イオンモール神戸北店,兵庫県神戸市北区上津台8-1　イオンモール神戸北3Fフードコート,34.857734,135.196992
0000000362,"",茨木中環ロードサイド店,大阪府茨木市高浜町1-26　大阪モノレール沢良宜駅前,34.791397,135.569243
0000000363,"",羽曳野外環ロードサイド店,大阪府羽曳野市西浦1153-4,34.5342,135.607804
0000000364,"",フレスポ桜井店,奈良県桜井市大字東新堂516-1,34.519273,135.835691
0000000365,"",津島ロードサイド店,愛知県津島市大字津島字北新開91-1,35.173784,136.751842
0000000366,"",イオンモール岡崎店,愛知県岡崎市戸崎町字外山38-5　イオンモール岡崎 3Ｆ,34.933868,137.166804
0000000367,"",MEGAドン・キホーテ勝田店,茨城県ひたちなか市石川町1-1　MEGAドン・キホーテ勝田店1F,36.390034,140.530737
0000000368,"",ゆめタウン佐賀店,佐賀県佐賀市兵庫町渕兵庫北 土地区画整理地区内22街区,33.272176,130.309645
0000000369,"",イオンタウン郡山店,福島県郡山市松木町2-28,37.388263,140.391694
0000000370,"",イオンモールむさし村山店,東京都武蔵村山市榎1-1-3-2056,35.743412,139.388286
0000000373,"",イオンタウン弘前樋の口店,青森県弘前市大字樋の口2-9-6,40.599596,140.447481
0000000374,"",イオン米沢店,山形県米沢市春日2-13-4　イオン米沢1階,37.92026,140.112191
0000000376,"",西部プラザ店,福島県郡山市西ノ内2-11-35　西部プラザ1階,37.404405,140.366343
0000000380,"",ゆめタウン益田店,島根県益田市高津7-21-12　ゆめタウン益田1Ｆセンターコート,34.68794,131.818381
0000000381,"",アル・プラザ草津店,滋賀県草津市西渋川1-23-30　アル・プラザ草津1階センターコート,35.022207,135.961352
0000000382,"",堺泉北2号ロードサイド店,大阪府堺市中区八田西町2-17-50,34.515491,135.482261
0000000383,"",イオンモール名取店,宮城県名取市杜せきのした5丁目3番地の1　イオンモール名取内 2階フードコート,38.160712,140.89881
0000000385,"",マーケットシティ古河店,茨城県古河市松並2-18-10,36.206424,139.711862
0000000386,"",前橋けやきウォーク店,群馬県前橋市文京町2-1-1　2Ｆ,36.376134,139.081349
0000000387,"",流山おおたかの森ショッピングセンター店,千葉県流山市おおたかの森南1丁目5-1　流山おおたかの森ショッピングセンター3階,35.867482,139.929486
0000000388,"",川越アトレ店,埼玉県川越市脇田町105　1Ｆ,35.905316,139.486108
0000000389,"",港北センター北ノースポートモール店,神奈川県横浜市都筑区中川中央1-25　Northport Mall SC B1F,35.548836,139.582633
0000000390,"",ぐりーんうぉーく多摩店,東京都八王子市別所2-56,35.608707,139.399897
0000000391,"",イオンモール倉敷店,岡山県倉敷市水江1　1Ｆレストランコート,34.601315,133.748256
0000000393,"",イオンモール香椎浜店,福岡県福岡市東区香椎浜3-12-1　イオンモール香椎浜1階,33.654078,130.432226
0000000394,"",アピタ飯田店,長野県飯田市鼎名古熊2461,35.496965,137.832662
0000000395,"",イオン福島店,福島県福島市南矢野目西荒田50-17,37.785356,140.461065
0000000396,"",イオンいわき店,福島県いわき市平字三倉68-1,37.047449,140.901906
0000000397,"",イオンモール石巻店,宮城県石巻市茜平4-104,38.444507,141.268353
0000000398,"",丸亀店,香川県丸亀市蓬莱町56-1　パブリックプラザ丸亀内,34.290723,133.787546
0000000399,"",学園前ロードサイド店,奈良県奈良市中町1-78-7　フレスポ奈良学園前［南］内,34.681543,135.757821
0000000400,"",イオンモール高の原店,京都府木津川市相楽台1-1-1,34.722617,135.793187
0000000401,"",アピタ松任店,石川県白山市幸明町280　アピタ松任ＳＣ　1階,36.512813,136.579931
0000000402,"",アピタ富山東店,富山県富山市上冨居3-8-38　アピタ富山東SC1階,36.705956,137.24376
0000000403,"",六日町店,新潟県南魚沼市余川3079　イオン六日町店 専門店館1階,37.077127,138.882957
0000000404,"",リバーサイド千秋店,新潟県長岡市千秋2-278　リバーサイド千秋2階フードコート,37.457763,138.830248
0000000405,"",イオンモール大垣店,岐阜県大垣市外野2-100　イオンモール大垣2階,35.333617,136.616986
0000000406,"",イオンタウン水戸南店,茨城県東茨城郡茨城町長岡3480-101,36.307495,140.446407
0000000407,"",おやまゆうえんハーヴェストウォーク店,栃木県小山市喜沢1475,36.332258,139.811106
0000000408,"",イオンモール山形南店,山形県山形市若宮3-7-8　イオンモール山形南内　1階フードコート,38.223571,140.309042
0000000409,"",イオン釧路店,北海道釧路郡釧路町桂木1-1-7　イオン釧路店 1Fフードコート,43.006543,144.408546
0000000410,"",藤沢駅前店,神奈川県藤沢市南藤沢2-1-1　フジサワ名店ビル1Ｆ,35.335349,139.491658
0000000411,"",ゆめタウン大牟田店,福岡県大牟田市旭町2-28-1　ゆめタウン1階 別館出入口,33.033641,130.455876
0000000413,"",新浦安アトレ店,千葉県浦安市入船1-1-1,35.646507,139.916043
0000000414,"",MEGAドン・キホーテUNY伊那店,長野県伊那市西町5182-1,35.82873,137.953034
0000000415,"",藤が丘駅前店,愛知県名古屋市名東区藤が丘147-2,35.179828,137.024409
0000000416,"",大東外環ロードサイド店,大阪府大東市中垣内5-1-32　外環沿い　大阪産業大学南側,34.702648,135.642213
0000000417,"",イオン豊橋南店,愛知県豊橋市野依町落合1-12　イオン豊橋南SC　1F,34.706687,137.391345
0000000418,"",イオンモール各務原インター店,岐阜県各務原市那加萱場町3-8　イオンモール各務原インター 3F,35.388722,136.827019
0000000419,"",イオン隼人国分店,鹿児島県霧島市隼人町見次1229　イオン隼人国分店1F,31.735185,130.744334
0000000421,"",リトナード八幡山店,東京都世田谷区上北沢4-36-23,35.666529,139.619626
0000000422,"",しんかな中環ロードサイド店,大阪府堺市北区金岡町550-1,34.560385,135.520975
0000000423,"",イオンタウン守谷店,茨城県守谷市百合ケ丘3-249-1　2階フードコート内,35.941275,139.994615
0000000424,"",イオンモール猪名川店,兵庫県川辺郡猪名川町白金2-1　イオンモール猪名川　3Fフードコート,34.899226,135.367176
0000000426,"",イオンモール鳥取北店,鳥取県鳥取市晩稲348番地　イオンモール鳥取北 2Fフードコート,35.521565,134.204403
0000000427,"",アピタ岡崎北店,愛知県岡崎市日名北町4番地46,34.971741,137.155304
0000000428,"",サントムーン柿田川店,静岡県駿東郡清水町玉川61-2,35.106534,138.906456
0000000429,"",イオンモール鹿児島店,鹿児島県鹿児島市東開町7　イオンモール鹿児島　3Fフードコート,31.523845,130.539241
0000000431,"",アリオ西新井店,東京都足立区西新井栄町1-20-1,35.771405,139.789391
0000000432,"",イオンモール津山店,岡山県津山市河辺1000-1　イオンモール津山2Fフードコート,35.061903,134.048871
0000000433,"",茂原店,千葉県茂原市高師1735,35.431703,140.290908
0000000435,"",ヨークベニマル足利大月店,栃木県足利市大月町3-2　アシコタウンあしかが内,36.331007,139.480117
0000000436,"",アクアウォーク大垣店,岐阜県大垣市林町6-80-21　アクアウォーク大垣2F,35.367566,136.619735
0000000437,"",ゆめタウン別府店,大分県別府市楠町382-7　ゆめタウン別府1階,33.273004,131.510153
0000000438,"",イオンタウン佐沼店,宮城県登米市南方町新島前46-1,38.680452,141.187036
0000000439,"",イオンタウン富士南店,静岡県富士市鮫島118-10　イオンタウン富士南　2階フードコート,35.136553,138.67893
0000000440,"",イオンモール羽生店,埼玉県羽生市川崎2-281-3　イオンモール羽生 1階,36.139696,139.545066
0000000441,"",イオンモール日の出店,東京都西多摩郡日の出町大字平井字三吉野桜木237番地3,35.731763,139.278216
0000000442,"",イオン千歳店,北海道千歳市栄町6-51　イオン千歳店 1F,42.826485,141.652106
0000000445,"",尼崎ロードサイド店,兵庫県尼崎市三反田町3-5-18,34.734747,135.414503
0000000446,"",ゆめタウン広島店,広島県広島市南区皆実町2丁目8-17　ゆめタウン広島　3Fフードコート,34.373076,132.466759
0000000448,"",アリオ鳳店,大阪府堺市西区鳳南町3-199-12,34.521542,135.461751
0000000450,"",イオン鎌ヶ谷ショッピングセンター店,千葉県鎌ケ谷市新鎌ケ谷2丁目7番1号,35.77533,140.004329
0000000451,"",イオンモール柏店,千葉県柏市豊町2-5-25　イオンモール柏2Ｆ,35.848619,139.965059
0000000453,"",イオン日向店,宮崎県日向市大字日知屋字古田町61-1　イオン日向 1Fフードコート,32.421158,131.653728
0000000455,"",河口湖BELL店,山梨県南都留郡富士河口湖町船津2986　河口湖ショッピングセンターベル1F,35.48659,138.767461
0000000456,"",イオンモール大高店,愛知県名古屋市緑区南大高2-450,35.051076,136.949588
0000000457,"",AKIBAトリム店,東京都千代田区神田佐久間町1-6-5　2F,35.694497,139.776926
0000000458,"",高松レインボー店,香川県高松市多肥下町438-4,34.295358,134.06035
0000000459,"",イオンモール京都五条店,京都府京都市右京区西院追分町25-1,34.994208,135.730121
0000000460,"",有明プラザ店,熊本県荒尾市原万田700-1　有明プラザ内,32.997263,130.440538
0000000463,"",マーサ21店,岐阜県岐阜市正木中一丁目2番1号　マーサ21SC内,35.444815,136.747696
0000000464,"",エミフルMASAKI店,愛媛県伊予郡松前町筒井850　　エミフルMASAKI　1階,33.786518,132.718464
0000000465,"",チトセピア店,長崎県長崎市千歳町5-1　チトセピア内,32.786545,129.86408
0000000467,"",イオン板橋ショッピングセンター店,東京都板橋区徳丸2丁目6-1,35.767058,139.66399
0000000469,"",ゆめタウン出雲店,島根県出雲市大塚町650-1　ゆめタウン出雲本館1F,35.37406,132.757538
0000000470,"",イオン長岡店,新潟県長岡市古正寺町1-249-1　イオン長岡店1F,37.451203,138.826938
0000000471,"",アピタ東海荒尾店,愛知県東海市荒尾町山王前60,35.036226,136.908495
0000000473,"",中野早稲田通り店,東京都中野区中野5-68-13,35.706653,139.668575
0000000475,"",MEGAドン・キホーテUNY掛川店,静岡県掛川市大池2826番地　MEGAドン・キホーテUNY掛川1F,34.769489,137.992569
0000000476,"",イオンモール綾川店,香川県綾歌郡綾川町萱原822-1　イオンモール綾川　3階フードコート,34.248765,133.933573
0000000477,"",イオン松江店,島根県松江市東朝日町151　イオン松江3Fフードコート,35.460613,133.072179
0000000479,"",イオン横須賀久里浜ショッピングセンター店,神奈川県横須賀市久里浜5-13-1　イオン横須賀久里浜SC 2階フードコート,35.225706,139.707312
0000000481,"",イオンレイクタウン店,埼玉県越谷市レイクタウン3-1-1　イオンレイクタウンMORI 3Fフードコート,35.877894,139.831477
0000000482,"",イオンスタイル レイクタウン店,埼玉県越谷市レイクタウン3-1-1　イオンレイクタウンMORI イオン3F,35.878896,139.832509
0000000483,"",泉パークタウンタピオ店,宮城県仙台市泉区寺岡6丁目5-1,38.339639,140.839632
0000000484,"",上本町店,大阪府大阪市天王寺区上本町6-4-2　上本町6南交差点南西角,34.661805,135.521571
0000000485,"",ラスパ御嵩店,岐阜県可児郡御嵩町上恵土字西畑1052-1　ラスパ御嵩SC 2F,35.431124,137.073258
0000000486,"",イオンモール加西北条店,兵庫県加西市北条町北条308-1　イオンモール加西北条2Fフードコート,34.92728,134.831039
0000000488,"",エアポートウォーク名古屋店,愛知県西春日井郡豊山町大字豊場字林先1-8　エアポートウォーク名古屋SC 3F,35.242619,136.927894
0000000489,"",イオンモール都城駅前店,宮崎県都城市栄町4672番5　イオンモール都城駅前2Fフードコート,31.731707,131.081854
0000000490,"",イオンモール筑紫野店,福岡県筑紫野市大字立明寺434-1-348　イオンモール筑紫野　3Fフードコート,33.477706,130.52899
0000000491,"",イオンモール下妻店,茨城県下妻市堀籠972-1　イオンモール下妻　2階フードコート,36.186548,139.993415
0000000492,"",イオンモール小山店,栃木県小山市中久喜1467-1　イオンモール小山 1階,36.318488,139.844168
0000000493,"",イオンモールかほく店,石川県かほく市内日角タ25番,36.705941,136.703778
0000000498,"",ゆめタウン三豊店,香川県三豊市豊中町本山甲22番地,34.142218,133.701908
0000000499,"",イオン札幌桑園ショッピングセンター店,北海道札幌市中央区北8条西14-28　イオン札幌桑園SC 1F,43.066816,141.336534
0000000500,"",モラージュ菖蒲店,埼玉県久喜市菖蒲町菖蒲6005番地1　モラージュ菖蒲 3階フードコート内,36.071894,139.614788
0000000501,"",スマーク伊勢崎店,群馬県伊勢崎市西小保方町368,36.336594,139.235834
0000000502,"",福島南バイパス店,福島県福島市黒岩字浅井18,37.724869,140.467061
0000000503,"",龍ヶ崎サプラ店,茨城県龍ヶ崎市小柴5-1-2　ショッピングセンターサプラ1Fフードコート,35.929293,140.163909
0000000504,"",ゆめタウン丸亀店,香川県丸亀市新田町105,34.270271,133.788075
0000000506,"",ウニクス高崎店,群馬県高崎市飯塚町1150-5ウニクス高崎2F,36.33655,139.010737
0000000507,"",久留米上津バイパス店,福岡県久留米市野伏間1丁目5-22,33.282562,130.514996
0000000508,"",春日部駅西口店,埼玉県春日部市粕壁1-10-1,35.97655,139.75545
0000000509,"",中目黒店,東京都目黒区上目黒3-1-5,35.641893,139.701018
0000000510,"",ゆめりあフェンテ大泉学園店,東京都練馬区東大泉5-43-1,35.745606,139.588742
0000000511,"",奈良押熊店,奈良県奈良市押熊町1102-1,34.717247,135.773857
0000000513,"",武蔵小金井イトーヨーカドー店,東京都小金井市本町6-14-9　イトーヨーカドー武蔵小金井店 4階フードコート内,35.697263,139.507954
0000000514,"",高松屋島店,香川県高松市屋島西町2105-8　西村ジョイ屋島店,34.341672,134.090694
0000000515,"",河内長野ロードサイド店,大阪府河内長野市上原町872-3　外環状線沿い上原町交差点北東,34.44396,135.558775
0000000516,"",イオン東神奈川店,神奈川県横浜市神奈川区富家町1-1,35.476866,139.636277
0000000517,"",成田ユアエルム店,千葉県成田市公津の杜4-5-3　ユアエルム成田B1F,35.756399,140.299911
0000000518,"",リーフウォーク稲沢店,愛知県稲沢市長野7丁目1-2　モール棟1F,35.258013,136.822076
0000000519,"",イオン宮西店,兵庫県姫路市宮西町4丁目21番地　マックスバリュ宮西店　店頭,34.823691,134.708304
0000000520,"",mozoワンダーシティ店,愛知県名古屋市西区二方町40番,35.221855,136.8871
0000000521,"",ガーデン前橋店,群馬県前橋市小屋原町472-1　ガーデン前橋1階,36.352153,139.132753
0000000523,"",徳山ロードサイド店,山口県周南市周陽1-2-23,34.045376,131.832803
0000000524,"",メルクス山口店,山口県山口市黒川82-1,34.132929,131.436621
0000000525,"",ニッケコルトンプラザ店,千葉県市川市鬼高1-1-1,35.713454,139.937561
0000000527,"",関マーゴ本館店,岐阜県関市倉知516　サンサンシティマーゴ本館1階,35.474706,136.903041
0000000528,"",イオン近江八幡店,滋賀県近江八幡市鷹飼町南3-7　1Fフードコート,35.118641,136.105808
0000000529,"",フォレオ大津一里山店,滋賀県大津市一里山七丁目1番1号,34.97063,135.935751
0000000530,"",イオンモール草津店,滋賀県草津市新浜町300番地,34.994795,135.915107
0000000531,"",春日店,福岡県春日市春日2丁目158番地,33.516508,130.472115
0000000532,"",イオンモール土浦店,茨城県土浦市上高津367　イオンモール土浦　3階フードコート,36.077029,140.183957
0000000533,"",鹿児島城西店,鹿児島県鹿児島市城西3丁目7-1,31.592788,130.539016
0000000534,"",ららぽーと磐田店,静岡県磐田市高見丘1200　ららぽーと磐田2階,34.74696,137.844873
0000000536,"",ガーデンパーク和歌山店,和歌山県和歌山市松江1469-1,34.235872,135.156034
0000000537,"",イオンモール佐野新都市店,栃木県佐野市高萩町1324-1　イオンモール佐野新都市　1Fフードコート前,36.296088,139.609587
0000000538,"",イオン大宮店,埼玉県さいたま市北区櫛引町2-574-1　1Fフードコート,35.920087,139.612532
0000000539,"",マルナカ徳島店,徳島県徳島市西新浜町1-6-1　マルナカ徳島1F食品レジ前,34.041386,134.561766
0000000540,"",人吉店,熊本県人吉市鬼木町608-1　ファミリーマート人吉インター店横,32.221117,130.77053
0000000541,"",天満屋ハピータウン原尾島店,岡山県岡山市中区原尾島1丁目6-20　1階食料品レジ前,34.668503,133.950102
0000000542,"",トリアス久山店,福岡県糟屋郡久山町大字山田1169-1　トリアスモール・ガーデンキッチン,33.649554,130.491225
0000000543,"",イオンモール熱田店,愛知県名古屋市熱田区六野一丁目2番11号,35.133687,136.912099
0000000544,"",西春ロードサイド店,愛知県北名古屋市中之郷字天神8-2,35.23814,136.849407
0000000545,"",千日前店,大阪府大阪市中央区難波3-4-13　味わいばしビル1F,34.663537,135.504507
0000000546,"",京都南インターロードサイド店,京都府京都市伏見区下鳥羽渡瀬町135,34.935742,135.74815
0000000547,"",西武東戸塚S.C.店,神奈川県横浜市戸塚区品濃町537-1　オーロラモール7F,35.426763,139.561688
0000000548,"",あまがさきキューズモール店,兵庫県尼崎市潮江1丁目3番1号　あまがさきキューズモール1階,34.730256,135.433533
0000000549,"",名護店,沖縄県名護市東江5-16-12　A&amp;W名護店内,26.575498,127.986632
0000000550,"",ゆめタウンみゆき店,広島県広島市南区宇品西6丁目7-14　1Fセンターコート,34.355223,132.459172
0000000551,"",ウニクス秩父店,埼玉県秩父市上野町805-14　UNICUS秩父2F,35.993121,139.092036
0000000552,"",新潟東ロードサイド店,新潟県新潟市東区新松崎1丁目7番5号,37.928532,139.11946
0000000554,"",ベルファ都島店,大阪府大阪市都島区友渕町2-13-34　ベルファ都島1Fフードコート,34.712822,135.532984
0000000555,"",宝塚中筋店,兵庫県宝塚市中筋8丁目21-31,34.808767,135.37804
0000000556,"",アズパーク店,愛知県名古屋市中川区新家1丁目2421アズパーク1F,35.153861,136.809171
0000000557,"",ゆめシティ新下関店,山口県下関市伊倉新町3丁目1番1号　1Fゆめ広場,34.003429,130.93651
0000000559,"",ららぽーとTOKYO-BAY北館店,千葉県船橋市浜町2-1-1　ららぽーとTOKYO-BAY北館1F,35.68349,139.993333
0000000560,"",アリオ北砂店,東京都江東区北砂2-17-1,35.679214,139.829303
0000000561,"",イオンモール富士宮店,静岡県富士宮市浅間町1番8号,35.217284,138.615069
0000000563,"",イオンモール新瑞橋店,愛知県名古屋市南区菊住1丁目7-10,35.111374,136.938318
0000000564,"",姫路辻井店,兵庫県姫路市辻井3丁目1187　辻井バイパス沿い,34.849778,134.670713
0000000565,"",イオンモール広島府中店,広島県安芸郡府中町大須2-1-1　イオンモール広島府中 3Fフードパーク,34.391789,132.501658
0000000566,"",西大和店,奈良県北葛城郡河合町薬井485-3　白鳳女子短期大学隣り,34.586286,135.714639
0000000567,"",ピオニウォーク東松山店,埼玉県東松山市あずま町四丁目3番地,36.00206,139.413998
0000000568,"",江坂店,大阪府吹田市豊津町10-15　ライブプラザブーミン1F,34.755673,135.498332
0000000569,"",鹿児島七ッ島店,鹿児島県鹿児島市下福元町6721-8-6,31.480358,130.514258
0000000571,"",エキア朝霞店,埼玉県朝霞市本町2-13-1　エキア朝霞1F,35.793947,139.602982
0000000572,"",朝霞三原ロードサイド店,埼玉県朝霞市三原5-11-8,35.809589,139.579518
0000000573,"",厚南ゆめタウン宇部店,山口県宇部市黒石北三丁目4-1　ゆめタウン宇部1Fゆめ広場,33.981611,131.208284
0000000574,"",芦屋ロードサイド店,兵庫県芦屋市大桝町1-22,34.728618,135.30782
0000000575,"",岡山平井ロードサイド店,岡山県岡山市中区平井3丁目872-1,34.631552,133.953465
0000000576,"",イオンモール東浦フードコート店,愛知県知多郡東浦町大字緒川字申新田67-8　イオンモール東浦2階フードコート,34.974859,136.978063
0000000578,"",四万十サニータウン店,高知県四万十市古津賀4-30　サニーマート四万十店内,32.978962,132.955343
0000000580,"",フジグラン宇部店,山口県宇部市明神町3丁目1-1,33.927343,131.258547
0000000581,"",みらい長崎ココウォーク店,長崎県長崎市茂里町1-55　2Fレッドキャベツ前,32.759245,129.866881
0000000582,"",アルカキット錦糸町店,東京都墨田区錦糸2-2-1　アルカキット錦糸町1F,35.694096,139.8159
0000000583,"",ららぽーと甲子園店,兵庫県西宮市甲子園八番町1-100　ららぽーと甲子園1F　ピンウィールコート前,34.713956,135.367369
0000000584,"",札幌ポールタウン店,北海道札幌市中央区南2条西4丁目　札幌地下街ポールタウン内,43.055382,141.356121
0000000585,"",金沢文庫店,神奈川県横浜市金沢区谷津町384,35.339571,139.624839
0000000586,"",フジグラン三原店,広島県三原市円一町1-1-7　フジグラン三原1F センターコート前,34.389557,133.081566
0000000587,"",イオンモール福岡 フードパーク店,福岡県糟屋郡粕屋町大字酒殿字老ノ木192-1　2階フードコート内,33.59332,130.482189
0000000588,"",アリオ橋本店,神奈川県相模原市緑区大山町1番22号　アリオ橋本1Fフードコート,35.587686,139.352605
0000000590,"",守山ロードサイド店,愛知県名古屋市守山区中新1-7,35.191712,136.974154
0000000592,"",たまプラーザテラス店,神奈川県横浜市青葉区美しが丘1丁目1番地2,35.574989,139.562684
0000000594,"",曳舟イトーヨーカドー店,東京都墨田区京島1-2-1,35.714378,139.821181
0000000596,"",セレオ八王子店,東京都八王子市旭町1-17　セレオ八王子2F,35.651553,139.342048
0000000597,"",ベアーズモール清武店,宮崎県宮崎市清武町正手2丁目32番地,31.857486,131.389923
0000000598,"",アリオ札幌店,北海道札幌市東区北7条東9丁目2番20号　アリオ札幌内2階フードコート,43.069012,141.374015
0000000599,"",京都ヨドバシ店,京都府京都市下京区烏丸通七条下る東塩小路町590-2　京都ヨドバシビル1F,34.985143,135.762193
0000000600,"",ヒルズウォーク徳重ガーデンズ店,愛知県名古屋市緑区元徳重1丁目505番地　　　　ヒルズウォーク徳重ガーデンズ2Fフードコート内,35.09125,137.002155
0000000602,"",アリオ深谷店,埼玉県深谷市上柴町西4-2-14　アリオ深谷1F フードコート内,36.178124,139.302496
0000000603,"",フジグラン神辺店,広島県福山市神辺町大字新道上字2丁目10-26　フジグラン神辺店1F,34.541101,133.359906
0000000604,"",ならファミリー店,奈良県奈良市西大寺東町2-4-1　ならファミリーB1F,34.691791,135.787365
0000000605,"",天満駅前店,大阪府大阪市北区天神橋4丁目8-14　関西テレビ前,34.701951,135.513881
0000000606,"",イオンタウン上里店,埼玉県児玉郡上里町大字金久保字蓮山359-1　イオンタウン上里 1F,36.257418,139.139005
0000000607,"",豊田メグリア本店店,愛知県豊田市山之手8丁目92番地,35.049303,137.148272
0000000608,"",よもぎ台店,愛知県名古屋市名東区よもぎ台3丁目1601-1,35.171521,136.993688
0000000609,"",アピタタウン稲沢店,愛知県稲沢市天池五反田町1番地　アピタタウン稲沢店1F,35.249032,136.774481
0000000610,"",イオンモール伊丹昆陽店,兵庫県伊丹市池尻4-1-1　イオンモール伊丹昆陽　3階フードコート,34.781393,135.385553
0000000611,"",豊中内環ロードサイド店,大阪府豊中市服部寿町5-158-1　ラウンドワン　ななめ向い,34.754975,135.467977
0000000612,"",アル・プラザ香里園店,大阪府寝屋川市日新町5-5　アル・プラザ香里園1F,34.779946,135.626094
0000000613,"",サンエー経塚店,沖縄県浦添市字経塚652番,26.233637,127.724644
0000000614,"",イオンモール大牟田店,福岡県大牟田市岬町3-4,33.027194,130.430429
0000000615,"",ジョイフル本田千代田店,群馬県邑楽郡千代田町萱野813-1,36.20377,139.476022
0000000617,"",アメリア町田根岸店,東京都町田市根岸2-18-1,35.573073,139.414041
0000000618,"",ベイドリーム清水店,静岡県静岡市清水区駒越北町8-1　ベイドリーム清水1F,34.981974,138.502351
0000000619,"",青葉台東急スクエア店,神奈川県横浜市青葉区青葉台2-1-1　青葉台東急スクエアSouth-1別館1F,35.539375,139.519196
0000000620,"",イオン酒田南店,山形県酒田市あきほ町120-1　イオン酒田南店1階フードコート内,38.88905,139.855933
0000000621,"",なるぱーく店,愛知県名古屋市緑区浦里3-232　なるぱーく1Fセンターぱーく前,35.08127,136.949509
0000000622,"",春日井ロードサイド店,愛知県春日井市瑞穂通2-158,35.241667,136.970118
0000000623,"",幕張イトーヨーカドー店,千葉県千葉市花見川区幕張町4-417-25 イトーヨーカドー幕張店　1F,35.653155,140.054493
0000000624,"",あべのキューズモール店,大阪府大阪市阿倍野区阿倍野筋1-6-1　キューズモールB1,34.641634,135.514579
0000000625,"",イオン大野城店,福岡県大野城市錦町4丁目1-1,33.534731,130.477967
0000000626,"",アリオ上田店,長野県上田市天神三丁目5番1号,36.396567,138.247393
0000000627,"",大宮マルイ店,埼玉県さいたま市大宮区桜木町2-3　丸井大宮店1F,35.903683,139.625135
0000000628,"",イオン秦野ショッピングセンター店,神奈川県秦野市入船町12-1　イオン秦野SC 2階フードコート,35.374851,139.231358
0000000629,"",北佐世保店,長崎県佐世保市俵町23-18,33.185788,129.720324
0000000630,"",武庫之荘店,兵庫県尼崎市武庫之荘3丁目21-8　尼宝線 武庫之郷交差点南東,34.754393,135.388718
0000000631,"",イオン延岡店,宮崎県延岡市旭町2丁目2-1,32.569131,131.672538
0000000632,"",イオンモール佐久平店,長野県佐久市佐久平駅南11-10イオンモール佐久平　1F,36.272637,138.467315
0000000635,"",むつマエダ店,青森県むつ市小川町2-4-8　マエダ本店1階,41.290104,141.211357
0000000636,"",静岡長田店,静岡県静岡市駿河区東新田2-16-22,34.941719,138.377858
0000000640,"",テラスモール湘南店,神奈川県藤沢市辻堂神台1-3-1　テラスモール湘南1階,35.335295,139.449401
0000000641,"",シーナシーナ青森店,青森県青森市浜田1-14-1,40.79809,140.752569
0000000642,"",ウイングベイ小樽店,北海道小樽市築港11番5号　ウイングベイ小樽5番街1階,43.181677,141.026388
0000000643,"",ゆめタウン徳島店,徳島県板野郡藍住町奥野字東中須88-1　ゆめタウン徳島2Fフードコート,34.115446,134.503623
0000000644,"",京王多摩センターショッピングセンター店,東京都多摩市落合1-10-1　京王多摩センターSC 2階,35.621878,139.427284
0000000645,"",イオン明石ショッピングセンター店,兵庫県明石市大久保町ゆりのき通2-3-1　イオン明石SC 2番街1階フードコート,34.67658,134.93943
0000000647,"",アリオ川口店,埼玉県川口市並木元町1-79　アリオ川口1F,35.804261,139.717226
0000000648,"",イオンモール三光店,大分県中津市三光佐知1032　イオンモール三光SC1F,33.554782,131.196271
0000000649,"",イオンモール船橋店,千葉県船橋市山手1-1-8　イオンモール船橋3Fフードコート,35.708673,139.982584
0000000652,"",いわき・ら・ら・ミュウ店,福島県いわき市小名浜字辰巳町43-1　いわき・ら・ら・ミュウ1階,36.940913,140.908743
0000000653,"",イズミヤ八尾店,大阪府八尾市沼1丁目1番地　イズミヤスーパーセンター八尾店1階レジ前,34.585366,135.605946
0000000655,"",イオンモール久御山ショッピングセンター店,京都府久世郡久御山町森南大内156-1　2Fフードコート,34.889937,135.749399
0000000657,"",iTerrace落合南長崎店,東京都豊島区南長崎4-5-20,35.720941,139.68589
0000000658,"",アリオ亀有店,東京都葛飾区亀有3-49-3　アリオ亀有SC　1F,35.761152,139.856066
0000000660,"",イオンモール福津店,福岡県福津市日蒔野6-16-1　イオンモール福津 3Fフードコート,33.750638,130.497141
0000000661,"",宮崎大島店,宮崎県宮崎市大島町松ノ木下249-1,31.936422,131.442339
0000000662,"",各務原三ツ池ロードサイド店,岐阜県各務原市鵜沼三ツ池町2-180-1,35.399241,136.889471
0000000663,"",イオン杜の里店,石川県金沢市もりの里1-70　イオンもりの里1階フードコート,36.548473,136.692868
0000000664,"",イオン三木店,兵庫県三木市大村字砂163　イオン三木店1階フードコート,34.802025,134.975218
0000000665,"",MOMOテラス店,京都府京都市伏見区桃山町山ノ下32　MOMOテラスフードコート,34.93349,135.797782
0000000666,"",千歳烏山クレア店,東京都世田谷区南烏山4-12-7　クレアビル1F,35.665858,139.604411
0000000667,"",高石ロードサイド店,大阪府高石市西取石7-20-3,34.511401,135.443189
0000000668,"",枚方駅前店,大阪府枚方市岡東町18-23,34.812048,135.65162
0000000669,"",イオンモール伊丹店,兵庫県伊丹市藤ノ木1-1-1 イオンモール伊丹 3F,34.778332,135.426606
0000000672,"",竹の山ロードサイド店,愛知県日進市竹の山四丁目2503番地　マックスバリュ長久手店　南隣,35.151589,137.031187
0000000673,"",イオン八戸田向ショッピングセンター店,青森県八戸市田向三丁目5番1号　イオン八戸田向ショッピングセンター内,40.489406,141.513348
0000000675,"",サンエー宜野湾コンベンションシティ店,沖縄県宜野湾市字地泊3-6-1　サンエー1F食品館側正面入口,26.270833,127.731659
0000000676,"",MEGAドン・キホーテUNY美濃加茂店,岐阜県美濃加茂市野笹町2丁目5番65号　MEGAドン・キホーテUNY美濃加茂1F,35.440443,137.042309
0000000678,"",泉北パンジョ店,大阪府堺市南区茶山台1-3-1　2階 光の広場,34.492986,135.517395
0000000679,"",九州共立大前店,福岡県北九州市八幡西区藤原1-4-8　ハローデイ共立大前店　店頭,33.869808,130.709067
0000000680,"",横浜別所イトーヨーカドー店,神奈川県横浜市南区別所1-14-1　イトーヨーカドー横浜別所店1Fフードコート,35.41257,139.59801
0000000681,"",アピタ千代田橋店,愛知県名古屋市千種区千代田橋二丁目1番１号　アピタ千代田橋1F,35.184041,136.972366
0000000682,"",木場イトーヨーカドー店,東京都江東区木場1-5-30　イトーヨーカドー木場店 1Fフードコート,35.662845,139.807388
0000000683,"",イオンモールKYOTO店,京都府京都市南区西九条鳥居口町1番地　Sakura館4Fフードコート,34.979557,135.757438
0000000684,"",渋谷店,東京都渋谷区宇田川町26-2,35.656671,139.702299
0000000685,"",上大岡京急店,神奈川県横浜市港南区上大岡西1-6-1　京急百貨店1F,35.405289,139.59953
0000000686,"",大和郡山店,奈良県大和郡山市田中町888-4,34.639176,135.76942
0000000687,"",徳島田宮ロードサイド店,徳島県徳島市南田宮3-2-48,34.083087,134.54117
0000000688,"",ラゾーナ川崎店,神奈川県川崎市幸区堀川町72-1　ラゾーナ川崎プラザ4F,35.529868,139.698349
0000000689,"",アリオ鷲宮店,埼玉県久喜市久本寺谷田7-1　アリオ鷲宮2F,36.075393,139.664913
0000000690,"",篠山店,兵庫県丹波篠山市東吹406-1　TSUTAYA篠山店 店頭,35.061988,135.194007
0000000692,"",南大沢イトーヨーカドー店,東京都八王子市南大沢2-28-1　イトーヨーカドー南大沢店1F,35.609928,139.38264
0000000693,"",イオン防府店,山口県防府市中央町1-3　イオン防府　1階食品売場前,34.04889,131.57232
0000000694,"",上野マルイ店,東京都台東区上野6-15-1,35.707767,139.779106
0000000695,"",サニーサイドモール小倉店,福岡県北九州市小倉南区下曽根新町10-1  サニーサイドモール小倉1階,33.829364,130.935484
0000000696,"",イオンモール福岡店,福岡県糟屋郡粕屋町大字酒殿字老ノ木192-1　イオンモール福岡1階,33.59337,130.483479
0000000697,"",アリオ葛西店,東京都江戸川区東葛西9-3-3　アリオ葛西店1Fフードコート,35.649219,139.885014
0000000698,"",なんばウォーク店,大阪府大阪市中央区難波2丁目 虹のまち1-13　なんばウォーク1番街,34.663917,135.502908
0000000699,"",イオンモール春日部店,埼玉県春日部市下柳420-1　イオンモール春日部1F,35.985429,139.79288
0000000700,"",熊本下通店,熊本県熊本市中央区下通1丁目9-17　下通アーケード内 銀座通り南すぐ,32.797145,130.710377
0000000701,"",ボーノ相模大野ＳＣ店,神奈川県相模原市南区相模大野3-2-1,35.527867,139.438351
0000000702,"",イオンモールつくば店,茨城県つくば市稲岡66-1　イオンモールつくば 3階フードコート,36.03184,140.136086
0000000703,"",イオン甘木店,福岡県朝倉市甘木380　イオン甘木SC1階,33.401876,130.656148
0000000704,"",イオン時津店,長崎県西彼杵郡時津町浜田郷751-5,32.828184,129.865743
0000000705,"",イオン戸畑ショッピングセンター店,福岡県北九州市戸畑区汐井町2-2　イオン戸畑ショッピングセンター1F,33.892658,130.822268
0000000706,"",姫路グランフェスタ店,兵庫県姫路市駅前町188-1　姫路地下街「グランフェスタ」,34.823804,134.693562
0000000707,"",アクロスプラザ森町店,大分県大分市森町181-1　森町バイパス・アクロスプラザ内,33.227996,131.683732
0000000708,"",イオンモール太田店,群馬県太田市石原町81　2Fフードコート,36.291053,139.403639
0000000709,"",広島サンモール店,広島県広島市中区紙屋町2丁目2-18　サンモール地下1階,34.391181,132.45916
0000000711,"",イオンモール東久留米店,東京都東久留米市南沢5-17-62　イオンモール東久留米3F,35.741779,139.530466
0000000712,"",イオンモール北大路店,京都府京都市北区小山北上総町49-1,35.041774,135.761205
0000000714,"",MARK IS みなとみらい店,神奈川県横浜市西区みなとみらい3-5-1　MARK IS みなとみらい4Fフードコート,35.454244,139.634715
0000000715,"",駒込駅前店,東京都豊島区駒込1-43-15,35.732152,139.749916
0000000716,"",東急プラザ蒲田店,東京都大田区西蒲田7-69-1,35.558783,139.718716
0000000717,"",イオンモール大阪ドームシティ店,大阪府大阪市西区千代崎3丁目13番1号　4Fフードコート,34.667078,135.480613
0000000718,"",さんすて福山店,広島県福山市三之丸町30-1　さんすて福山1番街,34.486897,133.367028
0000000719,"",神戸ハーバーランドumie店,兵庫県神戸市中央区東川崎町1-7-2　神戸ハーバーランドumie NORTH MALL 4階フードコート,34.676546,135.184832
0000000720,"",イオン葛西店,東京都江戸川区西葛西3-9-19　イオン葛西店1F,35.666019,139.861693
0000000721,"",アリオ上尾店,埼玉県上尾市壱丁目北29-14 アリオ上尾2階,35.95877,139.569214
0000000722,"",アリオ倉敷店,岡山県倉敷市寿町12-2,34.599989,133.766574
0000000724,"",ゆめタウン学園店,広島県東広島市西条下見6丁目2-32　1階フードコート,34.405849,132.716464
0000000726,"",マックスバリュ名西店,愛知県名古屋市西区香呑町6丁目49番1　マックスバリュ名西1F,35.201045,136.89547
0000000727,"",ラスパ西大和店,奈良県北葛城郡上牧町ささゆり台1-1　ラスパ西大和SC1F,34.563113,135.723834
0000000729,"",高知潮江ロードサイド店,高知県高知市北新田町17-10,33.548484,133.55553
0000000730,"",イオン小郡SC店,福岡県小郡市大保17-1　イオン小郡SCフードコート,33.405722,130.565694
0000000731,"",させぼ五番街店,長崎県佐世保市新港町2-1　させぼ五番街 1F,33.162005,129.725119
0000000732,"",ゆめタウン久留米店,福岡県久留米市新合川1丁目2-1　ゆめタウン久留米 2階フードコート,33.318496,130.541397
0000000734,"",BIGBOX高田馬場(Emio-Style-)店,東京都新宿区高田馬場1-35-3,35.709398,139.7075
0000000735,"",草加舎人島忠ホームズ店,埼玉県草加市遊馬町2-1　1Fフードコート,35.814878,139.773071
0000000736,"",アリオ市原店,千葉県市原市更級四丁目3番2　アリオ市原 2階フードコート,35.504857,140.104396
0000000737,"",ららぽーとTOKYO-BAY西館店,千葉県船橋市浜町2-1-1　ららぽーとTOKYO-BAY西館1F,35.68347,139.993008
0000000738,"",テラスウォーク一宮店,愛知県一宮市両郷町一丁目2番地　テラスウォーク一宮 1F,35.307269,136.819367
0000000739,"",水戸エクセル店,茨城県水戸市宮町1-1-1　水戸駅ビル エクセル2F,36.367463,140.479464
0000000740,"",あみプレミアム・アウトレット店,茨城県稲敷郡阿見町よしわら4丁目1番地1,35.980488,140.238998
0000000741,"",ゆめマート田崎店,熊本県熊本市西区田崎2丁目5-1　ゆめマート田崎 店頭,32.779994,130.682044
0000000742,"",大間々さくらもーる店,群馬県みどり市大間々町大字大間々40　大間々SCさくらもーる内,36.411031,139.284984
0000000744,"",イオンモール天童店,山形県天童市芳賀タウン北四丁目1番1号　イオンモール天童店1階,38.341383,140.367342
0000000745,"",イオンタウン釜石店,岩手県釜石市港町二丁目1番1号　イオンタウン釜石内2階フードコート,39.268317,141.884217
0000000746,"",門司ロードサイド店,福岡県北九州市門司区下二十町3-32　国道3号線 大里東口交差点,33.908719,130.940854
0000000747,"",ヴェルサウォーク西尾店,愛知県西尾市高畠町3丁目23-9　ヴェルサウォーク西尾 2Fフードコート,34.859892,137.062882
0000000748,"",大山店,東京都板橋区大山東町21-9,35.745532,139.706812
0000000749,"",イオンタウン長野三輪店,長野県長野市三輪9丁目43番24号　1F,36.666859,138.210551
0000000750,"",イオンモール和歌山店,和歌山県和歌山市ふじと台23番地　イオンモール和歌山 1F,34.273342,135.152066
0000000753,"",イオン京都洛南店,京都府京都市南区吉祥院御池町31　イオン京都洛南 1F,34.972376,135.739511
0000000754,"",イーアスつくば店,茨城県つくば市研究学園5丁目19番地　3Fフードコート,36.083281,140.087169
0000000755,"",ポンテポルタ千住店,東京都足立区千住橋戸町1-13　1F,35.73914,139.798699
0000000756,"",アメリア稲城ショッピングセンター店,東京都稲城市矢野口2284-1,35.632577,139.518662
0000000757,"",イオンモール名古屋茶屋店,愛知県名古屋市港区西茶屋2丁目11　イオンモール名古屋茶屋3階フードコート,35.100215,136.827666
0000000758,"",三次店,広島県三次市南畑敷町486-1,34.801781,132.878661
0000000759,"",宇都宮ベルモール店,栃木県宇都宮市陽東6-2-1　ベルモール1階,36.551949,139.931585
0000000760,"",イオンモール川口前川店,埼玉県川口市前川1-1-11　イオンモール川口前川 3F,35.830234,139.710314
0000000761,"",イオンタウン黒崎店,福岡県北九州市八幡西区西曲里町3-1　イオンタウン黒崎 1F,33.856515,130.763051
0000000763,"",鹿屋寿店,鹿児島県鹿屋市寿3丁目3100-1　鹿屋警察署東200m,31.38389,130.873791
0000000764,"",グランツリー武蔵小杉店,神奈川県川崎市中原区新丸子東3丁目1135番地1号　4Fフードコート,35.570436,139.663372
0000000765,"",イオンモール京都桂川店,京都府京都市南区久世高田町376-1　3F カジュアルコート,34.960496,135.710858
0000000766,"",アピタ蒲郡店,愛知県蒲郡市港町17-10　アピタ蒲郡1階,34.817889,137.228255
0000000767,"",サンエー具志川メインシティ店,沖縄県うるま市字江洲450番地1　サンエー1F正面出入口,26.348823,127.827819
0000000768,"",イオンモール多摩平の森店,東京都日野市多摩平2丁目4番1,35.658992,139.384112
0000000769,"",イオンモール木更津店,千葉県木更津市築地1番4　イオンモール木更津2Fフードコート,35.36216,139.911902
0000000770,"",ららぽーと和泉店,大阪府和泉市あゆみ野4-4-7　ららぽーと和泉3F,34.434172,135.451187
0000000772,"",ベニバナウォーク桶川店,埼玉県桶川市下日出谷東二丁目15番1　ベニバナウォーク桶川2Fフードコート,35.993586,139.55373
0000000773,"",メラード大和田店,大阪府大阪市西淀川区大和田2-2-43　メラード大和田 1F駐車場前,34.702181,135.448948
0000000774,"",プラーレ松戸店,千葉県松戸市松戸1149-1　プラーレ松戸2階,35.780323,139.905551
0000000775,"",東大阪六万寺ロードサイド店,大阪府東大阪市末広町25-15　外環状線・六万寺交差点北,34.654159,135.637726
0000000777,"",サクラス戸塚店,神奈川県横浜市戸塚区戸塚町4253-1　サクラス戸塚1階,35.39797,139.534034
0000000778,"",栄オアシス21店,愛知県名古屋市東区東桜1-11-1,35.168531,136.91207
0000000779,"",アル・プラザ鯖江店,福井県鯖江市下河端町16字下町16番1　アル・プラザ鯖江1F,35.966138,136.192356
0000000780,"",川越ウニクス店,埼玉県川越市新宿町1-17-1,35.900708,139.48316
0000000781,"",石岡ヨークベニマル店,茨城県石岡市東大橋字中峯1937-1　ヨークベニマル石岡店内,36.195039,140.309228
0000000782,"",青葉桂台店,神奈川県横浜市青葉区桂台2-4-1　青葉ガーデン桂台,35.543437,139.503625
0000000784,"",ららぽーと富士見店,埼玉県富士見市山室1-1313　1階,35.855301,139.551594
0000000785,"",イオンモール沖縄ライカム店,沖縄県中頭郡北中城村アワセ土地区画整理事業区域内4街区　イオンモール 4Fフードコート,26.310285,127.799071
0000000786,"",コクーンシティ店,埼玉県さいたま市大宮区吉敷町4丁目263-1　コクーン2 3階フードコート,35.892933,139.638883
0000000787,"",ニットーモール店,埼玉県熊谷市銀座2-245　ニットーモール1F,36.135717,139.397382
0000000789,"",ゆめタウン中津店,大分県中津市蛭子町3-99　ゆめタウン中津店1Fセントラルコート,33.599337,131.197114
0000000791,"",イオンモール茨木店,大阪府茨木市松ヶ本町8-30　イオンモール茨木 1Fフードコート前,34.808242,135.561137
0000000792,"",かみしんプラザ店,大阪府大阪市東淀川区大隅1-6-12　かみしんプラザ1F店頭,34.744975,135.544736
0000000794,"",イオンモール日根野店,大阪府泉佐野市日根野2496-1　イオンモール日根野 1Fフードコート内,34.39028,135.336736
0000000795,"",町田東急ツインズ店,東京都町田市原町田6-4-1　町田東急ツインズ イースト1F,35.539208,139.449903
0000000796,"",ゆめタウン廿日市店,広島県廿日市市下平良二丁目2番1号,34.343509,132.337468
0000000797,"",新千歳空港店,北海道千歳市美々　新千歳空港内ターミナルビル3階,42.785629,141.684455
0000000798,"",イオンモールとなみ店,富山県砺波市中神1丁目174番地,36.638586,136.950903
0000000799,"",ゆめマート大江店,熊本県熊本市中央区大江3-2-40,32.799705,130.72815
0000000800,"",油山ロードサイド店,福岡県福岡市城南区東油山1丁目14-1　西鉄・油山バス停前,33.533605,130.382607
0000000801,"",サンエー那覇メインプレイス店,沖縄県那覇市おもろまち4丁目4-9　サンエー那覇メインプレイス 1F南口,26.221056,127.697216
0000000802,"",住之江北加賀屋ロードサイド店,大阪府大阪市住之江区北加賀屋二丁目3番23号,34.620038,135.480646
0000000803,"",よこはま動物園ズーラシア店,神奈川県横浜市旭区上白根町1175-1　アクアテラス内,35.491621,139.529718
0000000804,"",サンロード青森店,青森県青森市緑3丁目9-2　サンロード青森内1階サンホール前,40.805151,140.756709
0000000805,"",イオン白河西郷店,福島県西白河郡西郷村大字小田倉字岩下11-1　イオン白河西郷店2F,37.118167,140.181011
0000000806,"",新静岡セノバ店,静岡県静岡市葵区鷹匠1丁目1-1　3Fフードコート セノバキッチン内,34.972212,138.389828
0000000807,"",フレスポ鳥栖店,佐賀県鳥栖市本鳥栖町537-1,33.372684,130.519615
0000000808,"",イオンモール幕張新都心グランドモール店,千葉県千葉市美浜区豊砂1-1　イオンモール幕張新都心 グランドモール1階,35.649185,140.035287
0000000809,"",甲府昭和イトーヨーカドー店,山梨県中巨摩郡昭和町西条13-1　イトーヨーカドー甲府昭和店1F,35.636572,138.547308
0000000810,"",MEGAドン・キホーテUNY石和店,山梨県笛吹市石和町窪中島116-1,35.642501,138.635047
0000000812,"",ラザウォーク甲斐双葉店,山梨県甲斐市志田字柿木645-1番地 2F,35.681318,138.487156
0000000813,"",女池店,新潟県新潟市中央区女池上山2丁目1番10号,37.890228,139.033665
0000000814,"",イオン帯広店,北海道帯広市西四条南20-1　イオン帯広店内 1階フードコート,42.906351,143.204262
0000000815,"",イオンモール橿原店,奈良県橿原市曲川町7丁目20-1　イオンモール橿原2Fフードコート,34.502411,135.766217
0000000817,"",ゆめマートさが店,佐賀県佐賀市与賀町78　ゆめマートさが 入口横,33.245614,130.294051
0000000818,"",イオンモール四條畷店,大阪府四條畷市砂四丁目3-2　イオンモール四條畷 3Fフードコート,34.742969,135.631912
0000000819,"",レイクタウンアウトレット店,埼玉県越谷市レイクタウン4-1-1　3rd Ave. 1F,35.877936,139.829138
0000000820,"",イオンモール大和郡山店,奈良県大和郡山市下三橋町741　北小路コート1階,34.648228,135.804914
0000000821,"",イオンモール常滑店,愛知県常滑市りんくう町2丁目20-3　2階モール沿い イオン売場前,34.87757,136.829543
0000000822,"",ららぽーと海老名店,神奈川県海老名市扇町13番1号　ららぽーと海老名1階,35.453082,139.392555
0000000823,"",ららぽーとEXPOCITY店,大阪府吹田市千里万博公園2-1　ららぽーとEXPOCITY 3F,34.802235,135.538286
0000000824,"",アピタ磐田店,静岡県磐田市今之浦3-1-11　アピタ磐田2F,34.714956,137.860096
0000000825,"",イトーヨーカドー琴似店,北海道札幌市西区琴似2条1-4-1　イトーヨーカドー琴似店 B1階フードコート内,43.078333,141.309665
0000000827,"",トレッサ横浜店,神奈川県横浜市港北区師岡町700番地　トレッサ横浜　南棟1F,35.521141,139.648829
0000000828,"",武蔵小山店,東京都品川区荏原3-7-4,35.613826,139.710568
0000000829,"",イオン札幌元町ショッピングセンター店,北海道札幌市東区北31条東15-1-1　イオン札幌元町SC1F,43.099417,141.371709
0000000830,"",ゆめモール筑後店,福岡県筑後市前津 土地区画整理事業区域内10画地　ゆめマート 入口横,33.21371,130.515653
0000000831,"",ららぽーと立川立飛店,東京都立川市泉町935-1　ららぽーと立川立飛 3F,35.709548,139.421017
0000000832,"",天満屋ハピータウン岡南店,岡山県岡山市南区築港新町1丁目18-5　天満屋ハピータウン岡南店1F,34.600112,133.943743
0000000833,"",MEGAドン・キホーテUNY名張店,三重県名張市下比奈知字黒田3100番地の1,34.626028,136.128163
0000000837,"",フォレオ東仙台店,宮城県仙台市宮城野区東仙台4丁目14番8号　フォレオせんだい宮の杜内,38.27336,140.912823
0000000838,"",イオンタウン姶良店,鹿児島県姶良市西餅田264-1　イオンタウン姶良 A街区3Fフードコート,31.729335,130.629384
0000000839,"",イオンモール堺鉄砲町店,大阪府堺市堺区鉄砲町1番地　3Fフードコート,34.591243,135.484399
0000000840,"",イオン横浜新吉田店,神奈川県横浜市港北区新吉田東8-49-1,35.529063,139.615945
0000000842,"",アクロスガーデン別府店,大分県別府市船小路町6番10号　10号線 フェリーターミナル西,33.29872,131.505048
0000000843,"",柏マルイ店,千葉県柏市柏1-1-11,35.85846,139.97439
0000000844,"",セブンパーク アリオ柏店,千葉県柏市大島田1-6-1　セブンパーク アリオ柏3階,35.830121,140.01649
0000000845,"",イオンタウンユーカリが丘店,千葉県佐倉市西ユーカリが丘6-12-3　西街区 3Fフードコート,35.72294,140.15392
0000000846,"",イオンモール今治新都市店,愛媛県今治市にぎわい広場1番地1　イオンモール1F,34.040512,132.965045
0000000847,"",ラグーナテンボス店,愛知県蒲郡市海陽町2-2　ラグーナテンボス　フェスティバルマーケット1F,34.805321,137.276589
0000000848,"",須磨パティオ店,兵庫県神戸市須磨区中落合2丁目2-1　須磨パティオ1番館1F,34.675296,135.097694
0000000849,"",イオンモール出雲店,島根県出雲市渡橋町1066,35.364389,132.741806
0000000850,"",ゆめモール柳川店,福岡県柳川市三橋町蒲船津地内34街区　ゆめマート柳川内,33.157919,130.426472
0000000851,"",入間イオン店,埼玉県入間市上藤沢462-1　イオンスタイル入間1F,35.818944,139.39803
0000000852,"",ワカバウォーク店,埼玉県鶴ケ島市富士見1-2,35.946575,139.414626
0000000854,"",レイクウォーク岡谷店,長野県岡谷市銀座一丁目1-5　2Fフードコート内,36.062814,138.055222
0000000856,"",めいのはま店,福岡県福岡市西区内浜1丁目7番8号3　ウエストコート姪浜内,33.577889,130.325578
0000000857,"",徳島脇町ロードサイド店,徳島県美馬市脇町猪尻字建神社下南112-1　ドリームギフト脇町店 店頭,34.060909,134.162872
0000000859,"",二子玉川ライズ店,東京都世田谷区玉川二丁目21番1号　二子玉川ライズSC リバーフロント1F,35.608921,139.631831
0000000860,"",飯田橋ラムラ店,東京都新宿区神楽河岸1-1,35.697608,139.746864
0000000861,"",アイ・モール三好店,愛知県みよし市三好町青木88番地　2Fフードコート,35.089757,137.081512
0000000863,"",イオンモール旭川駅前店,北海道旭川市宮下通7丁目2番5号　イオンモール旭川駅前内 1階フードコート,43.761744,142.361183
0000000864,"",イオンモール旭川西店,北海道旭川市緑町23丁目2161-3 　イオンモール旭川西内2階フードコート,43.791525,142.330849
0000000865,"",イオン紋別店,北海道紋別市花園町3-4-39　イオン紋別 1Fフードコート,44.347172,143.351254
0000000866,"",イオン北見店,北海道北見市北進町1丁目1-1　イオン北見店内　1階フードコート,43.805808,143.879668
0000000867,"",ららぽーと湘南平塚店,神奈川県平塚市天沼10-1　ららぽーと湘南平塚1F,35.333293,139.358527
0000000868,"",ゆめタウン徳山店,山口県周南市青山町1-18　ゆめタウン徳山1F,34.039404,131.818442
0000000869,"",イオン東札幌店,北海道札幌市白石区東札幌3条2-1,43.050238,141.388985
0000000870,"",イオンモール長久手店,愛知県長久手市勝入塚501番地,35.170651,137.053841
0000000871,"",草加マルイ店,埼玉県草加市高砂2-9-1　草加マルイ＆アウトレット1F,35.825411,139.807983
0000000872,"",国分寺マルイ店,東京都国分寺市南町3-20-3　国分寺マルイ地下1階,35.696555,139.483572
0000000873,"",イトーヨーカドー四街道店,千葉県四街道市中央5番地　イトーヨーカドー四街道店1階,35.664503,140.168419
0000000874,"",ユニモちはら台店,千葉県市原市ちはら台西3-4　unimoちはら台 2階フードコート,35.524617,140.175103
0000000875,"",イオンタウンおゆみ野店,千葉県千葉市緑区おゆみ野南5-37-1　イオンタウンおゆみ野　2Fフードコート内,35.540689,140.176464
0000000876,"",イオンタウン館山店,千葉県館山市八幡545-1　フードコート内,35.004766,139.865317
0000000878,"",イオン稲毛店,千葉県千葉市稲毛区小仲台1-4-20　イオン稲毛店B1F,35.63343,140.098239
0000000880,"",新さっぽろカテプリ店,北海道札幌市厚別区厚別中央2条5丁目7番,43.035096,141.476822
0000000881,"",三軒茶屋店,東京都世田谷区三軒茶屋2-13-17,35.639926,139.673704
0000000882,"",エルパ福井店,福井県福井市大和田2丁目1212番地,36.092633,136.253166
0000000883,"",イオンモール岡山店,岡山県岡山市北区下石井1丁目2番1号　1階センターコート スタジオ横,34.658672,133.920268
0000000884,"",佐伯店,大分県佐伯市鶴岡西町2丁目153　サンリブ佐伯店内,32.957131,131.869646
0000000885,"",イオンモール新小松店,石川県小松市清六町315番地　イオンモール新小松 2階フードコート,36.392271,136.468468
0000000887,"",荻窪タウンセブン店,東京都杉並区上荻1-9-1　荻窪タウンセブン地下1階,35.701842,139.622814
0000000888,"",イーアス高尾店,東京都八王子市東浅川町550-1,35.640044,139.292313
0000000889,"",七隈サニー店,福岡県福岡市城南区七隈4-1-1,33.555018,130.362767
0000000890,"",木の葉モール橋本店,福岡県福岡市西区橋本2丁目27番2号,33.552698,130.324148
0000000891,"",イオン焼津店,静岡県焼津市東祢宜島12番地4,34.835656,138.312616
0000000895,"",LICOPA鶴見店,神奈川県横浜市鶴見区鶴見中央3-15-30　LICOPA鶴見店1F,35.505618,139.689382
0000000896,"",LECT店,広島県広島市西区扇2-1-45,34.369504,132.409059
0000000897,"",イオンモール徳島店,徳島県徳島市南末広町4番1号3階,34.059265,134.576258
0000000898,"",MIDORI長野店,長野県長野市南千歳1-22-6　MIDORI長野1F,36.640903,138.19199
0000000899,"",ヒルステップ生駒店,奈良県生駒市小明町261-4,34.706247,135.709159
0000000900,"",イオンモール神戸南店,兵庫県神戸市兵庫区中之島2丁目1番1号　1階キャナルマルシェ神戸うまいち内,34.662553,135.177551
0000000901,"",岐阜羽島店,岐阜県羽島市福寿町本郷千代田72,35.315963,136.687076
0000000902,"",甲府リバーシティ店,山梨県中央市山之神1122,35.611551,138.516506
0000000903,"",イオンモール甲府昭和店,山梨県中巨摩郡昭和町飯喰1505-1,35.619021,138.530707
0000000904,"",アピタ長津田店,神奈川県横浜市緑区長津田みなみ台4-7-1　2Ｆフードコート,35.515199,139.501844
0000000907,"",四日市ときわ店,三重県四日市市ときわ1-3-2,34.962245,136.602136
0000000908,"",四日市菰野店,三重県三重郡菰野町宿野南垣内68-2,35.001721,136.528521
0000000909,"",四日市生桑店,三重県四日市市生桑町304-1,34.983426,136.604027
0000000910,"",能見台イトーヨーカドー店,神奈川県横浜市金沢区能見台東3-1,35.355173,139.630501
0000000911,"",イオン大和ショッピングセンター店,神奈川県大和市渋谷6丁目6番地1　イオン大和SC　3階フードコート,35.431118,139.469584
0000000912,"",サンエー大湾シティ店,沖縄県中頭郡読谷村字大湾343　サンエー大湾シティ1階,26.372637,127.757786
0000000913,"",イオンスタイル豊田店,愛知県豊田市広路町1-1,35.075094,137.162959
0000000914,"",岡山西市ロードサイド店,岡山県岡山市南区西市398-5　県道21号線 岡山児島線沿い,34.631238,133.902757
0000000915,"",イオンモール松本店,長野県松本市中央4丁目9番51号　イオンモール松本 風庭３階フードコート内,36.230005,137.981763
0000000917,"",立川南口サザン店,東京都立川市柴崎町3-2-1,35.694204,139.417616
0000000918,"",鹿児島吉野店,鹿児島県鹿児島市吉野町3095-1,31.644678,130.572917
0000000919,"",島田アピタ店,静岡県島田市宝来町8-2　アピタ島田店1F,34.824169,138.187897
0000000920,"",ギャザ塩尻店,長野県塩尻市大字広丘野村1688-1　コミュニティーマーケットプレイス・GAZA内1階,36.146636,137.954948
0000000921,"",銀座INZ店,東京都中央区銀座西1丁目2番地先　銀座インズ3内,35.671948,139.768823
0000000923,"",プライムツリー赤池店,愛知県日進市赤池町箕ノ手1番　3F,35.114772,137.025616
0000000925,"",アステ川西店,兵庫県川西市栄町25-1　アステ川西 地下１階,34.823617,135.415697
0000000926,"",東京ドームシティラクーア店,東京都文京区春日1-1-1,35.703069,139.756786
0000000927,"",東京ドームシティアトラクションズ店,東京都文京区後楽1-3-61,35.701089,139.757749
0000000928,"",アリオ蘇我店,千葉県千葉市中央区川崎町52-7　アリオ蘇我1F,35.584225,140.126002
0000000929,"",神戸サウナビル店,兵庫県神戸市中央区下山手通2丁目2-10　神戸サウナビル1階,34.689587,135.193173
0000000930,"",イオンモール座間店,神奈川県座間市広野台２丁目10-4　イオンモール座間3階,35.497054,139.427759
0000000932,"",アピタテラス横浜綱島店,神奈川県横浜市港北区綱島東4丁目3番17号　アピタテラス横浜綱島1階,35.539216,139.644996
0000000934,"",イオン相模原SC店,神奈川県相模原市南区古淵 2-10-1　イオン相模原SC店内,35.55049,139.420311
0000000935,"",ニトリモール相模原店,神奈川県相模原市南区大野台6-1-1　1F,35.552123,139.4134
0000000936,"",あざみ野ガーデンズ店,神奈川県横浜市青葉区大場町704-11　あざみ野ガーデンズ テラス棟,35.568191,139.539179
0000000937,"",イオンモールいわき小名浜店,福島県いわき市小名浜字辰巳町79番地　イオンモールいわき小名浜内,36.943727,140.906604
0000000938,"",イオンモール堺北花田店,大阪府堺市北区東浅香山町4丁1-12　1F,34.581826,135.517858
0000000939,"",ペリエ千葉店,千葉県千葉市中央区新千葉1丁目1-1　ペリエ千葉ペリチカ（B1F）,35.609478,140.116862
0000000940,"",橋本ロードサイド店,和歌山県橋本市市脇3-361,34.311081,135.599935
0000000941,"",流山イトーヨーカドー店,千葉県流山市流山9-800-2,35.846921,139.902501
0000000942,"",ららぽーと新三郷店,埼玉県三郷市新三郷ららシティ3-1-1　ららぽーと新三郷2F,35.856243,139.869521
0000000943,"",AVIX福知山店,京都府福知山市東羽合町149番地,35.291353,135.117482
0000000944,"",ダイナシティ店,神奈川県小田原市中里208,35.280526,139.189079
0000000945,"",イオンモール秋田店,秋田県秋田市御所野地蔵田1-1-1,39.660573,140.164428
0000000946,"",イオンモール大曲店,秋田県大仙市大曲和合字坪立177番地1階,39.435386,140.512666
0000000948,"",東京タワー店,東京都港区芝公園4-2-8　東京タワービル2Ｆ,35.655343,139.748683
0000000949,"",小牧ロードサイド店,愛知県小牧市小牧2-36,35.29138,136.928156
0000000950,"",イオンスタイル仙台卸町店,宮城県仙台市若林区卸町一丁目1番1号　1Fフードコート,38.249386,140.922636
0000000951,"",コーナン港北インター店,神奈川県横浜市都筑区折本町118番地1　フードコート棟,35.519282,139.591054
0000000952,"",港北センター南サウスウッド店,神奈川県横浜市都筑区茅ヶ崎中央6番1号　サウスウッド1F,35.540795,139.577551
0000000953,"",野間大池店,福岡県福岡市南区野間4丁目1-14,33.554951,130.413592
0000000954,"",ららぽーと名古屋みなとアクルス店,愛知県名古屋市港区港明2丁目3番2号　3階,35.106153,136.886036
0000000955,"",明石大久保店,兵庫県明石市大久保町大窪1928-2,34.689879,134.945213
0000000956,"",マチノマ大森店,東京都大田区大森西3-1-38　マチノマ大森2F,35.571403,139.729488
0000000957,"",イオン品川シーサイド店,東京都品川区東品川4-12-5,35.607728,139.752361
0000000958,"",大井町イトーヨーカドー店,東京都品川区大井1-3-6　イトーヨーカドー大井町店2階,35.604048,139.737109
0000000959,"",伊勢小俣ロードサイド店,三重県伊勢市小俣町宮前296-1,34.48989,136.677186
0000000960,"",鈴鹿店,三重県鈴鹿市北玉垣町字中野801,34.863304,136.589951
0000000961,"",松阪アドバンスモール店,三重県松阪市田村町235-1,34.550106,136.517214
0000000962,"",ルビットタウン高山店,岐阜県高山市岡本町3-18-2,36.146504,137.250246
0000000963,"",イオンモール津南店,三重県津市高茶屋小森町145番地,34.667473,136.520587
0000000964,"",MARK IS 福岡ももち店,福岡県福岡市中央区地行浜2丁目2番1号,33.589242,130.366187
0000000965,"",イオンタウン津城山店,三重県津市久居小野辺町1130-7,34.676145,136.504407
0000000966,"",MEGAドン・キホーテUNY鈴鹿店,三重県鈴鹿市南玉垣町3628　MEGAドン・キホーテUNY鈴鹿店1F,34.849933,136.585069
0000000967,"",アピタ松阪三雲店,三重県松阪市市場庄町1266-1　アピタ松阪三雲店1F,34.600976,136.523376
0000000968,"",イオンモール鈴鹿店,三重県鈴鹿市庄野羽山4丁目1-2　イオンモール鈴鹿2Fフードコート内,34.868496,136.534576
0000000969,"",イオンモール明和店,三重県多気郡明和町中村1223　1F フードコート内,34.577957,136.616626
0000000971,"",新潟西アピタ店,新潟県新潟市西区小新5-7-21,37.878115,139.006465
0000000972,"",亀田アピタ店,新潟県新潟市江南区鵜ノ子4-466,37.868964,139.092459
0000000973,"",イオンモール新潟亀田インター店,新潟県新潟市江南区下早通柳田1-1-1,37.873435,139.084629
0000000974,"",村上プラザ店,新潟県村上市仲間町200　村上プラザ内1階,38.217912,139.49526
0000000975,"",イオンタウン伊勢ララパーク店,三重県伊勢市小木町曽祢538,34.503129,136.725027
0000000976,"",富山北店,富山県富山市新屋89（飯野新屋）,36.721068,137.254198
0000000977,"",イオン上越店,新潟県上越市富岡3457,37.150172,138.261535
0000000978,"",コモタウン新津店,新潟県新潟市秋葉区新津5163-3,37.802206,139.115898
0000000979,"",コモタウン柏崎店,新潟県柏崎市宝町1-84　ウオロク内,37.359355,138.564951
0000000980,"",MARK IS 静岡店,静岡県静岡市葵区柚木1026　MARK IS 静岡3F,34.981002,138.412563
0000000981,"",川崎ルフロン店,神奈川県川崎市川崎区日進町1-11（2Fフードコート）,35.52609,139.700012
0000000982,"",有田川ロードサイド店,和歌山県有田郡有田川町水尻字下西712-1,34.047653,135.193782
0000000983,"",イオン大塔店,長崎県佐世保市大塔町14-2　イオン大塔SC 1F,33.145372,129.782394
0000000984,"",イオンモール広島祇園店,広島県広島市安佐南区祇園3丁目2-1　イオンモール広島祇園 3Fフードコート入口,34.440528,132.463992
0000000985,"",アルパーク店,広島県広島市西区草津新町2-26-1　アルパーク東棟地下1F,34.370348,132.397315
0000000987,"",シャポー市川店,千葉県市川市市川1-1-1　シャポー市川B1F,35.725737,139.911138
0000000988,"",イオンモール高松店,香川県高松市香西本町1-1　イオンモール高松 1階,34.348765,134.006887
0000000989,"",浦添パルコシティ店,沖縄県浦添市西洲3-1-1,26.257866,127.699496
0000000990,"",ウニクス伊奈店,埼玉県北足立郡伊奈町学園2丁目188番地1　UNICUS伊奈1Ｆフードコート,36.006782,139.616396
0000000991,"",天保山マーケットプレース店,大阪府大阪市港区海岸通1-1-10　2階 フードコート,34.652526,135.433023
0000000992,"",ららぽーと沼津店,静岡県沼津市東椎路字東荒301番地3　ららぽーと沼津1階,35.116212,138.843861
0000000993,"",ジョイフル本田新田店,群馬県太田市新田市野井町556-1,36.298421,139.304423
0000000994,"",南町田グランベリーパーク店,東京都町田市鶴間3丁目4-1　南町田グランベリーパーク キッズディスカバリー フードピクニック内,35.506069,139.474496
0000000995,"",ダイバーシティ東京 プラザ店,東京都江東区青海1-1-10,35.621979,139.778904
0000000997,"",テラスモール松戸店,千葉県松戸市八ヶ崎2-8-1　テラスモール松戸1階,35.814502,139.935597
0000000999,"",イオン藤井寺ショッピングセンター店,大阪府藤井寺市岡二丁目10番11号,34.570636,135.596078
0000001000,"",イオンモール東員店,三重県員弁郡東員町大字長深字築田510番地1　イオンモール東員店 1F,35.059307,136.582451
0000001001,"",イオンモール桑名店,三重県桑名市新西方1-22　1番街1階 噴水の広場前,35.069023,136.665535
0000001003,"",イオン洲本店,兵庫県洲本市塩屋1-1-8,34.34099,134.895156
0000001004,"",洛北阪急スクエア店,京都府京都市左京区高野西開町36番地-2330,35.037899,135.781846
0000001006,"",イオンモール四日市北店,三重県四日市市富州原町2番40号　1Fフードコート内,35.004527,136.659961
0000001007,"",ゆめタウン東広島店,広島県東広島市西条土与丸1-5-7　ゆめタウン東広島店1F,34.424024,132.752488
0000001008,"",東久留米QURUNE店,東京都東久留米市野火止1-3-3　東久留米ショッピングセンター　クルネ1F,35.756511,139.514697
0000001009,"",イオンスタイル茨島店,秋田県秋田市茨島4-3-18,39.693246,140.101044
0000001011,"",みのおキューズモール店,大阪府箕面市西宿1-15-30　みのおキューズモール センター棟 2階フードコート,34.830021,135.492154
0000001012,"",横須賀Coaska Bayside Stores店,神奈川県横須賀市本町2丁目1-12,35.279999,139.665741
0000001013,"",エルミこうのす店,埼玉県鴻巣市本町1-1-2　1Fフードコート,36.056795,139.513039
0000001015,"",ららぽーと柏の葉店,千葉県柏市若柴175,35.890508,139.954344
0000001016,"",ひばりが丘パルコ店,東京都西東京市ひばりが丘1丁目1-1,35.748369,139.547365
0000001017,"",イクスピアリ店,千葉県浦安市舞浜1-4　イクスピアリ1F,35.63207,139.887683
0000001018,"",アミュプラザおおいた店,大分県大分市要町1-14　アミュプラザおおいた3階フードコート,33.229491,131.608384
0000001019,"",新百合ヶ丘店,神奈川県川崎市麻生区上麻生1-20-1　小田急アコルデ新百合ヶ丘2F,35.600072,139.51068
0000001020,"",イーサイト高崎店,群馬県高崎市八島町222　イーサイト高崎2F,36.319158,139.016397
0000001023,"",シーナシーナ屯田店,北海道札幌市北区屯田8条3-5-1　シーナシーナ屯田店内 1階フードコート,43.137833,141.344536
0000001024,"",イオンジェームス山店,兵庫県神戸市垂水区青山台7-7-1　イオンジェームス山1F,34.642933,135.078969
0000001025,"",薩摩川内店,鹿児島県薩摩川内市大小路町32-15　国道3号線 大小路交差点東,31.822511,130.302807
0000001026,"",酒々井プレミアム・アウトレット店,千葉県印旛郡酒々井町飯積2-4-1　フードコート内,35.710473,140.297625
0000001029,"",ヨークタウン新田東店,宮城県仙台市宮城野区新田東3-1-5,38.273446,140.939699
0000001031,"",イオンフードスタイル船堀店,東京都江戸川区船堀1-1-51,35.681742,139.865594
0000001032,"",イオン若松店,福岡県北九州市若松区二島1-3-1,33.888759,130.745561
0000001033,"",サンリブシティ小倉店,福岡県北九州市小倉南区上葛原2-14-1　サンリブシティ小倉1Fグリーンプラザ,33.83508,130.910503
0000001034,"",りんくうプレミアム・アウトレット店,大阪府泉佐野市りんくう往来南4-17-6900　シーサイドエリア平面駐車場前,34.404439,135.296401
0000001035,"",サンリブもりつね店,福岡県北九州市小倉南区守恒1丁目11-25　サンリブもりつね1F,33.833869,130.87783
0000001036,"",グランエミオ所沢店,埼玉県所沢市くすのき台1-14-5　1F,35.783424,139.47732
0000001037,"",ららぽーと愛知東郷店,愛知県愛知郡東郷町東郷中央土地区画整理事業62街区1・3,35.095706,137.049583
0000001038,"",夙川店,兵庫県西宮市久出ヶ谷町9-25,34.74263,135.329617
0000001039,"",イオンモール八幡東店,福岡県北九州市八幡東区東田3-2-102　イオンモール八幡東　3階フードコート,33.867044,130.814219
0000001040,"",イオンモール銚子店,千葉県銚子市三崎町2-2660-1　イオンモール銚子 2F,35.707001,140.791002
0000001041,"",鶴ケ峰そうてつローゼン店,神奈川県横浜市旭区鶴ケ峰2-82-1　相鉄ローゼン1F,35.471477,139.553209
0000001042,"",横浜四季の森フォレオ店,神奈川県横浜市旭区上白根3-41-1,35.495711,139.544069
0000001043,"",ららぽーと横浜店,神奈川県横浜市都筑区池辺町4035-1　ららぽーと横浜SC　1F,35.51444,139.569255
0000001044,"",日吉東急アベニュー店,神奈川県横浜市港北区日吉2-1-1,35.550604,139.65035
0000001045,"",渋谷マークシティ店,東京都渋谷区道玄坂1丁目12-1　イースト4F,35.654882,139.701659
0000001046,"",長良ロードサイド店,岐阜県岐阜市福光東2-1,35.450046,136.777979
0000001047,"",イオンモール上尾店,埼玉県上尾市愛宕3-8-1　イオンモール上尾 2Fフードコート内,35.961851,139.604283
0000001049,"",西葛西店,東京都江戸川区西葛西6-14　メトロセンター2番街,35.661281,139.862361
0000001050,"",目黒店,東京都品川区上大崎3-1-1,35.630107,139.719733
0000001051,"",ホワイティうめだ店,大阪府大阪市北区角田町2-2　梅田地下街,34.700755,135.502158
0000001052,"",デックス東京ビーチ店,東京都港区台場1-6-1　デックス東京ビーチ内 アイランドモール3階,35.625859,139.779014
0000001104,"",五反田東急スクエア店,東京都品川区東五反田2-1-2,35.622318,139.727726
0000001154,"",セルバテラス店,宮城県仙台市泉区泉中央1-6-3,38.321301,140.88443
